{"type": "FeatureCollection", "features": [{"type": "Feature", "geometry": {"type": "Polygon", "coordinates": [[[-84.36142279681484, 33.700071119309925], [-84.36155736014395, 33.70019474412086], [-84.36161879711044, 33.70024110972984], [-84.36175234564024, 33.70036380152043], [-84.36208451241717, 33.700568897162135], [-84.36271678834808, 33.701046055975745], [-84.36329007046567, 33.70157271371727], [-84.36379883756466, 33.70214379923032], [-84.36408141472454, 33.70253614224804], [-84.36446680957843, 33.7028269705894], [-84.36504011421947, 33.70335361997678], [-84.36525016063877, 33.703589382650314], [-84.36529126464605, 33.70362039979385], [-84.36546424347034, 33.703706677275804], [-84.36614947244072, 33.704129719741466], [-84.36668844786894, 33.704536418778815], [-84.36689945745724, 33.70466668692497], [-84.36746734281456, 33.70509519160002], [-84.36787716227633, 33.7052995851861], [-84.3685624156946, 33.70572261406879], [-84.36864201703165, 33.70578267592787], [-84.36861720562337, 33.7057250757976], [-84.36848855867831, 33.7054988880936], [-84.36819999231092, 33.704828965568474], [-84.3679913847275, 33.70413862869622], [-84.36796167276817, 33.70397343709297], [-84.36793246466286, 33.703932887564754], [-84.36775316137731, 33.70361762315727], [-84.3671294258932, 33.7034881165169], [-84.36632677624952, 33.70324954558046], [-84.365555974717, 33.702946363092806], [-84.36482444585577, 33.702581489516504], [-84.36413923567463, 33.70215843952728], [-84.36350694373613, 33.70168128813711], [-84.36349027391346, 33.70166597426561], [-84.3630149407372, 33.701307264062976], [-84.36244166206343, 33.700780605009776], [-84.36193291199795, 33.70020951372065], [-84.36149358949974, 33.699599490932336], [-84.36139849725393, 33.69943225747729], [-84.3617392475533, 33.69896884840626], [-84.36226137258951, 33.69839531509106], [-84.3628489888744, 33.69786790510914], [-84.3634962983691, 33.69739182141948], [-84.36419691447868, 33.696971760559414], [-84.36446276003649, 33.69684368253977], [-84.36464027441022, 33.696501913956084], [-84.36506343476113, 33.6958689331458], [-84.36556006159168, 33.69527441665961], [-84.36612519391049, 33.69472430159975], [-84.36675318692366, 33.69422408154772], [-84.36743776842746, 33.693778751730406], [-84.36817210145041, 33.693392759164205], [-84.36894885251887, 33.693069958273554], [-84.36976026486558, 33.692813572425806], [-84.37059823585095, 33.69262616176539], [-84.37145439782644, 33.69250959766728], [-84.37211015164378, 33.69247585363776], [-84.3725564928944, 33.69213092004044], [-84.37325615573597, 33.69169066967454], [-84.37400532126155, 33.69131158990812], [-84.37479636413741, 33.69099753888025], [-84.37562123310363, 33.6907517128508], [-84.37647153287739, 33.69057661369218], [-84.37733860954528, 33.69047402344472], [-84.37821363857819, 33.69044498619355], [-84.37888279840054, 33.690451019086154], [-84.37928292561249, 33.690292216436454], [-84.38007722088344, 33.690052884405986], [-84.38089557259404, 33.68987919317953], [-84.38173023845857, 33.68977278599212], [-84.38257332196414, 33.68973466951875], [-84.38479313542065, 33.68972467108788], [-84.38495583887999, 33.689725211523836], [-84.38854186763858, 33.68976516858858], [-84.38949811734172, 33.68977512984712], [-84.39036466227023, 33.68982045508646], [-84.39122145628711, 33.689937919186036], [-84.39205992765648, 33.690126346979255], [-84.3928716878166, 33.69038385334099], [-84.39364861524759, 33.690707862034174], [-84.39395635071577, 33.69087015778061], [-84.39972777148074, 33.69079580079349], [-84.39976584186577, 33.69079510242067], [-84.40093322967138, 33.690471303910634], [-84.40111045078537, 33.69041961487312], [-84.40140956338143, 33.69033742985701], [-84.40143878821772, 33.69032988806365], [-84.40145794577566, 33.69032327209976], [-84.40203790560143, 33.69015328556739], [-84.40285452882455, 33.6899509477429], [-84.4036909415491, 33.68981648764887], [-84.40453909094897, 33.689751199825906], [-84.40539081128695, 33.6897557128382], [-84.40623790247388, 33.6898299832268], [-84.40707220895723, 33.68997329592804], [-84.40788569818247, 33.690184271153164], [-84.40867053787443, 33.69046087766339], [-84.40941917139756, 33.690800452312764], [-84.41012439047141, 33.69119972567144], [-84.41077940454367, 33.69165485348345], [-84.41137790615404, 33.692161453657185], [-84.41191413166078, 33.692714648433366], [-84.41238291674563, 33.693309111325746], [-84.41277974616264, 33.69393911838373], [-84.4131007972512, 33.69459860328443], [-84.41334297679289, 33.695281215724904], [-84.41350395085588, 33.69598038255308], [-84.41358216733686, 33.69668937104979], [-84.4135768709813, 33.69740135375306], [-84.4134881107343, 33.698109474200784], [-84.41341275762869, 33.69841614393744], [-84.41304189121684, 33.70015074998261], [-84.41269528981829, 33.70218318742976], [-84.41263340490175, 33.70343890801353], [-84.41261230133748, 33.7037273162969], [-84.41247428698586, 33.70514835876312], [-84.4124660210028, 33.70523938502615], [-84.41228756431836, 33.70625149491201], [-84.41205487595319, 33.707134100869936], [-84.4115920226309, 33.708956676144965], [-84.41139238790487, 33.70959729609667], [-84.41073254311704, 33.711377339099116], [-84.41067090540456, 33.71153705493208], [-84.41015275055811, 33.712828360788706], [-84.41010329703363, 33.71297676421863], [-84.40983824444982, 33.71364487799047], [-84.40949696663894, 33.71428838298794], [-84.40869705664409, 33.71561843213257], [-84.408198296184, 33.71634095195011], [-84.40698697091571, 33.717883422602405], [-84.40691119436016, 33.71807290743151], [-84.40641333649022, 33.71947466405389], [-84.40600785725441, 33.72038691887479], [-84.40537794342023, 33.72155695832735], [-84.40507415986245, 33.72206673668846], [-84.4047234608069, 33.722555034287716], [-84.40385351482296, 33.72366508450775], [-84.4033561123971, 33.724236895042544], [-84.40279446957223, 33.72476554167781], [-84.40217391773888, 33.72524600517933], [-84.40150034789988, 33.72567372370721], [-84.40078015474216, 33.726044636152515], [-84.40002017591218, 33.72635522071972], [-84.39922762707263, 33.726602528387076], [-84.39841003335795, 33.72678421092671], [-84.39757515788119, 33.726898543216976], [-84.396730927973, 33.72694443963503], [-84.39588535985565, 33.726921464372815], [-84.39504648246968, 33.72682983557867], [-84.39491574669528, 33.72680455043451], [-84.39439561016628, 33.727014433834405], [-84.39301365167735, 33.72769358230901], [-84.39258493605664, 33.727912320392186], [-84.39251863547726, 33.72794580949068], [-84.38951849768539, 33.72944591684879], [-84.3894708126202, 33.72946958649766], [-84.38878078028453, 33.729809610928655], [-84.38808374657737, 33.73011831712707], [-84.38774484035453, 33.7302523057547], [-84.38752491651532, 33.730344533493124], [-84.38679057454262, 33.73061770240337], [-84.38630054214559, 33.73077771489839], [-84.38556706695745, 33.730986210058326], [-84.38519703967852, 33.73107621733715], [-84.38496917005638, 33.731128844264475], [-84.38464914585585, 33.73119884997958], [-84.3842047886209, 33.731285695318185], [-84.38391476578447, 33.73133569947185], [-84.38370931353224, 33.73136897057394], [-84.38337928715266, 33.731418974760444], [-84.38245819154334, 33.73151638334131], [-84.38212816401015, 33.73153638510478], [-84.3820981459671, 33.73153816066242], [-84.3815781025477, 33.73156816331621], [-84.38098001896023, 33.731585395258094], [-84.38056999963197, 33.73158539539295], [-84.38025998866226, 33.73158539549471], [-84.38013710118491, 33.731584668770914], [-84.37847996810605, 33.731565058514235], [-84.37677139670349, 33.731555671639114], [-84.37616509189479, 33.731561502360734], [-84.37600320545262, 33.73161146733358], [-84.37355329454692, 33.732375848197144], [-84.3715288578754, 33.733024461204], [-84.37071473113892, 33.7332474686446], [-84.36987826141618, 33.73340235560778], [-84.36902759302238, 33.733487614010606], [-84.36817100862498, 33.73350241371331], [-84.36731684853893, 33.73344661060819], [-84.36647342945832, 33.733320748024205], [-84.36564896341908, 33.73312605143305], [-84.36485147778417, 33.7328644165088], [-84.36408873703348, 33.73253839065757], [-84.36336816712243, 33.732151148197715], [-84.36269678314774, 33.731706459433205], [-84.36208112102659, 33.731208653921954], [-84.36152717385538, 33.73066257829818], [-84.36104033356824, 33.730073549060435], [-84.36062533846369, 33.72944730078629], [-84.36028622710933, 33.728789930278836], [-84.36002629907226, 33.728107837190336], [-84.35984808285598, 33.72740766170164], [-84.35975331135346, 33.72669621986532], [-84.35974290505311, 33.72598043724251], [-84.35975976679784, 33.725601905475585], [-84.35977704483551, 33.724776548606805], [-84.35977705559532, 33.72466969473564], [-84.35977725447829, 33.724621194879106], [-84.35978718390416, 33.72339544473566], [-84.35978724791602, 33.72275969466667], [-84.35978890112641, 33.722618727199425], [-84.35980771420755, 33.721813251957975], [-84.35981752740409, 33.719983740081126], [-84.35981753485834, 33.719909694805], [-84.35981801612711, 33.7198339115248], [-84.35983650870696, 33.718366325761004], [-84.35913638607191, 33.71794754501232], [-84.35819608352818, 33.71739497794597], [-84.35777575596127, 33.71713173609806], [-84.35768576687664, 33.71707174095406], [-84.35736374859927, 33.71685705391041], [-84.35638738519222, 33.71626607558205], [-84.35638951666839, 33.716263616405975], [-84.35623632235618, 33.71617771856009], [-84.3555458786815, 33.7156971026841], [-84.35542192985488, 33.71560131925246], [-84.35497060718245, 33.715273068820835], [-84.35497599552538, 33.71526789490312], [-84.35459404909005, 33.71498687408734], [-84.3540190360334, 33.714473009796805], [-84.35350628802337, 33.71391501776326], [-84.35306062576795, 33.71331814540964], [-84.35268623882692, 33.71268800568423], [-84.35238664625102, 33.71203052425615], [-84.35216466353852, 33.71135188377344], [-84.35202237621736, 33.71065846570881], [-84.3519611202998, 33.70995679034085], [-84.35198146979045, 33.70925345543523], [-84.35208323136294, 33.7085550742034], [-84.35226544625222, 33.707868213121685], [-84.35252639934204, 33.707199330195884], [-84.3528636353593, 33.70655471425144], [-84.35327398202071, 33.7059404258194], [-84.35375357991155, 33.7053622401735], [-84.354297918814, 33.70482559305302], [-84.35490188014168, 33.70433552958094], [-84.3579146861231, 33.70211752720134], [-84.35806987804112, 33.701970346173255], [-84.3587234276979, 33.70146566885035], [-84.3610884758982, 33.69981880959743], [-84.36142279681484, 33.700071119309925]]]}, "properties": {"kind": "walkshed", "buffer_mi": 0.5}}, {"type": "Feature", "geometry": {"type": "Point", "coordinates": [-84.392918, 33.72734]}, "properties": {"kind": "stop", "name": "PRYOR RD SW@RIDGE AVE SW", "mode": "bus"}}, {"type": "Feature", "geometry": {"type": "Point", "coordinates": [-84.384465, 33.730353]}, "properties": {"kind": "stop", "name": "ATLANTA AVE SE @ MARTIN ST SE", "mode": "bus"}}, {"type": "Feature", "geometry": {"type": "Point", "coordinates": [-84.38328, 33.730335]}, "properties": {"kind": "stop", "name": "ATLANTA AVE SE @ GREENFIELD AVE SE", "mode": "bus"}}, {"type": "Feature", "geometry": {"type": "Point", "coordinates": [-84.386345, 33.730352]}, "properties": {"kind": "stop", "name": "ATLANTA AVE SE @ FRASER ST SE", "mode": "bus"}}, {"type": "Feature", "geometry": {"type": "Point", "coordinates": [-84.39295, 33.727117]}, "properties": {"kind": "stop", "name": "PRYOR RD SW@RIDGE AVE SW", "mode": "bus"}}, {"type": "Feature", "geometry": {"type": "Point", "coordinates": [-84.38816, 33.72916]}, "properties": {"kind": "stop", "name": "HANK AARON DR@VANIRA AVE SE", "mode": "bus"}}, {"type": "Feature", "geometry": {"type": "Point", "coordinates": [-84.387825, 33.728989]}, "properties": {"kind": "stop", "name": "HANK AARON DR@VANIRA AVE SE", "mode": "bus"}}, {"type": "Feature", "geometry": {"type": "Point", "coordinates": [-84.388199, 33.728348]}, "properties": {"kind": "stop", "name": "HANK AARON DR@964", "mode": "bus"}}, {"type": "Feature", "geometry": {"type": "Point", "coordinates": [-84.387802, 33.728317]}, "properties": {"kind": "stop", "name": "HANK AARON DR@955", "mode": "bus"}}, {"type": "Feature", "geometry": {"type": "Point", "coordinates": [-84.388059, 33.726645]}, "properties": {"kind": "stop", "name": "HANK AARON DR SW@HAYGOOD AVE SW", "mode": "bus"}}, {"type": "Feature", "geometry": {"type": "Point", "coordinates": [-84.387961, 33.726421]}, "properties": {"kind": "stop", "name": "HANK AARON DR SW @ HAYGOOD AVE SW", "mode": "bus"}}, {"type": "Feature", "geometry": {"type": "Point", "coordinates": [-84.387537, 33.730317]}, "properties": {"kind": "stop", "name": "ATLANTA AVE SE @ HANK AARON DR", "mode": "bus"}}, {"type": "Feature", "geometry": {"type": "Point", "coordinates": [-84.368358, 33.732314]}, "properties": {"kind": "stop", "name": "BOULEVARD SE@DELMAR AVE SE", "mode": "bus"}}, {"type": "Feature", "geometry": {"type": "Point", "coordinates": [-84.36838, 33.730515]}, "properties": {"kind": "stop", "name": "BOULEVARD SE@ATLANTA AVE SE", "mode": "bus"}}, {"type": "Feature", "geometry": {"type": "Point", "coordinates": [-84.363228, 33.72756]}, "properties": {"kind": "stop", "name": "UNITED AVE @ EDIE AVE SE", "mode": "bus"}}, {"type": "Feature", "geometry": {"type": "Point", "coordinates": [-84.364348, 33.729287]}, "properties": {"kind": "stop", "name": "UNITED AVE @ CHARLES BANK AVE", "mode": "bus"}}, {"type": "Feature", "geometry": {"type": "Point", "coordinates": [-84.378669, 33.725558]}, "properties": {"kind": "stop", "name": "HILL ST SE@1059", "mode": "bus"}}, {"type": "Feature", "geometry": {"type": "Point", "coordinates": [-84.380866, 33.730256]}, "properties": {"kind": "stop", "name": "ATLANTA AVE SE @ CONNALLY ST SE", "mode": "bus"}}, {"type": "Feature", "geometry": {"type": "Point", "coordinates": [-84.379976, 33.730301]}, "properties": {"kind": "stop", "name": "ATLANTA AVE SE @ GRANT TER SE", "mode": "bus"}}, {"type": "Feature", "geometry": {"type": "Point", "coordinates": [-84.373533, 33.731219]}, "properties": {"kind": "stop", "name": "CHEROKEE AVE @ ORMOND ST", "mode": "bus"}}, {"type": "Feature", "geometry": {"type": "Point", "coordinates": [-84.373652, 33.731423]}, "properties": {"kind": "stop", "name": "CHEROKEE AVE @ ORMOND ST", "mode": "bus"}}, {"type": "Feature", "geometry": {"type": "Point", "coordinates": [-84.408019, 33.71201]}, "properties": {"kind": "stop", "name": "METROPOLITAN PKY SW @ 1577", "mode": "bus"}}, {"type": "Feature", "geometry": {"type": "Point", "coordinates": [-84.407956, 33.714423]}, "properties": {"kind": "stop", "name": "METROPOLITAN PKY SW@DECKNER AVE SW", "mode": "bus"}}, {"type": "Feature", "geometry": {"type": "Point", "coordinates": [-84.408058, 33.716171]}, "properties": {"kind": "stop", "name": "METROPOLITAN PKY SW@GENESSEE AVE SW", "mode": "bus"}}, {"type": "Feature", "geometry": {"type": "Point", "coordinates": [-84.407806, 33.713963]}, "properties": {"kind": "stop", "name": "METROPOLITAN PKY SW@DECKNER AVE SW", "mode": "bus"}}, {"type": "Feature", "geometry": {"type": "Point", "coordinates": [-84.407776, 33.715893]}, "properties": {"kind": "stop", "name": "METROPOLITAN PKY SW@LYNNHAVEN DR SW", "mode": "bus"}}, {"type": "Feature", "geometry": {"type": "Point", "coordinates": [-84.401674, 33.724238]}, "properties": {"kind": "stop", "name": "MCDANIEL ST SW@ROY ST SW", "mode": "bus"}}, {"type": "Feature", "geometry": {"type": "Point", "coordinates": [-84.401726, 33.722161]}, "properties": {"kind": "stop", "name": "MCDANIEL ST SW @ UNIVERSITY AVE SW", "mode": "bus"}}, {"type": "Feature", "geometry": {"type": "Point", "coordinates": [-84.399739, 33.712692]}, "properties": {"kind": "stop", "name": "LINCOLN ST SW@THORNTON ST", "mode": "bus"}}, {"type": "Feature", "geometry": {"type": "Point", "coordinates": [-84.392371, 33.72631]}, "properties": {"kind": "stop", "name": "RIDGE AVE SW @ PULLIAM ST SW", "mode": "bus"}}, {"type": "Feature", "geometry": {"type": "Point", "coordinates": [-84.390471, 33.724961]}, "properties": {"kind": "stop", "name": "WEYMAN AVE SW @ RIDGE AVE SW", "mode": "bus"}}, {"type": "Feature", "geometry": {"type": "Point", "coordinates": [-84.388406, 33.724989]}, "properties": {"kind": "stop", "name": "WEYMAN AVE SW@HANK AARON DR SW", "mode": "bus"}}, {"type": "Feature", "geometry": {"type": "Point", "coordinates": [-84.385275, 33.723367]}, "properties": {"kind": "stop", "name": "MILTON AVE SE @ 79", "mode": "bus"}}, {"type": "Feature", "geometry": {"type": "Point", "coordinates": [-84.384773, 33.722984]}, "properties": {"kind": "stop", "name": "MILTON AVE SE@79", "mode": "bus"}}, {"type": "Feature", "geometry": {"type": "Point", "coordinates": [-84.390764, 33.725032]}, "properties": {"kind": "stop", "name": "WEYMAN AVE SW@RIDGE AVE SW", "mode": "bus"}}, {"type": "Feature", "geometry": {"type": "Point", "coordinates": [-84.392156, 33.72641]}, "properties": {"kind": "stop", "name": "RIDGE AVE SW @ PULLIAM ST", "mode": "bus"}}, {"type": "Feature", "geometry": {"type": "Point", "coordinates": [-84.393469, 33.722253]}, "properties": {"kind": "stop", "name": "PRYOR RD SW @ UNIVERSITY AVE SW", "mode": "bus"}}, {"type": "Feature", "geometry": {"type": "Point", "coordinates": [-84.393593, 33.720848]}, "properties": {"kind": "stop", "name": "PRYOR RD SW@UNIVERSITY AVE", "mode": "bus"}}, {"type": "Feature", "geometry": {"type": "Point", "coordinates": [-84.382866, 33.714062]}, "properties": {"kind": "stop", "name": "JONESBORO RD SE@MILLER REED AVE SE", "mode": "bus"}}, {"type": "Feature", "geometry": {"type": "Point", "coordinates": [-84.383225, 33.714948]}, "properties": {"kind": "stop", "name": "JONESBORO RD SE@HARRIETT ST SE", "mode": "bus"}}, {"type": "Feature", "geometry": {"type": "Point", "coordinates": [-84.384295, 33.717439]}, "properties": {"kind": "stop", "name": "JONESBORO RD SE@BISBEE AVE SE", "mode": "bus"}}, {"type": "Feature", "geometry": {"type": "Point", "coordinates": [-84.384956, 33.719056]}, "properties": {"kind": "stop", "name": "JONESBORO RD SE @ MCDONOUGH BLVD SE", "mode": "bus"}}, {"type": "Feature", "geometry": {"type": "Point", "coordinates": [-84.38625, 33.720228]}, "properties": {"kind": "stop", "name": "MCDONOUGH BLVD SE@MARCY ST SE", "mode": "bus"}}, {"type": "Feature", "geometry": {"type": "Point", "coordinates": [-84.386424, 33.720237]}, "properties": {"kind": "stop", "name": "MCDONOUGH BLVD SE@MARCY ST SE", "mode": "bus"}}, {"type": "Feature", "geometry": {"type": "Point", "coordinates": [-84.385248, 33.719205]}, "properties": {"kind": "stop", "name": "MCDONOUGH BLVD SE@JONESBORO RD SE", "mode": "bus"}}, {"type": "Feature", "geometry": {"type": "Point", "coordinates": [-84.384869, 33.718608]}, "properties": {"kind": "stop", "name": "JONESBORO RD SE@GAMMON AVE SE", "mode": "bus"}}, {"type": "Feature", "geometry": {"type": "Point", "coordinates": [-84.384466, 33.71766]}, "properties": {"kind": "stop", "name": "JONESBORO RD SE@MARTIN AVE SE", "mode": "bus"}}, {"type": "Feature", "geometry": {"type": "Point", "coordinates": [-84.383367, 33.715118]}, "properties": {"kind": "stop", "name": "JONESBORO RD SE@THIRKIELD AVE SE", "mode": "bus"}}, {"type": "Feature", "geometry": {"type": "Point", "coordinates": [-84.383008, 33.714286]}, "properties": {"kind": "stop", "name": "JONESBORO RD SE@BROWN AVE SE", "mode": "bus"}}, {"type": "Feature", "geometry": {"type": "Point", "coordinates": [-84.38218, 33.711574]}, "properties": {"kind": "stop", "name": "JONESBORO RD SE@MELDON AVE SE", "mode": "bus"}}, {"type": "Feature", "geometry": {"type": "Point", "coordinates": [-84.38267, 33.713283]}, "properties": {"kind": "stop", "name": "JONESBORO RD SE@MOURY AVE SE", "mode": "bus"}}, {"type": "Feature", "geometry": {"type": "Point", "coordinates": [-84.393443, 33.718541]}, "properties": {"kind": "stop", "name": "PRYOR RD SW@MANFORD RD SW", "mode": "bus"}}, {"type": "Feature", "geometry": {"type": "Point", "coordinates": [-84.393326, 33.72047]}, "properties": {"kind": "stop", "name": "PRYOR RD SW@UNIVERSITY AVE", "mode": "bus"}}, {"type": "Feature", "geometry": {"type": "Point", "coordinates": [-84.39339, 33.71817]}, "properties": {"kind": "stop", "name": "PRYOR RD SW@MANFORD RD SW", "mode": "bus"}}, {"type": "Feature", "geometry": {"type": "Point", "coordinates": [-84.393862, 33.714101]}, "properties": {"kind": "stop", "name": "ARTHUR LANGFORD JR PL SW @ PRYOR RD SW", "mode": "bus"}}, {"type": "Feature", "geometry": {"type": "Point", "coordinates": [-84.395764, 33.714153]}, "properties": {"kind": "stop", "name": "ARTHUR LANGFORD JR PL SW @ 220", "mode": "bus"}}, {"type": "Feature", "geometry": {"type": "Point", "coordinates": [-84.397676, 33.713857]}, "properties": {"kind": "stop", "name": "ARTHUR LANGFORD JR PL SW @ JOYLAND PL", "mode": "bus"}}, {"type": "Feature", "geometry": {"type": "Point", "coordinates": [-84.397893, 33.713078]}, "properties": {"kind": "stop", "name": "LINCOLN ST SW @ ARTHUR LANGFORD JR PL SW", "mode": "bus"}}, {"type": "Feature", "geometry": {"type": "Point", "coordinates": [-84.395786, 33.714207]}, "properties": {"kind": "stop", "name": "ARTHUR LANGFORD JR PL SW @ BOWEN CIR SW", "mode": "bus"}}, {"type": "Feature", "geometry": {"type": "Point", "coordinates": [-84.394147, 33.7142]}, "properties": {"kind": "stop", "name": "ARTHUR LANGFORD JR PL SW @ PRYOR RD SW", "mode": "bus"}}, {"type": "Feature", "geometry": {"type": "Point", "coordinates": [-84.39336, 33.71308]}, "properties": {"kind": "stop", "name": "PRYOR RD SW@THIRKELD AVE", "mode": "bus"}}, {"type": "Feature", "geometry": {"type": "Point", "coordinates": [-84.381439, 33.716846]}, "properties": {"kind": "stop", "name": "LAKEWOOD AVE SE@MCDONOUGH BLVD SE", "mode": "bus"}}, {"type": "Feature", "geometry": {"type": "Point", "coordinates": [-84.381668, 33.715687]}, "properties": {"kind": "stop", "name": "LAKEWOOD AVE SE@HARRIETT ST SE", "mode": "bus"}}, {"type": "Feature", "geometry": {"type": "Point", "coordinates": [-84.381203, 33.715435]}, "properties": {"kind": "stop", "name": "LAKEWOOD AVE SE@HARRIETT ST SE", "mode": "bus"}}, {"type": "Feature", "geometry": {"type": "Point", "coordinates": [-84.38131, 33.714512]}, "properties": {"kind": "stop", "name": "LAKEWOOD AVE SE@MILLER REED AVE SE", "mode": "bus"}}, {"type": "Feature", "geometry": {"type": "Point", "coordinates": [-84.393568, 33.713457]}, "properties": {"kind": "stop", "name": "PRYOR RD@THIRKELD AVE", "mode": "bus"}}, {"type": "Feature", "geometry": {"type": "Point", "coordinates": [-84.399054, 33.711725]}, "properties": {"kind": "stop", "name": "THORNTON ST@THORNTON PL", "mode": "bus"}}, {"type": "Feature", "geometry": {"type": "Point", "coordinates": [-84.388406, 33.72506]}, "properties": {"kind": "stop", "name": "WEYMAN AVE@HANK AARON DR", "mode": "bus"}}, {"type": "Feature", "geometry": {"type": "Point", "coordinates": [-84.368324, 33.725974]}, "properties": {"kind": "stop", "name": "BOULEVARD SE @ HAMILTON AVE SE", "mode": "bus"}}, {"type": "Feature", "geometry": {"type": "Point", "coordinates": [-84.377881, 33.716571]}, "properties": {"kind": "stop", "name": "MCDONOUGH BLVD SE@GRANT ST SE", "mode": "bus"}}, {"type": "Feature", "geometry": {"type": "Point", "coordinates": [-84.376783, 33.715909]}, "properties": {"kind": "stop", "name": "MCDONOUGH BLVD SE@ MILLER REED AVE S", "mode": "bus"}}, {"type": "Feature", "geometry": {"type": "Point", "coordinates": [-84.373804, 33.714039]}, "properties": {"kind": "stop", "name": "MCDONOUGH BLVD SE@SAWTELL AVE SE", "mode": "bus"}}, {"type": "Feature", "geometry": {"type": "Point", "coordinates": [-84.370066, 33.713808]}, "properties": {"kind": "stop", "name": "MCDONOUGH BLVD SE@PARK AVE SE", "mode": "bus"}}, {"type": "Feature", "geometry": {"type": "Point", "coordinates": [-84.368067, 33.71363]}, "properties": {"kind": "stop", "name": "MCDONOUGH BLVD SE@BOULEVARD  SE", "mode": "bus"}}, {"type": "Feature", "geometry": {"type": "Point", "coordinates": [-84.366698, 33.713201]}, "properties": {"kind": "stop", "name": "MCDONOUGH BLVD SE@BENTEEN AVE SE", "mode": "bus"}}, {"type": "Feature", "geometry": {"type": "Point", "coordinates": [-84.365372, 33.712691]}, "properties": {"kind": "stop", "name": "MCDONOUGH BLVD SE @ FUNSTON AVE SE", "mode": "bus"}}, {"type": "Feature", "geometry": {"type": "Point", "coordinates": [-84.3666, 33.713254]}, "properties": {"kind": "stop", "name": "MCDONOUGH BLVD SE @ BENTEEN AVE SE", "mode": "bus"}}, {"type": "Feature", "geometry": {"type": "Point", "coordinates": [-84.368349, 33.713827]}, "properties": {"kind": "stop", "name": "MCDONOUGH BLVD SE @ BOULEVARD  SE", "mode": "bus"}}, {"type": "Feature", "geometry": {"type": "Point", "coordinates": [-84.372392, 33.713825]}, "properties": {"kind": "stop", "name": "MCDONOUGH BLVD SE @ GAULT ST SE", "mode": "bus"}}, {"type": "Feature", "geometry": {"type": "Point", "coordinates": [-84.374033, 33.714272]}, "properties": {"kind": "stop", "name": "MCDONOUGH BLVD SE@SAWTELL AVE", "mode": "bus"}}, {"type": "Feature", "geometry": {"type": "Point", "coordinates": [-84.375522, 33.715095]}, "properties": {"kind": "stop", "name": "MCDONOUGH BLVD SE @ ERIC ST SE", "mode": "bus"}}, {"type": "Feature", "geometry": {"type": "Point", "coordinates": [-84.376564, 33.715858]}, "properties": {"kind": "stop", "name": "MCDONOUGH BLVD SE@MILLER REED AVE S", "mode": "bus"}}, {"type": "Feature", "geometry": {"type": "Point", "coordinates": [-84.377772, 33.716607]}, "properties": {"kind": "stop", "name": "MCDONOUGH BLVD SE @ GRANT ST SE", "mode": "bus"}}, {"type": "Feature", "geometry": {"type": "Point", "coordinates": [-84.375472, 33.721934]}, "properties": {"kind": "stop", "name": "ENGLEWOOD AVE SE @ MAILING AVE SE", "mode": "bus"}}, {"type": "Feature", "geometry": {"type": "Point", "coordinates": [-84.37056, 33.721936]}, "properties": {"kind": "stop", "name": "ENGLEWOOD AVE SE@GAULT ST SE", "mode": "bus"}}, {"type": "Feature", "geometry": {"type": "Point", "coordinates": [-84.365287, 33.71714]}, "properties": {"kind": "stop", "name": "CUSTER AVE SE @ FUNSTON AVE SE", "mode": "bus"}}, {"type": "Feature", "geometry": {"type": "Point", "coordinates": [-84.368004, 33.717175]}, "properties": {"kind": "stop", "name": "CUSTER AVE SE @ BOULEVARD SE", "mode": "bus"}}, {"type": "Feature", "geometry": {"type": "Point", "coordinates": [-84.370669, 33.721981]}, "properties": {"kind": "stop", "name": "ENGLEWOOD AVE SE@GAULT ST SE", "mode": "bus"}}, {"type": "Feature", "geometry": {"type": "Point", "coordinates": [-84.373665, 33.722042]}, "properties": {"kind": "stop", "name": "ENGLEWOOD AVE SE@460", "mode": "bus"}}, {"type": "Feature", "geometry": {"type": "Point", "coordinates": [-84.375635, 33.722032]}, "properties": {"kind": "stop", "name": "ENGLEWOOD AVE SE@MAILING AVE SE", "mode": "bus"}}, {"type": "Feature", "geometry": {"type": "Point", "coordinates": [-84.378494, 33.722652]}, "properties": {"kind": "stop", "name": "HILL ST SE @ 1110", "mode": "bus"}}, {"type": "Feature", "geometry": {"type": "Point", "coordinates": [-84.378456, 33.725471]}, "properties": {"kind": "stop", "name": "HILL ST SE@1064", "mode": "bus"}}, {"type": "Feature", "geometry": {"type": "Point", "coordinates": [-84.378507, 33.726471]}, "properties": {"kind": "stop", "name": "HILL ST SE@FARRINGTON AVE", "mode": "bus"}}, {"type": "Feature", "geometry": {"type": "Point", "coordinates": [-84.378465, 33.728539]}, "properties": {"kind": "stop", "name": "HILL ST SE @ TUSKEGEE ST SE", "mode": "bus"}}, {"type": "Feature", "geometry": {"type": "Point", "coordinates": [-84.367634, 33.717076]}, "properties": {"kind": "stop", "name": "CUSTER AVE SE @ BOULEVARD SE", "mode": "bus"}}, {"type": "Feature", "geometry": {"type": "Point", "coordinates": [-84.380844, 33.714306]}, "properties": {"kind": "stop", "name": "LAKEWOOD AVE SE@MILLER REED AVE SE", "mode": "bus"}}, {"type": "Feature", "geometry": {"type": "Point", "coordinates": [-84.380882, 33.713219]}, "properties": {"kind": "stop", "name": "LAKEWOOD AVE SE@ANNE ST SE", "mode": "bus"}}, {"type": "Feature", "geometry": {"type": "Point", "coordinates": [-84.380554, 33.712952]}, "properties": {"kind": "stop", "name": "LAKEWOOD AVE SE@ANNE ST SE", "mode": "bus"}}, {"type": "Feature", "geometry": {"type": "Point", "coordinates": [-84.368482, 33.71832]}, "properties": {"kind": "stop", "name": "BOULEVARD SE @ BURROUGHS ST", "mode": "bus"}}, {"type": "Feature", "geometry": {"type": "Point", "coordinates": [-84.368397, 33.720791]}, "properties": {"kind": "stop", "name": "BOULEVARD SE @ ENGLEWOOD AVE SE", "mode": "bus"}}, {"type": "Feature", "geometry": {"type": "Point", "coordinates": [-84.378552, 33.728467]}, "properties": {"kind": "stop", "name": "HILL ST SE @ TUSKEGEE ST SE", "mode": "bus"}}, {"type": "Feature", "geometry": {"type": "Point", "coordinates": [-84.378572, 33.726551]}, "properties": {"kind": "stop", "name": "HILL ST SE @ FARRINGTON AVE", "mode": "bus"}}, {"type": "Feature", "geometry": {"type": "Point", "coordinates": [-84.378382, 33.722127]}, "properties": {"kind": "stop", "name": "ENGLEWOOD AVE@HILL ST", "mode": "bus"}}, {"type": "Feature", "geometry": {"type": "Point", "coordinates": [-84.368571, 33.721507]}, "properties": {"kind": "stop", "name": "BOULEVARD SE @ ENGLEWOOD AVE SE", "mode": "bus"}}, {"type": "Feature", "geometry": {"type": "Point", "coordinates": [-84.368591, 33.718186]}, "properties": {"kind": "stop", "name": "BOULEVARD SE @ BURROUGHS ST", "mode": "bus"}}, {"type": "Feature", "geometry": {"type": "Point", "coordinates": [-84.378474, 33.731399]}, "properties": {"kind": "stop", "name": "HILL ST SE @ ORMOND ST", "mode": "bus"}}, {"type": "Feature", "geometry": {"type": "Point", "coordinates": [-84.378466, 33.730239]}, "properties": {"kind": "stop", "name": "HILL ST SE @ ATLANTA AVE", "mode": "bus"}}, {"type": "Feature", "geometry": {"type": "Point", "coordinates": [-84.361242, 33.710275]}, "properties": {"kind": "stop", "name": "MCDONOUGH BLVD SE @ ELLEBY RD SE", "mode": "bus"}}, {"type": "Feature", "geometry": {"type": "Point", "coordinates": [-84.361636, 33.717123]}, "properties": {"kind": "stop", "name": "CUSTER AVE SE @ BENTEEN PARK DR SE", "mode": "bus"}}, {"type": "Feature", "geometry": {"type": "Point", "coordinates": [-84.365396, 33.717032]}, "properties": {"kind": "stop", "name": "CUSTER AVE SE @ FUNSTON AVE SE", "mode": "bus"}}, {"type": "Feature", "geometry": {"type": "Point", "coordinates": [-84.358137, 33.716972]}, "properties": {"kind": "stop", "name": "CUSTER AVE SE @ 930", "mode": "bus"}}, {"type": "Feature", "geometry": {"type": "Point", "coordinates": [-84.408165, 33.710438]}, "properties": {"kind": "stop", "name": "METROPOLITAN PKY SW@CLAIRE DR SW", "mode": "bus"}}, {"type": "Feature", "geometry": {"type": "Point", "coordinates": [-84.398987, 33.69894]}, "properties": {"kind": "stop", "name": "PRYOR RD SW@HILLTOP DR SW", "mode": "bus"}}, {"type": "Feature", "geometry": {"type": "Point", "coordinates": [-84.398924, 33.700241]}, "properties": {"kind": "stop", "name": "PRYOR RD SW@LAKEWOOD WAY SW", "mode": "bus"}}, {"type": "Feature", "geometry": {"type": "Point", "coordinates": [-84.398926, 33.705342]}, "properties": {"kind": "stop", "name": "PRYOR RD SW@ASHWOOD AVE SW", "mode": "bus"}}, {"type": "Feature", "geometry": {"type": "Point", "coordinates": [-84.39933, 33.705253]}, "properties": {"kind": "stop", "name": "ASHWOOD AVE SW@PICKFAIR WAY SW", "mode": "bus"}}, {"type": "Feature", "geometry": {"type": "Point", "coordinates": [-84.40127, 33.70564]}, "properties": {"kind": "stop", "name": "BOND DR SW@GIBEN RD SW", "mode": "bus"}}, {"type": "Feature", "geometry": {"type": "Point", "coordinates": [-84.401973, 33.707883]}, "properties": {"kind": "stop", "name": "BOND DR SW@AMAL DR SW", "mode": "bus"}}, {"type": "Feature", "geometry": {"type": "Point", "coordinates": [-84.400637, 33.707696]}, "properties": {"kind": "stop", "name": "AMAL DR SW@GIBEN RD SW", "mode": "bus"}}, {"type": "Feature", "geometry": {"type": "Point", "coordinates": [-84.399115, 33.707446]}, "properties": {"kind": "stop", "name": "AMAL DR SW @ GIBEN RD SW", "mode": "bus"}}, {"type": "Feature", "geometry": {"type": "Point", "coordinates": [-84.40792, 33.696988]}, "properties": {"kind": "stop", "name": "METROPOLITAN PKY SW@LAKEWOOD AVE SW", "mode": "bus"}}, {"type": "Feature", "geometry": {"type": "Point", "coordinates": [-84.407991, 33.694911]}, "properties": {"kind": "stop", "name": "METROPOLITAN PKY SW@LANGSTON DR SW", "mode": "bus"}}, {"type": "Feature", "geometry": {"type": "Point", "coordinates": [-84.407948, 33.707047]}, "properties": {"kind": "stop", "name": "METROPOLITAN PKWY SW @ CASPLAN ST SW (S)", "mode": "bus"}}, {"type": "Feature", "geometry": {"type": "Point", "coordinates": [-84.408134, 33.707402]}, "properties": {"kind": "stop", "name": "METROPOLITAN PKY SW@CASPLAN ST SW", "mode": "bus"}}, {"type": "Feature", "geometry": {"type": "Point", "coordinates": [-84.407837, 33.710117]}, "properties": {"kind": "stop", "name": "METROPOLITAN PKWY SW @ CLAIRE DR SW", "mode": "bus"}}, {"type": "Feature", "geometry": {"type": "Point", "coordinates": [-84.407715, 33.712053]}, "properties": {"kind": "stop", "name": "METROPOLITAN PKWY SW @ 1577", "mode": "bus"}}, {"type": "Feature", "geometry": {"type": "Point", "coordinates": [-84.40815, 33.70265]}, "properties": {"kind": "stop", "name": "METROPOLITAN PKWY SW @ GRANT ST SW", "mode": "bus"}}, {"type": "Feature", "geometry": {"type": "Point", "coordinates": [-84.408356, 33.699142]}, "properties": {"kind": "stop", "name": "METROPOLITAN PKY @SAINT JOHNS AVE S", "mode": "bus"}}, {"type": "Feature", "geometry": {"type": "Point", "coordinates": [-84.408155, 33.697298]}, "properties": {"kind": "stop", "name": "METROPOLITAN PKY SW@LAKEWOOD AVE SW", "mode": "bus"}}, {"type": "Feature", "geometry": {"type": "Point", "coordinates": [-84.399185, 33.699192]}, "properties": {"kind": "stop", "name": "PRYOR RD SW@HILLTOP DR SW", "mode": "bus"}}, {"type": "Feature", "geometry": {"type": "Point", "coordinates": [-84.39887, 33.700446]}, "properties": {"kind": "stop", "name": "LAKEWOOD WAY SW@PRYOR RD SW", "mode": "bus"}}, {"type": "Feature", "geometry": {"type": "Point", "coordinates": [-84.407903, 33.698994]}, "properties": {"kind": "stop", "name": "METROPOLITAN PKY @SAINT JOHNS AVE S", "mode": "bus"}}, {"type": "Feature", "geometry": {"type": "Point", "coordinates": [-84.407921, 33.703148]}, "properties": {"kind": "stop", "name": "METROPOLITAN PKY @ FAIR DR", "mode": "bus"}}, {"type": "Feature", "geometry": {"type": "Point", "coordinates": [-84.404105, 33.71046]}, "properties": {"kind": "stop", "name": "ATLANTA METRO STATE COLLEGE", "mode": "bus"}}, {"type": "Feature", "geometry": {"type": "Point", "coordinates": [-84.408214, 33.703519]}, "properties": {"kind": "stop", "name": "METROPOLITAN PK@FAIR DR", "mode": "bus"}}, {"type": "Feature", "geometry": {"type": "Point", "coordinates": [-84.381146, 33.709336]}, "properties": {"kind": "stop", "name": "JONESBORO RD SE@LETHEA ST SE", "mode": "bus"}}, {"type": "Feature", "geometry": {"type": "Point", "coordinates": [-84.381989, 33.711254]}, "properties": {"kind": "stop", "name": "JONESBORO RD SE @ MARGARET ST SE", "mode": "bus"}}, {"type": "Feature", "geometry": {"type": "Point", "coordinates": [-84.382532, 33.713116]}, "properties": {"kind": "stop", "name": "JONESBORO RD SE@MOURY AVE SE", "mode": "bus"}}, {"type": "Feature", "geometry": {"type": "Point", "coordinates": [-84.381342, 33.709497]}, "properties": {"kind": "stop", "name": "JONESBORO RD SE@LETHEA ST SE", "mode": "bus"}}, {"type": "Feature", "geometry": {"type": "Point", "coordinates": [-84.396927, 33.70023]}, "properties": {"kind": "stop", "name": "LAKEWOOD WAY SW@215", "mode": "bus"}}, {"type": "Feature", "geometry": {"type": "Point", "coordinates": [-84.393176, 33.699707]}, "properties": {"kind": "stop", "name": "LAKEWOOD WAY SW@HILLTOP DR SW", "mode": "bus"}}, {"type": "Feature", "geometry": {"type": "Point", "coordinates": [-84.391396, 33.699451]}, "properties": {"kind": "stop", "name": "LAKEWOOD AVE SW@MACON DR SW", "mode": "bus"}}, {"type": "Feature", "geometry": {"type": "Point", "coordinates": [-84.388374, 33.700371]}, "properties": {"kind": "stop", "name": "LAKEWOOD AVE SW@2000", "mode": "bus"}}, {"type": "Feature", "geometry": {"type": "Point", "coordinates": [-84.386299, 33.701176]}, "properties": {"kind": "stop", "name": "LAKEWOOD AVE SW@LAKEWOOD TERR SE", "mode": "bus"}}, {"type": "Feature", "geometry": {"type": "Point", "coordinates": [-84.383904, 33.702579]}, "properties": {"kind": "stop", "name": "LAKEWOOD AVE SW@TERRACE WAY SE", "mode": "bus"}}, {"type": "Feature", "geometry": {"type": "Point", "coordinates": [-84.382511, 33.703437]}, "properties": {"kind": "stop", "name": "LAKEWOOD AVE SE @ CONRAD AVE SE", "mode": "bus"}}, {"type": "Feature", "geometry": {"type": "Point", "coordinates": [-84.393565, 33.709938]}, "properties": {"kind": "stop", "name": "PRYOR RD SW@PRYOR CIR SW", "mode": "bus"}}, {"type": "Feature", "geometry": {"type": "Point", "coordinates": [-84.39441, 33.70867]}, "properties": {"kind": "stop", "name": "PRYOR RD SW@CLAIRE DR", "mode": "bus"}}, {"type": "Feature", "geometry": {"type": "Point", "coordinates": [-84.396225, 33.70778]}, "properties": {"kind": "stop", "name": "PRYOR RD SW@AMAL DR", "mode": "bus"}}, {"type": "Feature", "geometry": {"type": "Point", "coordinates": [-84.397561, 33.707018]}, "properties": {"kind": "stop", "name": "PRYOR RD SW@AMAL DR SW", "mode": "bus"}}, {"type": "Feature", "geometry": {"type": "Point", "coordinates": [-84.383667, 33.702957]}, "properties": {"kind": "stop", "name": "LAKEWOOD AVE@TERRACE WAY", "mode": "bus"}}, {"type": "Feature", "geometry": {"type": "Point", "coordinates": [-84.386228, 33.701644]}, "properties": {"kind": "stop", "name": "LAKEWOOD AVE@OLIVE ST", "mode": "bus"}}, {"type": "Feature", "geometry": {"type": "Point", "coordinates": [-84.396643, 33.700537]}, "properties": {"kind": "stop", "name": "LAKEWOOD WAY SW@215", "mode": "bus"}}, {"type": "Feature", "geometry": {"type": "Point", "coordinates": [-84.393303, 33.699829]}, "properties": {"kind": "stop", "name": "LAKEWOOD WAY SW@HILLTOP DR SW", "mode": "bus"}}, {"type": "Feature", "geometry": {"type": "Point", "coordinates": [-84.391685, 33.699589]}, "properties": {"kind": "stop", "name": "LAKEWOOD AVE SW@LAKEWOOD WAY SW", "mode": "bus"}}, {"type": "Feature", "geometry": {"type": "Point", "coordinates": [-84.388474, 33.700645]}, "properties": {"kind": "stop", "name": "LAKEWOOD AVE SW@2081", "mode": "bus"}}, {"type": "Feature", "geometry": {"type": "Point", "coordinates": [-84.385302, 33.70203]}, "properties": {"kind": "stop", "name": "LAKEWOOD AVE@SHADYDALE AVE", "mode": "bus"}}, {"type": "Feature", "geometry": {"type": "Point", "coordinates": [-84.382359, 33.703786]}, "properties": {"kind": "stop", "name": "LAKEWOOD AVE SW@CONRAD AVE SE", "mode": "bus"}}, {"type": "Feature", "geometry": {"type": "Point", "coordinates": [-84.393415, 33.712051]}, "properties": {"kind": "stop", "name": "PRYOR RD SW@ MELDON AVE", "mode": "bus"}}, {"type": "Feature", "geometry": {"type": "Point", "coordinates": [-84.393381, 33.710431]}, "properties": {"kind": "stop", "name": "PRYOR RD@1600", "mode": "bus"}}, {"type": "Feature", "geometry": {"type": "Point", "coordinates": [-84.394086, 33.708783]}, "properties": {"kind": "stop", "name": "PRYOR RD @ CLAIRE DR", "mode": "bus"}}, {"type": "Feature", "geometry": {"type": "Point", "coordinates": [-84.396025, 33.707553]}, "properties": {"kind": "stop", "name": "PRYOR RD SW @ AMAL DR", "mode": "bus"}}, {"type": "Feature", "geometry": {"type": "Point", "coordinates": [-84.399956, 33.711796]}, "properties": {"kind": "stop", "name": "THORNTON ST SW@LINCOLN ST SW", "mode": "bus"}}, {"type": "Feature", "geometry": {"type": "Point", "coordinates": [-84.397794, 33.711708]}, "properties": {"kind": "stop", "name": "THORNTON ST SW @ ARTHUR LANGFORD JR PL SW", "mode": "bus"}}, {"type": "Feature", "geometry": {"type": "Point", "coordinates": [-84.397707, 33.712308]}, "properties": {"kind": "stop", "name": "ARTHUR LANGFORD JR PL SW @ BOOKER ST SW", "mode": "bus"}}, {"type": "Feature", "geometry": {"type": "Point", "coordinates": [-84.385002, 33.701912]}, "properties": {"kind": "stop", "name": "LAKEWOOD AVE@SHADYDALE AVE", "mode": "bus"}}, {"type": "Feature", "geometry": {"type": "Point", "coordinates": [-84.380524, 33.705212]}, "properties": {"kind": "stop", "name": "LAKEWOOD AVE@CLAIRE DR", "mode": "bus"}}, {"type": "Feature", "geometry": {"type": "Point", "coordinates": [-84.380363, 33.706348]}, "properties": {"kind": "stop", "name": "LAKEWOOD AVE@ADAIR AVE", "mode": "bus"}}, {"type": "Feature", "geometry": {"type": "Point", "coordinates": [-84.38015, 33.707535]}, "properties": {"kind": "stop", "name": "JONESBORO RD@LAKEWOOD AVE", "mode": "bus"}}, {"type": "Feature", "geometry": {"type": "Point", "coordinates": [-84.380198, 33.705237]}, "properties": {"kind": "stop", "name": "LAKEWOOD AVE SE@CLAIRE DR SE", "mode": "bus"}}, {"type": "Feature", "geometry": {"type": "Point", "coordinates": [-84.379953, 33.705954]}, "properties": {"kind": "stop", "name": "LAKEWOOD AVE SE@ADAIR AVE SE", "mode": "bus"}}, {"type": "Feature", "geometry": {"type": "Point", "coordinates": [-84.376709, 33.703117]}, "properties": {"kind": "stop", "name": "JONESBORO RD SE @ BROWNS MILL RD", "mode": "bus"}}, {"type": "Feature", "geometry": {"type": "Point", "coordinates": [-84.375871, 33.700719]}, "properties": {"kind": "stop", "name": "BROWNS MILL RD SE@ADELLE ST SE", "mode": "bus"}}, {"type": "Feature", "geometry": {"type": "Point", "coordinates": [-84.374588, 33.698606]}, "properties": {"kind": "stop", "name": "BROWNS MILL RD SE@2039", "mode": "bus"}}, {"type": "Feature", "geometry": {"type": "Point", "coordinates": [-84.374725, 33.699028]}, "properties": {"kind": "stop", "name": "BROWNS MILL RD SE@MERRILYN DR SE", "mode": "bus"}}, {"type": "Feature", "geometry": {"type": "Point", "coordinates": [-84.37558, 33.7005]}, "properties": {"kind": "stop", "name": "BROWNS MILL RD SE@ADELLE ST SE", "mode": "bus"}}, {"type": "Feature", "geometry": {"type": "Point", "coordinates": [-84.376502, 33.702709]}, "properties": {"kind": "stop", "name": "BROWNS MILL RD SE@JONESBORO RD SE", "mode": "bus"}}, {"type": "Feature", "geometry": {"type": "Point", "coordinates": [-84.380043, 33.709759]}, "properties": {"kind": "stop", "name": "LAKEWOOD AVE SE@LETHEA ST SE", "mode": "bus"}}, {"type": "Feature", "geometry": {"type": "Point", "coordinates": [-84.379784, 33.7099]}, "properties": {"kind": "stop", "name": "LAKEWOOD AVE SE@RICHMOND AVE SE", "mode": "bus"}}, {"type": "Feature", "geometry": {"type": "Point", "coordinates": [-84.380135, 33.708366]}, "properties": {"kind": "stop", "name": "LAKEWOOD AVE SE @ LIVERMORE ST SE", "mode": "bus"}}, {"type": "Feature", "geometry": {"type": "Point", "coordinates": [-84.379944, 33.70768]}, "properties": {"kind": "stop", "name": "LAKEWOOD AVE SE @ LIVERMORE ST SE", "mode": "bus"}}, {"type": "Feature", "geometry": {"type": "Point", "coordinates": [-84.379645, 33.706679]}, "properties": {"kind": "stop", "name": "JONESBORO RD SE@WHATLEY ST SE", "mode": "bus"}}, {"type": "Feature", "geometry": {"type": "Point", "coordinates": [-84.363068, 33.71134]}, "properties": {"kind": "stop", "name": "MCDONOUGH BLVD SE @ PARK RD SE", "mode": "bus"}}, {"type": "Feature", "geometry": {"type": "Point", "coordinates": [-84.361405, 33.710284]}, "properties": {"kind": "stop", "name": "MCDONOUGH BLVD SE@ELLEBY RD SE", "mode": "bus"}}, {"type": "Feature", "geometry": {"type": "Point", "coordinates": [-84.360655, 33.709747]}, "properties": {"kind": "stop", "name": "MCDONOUGH BLVD SE @ NEW TOWN CIR", "mode": "bus"}}, {"type": "Feature", "geometry": {"type": "Point", "coordinates": [-84.359405, 33.708942]}, "properties": {"kind": "stop", "name": "MCDONOUGH BLVD @ MORELAND DR", "mode": "bus"}}, {"type": "Feature", "geometry": {"type": "Point", "coordinates": [-84.35659, 33.706186]}, "properties": {"kind": "stop", "name": "MCDONOUGH BLVD SE @ HENRY THOMAS DR SE", "mode": "bus"}}, {"type": "Feature", "geometry": {"type": "Point", "coordinates": [-84.356275, 33.706132]}, "properties": {"kind": "stop", "name": "MCDONOUGH BLVD SE @ HENRY THOMAS DR SE", "mode": "bus"}}, {"type": "Feature", "geometry": {"type": "Point", "coordinates": [-84.358253, 33.707994]}, "properties": {"kind": "stop", "name": "MCDONOUGH BLVD SE @ WELCH ST SE", "mode": "bus"}}, {"type": "Feature", "geometry": {"type": "Point", "coordinates": [-84.363263, 33.711582]}, "properties": {"kind": "stop", "name": "MCDONOUGH BLVD SE @ PARK RD SE", "mode": "bus"}}, {"type": "Feature", "geometry": {"type": "Point", "coordinates": [-84.355296, 33.705211]}, "properties": {"kind": "stop", "name": "HENRY THOMAS DR SE (W) @ MCDONOUGH BLVD SE", "mode": "bus"}}, {"type": "Feature", "geometry": {"type": "Point", "coordinates": [-84.352288, 33.709078]}, "properties": {"kind": "stop", "name": "MORELAND DR @ WOODLAND AVE", "mode": "bus"}}, {"type": "Feature", "geometry": {"type": "Point", "coordinates": [-84.352463, 33.710913]}, "properties": {"kind": "stop", "name": "WOODLAND AVE SE @ 1608", "mode": "bus"}}, {"type": "Feature", "geometry": {"type": "Point", "coordinates": [-84.355492, 33.705381]}, "properties": {"kind": "stop", "name": "MCDONOUGH BLVD @ HENRY THOMAS DR", "mode": "bus"}}, {"type": "Feature", "geometry": {"type": "Point", "coordinates": [-84.35834, 33.707967]}, "properties": {"kind": "stop", "name": "MCDONOUGH BLVD @ WELCH ST", "mode": "bus"}}, {"type": "Feature", "geometry": {"type": "Point", "coordinates": [-84.407944, 33.690224]}, "properties": {"kind": "stop", "name": "METROPOLITAN PKY SW @ 2370", "mode": "bus"}}, {"type": "Feature", "geometry": {"type": "Point", "coordinates": [-84.40801, 33.691489]}, "properties": {"kind": "stop", "name": "METROPOLITAN PKY SW@AVERY RD SW", "mode": "bus"}}, {"type": "Feature", "geometry": {"type": "Point", "coordinates": [-84.408516, 33.691738]}, "properties": {"kind": "stop", "name": "METROPOLITAN PKY SW@AVERY RD SW", "mode": "bus"}}, {"type": "Feature", "geometry": {"type": "Point", "coordinates": [-84.408259, 33.69543]}, "properties": {"kind": "stop", "name": "METROPOLITAN PKY SW@LANGSTON DR SW", "mode": "bus"}}, {"type": "Feature", "geometry": {"type": "Point", "coordinates": [-84.398155, 33.695995]}, "properties": {"kind": "stop", "name": "POLAR ROCK RD SW@BAGWELL DR SW", "mode": "bus"}}, {"type": "Feature", "geometry": {"type": "Point", "coordinates": [-84.397214, 33.695623]}, "properties": {"kind": "stop", "name": "POLAR ROCK RD SW@BICKNELL DR SW", "mode": "bus"}}, {"type": "Feature", "geometry": {"type": "Point", "coordinates": [-84.397268, 33.695784]}, "properties": {"kind": "stop", "name": "POLAR ROCK RD SW@BICKNELL DR SW", "mode": "bus"}}, {"type": "Feature", "geometry": {"type": "Point", "coordinates": [-84.398769, 33.696973]}, "properties": {"kind": "stop", "name": "POLAR ROCK RD SW@PRYOR RD SW", "mode": "bus"}}, {"type": "Feature", "geometry": {"type": "Point", "coordinates": [-84.395964, 33.695033]}, "properties": {"kind": "stop", "name": "POLAR ROCK AVE SW@POLAR ROCK RD SW", "mode": "bus"}}, {"type": "Feature", "geometry": {"type": "Point", "coordinates": [-84.386122, 33.694805]}, "properties": {"kind": "stop", "name": "SWALLOW CIR @ FINCH DR", "mode": "bus"}}, {"type": "Feature", "geometry": {"type": "Point", "coordinates": [-84.396225, 33.693642]}, "properties": {"kind": "stop", "name": "POLAR ROCK AVE SW@POLAR ROCK PL", "mode": "bus"}}, {"type": "Feature", "geometry": {"type": "Point", "coordinates": [-84.396255, 33.692528]}, "properties": {"kind": "stop", "name": "POLAR ROCK AVE@POLAR ROCK PL", "mode": "bus"}}, {"type": "Feature", "geometry": {"type": "Point", "coordinates": [-84.396317, 33.691147]}, "properties": {"kind": "stop", "name": "POLAR ROCK AVE SW @ 2311", "mode": "bus"}}, {"type": "Feature", "geometry": {"type": "Point", "coordinates": [-84.394691, 33.692436]}, "properties": {"kind": "stop", "name": "POLAR ROCK TER SW@POLAR ROCK PL SW", "mode": "bus"}}, {"type": "Feature", "geometry": {"type": "Point", "coordinates": [-84.394684, 33.694065]}, "properties": {"kind": "stop", "name": "POLAR ROCK TER@POLAR ROCK RD", "mode": "bus"}}, {"type": "Feature", "geometry": {"type": "Point", "coordinates": [-84.391047, 33.691208]}, "properties": {"kind": "stop", "name": "MACON DR@2324", "mode": "bus"}}, {"type": "Feature", "geometry": {"type": "Point", "coordinates": [-84.390141, 33.694454]}, "properties": {"kind": "stop", "name": "MACON DR@LANG DR", "mode": "bus"}}, {"type": "Feature", "geometry": {"type": "Point", "coordinates": [-84.394639, 33.695526]}, "properties": {"kind": "stop", "name": "POLAR ROCK TER SW @ POLAR ROCK RD SW", "mode": "bus"}}, {"type": "Feature", "geometry": {"type": "Point", "coordinates": [-84.392884, 33.698895]}, "properties": {"kind": "stop", "name": "LAKEWOOD AVE @ LAKEWOOD WAY", "mode": "bus"}}, {"type": "Feature", "geometry": {"type": "Point", "coordinates": [-84.38571, 33.696378]}, "properties": {"kind": "stop", "name": "HARPER RD SE @ SWALLOW CIR SE", "mode": "bus"}}, {"type": "Feature", "geometry": {"type": "Point", "coordinates": [-84.392123, 33.699098]}, "properties": {"kind": "stop", "name": "LAKEWOOD AVE @ MACON DR", "mode": "bus"}}, {"type": "Feature", "geometry": {"type": "Point", "coordinates": [-84.389805, 33.695721]}, "properties": {"kind": "stop", "name": "MACON DR SW@2145", "mode": "bus"}}, {"type": "Feature", "geometry": {"type": "Point", "coordinates": [-84.390271, 33.694772]}, "properties": {"kind": "stop", "name": "MACON DR SW@LANG DR", "mode": "bus"}}, {"type": "Feature", "geometry": {"type": "Point", "coordinates": [-84.391462, 33.691284]}, "properties": {"kind": "stop", "name": "MACON DR SW@2315", "mode": "bus"}}, {"type": "Feature", "geometry": {"type": "Point", "coordinates": [-84.385612, 33.696023]}, "properties": {"kind": "stop", "name": "HARPER RD SE @ SWALLOW CIR SE", "mode": "bus"}}, {"type": "Feature", "geometry": {"type": "Point", "coordinates": [-84.389298, 33.695747]}, "properties": {"kind": "stop", "name": "MACON DR@2144", "mode": "bus"}}, {"type": "Feature", "geometry": {"type": "Point", "coordinates": [-84.369141, 33.696167]}, "properties": {"kind": "stop", "name": "JONESBORO RD SE @ HARPER RD SE", "mode": "bus"}}, {"type": "Feature", "geometry": {"type": "Point", "coordinates": [-84.371154, 33.696943]}, "properties": {"kind": "stop", "name": "HARPER RD SE @ BURROUGHS AVE SE", "mode": "bus"}}, {"type": "Feature", "geometry": {"type": "Point", "coordinates": [-84.380279, 33.696984]}, "properties": {"kind": "stop", "name": "HARPER RD SE @ MEADOR AVE SE", "mode": "bus"}}, {"type": "Feature", "geometry": {"type": "Point", "coordinates": [-84.379051, 33.696823]}, "properties": {"kind": "stop", "name": "HARPER RD SE @ RHINEHILL RD SE", "mode": "bus"}}, {"type": "Feature", "geometry": {"type": "Point", "coordinates": [-84.377444, 33.696904]}, "properties": {"kind": "stop", "name": "HARPER RD SE @ 359", "mode": "bus"}}, {"type": "Feature", "geometry": {"type": "Point", "coordinates": [-84.373902, 33.696888]}, "properties": {"kind": "stop", "name": "HARPER RD @ BROWNS MILL RD", "mode": "bus"}}, {"type": "Feature", "geometry": {"type": "Point", "coordinates": [-84.37354, 33.73232]}, "properties": {"kind": "stop", "name": "CHEROKEE AVE @ GRANT PARK PL", "mode": "bus"}}, {"type": "Feature", "geometry": {"type": "Point", "coordinates": [-84.373325, 33.730161]}, "properties": {"kind": "stop", "name": "ATLANTA AVE @ CHEROKEE AVE", "mode": "bus"}}, {"type": "Feature", "geometry": {"type": "Point", "coordinates": [-84.392147, 33.715561]}, "properties": {"kind": "stop", "name": "MOURY AVE@204", "mode": "bus"}}, {"type": "Feature", "geometry": {"type": "Point", "coordinates": [-84.392104, 33.715668]}, "properties": {"kind": "stop", "name": "MOURY AVE SW @ 204", "mode": "bus"}}, {"type": "Feature", "geometry": {"type": "Point", "coordinates": [-84.391157, 33.714031]}, "properties": {"kind": "stop", "name": "MOURY AVE@THIRKELD AVE", "mode": "bus"}}, {"type": "Feature", "geometry": {"type": "Point", "coordinates": [-84.389928, 33.712904]}, "properties": {"kind": "stop", "name": "MOURY AVE@MIDDLETON ST", "mode": "bus"}}, {"type": "Feature", "geometry": {"type": "Point", "coordinates": [-84.393267, 33.717073]}, "properties": {"kind": "stop", "name": "MOURY AVE@PRYOR RD", "mode": "bus"}}, {"type": "Feature", "geometry": {"type": "Point", "coordinates": [-84.393017, 33.716957]}, "properties": {"kind": "stop", "name": "MOURY AVE@PRYOR RD", "mode": "bus"}}, {"type": "Feature", "geometry": {"type": "Point", "coordinates": [-84.397637, 33.707018]}, "properties": {"kind": "stop", "name": "AMAL DR @ PRYOR RD", "mode": "bus"}}, {"type": "Feature", "geometry": {"type": "Point", "coordinates": [-84.399001, 33.701377]}, "properties": {"kind": "stop", "name": "PRYOR RD SW @ ST JOHNS AVE SW", "mode": "bus"}}, {"type": "Feature", "geometry": {"type": "Point", "coordinates": [-84.37388, 33.696951]}, "properties": {"kind": "stop", "name": "BROWNS MILL RD@HARPER RD", "mode": "bus"}}, {"type": "Feature", "geometry": {"type": "Point", "coordinates": [-84.395975, 33.695301]}, "properties": {"kind": "stop", "name": "POLAR ROCK RD@POLAR ROCK AVE", "mode": "bus"}}, {"type": "Feature", "geometry": {"type": "Point", "coordinates": [-84.39751, 33.722173]}, "properties": {"kind": "stop", "name": "UNIVERSITY AVE@BOOKER AVE", "mode": "bus"}}, {"type": "Feature", "geometry": {"type": "Point", "coordinates": [-84.399194, 33.722172]}, "properties": {"kind": "stop", "name": "UNIVERSITY AVE@GARIBALDI ST", "mode": "bus"}}, {"type": "Feature", "geometry": {"type": "Point", "coordinates": [-84.401313, 33.722179]}, "properties": {"kind": "stop", "name": "UNIVERSITY AVE @ MCDANIEL ST", "mode": "bus"}}, {"type": "Feature", "geometry": {"type": "Point", "coordinates": [-84.401587, 33.724104]}, "properties": {"kind": "stop", "name": "MCDANIEL ST@ROY ST", "mode": "bus"}}, {"type": "Feature", "geometry": {"type": "Point", "coordinates": [-84.401578, 33.725607]}, "properties": {"kind": "stop", "name": "MCDANIEL ST@ FLETCHER ST", "mode": "bus"}}, {"type": "Feature", "geometry": {"type": "Point", "coordinates": [-84.39927, 33.722019]}, "properties": {"kind": "stop", "name": "UNIVERSITY AVE@GARIBALDI ST", "mode": "bus"}}, {"type": "Feature", "geometry": {"type": "Point", "coordinates": [-84.397466, 33.722003]}, "properties": {"kind": "stop", "name": "UNIVERSITY AVE@BOOKER AVE", "mode": "bus"}}, {"type": "Feature", "geometry": {"type": "Point", "coordinates": [-84.399322, 33.707554]}, "properties": {"kind": "stop", "name": "AMAL DR@GIBEN DR", "mode": "bus"}}, {"type": "Feature", "geometry": {"type": "Point", "coordinates": [-84.400539, 33.70775]}, "properties": {"kind": "stop", "name": "AMAL DR@GIBEN RD", "mode": "bus"}}, {"type": "Feature", "geometry": {"type": "Point", "coordinates": [-84.40168, 33.708062]}, "properties": {"kind": "stop", "name": "AMAL DR@BOND DR", "mode": "bus"}}, {"type": "Feature", "geometry": {"type": "Point", "coordinates": [-84.401362, 33.705297]}, "properties": {"kind": "stop", "name": "BOND DR@ASHWOOD AVE", "mode": "bus"}}, {"type": "Feature", "geometry": {"type": "Point", "coordinates": [-84.398928, 33.705137]}, "properties": {"kind": "stop", "name": "ASHWOOD AVE@PRYOR RD", "mode": "bus"}}, {"type": "Feature", "geometry": {"type": "Point", "coordinates": [-84.397626, 33.70691]}, "properties": {"kind": "stop", "name": "PRYOR RD @ AMAL DR", "mode": "bus"}}, {"type": "Feature", "geometry": {"type": "Point", "coordinates": [-84.39898, 33.702666]}, "properties": {"kind": "stop", "name": "PRYOR RD@FAIR DR", "mode": "bus"}}, {"type": "Feature", "geometry": {"type": "Point", "coordinates": [-84.398904, 33.702559]}, "properties": {"kind": "stop", "name": "PRYOR RD@FAIR DR", "mode": "bus"}}, {"type": "Feature", "geometry": {"type": "Point", "coordinates": [-84.39882, 33.705066]}, "properties": {"kind": "stop", "name": "PRYOR RD@PRYOR CIR", "mode": "bus"}}, {"type": "Feature", "geometry": {"type": "Point", "coordinates": [-84.38699, 33.69357]}, "properties": {"kind": "stop", "name": "SWALLOW CIR @ JAY PL", "mode": "bus"}}, {"type": "Feature", "geometry": {"type": "Point", "coordinates": [-84.38773, 33.695941]}, "properties": {"kind": "stop", "name": "SWALLOW CIR @ FINCH DR", "mode": "bus"}}, {"type": "Feature", "geometry": {"type": "Point", "coordinates": [-84.387253, 33.69647]}, "properties": {"kind": "stop", "name": "SWALLOW CIR SE @ 2298", "mode": "bus"}}, {"type": "Feature", "geometry": {"type": "Point", "coordinates": [-84.380409, 33.696921]}, "properties": {"kind": "stop", "name": "HARPER RD @ MEADOR AVE", "mode": "bus"}}, {"type": "Feature", "geometry": {"type": "Point", "coordinates": [-84.382311, 33.697018]}, "properties": {"kind": "stop", "name": "HARPER RD SE @ 204", "mode": "bus"}}, {"type": "Feature", "geometry": {"type": "Point", "coordinates": [-84.382376, 33.696911]}, "properties": {"kind": "stop", "name": "HARPER RD SE @ 209", "mode": "bus"}}, {"type": "Feature", "geometry": {"type": "Point", "coordinates": [-84.380806, 33.704404]}, "properties": {"kind": "stop", "name": "LAKEWOOD AVE SE@OWEN ST SE", "mode": "bus"}}, {"type": "Feature", "geometry": {"type": "Point", "coordinates": [-84.389837, 33.721049]}, "properties": {"kind": "stop", "name": "UNIVERSITY AVE SW@71", "mode": "bus"}}, {"type": "Feature", "geometry": {"type": "Point", "coordinates": [-84.390043, 33.721058]}, "properties": {"kind": "stop", "name": "UNIVERSITY AVE SW@71", "mode": "bus"}}, {"type": "Feature", "geometry": {"type": "Point", "coordinates": [-84.361603, 33.716989]}, "properties": {"kind": "stop", "name": "CUSTER AVE SE @ BENTEEN PARK DR SE", "mode": "bus"}}, {"type": "Feature", "geometry": {"type": "Point", "coordinates": [-84.375218, 33.69968]}, "properties": {"kind": "stop", "name": "BROWNS MILL RD SE@GREENDALE DR SE", "mode": "bus"}}, {"type": "Feature", "geometry": {"type": "Point", "coordinates": [-84.392425, 33.721407]}, "properties": {"kind": "stop", "name": "UNIVERSITY AVE SW @ PRYOR RD SW", "mode": "bus"}}, {"type": "Feature", "geometry": {"type": "Point", "coordinates": [-84.362304, 33.727363]}, "properties": {"kind": "stop", "name": "UNITED AVE @ CONFEDERATE CT", "mode": "bus"}}, {"type": "Feature", "geometry": {"type": "Point", "coordinates": [-84.363749, 33.727784]}, "properties": {"kind": "stop", "name": "UNITED AVE @ EDIE AVE SE", "mode": "bus"}}, {"type": "Feature", "geometry": {"type": "Point", "coordinates": [-84.364489, 33.729439]}, "properties": {"kind": "stop", "name": "UNITED AVE @ HOME AVE SE", "mode": "bus"}}, {"type": "Feature", "geometry": {"type": "Point", "coordinates": [-84.373728, 33.69696]}, "properties": {"kind": "stop", "name": "HARPER RD SE @ BROWNS MILL RD SE", "mode": "bus"}}, {"type": "Feature", "geometry": {"type": "Point", "coordinates": [-84.371208, 33.69688]}, "properties": {"kind": "stop", "name": "HARPER RD SE@BURROUGHS AVE SE", "mode": "bus"}}, {"type": "Feature", "geometry": {"type": "Point", "coordinates": [-84.38985, 33.697829]}, "properties": {"kind": "stop", "name": "MACON DR @ POLAR ROCK RD", "mode": "bus"}}, {"type": "Feature", "geometry": {"type": "Point", "coordinates": [-84.390013, 33.697695]}, "properties": {"kind": "stop", "name": "MACON DR @ POLAR ROCK RD", "mode": "bus"}}, {"type": "Feature", "geometry": {"type": "Point", "coordinates": [-84.378785, 33.720053]}, "properties": {"kind": "stop", "name": "HILL ST SE @ DALTON ST SE", "mode": "bus"}}, {"type": "Feature", "geometry": {"type": "Point", "coordinates": [-84.378828, 33.718951]}, "properties": {"kind": "stop", "name": "HILL ST SE @ NOLAN ST SE", "mode": "bus"}}, {"type": "Feature", "geometry": {"type": "Point", "coordinates": [-84.378827, 33.717448]}, "properties": {"kind": "stop", "name": "HILL ST SE @ MILTON AVE SE", "mode": "bus"}}, {"type": "Feature", "geometry": {"type": "Point", "coordinates": [-84.378721, 33.722228]}, "properties": {"kind": "stop", "name": "HILL ST SE@ENGLEWOOD AVE SE", "mode": "bus"}}, {"type": "Feature", "geometry": {"type": "Point", "coordinates": [-84.368244, 33.732122]}, "properties": {"kind": "stop", "name": "BOULEVARD SE @ DELMAR AVE", "mode": "bus"}}, {"type": "Feature", "geometry": {"type": "Point", "coordinates": [-84.372294, 33.69696]}, "properties": {"kind": "stop", "name": "HARPER RD SE @ JERNIGAN DR SE", "mode": "bus"}}, {"type": "Feature", "geometry": {"type": "Point", "coordinates": [-84.37437, 33.69832]}, "properties": {"kind": "stop", "name": "BROWNS MILL RD SE @ 2045", "mode": "bus"}}, {"type": "Feature", "geometry": {"type": "Point", "coordinates": [-84.36188, 33.727211]}, "properties": {"kind": "stop", "name": "UNITED AVE @ AVONDALE AVE", "mode": "bus"}}, {"type": "Feature", "geometry": {"type": "Point", "coordinates": [-84.378569, 33.721995]}, "properties": {"kind": "stop", "name": "HILL ST SE @ ENGLEWOOD AVE SE", "mode": "bus"}}, {"type": "Feature", "geometry": {"type": "Point", "coordinates": [-84.385229, 33.695288]}, "properties": {"kind": "stop", "name": "SWALLOW CIR SE @ HARPER RD SE", "mode": "bus"}}, {"type": "Feature", "geometry": {"type": "Point", "coordinates": [-84.375739, 33.715363]}, "properties": {"kind": "stop", "name": "MCDONOUGH BLVD SE @ ERIC ST SE", "mode": "bus"}}, {"type": "Feature", "geometry": {"type": "Point", "coordinates": [-84.378675, 33.718987]}, "properties": {"kind": "stop", "name": "HILL ST SE @ NOLAN ST SE", "mode": "bus"}}, {"type": "Feature", "geometry": {"type": "Point", "coordinates": [-84.369633, 33.696541]}, "properties": {"kind": "stop", "name": "JONESBORO RD SE @ HARPER RD SE", "mode": "bus"}}, {"type": "Feature", "geometry": {"type": "Point", "coordinates": [-84.368685, 33.730109]}, "properties": {"kind": "stop", "name": "ATLANTA AVE SE @ BOULEVARD SE", "mode": "bus"}}, {"type": "Feature", "geometry": {"type": "Point", "coordinates": [-84.369032, 33.730216]}, "properties": {"kind": "stop", "name": "ATLANTA AVE SE @ BOULEVARD SE", "mode": "bus"}}, {"type": "Feature", "geometry": {"type": "Point", "coordinates": [-84.365479, 33.730361]}, "properties": {"kind": "stop", "name": "ATLANTA AVE SE @ MARION AVE SE", "mode": "bus"}}, {"type": "Feature", "geometry": {"type": "Point", "coordinates": [-84.365544, 33.730433]}, "properties": {"kind": "stop", "name": "ATLANTA AVE SE @ MARION AVE SE", "mode": "bus"}}, {"type": "Feature", "geometry": {"type": "Point", "coordinates": [-84.378503, 33.705005]}, "properties": {"kind": "stop", "name": "JONESBORO RD SE @ SAWTELL AVE SE", "mode": "bus"}}, {"type": "Feature", "geometry": {"type": "Point", "coordinates": [-84.378688, 33.705077]}, "properties": {"kind": "stop", "name": "JONESBORO RD SE @ CLAIRE DR SE", "mode": "bus"}}, {"type": "Feature", "geometry": {"type": "Point", "coordinates": [-84.372272, 33.713906]}, "properties": {"kind": "stop", "name": "MCDONOUGH BLVD SE @ GAULT ST SE", "mode": "bus"}}, {"type": "Feature", "geometry": {"type": "Point", "coordinates": [-84.381869, 33.717768]}, "properties": {"kind": "stop", "name": "LAKEWOOD AVE @ MCDONOUGH BLVD", "mode": "bus"}}, {"type": "Feature", "geometry": {"type": "Point", "coordinates": [-84.393339, 33.712123]}, "properties": {"kind": "stop", "name": "MELDON AVE @ PRYOR RD", "mode": "bus"}}, {"type": "Feature", "geometry": {"type": "Point", "coordinates": [-84.390231, 33.711507]}, "properties": {"kind": "stop", "name": "MELDON AVE @ TROUP ST", "mode": "bus"}}, {"type": "Feature", "geometry": {"type": "Point", "coordinates": [-84.390144, 33.711552]}, "properties": {"kind": "stop", "name": "TROUP ST @ MELDON AVE", "mode": "bus"}}, {"type": "Feature", "geometry": {"type": "Point", "coordinates": [-84.389776, 33.712904]}, "properties": {"kind": "stop", "name": "MOURY AVE SW @ MIDDLETON ST", "mode": "bus"}}, {"type": "Feature", "geometry": {"type": "Point", "coordinates": [-84.391407, 33.714407]}, "properties": {"kind": "stop", "name": "MOURY AVE @ THIRKELD", "mode": "bus"}}, {"type": "Feature", "geometry": {"type": "Point", "coordinates": [-84.393294, 33.722972]}, "properties": {"kind": "stop", "name": "PRYOR RD @ UNIVERSITY AVE", "mode": "bus"}}, {"type": "Feature", "geometry": {"type": "Point", "coordinates": [-84.368465, 33.726618]}, "properties": {"kind": "stop", "name": "BOULEVARD SE @ HAMILTON AVE", "mode": "bus"}}, {"type": "Feature", "geometry": {"type": "Point", "coordinates": [-84.368293, 33.730091]}, "properties": {"kind": "stop", "name": "BOULEVARD SE @ ATLANTA AVE", "mode": "bus"}}, {"type": "Feature", "geometry": {"type": "Point", "coordinates": [-84.383326, 33.721386]}, "properties": {"kind": "stop", "name": "MILTON AVE SE @ LAKEWOOD AVE SE", "mode": "bus"}}, {"type": "Feature", "geometry": {"type": "Point", "coordinates": [-84.382877, 33.721238]}, "properties": {"kind": "stop", "name": "LAKEWOOD AVE SE @ MILTON AVE SE", "mode": "bus"}}, {"type": "Feature", "geometry": {"type": "Point", "coordinates": [-84.407634, 33.707321]}, "properties": {"kind": "stop", "name": "CASPLAN ST @ METROPOLITAN PKWY", "mode": "bus"}}], "properties": {"coverage_pct": 100.0, "rail_coverage_pct": 0.0, "stop_count": 306, "rail_stop_count": 0, "bus_stop_count": 306, "transit_index": 33, "weights": {"rail": 2.0, "bus": 1.0}}}