{"type":"FeatureCollection","features":[{"type":"Feature","geometry":{"type":"MultiLineString","coordinates":[[[-84.54170370016561,33.706188600323685],[-84.54170435037543,33.70622924068698]],[[-84.54170435577134,33.70622955275172],[-84.5417113003362,33.70666320044637]]]},"properties":{"overall":31,"safety":92,"sidewalk":0,"sidewalk_present":0,"canopy":0.0,"comfort":0.0,"name":"","road_type":"service","osm_id":827967750}},{"type":"Feature","geometry":{"type":"MultiLineString","coordinates":[[[-84.54255159987639,33.70668259972223],[-84.54241490022741,33.70642270014753],[-84.54234210010782,33.70628069989442],[-84.54227867182323,33.70623677790502]],[[-84.54227830579913,33.70623652429623],[-84.54224650037565,33.70621449989932]]]},"properties":{"overall":33,"safety":100,"sidewalk":0,"sidewalk_present":0,"canopy":0.0,"comfort":0.0,"name":"","road_type":"service","osm_id":713014569}},{"type":"Feature","geometry":{"type":"LineString","coordinates":[[-84.54099490039431,33.706684699639254],[-84.54105050008047,33.7064716997092],[-84.5410471995686,33.70626460023118]]},"properties":{"overall":33,"safety":100,"sidewalk":0,"sidewalk_present":0,"canopy":0.0,"comfort":0.0,"name":"","road_type":"service","osm_id":713014571}},{"type":"Feature","geometry":{"type":"LineString","coordinates":[[-84.54116270039827,33.70666509981453],[-84.54110919972976,33.706492900327135],[-84.54111000012637,33.70625580036494]]},"properties":{"overall":33,"safety":100,"sidewalk":0,"sidewalk_present":0,"canopy":0.0,"comfort":0.0,"name":"","road_type":"service","osm_id":713014570}},{"type":"Feature","geometry":{"type":"LineString","coordinates":[[-84.54048900026709,33.70682329955571],[-84.54042039998143,33.70665489970389],[-84.54040390011988,33.706547400142426],[-84.5404154995756,33.70632139961293]]},"properties":{"overall":32,"safety":95,"sidewalk":0,"sidewalk_present":0,"canopy":0.0,"comfort":0.0,"name":"","road_type":"service","osm_id":730229076}},{"type":"Feature","geometry":{"type":"LineString","coordinates":[[-84.54038320042434,33.708328100061806],[-84.54078060004463,33.70835599972963],[-84.54127110018106,33.708409700047696],[-84.54154670012008,33.70835580008014],[-84.54177479966722,33.708168900274586],[-84.54188740018333,33.70795059974046],[-84.54199069991085,33.70712119998342],[-84.54206810006275,33.706951999735054],[-84.5421487998272,33.70684469982308],[-84.54237469963266,33.706734600321624],[-84.54255159987639,33.70668259972223],[-84.54281350044266,33.70660569959341],[-84.54349439964676,33.706608400257494],[-84.5435785995727,33.70662869975473],[-84.5437396996274,33.706667500105084],[-84.54394939994484,33.70680710006769],[-84.54407529963532,33.707043299808504],[-84.54414809975498,33.707327599788925],[-84.54422370036343,33.707623099926195],[-84.5443915003674,33.708033900344276],[-84.54444640038105,33.70835329996487],[-84.54438829968024,33.70848209996899]]},"properties":{"overall":33,"safety":100,"sidewalk":0,"sidewalk_present":0,"canopy":0.0,"comfort":0.0,"name":"Hidden Oak Court","road_type":"residential","osm_id":9250353}},{"type":"Feature","geometry":{"type":"LineString","coordinates":[[-84.54033069980193,33.7068666999383],[-84.5403213000879,33.706735999666705],[-84.54034640016619,33.706384100345986]]},"properties":{"overall":33,"safety":100,"sidewalk":0,"sidewalk_present":0,"canopy":0.0,"comfort":0.0,"name":"","road_type":"service","osm_id":730229077}},{"type":"Feature","geometry":{"type":"LineString","coordinates":[[-84.5369442001147,33.70797750026151],[-84.53705130037719,33.707756999985634],[-84.53716540006315,33.70695590009478],[-84.53730230026093,33.70674709999872],[-84.53750309998804,33.70660669963951],[-84.53774499963197,33.70654590007331],[-84.53847369960152,33.706538399727435]]},"properties":{"overall":33,"safety":100,"sidewalk":0,"sidewalk_present":0,"canopy":0.0,"comfort":0.0,"name":"Highgate Court","road_type":"residential","osm_id":9246242}},{"type":"Feature","geometry":{"type":"LineString","coordinates":[[-84.54414809975498,33.707327599788925],[-84.54426459973143,33.7072936998444],[-84.54433529993412,33.707214000126044],[-84.5443650000447,33.707100100089576],[-84.54436269957887,33.70693690011791],[-84.54431019985583,33.7067679004183],[-84.54419839973633,33.706642599676286],[-84.54403640035957,33.70656480022541],[-84.5438219003604,33.70650790011956],[-84.54370319974282,33.70653440044225],[-84.5435785995727,33.70662869975473]]},"properties":{"overall":33,"safety":100,"sidewalk":0,"sidewalk_present":0,"canopy":0.0,"comfort":0.0,"name":"","road_type":"service","osm_id":241550016}},{"type":"Feature","geometry":{"type":"LineString","coordinates":[[-84.53943950043254,33.70663369998533],[-84.53955570003546,33.706792100275266],[-84.53974929979029,33.70688600028876],[-84.5399719998079,33.70693969970745],[-84.54021080038808,33.70689950001196],[-84.54033069980193,33.7068666999383],[-84.54048900026709,33.70682329955571],[-84.54099490039431,33.706684699639254],[-84.54116270039827,33.70666509981453],[-84.54122399998755,33.70665789984224],[-84.5417113003362,33.70666320044637],[-84.54191129966671,33.70672230029396],[-84.5421487998272,33.70684469982308]]},"properties":{"overall":33,"safety":100,"sidewalk":0,"sidewalk_present":0,"canopy":0.0,"comfort":0.0,"name":"Carriage Gate Trail","road_type":"residential","osm_id":241549921}},{"type":"Feature","geometry":{"type":"LineString","coordinates":[[-84.53900419978396,33.708344699748125],[-84.5390138000468,33.70772169979665]]},"properties":{"overall":33,"safety":100,"sidewalk":0,"sidewalk_present":0,"canopy":0.0,"comfort":0.0,"name":"Stratton Place","road_type":"residential","osm_id":9247450}},{"type":"Feature","geometry":{"type":"LineString","coordinates":[[-84.53630351499521,33.7078925979651],[-84.53659580005609,33.70791070041855],[-84.5369442001147,33.70797750026151],[-84.53716540006315,33.708049300335006],[-84.53739820036662,33.708161300103995],[-84.53772680005176,33.708216299942364],[-84.53820140017444,33.708244800357306],[-84.53870339994194,33.70833399961447],[-84.53900419978396,33.708344699748125],[-84.53937710007307,33.70834369970203],[-84.53981570033426,33.708407000282875],[-84.54013519977963,33.708380099761825],[-84.54038320042434,33.708328100061806],[-84.54035789979719,33.70805800037647],[-84.54038730043351,33.70796430001246]]},"properties":{"overall":33,"safety":99,"sidewalk":0,"sidewalk_present":0,"canopy":0.0,"comfort":0.0,"name":"Regency Trace","road_type":"residential","osm_id":9259294}},{"type":"Feature","geometry":{"type":"LineString","coordinates":[[-84.54154670012008,33.70835580008014],[-84.54175190023,33.70855730037914],[-84.54196490016,33.70867009964542],[-84.54215199961504,33.70870489981132],[-84.54238040043509,33.708696599968164]]},"properties":{"overall":33,"safety":100,"sidewalk":0,"sidewalk_present":0,"canopy":0.0,"comfort":0.0,"name":"Stratton Place Southwest","road_type":"residential","osm_id":9272234}},{"type":"Feature","geometry":{"type":"LineString","coordinates":[[-84.54438829968024,33.70848209996899],[-84.54453079995642,33.708619500189855],[-84.54461730034808,33.708671499889874],[-84.54471309972973,33.708717500212515],[-84.54480150038887,33.708771099806484]]},"properties":{"overall":33,"safety":100,"sidewalk":0,"sidewalk_present":0,"canopy":0.0,"comfort":0.0,"name":"","road_type":"service","osm_id":766184882}},{"type":"Feature","geometry":{"type":"LineString","coordinates":[[-84.5469050002655,33.72058270023149],[-84.54682750028888,33.72063750042037],[-84.5466793999343,33.72066060040646],[-84.54660070026205,33.720679899857544],[-84.54649419984742,33.72072990036469],[-84.5463762996265,33.72081660040584],[-84.54630989998185,33.72087990008737]]},"properties":{"overall":33,"safety":99,"sidewalk":0,"sidewalk_present":0,"canopy":0.0,"comfort":0.0,"name":"","road_type":"service","osm_id":729925415}},{"type":"Feature","geometry":{"type":"LineString","coordinates":[[-84.54451129995647,33.72106610022041],[-84.54414280005017,33.72076759994485]]},"properties":{"overall":33,"safety":100,"sidewalk":0,"sidewalk_present":0,"canopy":0.0,"comfort":0.0,"name":"Olde Overlook Court Southwest","road_type":"residential","osm_id":9268967}},{"type":"Feature","geometry":{"type":"LineString","coordinates":[[-84.54497150013458,33.720816499681746],[-84.54511450043378,33.72105280014665],[-84.54508469959916,33.72107519956086],[-84.54507379981595,33.72110060001273],[-84.54507520006041,33.72112899970364],[-84.5450882995853,33.72115869981417],[-84.54511229979278,33.72117559987407],[-84.54514280029997,33.72117800016463],[-84.5452169997647,33.72114720018317],[-84.54522569980617,33.7211266003124],[-84.54522350006442,33.72110239955617],[-84.54521260028122,33.72108129966227],[-84.54518569976022,33.721061900386474],[-84.54515449958046,33.72105280014665],[-84.54511450043378,33.72105280014665]]},"properties":{"overall":32,"safety":96,"sidewalk":0,"sidewalk_present":0,"canopy":0.0,"comfort":0.0,"name":"","road_type":"service","osm_id":868659574}},{"type":"Feature","geometry":{"type":"LineString","coordinates":[[-84.54393299990801,33.724755999689705],[-84.54385199976991,33.72463300031279],[-84.54380300020824,33.724508999990405],[-84.54378200013917,33.72439500012922],[-84.54378300018527,33.72421399987627],[-84.54376600030065,33.724094999784484],[-84.5437230001163,33.72396600013087],[-84.54361999986304,33.72378299978567],[-84.54357000025527,33.723660999555534],[-84.54353999977116,33.72351900020175],[-84.54353599958665,33.72337499985639],[-84.54355799970187,33.723231999557186],[-84.5436149996325,33.723078999696156],[-84.54391499997723,33.72259199972109],[-84.5440039995849,33.72239799976791],[-84.54404999990754,33.72222199974556],[-84.54409600023018,33.72178999960886],[-84.54414299969966,33.72160299997853],[-84.54451129995647,33.72106610022041],[-84.54491259993648,33.720832799893856],[-84.54497150013458,33.720816499681746],[-84.54522219964474,33.72074700007403],[-84.54543259963475,33.72070070027712],[-84.54570659967982,33.72070070027712],[-84.5459289003984,33.720720599576055],[-84.54614329967353,33.72077339967268],[-84.54628620014796,33.720852600267335],[-84.54630989998185,33.72087990008737],[-84.54649259995347,33.721090399902096],[-84.54666340009578,33.72141729986856],[-84.54665939991133,33.72181349979326],[-84.54661169987003,33.72219329968107],[-84.54647910023027,33.72238349999856]]},"properties":{"overall":33,"safety":100,"sidewalk":0,"sidewalk_present":0,"canopy":0.0,"comfort":0.0,"name":"Forest Overlook Drive Southwest","road_type":"residential","osm_id":9267239}},{"type":"Feature","geometry":{"type":"LineString","coordinates":[[-84.548949099921,33.72228959998512],[-84.54913949988799,33.72197299995406],[-84.54929669958295,33.72186289955323],[-84.54946770027414,33.721812399922385],[-84.5497131999042,33.721823899553385],[-84.55004650034567,33.72188060000974]]},"properties":{"overall":33,"safety":100,"sidewalk":0,"sidewalk_present":0,"canopy":0.0,"comfort":0.0,"name":"New Haven Court","road_type":"residential","osm_id":241355063}},{"type":"Feature","geometry":{"type":"LineString","coordinates":[[-84.52877470019223,33.72254760019166],[-84.529332900393,33.72218490001319]]},"properties":{"overall":33,"safety":100,"sidewalk":0,"sidewalk_present":0,"canopy":0.0,"comfort":0.0,"name":"Gathering Park Drive","road_type":"residential","osm_id":9255975}},{"type":"Feature","geometry":{"type":"LineString","coordinates":[[-84.53394280002016,33.72221489959799],[-84.53230310030779,33.7221915999624]]},"properties":{"overall":33,"safety":100,"sidewalk":0,"sidewalk_present":0,"canopy":0.0,"comfort":0.0,"name":"Elysian Drive","road_type":"residential","osm_id":241355831}},{"type":"Feature","geometry":{"type":"LineString","coordinates":[[-84.52772940019162,33.7202927003479],[-84.52749960002649,33.72031580033399],[-84.5272974998797,33.7204278999277],[-84.52717399958038,33.72059600030525],[-84.52710659988963,33.72076409978342],[-84.52711119992188,33.72179130002854],[-84.52700559972862,33.722113699787485],[-84.52674730004782,33.72235189962055],[-84.52615219976417,33.72283280039346],[-84.52606790001352,33.72305699958093],[-84.52603069955711,33.7236057002429],[-84.52606830021188,33.72448949999051],[-84.52601119955716,33.72488660013653],[-84.52609459998575,33.725177199867915],[-84.52635179979569,33.72556929978339]]},"properties":{"overall":33,"safety":99,"sidewalk":0,"sidewalk_present":0,"canopy":0.0,"comfort":0.0,"name":"Celebration Drive Southwest","road_type":"residential","osm_id":9277856}},{"type":"Feature","geometry":{"type":"LineString","coordinates":[[-84.53921792636618,33.722548952772],[-84.5392457001289,33.72239360028448],[-84.53927430666386,33.72223360729521]]},"properties":{"overall":33,"safety":100,"sidewalk":0,"sidewalk_present":0,"canopy":0.0,"comfort":0.0,"name":"New Hope Road Southwest","road_type":"tertiary","osm_id":1302253568}},{"type":"Feature","geometry":{"type":"LineString","coordinates":[[-84.52851019968591,33.72347730043714],[-84.52864499996673,33.72340260005001],[-84.52877970042277,33.72330450020257],[-84.52890329964754,33.72315039957135],[-84.5289313000394,33.72299159998238],[-84.52892569996106,33.72286089971078],[-84.52888639958763,33.722748800117074],[-84.52884710011352,33.7226461002374],[-84.52877470019223,33.72254760019166],[-84.52836990005079,33.72214170017935],[-84.52819580029592,33.72194089955292],[-84.52796559993243,33.721824199926914],[-84.52754460030303,33.721782099964],[-84.52711119992188,33.72179130002854]]},"properties":{"overall":33,"safety":100,"sidewalk":0,"sidewalk_present":0,"canopy":0.0,"comfort":0.0,"name":"Inspiration Way","road_type":"residential","osm_id":9244985}},{"type":"Feature","geometry":{"type":"LineString","coordinates":[[-84.5419701998648,33.722838199923046],[-84.54199849973094,33.72274870029236],[-84.54199179978167,33.722692599683796],[-84.54197150028449,33.722664600191194],[-84.54191980005868,33.722651300117434],[-84.54188099970833,33.722661600052845],[-84.54184420034954,33.7226934000804],[-84.54179040020676,33.72278289971109]]},"properties":{"overall":32,"safety":95,"sidewalk":0,"sidewalk_present":0,"canopy":0.0,"comfort":0.0,"name":"","road_type":"service","osm_id":1294627401}},{"type":"Feature","geometry":{"type":"LineString","coordinates":[[-84.54214329957358,33.72294719955369],[-84.54202170044107,33.7228585003196],[-84.5419701998648,33.722838199923046],[-84.54179040020676,33.72278289971109],[-84.54173610004096,33.722761199969455],[-84.54166720028104,33.722720500250944],[-84.54156110006465,33.72258510012233]]},"properties":{"overall":32,"safety":95,"sidewalk":0,"sidewalk_present":0,"canopy":0.0,"comfort":0.0,"name":"","road_type":"service","osm_id":1294627400}},{"type":"Feature","geometry":{"type":"LineString","coordinates":[[-84.54267389958079,33.722788300139996],[-84.54262249972857,33.72285119962322],[-84.54246670027794,33.72289049999665],[-84.54228169984054,33.7229313004392],[-84.54214329957358,33.72294719955369]]},"properties":{"overall":32,"safety":96,"sidewalk":0,"sidewalk_present":0,"canopy":0.0,"comfort":0.0,"name":"","road_type":"service","osm_id":978037771}},{"type":"Feature","geometry":{"type":"LineString","coordinates":[[-84.53305790040173,33.72473820030774],[-84.53314559958972,33.72457910034524],[-84.53317750034131,33.7239224999235],[-84.5323003996437,33.72310349992665],[-84.53230249956067,33.72239889998929],[-84.53230310030779,33.7221915999624],[-84.53230830018788,33.7204407998031]]},"properties":{"overall":33,"safety":100,"sidewalk":0,"sidewalk_present":0,"canopy":0.0,"comfort":0.0,"name":"Elysian Park","road_type":"residential","osm_id":241355832}},{"type":"Feature","geometry":{"type":"LineString","coordinates":[[-84.54652599987497,33.72338600036369],[-84.54660390004989,33.72329220017497],[-84.5466131999392,33.72325449969543],[-84.54660290000379,33.723199599681834],[-84.54658740018834,33.72314120040613],[-84.5465946999854,33.723101800207985],[-84.54662399989763,33.72305439964089],[-84.54665350035873,33.72300740017141]]},"properties":{"overall":33,"safety":100,"sidewalk":0,"sidewalk_present":0,"canopy":0.0,"comfort":0.0,"name":"","road_type":"service","osm_id":831720228}},{"type":"Feature","geometry":{"type":"LineString","coordinates":[[-84.54081399996608,33.72367400015503],[-84.54035600042903,33.72334800040994],[-84.54028399980672,33.72326300008746],[-84.54022599983,33.723159999834195],[-84.54019300010685,33.72305000015746],[-84.54019500019905,33.72276200036606]]},"properties":{"overall":33,"safety":100,"sidewalk":0,"sidewalk_present":0,"canopy":0.0,"comfort":0.0,"name":"Hamden Forest Trail Southwest","road_type":"residential","osm_id":9270371}},{"type":"Feature","geometry":{"type":"LineString","coordinates":[[-84.54652599987497,33.72338600036369],[-84.54642480006441,33.72328739959386],[-84.54638539986627,33.72326579967694],[-84.54627819977907,33.72322610000458],[-84.54624720014812,33.72320800024909],[-84.54623420044794,33.723187400378265],[-84.54621280018057,33.723142300277004],[-84.5461940996779,33.72309250031867]]},"properties":{"overall":33,"safety":100,"sidewalk":0,"sidewalk_present":0,"canopy":0.0,"comfort":0.0,"name":"","road_type":"service","osm_id":831720227}},{"type":"Feature","geometry":{"type":"LineString","coordinates":[[-84.54414299969966,33.72160299997853],[-84.54441880018743,33.72166219965084],[-84.54464610023729,33.72173809973356],[-84.54484830020886,33.72186889982993],[-84.54497739968718,33.72200780011991],[-84.54505500038795,33.72213500023014],[-84.54515570017537,33.72244789955096],[-84.54514800018,33.722568000412934],[-84.54511499955754,33.722778000204585],[-84.545076399756,33.722933699830435],[-84.54503210005134,33.723112199968114],[-84.54503500036492,33.72323599974163],[-84.54507899969605,33.7233369999027],[-84.54513499958051,33.723413999856234],[-84.54519999988003,33.72346899969466],[-84.54532410002713,33.723530099634445],[-84.54548410021101,33.72357569975878],[-84.54565109981837,33.723615400330516],[-84.5458505002004,33.723650400145914],[-84.5460301002089,33.72360840000772],[-84.54626310016192,33.72347990037713],[-84.54652599987497,33.72338600036369]]},"properties":{"overall":33,"safety":100,"sidewalk":0,"sidewalk_present":0,"canopy":0.0,"comfort":0.0,"name":"Forest Overlook Trail Southwest","road_type":"residential","osm_id":9254982}},{"type":"Feature","geometry":{"type":"LineString","coordinates":[[-84.52603069955711,33.7236057002429],[-84.52545040031566,33.72358930020607],[-84.52508450034935,33.72345459975003],[-84.52495630019308,33.72329049955698],[-84.52490009975975,33.72301500034206],[-84.52490259987502,33.72252800036699]]},"properties":{"overall":33,"safety":100,"sidewalk":0,"sidewalk_present":0,"canopy":0.0,"comfort":0.0,"name":"Legacy Place Southwest","road_type":"residential","osm_id":9272726}},{"type":"Feature","geometry":{"type":"LineString","coordinates":[[-84.54005380034255,33.72426899971464],[-84.54016899989938,33.724192999807144],[-84.54065499982835,33.72384299985464],[-84.54081399996608,33.72367400015503],[-84.54092199955062,33.723517000109496],[-84.54102199966553,33.72345800008668],[-84.54111200021862,33.723425000363534],[-84.54135999996402,33.723387999556564],[-84.541694000078,33.72338100013309],[-84.54182599986996,33.72334500027159],[-84.54189200021563,33.7233030001334],[-84.54201599963864,33.72321899985701],[-84.54208099993815,33.72313599962672],[-84.54214329957358,33.72294719955369]]},"properties":{"overall":33,"safety":99,"sidewalk":0,"sidewalk_present":0,"canopy":0.0,"comfort":0.0,"name":"Hamden Forest Drive Southwest","road_type":"residential","osm_id":9272473}},{"type":"Feature","geometry":{"type":"LineString","coordinates":[[-84.53393069964204,33.72345850010976],[-84.53412209965512,33.72345959998063],[-84.5344198004334,33.72344400034041],[-84.53459950026667,33.72339709979639],[-84.53478719956956,33.723336900077925],[-84.53484220030725,33.723260999995205],[-84.53487839981824,33.723128299631355]]},"properties":{"overall":33,"safety":100,"sidewalk":0,"sidewalk_present":0,"canopy":0.0,"comfort":0.0,"name":"","road_type":"service","osm_id":564668230}},{"type":"Feature","geometry":{"type":"LineString","coordinates":[[-84.53083639958015,33.72622659987775],[-84.53083410001369,33.725777699681146],[-84.53083259994452,33.72546840034647],[-84.53082549979695,33.724064400351836],[-84.53085510008276,33.723902900098835],[-84.53093329973194,33.723730199689044],[-84.53097379980096,33.723543999556],[-84.53102769976852,33.72322099994926],[-84.53097379980096,33.72222520043272],[-84.53100349991155,33.72192010003266],[-84.53099539971788,33.72127409991981],[-84.53097920022987,33.72117099984183],[-84.53091450030394,33.72100500028057]]},"properties":{"overall":33,"safety":99,"sidewalk":0,"sidewalk_present":0,"canopy":0.0,"comfort":0.0,"name":"","road_type":"residential","osm_id":243299015}},{"type":"Feature","geometry":{"type":"LineString","coordinates":[[-84.52925100003358,33.72430899976058],[-84.52925760015808,33.724207299927],[-84.52925629973839,33.72408550024568],[-84.52925500021803,33.72391339968368],[-84.52927209992743,33.723834399637894],[-84.52933269984419,33.72369510004887],[-84.52941190043884,33.72361180034437],[-84.52948829964527,33.72359099992474],[-84.52964259992604,33.72359319966648],[-84.52979549996229,33.72355919989718],[-84.52987729959767,33.72350429988359],[-84.52992210022472,33.723408899800916],[-84.52992739992953,33.72333439996265]]},"properties":{"overall":33,"safety":100,"sidewalk":0,"sidewalk_present":0,"canopy":0.0,"comfort":0.0,"name":"","road_type":"service","osm_id":716721308}},{"type":"Feature","geometry":{"type":"LineString","coordinates":[[-84.54189200021563,33.7233030001334],[-84.54221699991456,33.72364799985536]]},"properties":{"overall":33,"safety":100,"sidewalk":0,"sidewalk_present":0,"canopy":0.0,"comfort":0.0,"name":"Hamden Trace Southwest","road_type":"residential","osm_id":9253130}},{"type":"Feature","geometry":{"type":"LineString","coordinates":[[-84.54896020025302,33.72344140040036],[-84.54906219956081,33.72367080036719],[-84.54920569988309,33.72379469996548],[-84.54942079973006,33.72387729999747],[-84.54978890033743,33.72395429995106]]},"properties":{"overall":33,"safety":100,"sidewalk":0,"sidewalk_present":0,"canopy":0.0,"comfort":0.0,"name":"Jewel Drive","road_type":"residential","osm_id":241355062}},{"type":"Feature","geometry":{"type":"LineString","coordinates":[[-84.53390770038004,33.72410979992736],[-84.53428190018951,33.72410240030558],[-84.5343470003138,33.72405570031037],[-84.5343830001753,33.72396969994173],[-84.53439420033203,33.723878100394074],[-84.5343718000185,33.7238052004497],[-84.53430879981124,33.7237583997304],[-84.53410430027321,33.72367810016425],[-84.53392380004328,33.72365369975847]]},"properties":{"overall":32,"safety":97,"sidewalk":0,"sidewalk_present":0,"canopy":0.0,"comfort":0.0,"name":"","road_type":"service","osm_id":729918430}},{"type":"Feature","geometry":{"type":"LineString","coordinates":[[-84.52508450034935,33.72345459975003],[-84.52493940013318,33.72364999994761],[-84.52488889960301,33.72391620017254],[-84.52486790043321,33.7252125000569]]},"properties":{"overall":33,"safety":100,"sidewalk":0,"sidewalk_present":0,"canopy":0.0,"comfort":0.0,"name":"Legend Court Southwest","road_type":"residential","osm_id":9278042}},{"type":"Feature","geometry":{"type":"LineString","coordinates":[[-84.54005380034255,33.72426899971464],[-84.53995840025993,33.72416870012546],[-84.53981520031118,33.72409699987668],[-84.53944399974074,33.724031999577164],[-84.53899505098076,33.723973190210586]]},"properties":{"overall":33,"safety":99,"sidewalk":0,"sidewalk_present":0,"canopy":0.0,"comfort":0.0,"name":"Guilford Forest Drive Southwest","road_type":"residential","osm_id":917313003}},{"type":"Feature","geometry":{"type":"LineString","coordinates":[[-84.53898083719582,33.724119350727506],[-84.53955439961584,33.72417499987637],[-84.53965329985988,33.72418729990403],[-84.53982329960553,33.724226100254384],[-84.53991490005257,33.724250899959145],[-84.54005380034255,33.72426899971464]]},"properties":{"overall":33,"safety":99,"sidewalk":0,"sidewalk_present":0,"canopy":0.0,"comfort":0.0,"name":"Guilford Forest Drive Southwest","road_type":"residential","osm_id":9242410}},{"type":"Feature","geometry":{"type":"LineString","coordinates":[[-84.52863160006825,33.724309099585355],[-84.52925100003358,33.72430899976058],[-84.52980550042349,33.72430889993586]]},"properties":{"overall":33,"safety":100,"sidewalk":0,"sidewalk_present":0,"canopy":0.0,"comfort":0.0,"name":"Reunion Court Southwest","road_type":"residential","osm_id":9270128}},{"type":"Feature","geometry":{"type":"LineString","coordinates":[[-84.5344123999123,33.724409400073796],[-84.53417320003314,33.724391199594265],[-84.53389889961448,33.72440029983403]]},"properties":{"overall":33,"safety":100,"sidewalk":0,"sidewalk_present":0,"canopy":0.0,"comfort":0.0,"name":"","road_type":"service","osm_id":729918431}},{"type":"Feature","geometry":{"type":"LineString","coordinates":[[-84.52603184619272,33.725959200856494],[-84.52603989962165,33.72584479989763],[-84.5261746000777,33.725697699589205],[-84.52635179979569,33.72556929978339],[-84.52651139978121,33.72553709955753],[-84.52802400010751,33.72554040006946],[-84.5282106004388,33.72550729962222],[-84.52838530004152,33.72541489967796],[-84.52850039977358,33.7253257004208],[-84.52859970021598,33.7251540000571],[-84.52862530031734,33.72447510004588],[-84.52863160006825,33.724309099585355],[-84.52861689975009,33.7237294001917],[-84.52851019968591,33.72347730043714],[-84.52831369961751,33.72334650034077],[-84.52810040021325,33.723257800207364],[-84.52784209963318,33.723285799699966],[-84.52760070001227,33.72333719955219],[-84.52740980002221,33.72349590021565],[-84.52722350006445,33.723581399661896]]},"properties":{"overall":33,"safety":98,"sidewalk":0,"sidewalk_present":0,"canopy":0.0,"comfort":0.0,"name":"Reunion Place Southwest","road_type":"residential","osm_id":9264671}},{"type":"Feature","geometry":{"type":"LineString","coordinates":[[-84.54907329989283,33.7207845000047],[-84.54951740040764,33.72074550000485],[-84.5496884001995,33.720763800309214],[-84.54990080028165,33.720864799570904],[-84.55006910030869,33.72101389997158],[-84.55013809989333,33.721167700229216],[-84.55014910040063,33.72132830026089],[-84.55004650034567,33.72188060000974],[-84.55000839966789,33.7220853999213],[-84.55003320027191,33.72234700011404],[-84.55007189989823,33.72262689971171],[-84.55002770001829,33.72310869980669],[-84.54978890033743,33.72395429995106],[-84.54971600039306,33.7242123001576],[-84.5496719003379,33.724485300156516],[-84.54968570043468,33.72475610041374],[-84.5497656996273,33.72519429957731],[-84.54974080009782,33.72540769970561],[-84.5496305000475,33.725582000009354],[-84.54958449972486,33.72561249961723],[-84.54944010008052,33.72570820007343],[-84.54919740003993,33.725779299575095],[-84.54900149981933,33.725774700442116],[-84.54841670037041,33.72568989976912],[-84.54792019995722,33.72577249980105],[-84.54756710004159,33.72578620007312],[-84.54746490018493,33.72577790022996],[-84.54737999968722,33.72577099973188]]},"properties":{"overall":33,"safety":100,"sidewalk":0,"sidewalk_present":0,"canopy":0.0,"comfort":0.0,"name":"Guilford Forest Drive","road_type":"residential","osm_id":241355060}},{"type":"Feature","geometry":{"type":"LineString","coordinates":[[-84.52606830021188,33.72448949999051],[-84.52689650027321,33.72450029994894],[-84.52748920026636,33.72459960039129]]},"properties":{"overall":33,"safety":100,"sidewalk":0,"sidewalk_present":0,"canopy":0.0,"comfort":0.0,"name":"Celebration Court","road_type":"residential","osm_id":9276429}},{"type":"Feature","geometry":{"type":"LineString","coordinates":[[-84.54005380034255,33.72426899971464],[-84.54023999957627,33.724405999737144],[-84.54061199964406,33.724880000012035],[-84.54072699955134,33.72499700001157],[-84.5408350000352,33.725078000149665],[-84.54094000038066,33.72513700017248],[-84.5412340004487,33.72524599980312],[-84.54167400005502,33.72538800005623],[-84.54185000007743,33.72541300030974],[-84.54201000026126,33.7254140003559],[-84.54218600028366,33.72539100019458],[-84.5423380000986,33.72535000010248],[-84.54281799975087,33.72513199994188],[-84.54341800044034,33.72495900005788],[-84.54393299990801,33.724755999689705],[-84.54415800039135,33.72470800017413],[-84.54437799974488,33.72470299994353],[-84.54459399981323,33.72473899980503],[-84.54473070036147,33.724790299832534],[-84.54480999988158,33.72481999994312],[-84.54526800031795,33.725119000241705],[-84.54536100011,33.7251960001953],[-84.5454739999251,33.72532499984891],[-84.54566699983212,33.72562600023974],[-84.54579000010835,33.72573800000873],[-84.54594500006169,33.72582100023902],[-84.54612000003794,33.725866999662344],[-84.54629700010645,33.725875000031294],[-84.54638999989857,33.72586499957015],[-84.54676500010464,33.72578200023918],[-84.54685899994286,33.72577199977803],[-84.54702989990989,33.725765000354556],[-84.54715400005699,33.725760000123955],[-84.54737999968722,33.72577099973188]]},"properties":{"overall":33,"safety":100,"sidewalk":0,"sidewalk_present":0,"canopy":0.0,"comfort":0.0,"name":"Guilford Forest Drive Southwest","road_type":"residential","osm_id":917313004}},{"type":"Feature","geometry":{"type":"LineString","coordinates":[[-84.53305790040173,33.72473820030774],[-84.53298579995464,33.72475079980961],[-84.53291769969206,33.72478629964809],[-84.53286820010732,33.72481890007225],[-84.53265720026951,33.72497630031609]]},"properties":{"overall":33,"safety":100,"sidewalk":0,"sidewalk_present":0,"canopy":0.0,"comfort":0.0,"name":"","road_type":"service","osm_id":905275659}},{"type":"Feature","geometry":{"type":"LineString","coordinates":[[-84.5338976999189,33.72477920039984],[-84.53400909984003,33.724785500150745],[-84.53406979958157,33.72481520026133],[-84.53410220035624,33.724866699938275],[-84.53411849966898,33.724892700238],[-84.53418569971024,33.7249359998965],[-84.53431680018014,33.724963000242326]]},"properties":{"overall":33,"safety":100,"sidewalk":0,"sidewalk_present":0,"canopy":0.0,"comfort":0.0,"name":"","road_type":"service","osm_id":830758696}},{"type":"Feature","geometry":{"type":"LineString","coordinates":[[-84.5412340004487,33.72524599980312],[-84.54139199964101,33.72490200012726],[-84.54142999959475,33.724778999851026]]},"properties":{"overall":33,"safety":100,"sidewalk":0,"sidewalk_present":0,"canopy":0.0,"comfort":0.0,"name":"Guilford Forest Lane Southwest","road_type":"residential","osm_id":9247958}},{"type":"Feature","geometry":{"type":"LineString","coordinates":[[-84.54473070036147,33.724790299832534],[-84.5446098000022,33.725032499850045]]},"properties":{"overall":29,"safety":87,"sidewalk":0,"sidewalk_present":0,"canopy":0.0,"comfort":0.0,"name":"","road_type":"service","osm_id":1466997851}},{"type":"Feature","geometry":{"type":"LineString","coordinates":[[-84.54702989990989,33.725765000354556],[-84.5470158003389,33.72568259997206],[-84.54698290044047,33.72548979971452],[-84.54691099964288,33.72514880017701],[-84.54691640007178,33.72512029976207],[-84.54695060038983,33.725105399794415],[-84.54710880013096,33.72507700010351]]},"properties":{"overall":33,"safety":100,"sidewalk":0,"sidewalk_present":0,"canopy":0.0,"comfort":0.0,"name":"","road_type":"service","osm_id":713391698}},{"type":"Feature","geometry":{"type":"LineString","coordinates":[[-84.52976269988864,33.7262125003067],[-84.529758900253,33.725213500102996]]},"properties":{"overall":33,"safety":99,"sidewalk":0,"sidewalk_present":0,"canopy":0.0,"comfort":0.0,"name":"Rehoboth Circle Southwest","road_type":"residential","osm_id":200075282}},{"type":"Feature","geometry":{"type":"LineString","coordinates":[[-84.53083259994452,33.72546840034647],[-84.53070089962677,33.72546500000982],[-84.5305734998671,33.72545799968697],[-84.53042829982616,33.72545510027271]]},"properties":{"overall":33,"safety":100,"sidewalk":0,"sidewalk_present":0,"canopy":0.0,"comfort":0.0,"name":"","road_type":"service","osm_id":715419450}},{"type":"Feature","geometry":{"type":"LineString","coordinates":[[-84.52838530004152,33.72541489967796],[-84.52859169984703,33.7255964997787]]},"properties":{"overall":33,"safety":100,"sidewalk":0,"sidewalk_present":0,"canopy":0.0,"comfort":0.0,"name":"","road_type":"service","osm_id":200075285}},{"type":"Feature","geometry":{"type":"LineString","coordinates":[[-84.54737999968722,33.72577099973188],[-84.5473829000008,33.72572970016557],[-84.54735219984411,33.72569530019797],[-84.5470158003389,33.72568259997206]]},"properties":{"overall":33,"safety":100,"sidewalk":0,"sidewalk_present":0,"canopy":0.0,"comfort":0.0,"name":"","road_type":"service","osm_id":713391699}},{"type":"Feature","geometry":{"type":"LineString","coordinates":[[-84.549843300328,33.726202300196064],[-84.54977989992238,33.72583519963479],[-84.54971090033774,33.72572269984278],[-84.54958449972486,33.72561249961723]]},"properties":{"overall":33,"safety":100,"sidewalk":0,"sidewalk_present":0,"canopy":0.0,"comfort":0.0,"name":"Jewel Court","road_type":"residential","osm_id":241355061}},{"type":"Feature","geometry":{"type":"LineString","coordinates":[[-84.53038679971098,33.72622070032509],[-84.53041089974317,33.72610950005344],[-84.53043310040721,33.725957100040205],[-84.53040900037502,33.7257400999257],[-84.530409399674,33.72573089986122],[-84.53041639999685,33.725536899908036],[-84.53042829982616,33.72545510027271],[-84.53044600028267,33.72533229964597],[-84.53048670000118,33.725119899563765]]},"properties":{"overall":32,"safety":96,"sidewalk":0,"sidewalk_present":0,"canopy":0.0,"comfort":0.0,"name":"","road_type":"service","osm_id":715419448}},{"type":"Feature","geometry":{"type":"LineString","coordinates":[[-84.53083410001369,33.725777699681146],[-84.53063590022657,33.72574679987497],[-84.530409399674,33.72573089986122]]},"properties":{"overall":33,"safety":100,"sidewalk":0,"sidewalk_present":0,"canopy":0.0,"comfort":0.0,"name":"","road_type":"service","osm_id":715419449}},{"type":"Feature","geometry":{"type":"LineString","coordinates":[[-84.53500080024668,33.7262664002742],[-84.534978999781,33.726154899628966],[-84.53495069991482,33.72610669956458],[-84.53459679960258,33.72592139965292],[-84.53457690030365,33.72586560031726]]},"properties":{"overall":33,"safety":100,"sidewalk":0,"sidewalk_present":0,"canopy":0.0,"comfort":0.0,"name":"","road_type":"service","osm_id":715719761}},{"type":"Feature","geometry":{"type":"LineString","coordinates":[[-84.54429339962064,33.725817000054576],[-84.54413889969044,33.72594320011865],[-84.54358719978939,33.72604420027966],[-84.54336930035288,33.72612909987811],[-84.54314029968504,33.72629649968377],[-84.54299130000845,33.72647549984447],[-84.54293249963513,33.726652699562464]]},"properties":{"overall":33,"safety":100,"sidewalk":0,"sidewalk_present":0,"canopy":0.0,"comfort":0.0,"name":"Claridge Trace Southwest","road_type":"residential","osm_id":241355058}},{"type":"Feature","geometry":{"type":"LineString","coordinates":[[-84.5339510000386,33.72748699972533],[-84.53389300006188,33.726239999776226]]},"properties":{"overall":31,"safety":93,"sidewalk":0,"sidewalk_present":0,"canopy":0.0,"comfort":0.0,"name":"Niskey Lake Circle Southwest","road_type":"residential","osm_id":9263807}},{"type":"Feature","geometry":{"type":"MultiLineString","coordinates":[[[-84.52724357652977,33.72617940075878],[-84.52976269988864,33.7262125003067],[-84.53038679971098,33.72622070032509],[-84.53071840043378,33.7262249999838],[-84.53083639958015,33.72622659987775],[-84.53087300018876,33.72622709990077],[-84.53265620022341,33.726234700071416],[-84.53389300006188,33.726239999776226],[-84.53437399976025,33.72624399996067],[-84.53500080024668,33.7262664002742],[-84.5351107000987,33.72627029973461],[-84.53513099959594,33.7262710003065],[-84.53536289967803,33.72630340018185],[-84.53550999998646,33.726324000052614],[-84.53610579994267,33.726477599761495],[-84.5363999996602,33.7265860004436],[-84.53675699993556,33.726755000143214],[-84.53691261592445,33.7268516844577]],[[-84.53845340819817,33.72727480828581],[-84.5391125995668,33.72725880035341],[-84.53915738760332,33.72724000092535]],[[-84.53923367259586,33.72720798236253],[-84.53925960005046,33.727197099666455]]]},"properties":{"overall":33,"safety":100,"sidewalk":0,"sidewalk_present":0,"canopy":0.0,"comfort":0.0,"name":"Danforth Road Southwest","road_type":"tertiary","osm_id":9254961}},{"type":"Feature","geometry":{"type":"LineString","coordinates":[[-84.53536289967803,33.72630340018185],[-84.53534880010699,33.72652219983968],[-84.53527189997817,33.7267093001941]]},"properties":{"overall":33,"safety":100,"sidewalk":0,"sidewalk_present":0,"canopy":0.0,"comfort":0.0,"name":"","road_type":"service","osm_id":715719760}},{"type":"Feature","geometry":{"type":"LineString","coordinates":[[-84.5351107000987,33.72627029973461],[-84.5351036997759,33.72642040018138],[-84.53506059976684,33.72662210012987],[-84.53501759958255,33.72669559992204],[-84.53496540023298,33.72675590036454]]},"properties":{"overall":33,"safety":100,"sidewalk":0,"sidewalk_present":0,"canopy":0.0,"comfort":0.0,"name":"","road_type":"service","osm_id":962162399}},{"type":"Feature","geometry":{"type":"LineString","coordinates":[[-84.54201000026126,33.7254140003559],[-84.54203200037648,33.72553100035543],[-84.54203200037648,33.72563699984772],[-84.54201200035351,33.72575399984726],[-84.54197100026141,33.725866999662344],[-84.54176639999935,33.72641220016294],[-84.54162289967707,33.726646200162065],[-84.54144639963158,33.72678620032292],[-84.5411622003752,33.72689629982443],[-84.54018830024984,33.72699760035903],[-84.53972779969814,33.72704540022511],[-84.53925960005046,33.727197099666455]]},"properties":{"overall":31,"safety":93,"sidewalk":0,"sidewalk_present":0,"canopy":0.0,"comfort":0.0,"name":"Bethany Forest Drive Southwest","road_type":"residential","osm_id":9242376}},{"type":"Feature","geometry":{"type":"LineString","coordinates":[[-84.54189219986512,33.72775060001021],[-84.54088570021486,33.727831699973024],[-84.54065549985143,33.72779930009767],[-84.5404799998521,33.72771489962298],[-84.54030440002799,33.72756890008475],[-84.54023419984838,33.72737099977189],[-84.54018830024984,33.72699760035903],[-84.5401366998488,33.72667989955778],[-84.54008990002882,33.72655990031922],[-84.53963339966162,33.726082899905975],[-84.53960220038118,33.72594659955598],[-84.5396178000214,33.72572920014255],[-84.53959830002151,33.72556049991721],[-84.53943059984226,33.72509650010346],[-84.53930570019787,33.724992700352914]]},"properties":{"overall":33,"safety":100,"sidewalk":0,"sidewalk_present":0,"canopy":0.0,"comfort":0.0,"name":"Willowood Lane Southwest","road_type":"residential","osm_id":241355064}},{"type":"Feature","geometry":{"type":"LineString","coordinates":[[-84.54629700010645,33.725875000031294],[-84.54633299996794,33.72600299963875],[-84.54633500006014,33.72612399982279],[-84.54630300038315,33.72625300037572],[-84.54624400036028,33.726364000098556],[-84.54610900042996,33.726505000305565],[-84.54579899962408,33.72673099993574],[-84.54566299964767,33.72680999998158],[-84.5454430002942,33.726890000073524],[-84.5451890002721,33.72692699998112],[-84.54420199972247,33.726876000327195],[-84.54394310019387,33.72687700037329],[-84.54373339987649,33.7269343996029],[-84.54338010031137,33.727053600243494]]},"properties":{"overall":33,"safety":100,"sidewalk":0,"sidewalk_present":0,"canopy":0.0,"comfort":0.0,"name":"Forest Crossing Drive Southwest","road_type":"residential","osm_id":9258220}},{"type":"Feature","geometry":{"type":"LineString","coordinates":[[-84.53610579994267,33.726477599761495],[-84.53609130017333,33.72676239976499],[-84.53606090039023,33.726838299847714],[-84.53598400026135,33.72694990031772]]},"properties":{"overall":33,"safety":100,"sidewalk":0,"sidewalk_present":0,"canopy":0.0,"comfort":0.0,"name":"","road_type":"service","osm_id":729918429}},{"type":"Feature","geometry":{"type":"LineString","coordinates":[[-84.53080680019366,33.727021099644105],[-84.53086749993514,33.726850000027525],[-84.53087300018876,33.72622709990077]]},"properties":{"overall":33,"safety":100,"sidewalk":0,"sidewalk_present":0,"canopy":0.0,"comfort":0.0,"name":"Regency Center Drive Southwest","road_type":"residential","osm_id":564663232}},{"type":"Feature","geometry":{"type":"LineString","coordinates":[[-84.53071840043378,33.7262249999838],[-84.53071829970975,33.726870500073574],[-84.53080680019366,33.727021099644105]]},"properties":{"overall":33,"safety":100,"sidewalk":0,"sidewalk_present":0,"canopy":0.0,"comfort":0.0,"name":"Regency Center Drive Southwest","road_type":"residential","osm_id":564663227}},{"type":"Feature","geometry":{"type":"LineString","coordinates":[[-84.53265620022341,33.726234700071416],[-84.532668000228,33.726340099715856],[-84.53270879977123,33.726400800356714],[-84.53287189991823,33.726488200070435],[-84.5329749001715,33.72655159957674],[-84.53300710039736,33.72669790038782],[-84.53306520019879,33.72687639962618],[-84.53311240021708,33.7270530003957],[-84.53310599974208,33.727206500279806],[-84.53320470033663,33.72742420006682],[-84.53328619959842,33.727556299683556],[-84.53336559984251,33.727656199973694],[-84.53372400036227,33.72756520027383]]},"properties":{"overall":33,"safety":100,"sidewalk":0,"sidewalk_present":0,"canopy":0.0,"comfort":0.0,"name":"","road_type":"service","osm_id":1257761122}},{"type":"Feature","geometry":{"type":"LineString","coordinates":[[-84.5307860995988,33.727421100103754],[-84.53028740034324,33.72742770022825],[-84.52941279976085,33.72736489967042],[-84.52892040025625,33.72734469999796],[-84.5278885999789,33.72747049986373],[-84.52792659993258,33.727209500418155],[-84.5279598002046,33.72706199991143],[-84.52806329958156,33.7269637004145],[-84.5283218996359,33.72681929987084]]},"properties":{"overall":33,"safety":100,"sidewalk":0,"sidewalk_present":0,"canopy":0.0,"comfort":0.0,"name":"Regency Crest Drive Southwest","road_type":"residential","osm_id":9266454}},{"type":"Feature","geometry":{"type":"LineString","coordinates":[[-84.53479489956493,33.72775450036994],[-84.53497670021449,33.727699899830554],[-84.5351523998633,33.72764220022742],[-84.5353235003792,33.72756339983107]]},"properties":{"overall":31,"safety":93,"sidewalk":0,"sidewalk_present":0,"canopy":0.0,"comfort":0.0,"name":"","road_type":"service","osm_id":962162400}},{"type":"Feature","geometry":{"type":"LineString","coordinates":[[-84.54664700005895,33.72732400030242],[-84.54691099964288,33.72763700034733],[-84.54700100019596,33.7277189996322],[-84.5471089997805,33.72778600002391],[-84.54724199961856,33.72783799972399],[-84.54739600042507,33.72786700016201],[-84.54751799975583,33.7278690002542],[-84.54774500033147,33.72784700013898]]},"properties":{"overall":33,"safety":99,"sidewalk":0,"sidewalk_present":0,"canopy":0.0,"comfort":0.0,"name":"Beaver Falls Place Southwest","road_type":"residential","osm_id":9265445}},{"type":"Feature","geometry":{"type":"LineString","coordinates":[[-84.54737999968722,33.72577099973188],[-84.54739300028672,33.725941000376906],[-84.54738800005612,33.72612099968444],[-84.54742800010206,33.726235000444944],[-84.5475440000555,33.7264729997292],[-84.5475490002861,33.726715000097215],[-84.54751499961748,33.72684299970473],[-84.54741400035579,33.726948000050186],[-84.54723800033344,33.72707300041867],[-84.54714399959585,33.727129000303194],[-84.54685499975841,33.72722600027976],[-84.54664700005895,33.72732400030242],[-84.5464730001288,33.72742699965636],[-84.54605899992288,33.72776900013929],[-84.54591400043074,33.727845000046784],[-84.54575400024686,33.72789599970065],[-84.54561600017826,33.72791799981587],[-84.54547600001735,33.727922000000376],[-84.54471499999721,33.72784700013898],[-84.54429599956069,33.72784700013898],[-84.5439291004476,33.72781169995005],[-84.543675300075,33.72762360044885],[-84.54351529989111,33.727375800352945],[-84.54338010031137,33.727053600243494],[-84.54331109982735,33.72688940022567],[-84.5431180000956,33.72671509992199],[-84.54293249963513,33.726652699562464],[-84.54176639999935,33.72641220016294]]},"properties":{"overall":33,"safety":100,"sidewalk":0,"sidewalk_present":0,"canopy":0.0,"comfort":0.0,"name":"New Britain Drive Southwest","road_type":"residential","osm_id":9277252}},{"type":"Feature","geometry":{"type":"LineString","coordinates":[[-84.53111570022935,33.72850220031637],[-84.53109399958839,33.72821009961643],[-84.53107000028024,33.7280820001842],[-84.53102180021585,33.727997999907814],[-84.53094239997176,33.72792590036005],[-84.53065440018037,33.727780599595064]]},"properties":{"overall":32,"safety":97,"sidewalk":0,"sidewalk_present":0,"canopy":0.0,"comfort":0.0,"name":"","road_type":"service","osm_id":824743842}},{"type":"Feature","geometry":{"type":"LineString","coordinates":[[-84.53503699975772,33.72806159996293],[-84.5350926003432,33.728055200387246],[-84.53517359958192,33.72805349976926],[-84.5352467000751,33.72804850043798],[-84.53533170039759,33.728046000322706],[-84.53540870035118,33.728032700248946],[-84.5354827999912,33.72801439994464],[-84.5355308004061,33.727982799566576],[-84.53555080042906,33.72793620029546]]},"properties":{"overall":33,"safety":100,"sidewalk":0,"sidewalk_present":0,"canopy":0.0,"comfort":0.0,"name":"","road_type":"service","osm_id":896411256}},{"type":"Feature","geometry":{"type":"LineString","coordinates":[[-84.52941279976085,33.72736489967042],[-84.5291494998495,33.727943900290825],[-84.52894240037142,33.72836909975422],[-84.5286766003448,33.72842940019672],[-84.5278465998407,33.72844359959248]]},"properties":{"overall":33,"safety":100,"sidewalk":0,"sidewalk_present":0,"canopy":0.0,"comfort":0.0,"name":"Regency Crest Court Southwest","road_type":"residential","osm_id":9245456}},{"type":"Feature","geometry":{"type":"LineString","coordinates":[[-84.53784299965469,33.72886000008896],[-84.5380860000688,33.72842799995226],[-84.53810580044228,33.7282591999022]]},"properties":{"overall":33,"safety":100,"sidewalk":0,"sidewalk_present":0,"canopy":0.0,"comfort":0.0,"name":"Greencup Court Southwest","road_type":"residential","osm_id":9254507}},{"type":"Feature","geometry":{"type":"LineString","coordinates":[[-84.53709266199672,33.72696760527083],[-84.53687600002735,33.72720900039508],[-84.53682899965855,33.727292999772146],[-84.53679900007376,33.72739099979486],[-84.53678300023523,33.72866900027418],[-84.53677499986634,33.729569999555906],[-84.53681299982003,33.72968500036251],[-84.53688999977362,33.72977900020078]]},"properties":{"overall":33,"safety":100,"sidewalk":0,"sidewalk_present":0,"canopy":0.0,"comfort":0.0,"name":"Apollo Drive Southwest","road_type":"residential","osm_id":9274380}},{"type":"Feature","geometry":{"type":"LineString","coordinates":[[-84.53678300023523,33.72866900027418],[-84.53702699979618,33.72867499965156],[-84.53730900021014,33.72870900032018],[-84.53758400030131,33.728770999582025],[-84.53784299965469,33.72886000008896],[-84.53813000029925,33.72899600006542],[-84.53842260012289,33.729162999672724],[-84.53860389985005,33.7293295999811]]},"properties":{"overall":33,"safety":100,"sidewalk":0,"sidewalk_present":0,"canopy":0.0,"comfort":0.0,"name":"Greencup Lane Southwest","road_type":"residential","osm_id":9276568}},{"type":"Feature","geometry":{"type":"LineString","coordinates":[[-84.5337669996473,33.72898389968725],[-84.53349249957915,33.72909819992202],[-84.53342340016974,33.729120100212526],[-84.53331489966286,33.729143399848056]]},"properties":{"overall":33,"safety":99,"sidewalk":0,"sidewalk_present":0,"canopy":0.0,"comfort":0.0,"name":"","road_type":"service","osm_id":962162401}},{"type":"Feature","geometry":{"type":"LineString","coordinates":[[-84.5214129002851,33.72917019964507],[-84.52139329956111,33.72921569994463],[-84.52131070852232,33.72930087293696]]},"properties":{"overall":33,"safety":100,"sidewalk":0,"sidewalk_present":0,"canopy":0.0,"comfort":0.0,"name":"","road_type":"service","osm_id":737831677}},{"type":"Feature","geometry":{"type":"LineString","coordinates":[[-84.53035830019536,33.728877300347165],[-84.53019880003455,33.72892410016715],[-84.53006950000736,33.729013199599535],[-84.52988100030785,33.729320499741334],[-84.52975540009163,33.72948950034021],[-84.52960760011064,33.72955709968045],[-84.52941920023585,33.72956319978192],[-84.52924559960468,33.72950180036787],[-84.52901650001144,33.72944340019279],[-84.5283033996821,33.72945260025733],[-84.52782390005291,33.729483099865206]]},"properties":{"overall":33,"safety":100,"sidewalk":0,"sidewalk_present":0,"canopy":0.0,"comfort":0.0,"name":"Park Center Drive Southwest","road_type":"residential","osm_id":9275752}},{"type":"Feature","geometry":{"type":"LineString","coordinates":[[-84.53396699987712,33.72808799956158],[-84.5339510000386,33.72748699972533],[-84.53443599992141,33.727485999679175],[-84.53456400042825,33.72752499967902],[-84.53466599973603,33.72759100002469],[-84.53479489956493,33.72775450036994],[-84.53503699975772,33.72806159996293],[-84.53555700035525,33.7287209999742],[-84.53559300021675,33.72880300015839],[-84.53561400028588,33.728901000181054],[-84.53559899959413,33.72910699978826],[-84.5355849998478,33.72919000001855],[-84.53555100007856,33.729279999672315],[-84.53550000042463,33.7293639999487],[-84.53543500012512,33.729440999902295],[-84.53536119995937,33.72950280041397],[-84.53535500003318,33.729508000294004],[-84.53526400033331,33.72956400017853],[-84.53506900033403,33.72963399980932],[-84.53495799971188,33.729650999693945],[-84.53457500003617,33.72964600036266],[-84.53446000012889,33.72963299976317],[-84.53434999955277,33.72960300017837],[-84.53425699976071,33.72956300013243],[-84.53409799962293,33.729450000317286],[-84.53381700015439,33.72909500013418],[-84.5337669996473,33.72898389968725],[-84.53375399994712,33.728954999973325],[-84.53372400036227,33.72880700034284],[-84.5337269996013,33.72867100036643],[-84.53375800013157,33.7285369995829],[-84.53382300043108,33.72838999999857],[-84.53392699983112,33.72820899974562],[-84.53396699987712,33.72808799956158]]},"properties":{"overall":33,"safety":100,"sidewalk":0,"sidewalk_present":0,"canopy":0.0,"comfort":0.0,"name":"Niskey Lake Circle Southwest","road_type":"residential","osm_id":9263814}},{"type":"Feature","geometry":{"type":"LineString","coordinates":[[-84.53590050000804,33.72993469982657],[-84.53580929975936,33.72985989961472],[-84.53566809990286,33.729775699688844],[-84.53548189976982,33.7296000998648],[-84.53536119995937,33.72950280041397]]},"properties":{"overall":33,"safety":100,"sidewalk":0,"sidewalk_present":0,"canopy":0.0,"comfort":0.0,"name":"","road_type":"service","osm_id":731116886}},{"type":"Feature","geometry":{"type":"LineString","coordinates":[[-84.53080680019366,33.727021099644105],[-84.5307860995988,33.727421100103754],[-84.53065440018037,33.727780599595064],[-84.53062830005598,33.72781589978399],[-84.5304795998536,33.72804219978775],[-84.53035029982647,33.72833409993882],[-84.53032810006175,33.728586099868664],[-84.53035830019536,33.728877300347165],[-84.53049799998269,33.72906849981149],[-84.53079359994462,33.72925290040109],[-84.53139530035281,33.729572999694255],[-84.53158790006148,33.729680000131964],[-84.531787500093,33.72983969994226],[-84.53197589996779,33.730067099816836],[-84.53249310007646,33.73103809962862],[-84.53276650027374,33.731615700004625],[-84.53297340010232,33.73192300014637],[-84.53328180011493,33.73220010015456],[-84.53356460002624,33.73241460015373],[-84.53372339961516,33.73272490043388],[-84.53387099994666,33.73338319967496],[-84.53394509958662,33.73352689964673],[-84.53412979965049,33.733763499585905],[-84.5341889003974,33.73394170024932]]},"properties":{"overall":33,"safety":100,"sidewalk":0,"sidewalk_present":0,"canopy":0.0,"comfort":0.0,"name":"Regency Center Drive Southwest","road_type":"residential","osm_id":9269607}},{"type":"Feature","geometry":{"type":"MultiLineString","coordinates":[[[-84.52138380272027,33.72905012486342],[-84.52139400013294,33.72909199999583],[-84.5214129002851,33.72917019964507],[-84.52143059984229,33.72957780027531],[-84.52139619987469,33.7299436004169],[-84.52129299997193,33.7304589002581],[-84.52122789984764,33.73094559985958],[-84.52113609975117,33.73131240004727],[-84.52111937865635,33.731361552493695]],[[-84.52108566037487,33.73146066497776],[-84.52100230041577,33.73170569965839]]]},"properties":{"overall":33,"safety":100,"sidewalk":0,"sidewalk_present":0,"canopy":0.0,"comfort":0.0,"name":"","road_type":"service","osm_id":737831678}},{"type":"Feature","geometry":{"type":"LineString","coordinates":[[-84.52359487590275,33.730042634659924],[-84.52341060031893,33.730274600392534],[-84.52334629969192,33.730300300318675],[-84.52327789995508,33.73030250006036],[-84.52289969996116,33.73009500038404]]},"properties":{"overall":33,"safety":100,"sidewalk":0,"sidewalk_present":0,"canopy":0.0,"comfort":0.0,"name":"","road_type":"service","osm_id":564666643}},{"type":"Feature","geometry":{"type":"LineString","coordinates":[[-84.53707800034942,33.73083999966633],[-84.53720990031661,33.73075209992953],[-84.53723160005825,33.73067390028035],[-84.5372591004271,33.73055230024852],[-84.53730969988271,33.730490999759866]]},"properties":{"overall":33,"safety":99,"sidewalk":0,"sidewalk_present":0,"canopy":0.0,"comfort":0.0,"name":"","road_type":"service","osm_id":829487553}},{"type":"Feature","geometry":{"type":"LineString","coordinates":[[-84.53409100019945,33.73138399957196],[-84.53408499992275,33.731242000218174],[-84.53411500040693,33.731104000149514],[-84.53417499957652,33.73099000028833],[-84.53426099994516,33.730894000357864],[-84.53438000003695,33.73081200017373],[-84.53450899969056,33.730759000427554],[-84.53467400010499,33.73072599980509],[-84.53483200019662,33.73072199962064],[-84.5349739995504,33.73073999955142],[-84.53509599978054,33.73077300017388],[-84.53521199973397,33.730821999735554],[-84.53531600003333,33.73088499994287],[-84.53542599971007,33.73097899978109],[-84.53588400014644,33.7314709999867]]},"properties":{"overall":33,"safety":100,"sidewalk":0,"sidewalk_present":0,"canopy":0.0,"comfort":0.0,"name":"Twin Tendrils Southwest","road_type":"residential","osm_id":9278382}},{"type":"Feature","geometry":{"type":"LineString","coordinates":[[-84.53707800034942,33.73083999966633],[-84.53689449998114,33.73091450040391],[-84.53679759982936,33.730974700122374],[-84.53671649986654,33.730996300039294],[-84.53663410038337,33.73101439979479]]},"properties":{"overall":33,"safety":99,"sidewalk":0,"sidewalk_present":0,"canopy":0.0,"comfort":0.0,"name":"","road_type":"service","osm_id":829487552}},{"type":"Feature","geometry":{"type":"LineString","coordinates":[[-84.53707800034942,33.73083999966633],[-84.53702899988838,33.73097830010852],[-84.5368900995984,33.73106610002054],[-84.53681199977393,33.73112750033391],[-84.53676860029066,33.731187700052374]]},"properties":{"overall":33,"safety":99,"sidewalk":0,"sidewalk_present":0,"canopy":0.0,"comfort":0.0,"name":"","road_type":"service","osm_id":829487551}},{"type":"Feature","geometry":{"type":"LineString","coordinates":[[-84.53139530035281,33.729572999694255],[-84.53074580007859,33.73045480024888],[-84.53036829975719,33.730723499689816],[-84.5301728995596,33.730887500058145],[-84.53006210038558,33.73107189974843],[-84.5300067003489,33.731299199798286],[-84.53003989972154,33.731514299645255],[-84.53013970018696,33.73170480033633],[-84.53027160015421,33.731837499800804]]},"properties":{"overall":33,"safety":100,"sidewalk":0,"sidewalk_present":0,"canopy":0.0,"comfort":0.0,"name":"Regency Park Drive Southwest","road_type":"residential","osm_id":9247933}},{"type":"Feature","geometry":{"type":"LineString","coordinates":[[-84.53074580007859,33.73045480024888],[-84.53106330033103,33.730776899634236],[-84.53132560019628,33.73122550035663],[-84.5314916995822,33.73182740041426]]},"properties":{"overall":33,"safety":100,"sidewalk":0,"sidewalk_present":0,"canopy":0.0,"comfort":0.0,"name":"East Court Drive Southwest","road_type":"residential","osm_id":9265249}},{"type":"Feature","geometry":{"type":"LineString","coordinates":[[-84.53993919973425,33.73141989960874],[-84.53976929981332,33.73131950019484],[-84.53970199994728,33.73125750003368],[-84.53966690030717,33.73104660002065]]},"properties":{"overall":33,"safety":100,"sidewalk":0,"sidewalk_present":0,"canopy":0.0,"comfort":0.0,"name":"","road_type":"service","osm_id":716694078}},{"type":"Feature","geometry":{"type":"LineString","coordinates":[[-84.54084149853628,33.73149085252089],[-84.54069659976824,33.731527400069524],[-84.54059270019292,33.73149140020803],[-84.54051920040075,33.73146599975615],[-84.54033079962664,33.73138300042518],[-84.54013130031922,33.73136150033304],[-84.53993919973425,33.73141989960874],[-84.53982050001605,33.73157650035523]]},"properties":{"overall":33,"safety":100,"sidewalk":0,"sidewalk_present":0,"canopy":0.0,"comfort":0.0,"name":"Cascade Point","road_type":"residential","osm_id":9243803}},{"type":"Feature","geometry":{"type":"LineString","coordinates":[[-84.53982050001605,33.73157650035523],[-84.53937970001311,33.731449599719326],[-84.5392561997138,33.731521399792825],[-84.5391443995943,33.731558899723495],[-84.53906009984371,33.731542600410705],[-84.53903459956706,33.73145450012515],[-84.53906989975604,33.731387599558104],[-84.53912870012937,33.73132570012103],[-84.53937970001311,33.731449599719326]]},"properties":{"overall":33,"safety":100,"sidewalk":0,"sidewalk_present":0,"canopy":0.0,"comfort":0.0,"name":"","road_type":"service","osm_id":716694077}},{"type":"Feature","geometry":{"type":"LineString","coordinates":[[-84.53982050001605,33.73157650035523],[-84.53969949983201,33.73169560027179],[-84.5395885999339,33.73179449961651],[-84.53960480032123,33.73187520028034],[-84.53963830006745,33.73197900003089]]},"properties":{"overall":33,"safety":100,"sidewalk":0,"sidewalk_present":0,"canopy":0.0,"comfort":0.0,"name":"","road_type":"service","osm_id":716694079}},{"type":"Feature","geometry":{"type":"LineString","coordinates":[[-84.53630699986809,33.73365299988609],[-84.53655399956739,33.73345699984071],[-84.53672000002797,33.73335100034842],[-84.53692699968127,33.73325400037186],[-84.53743100044028,33.73307500021116],[-84.53755599990944,33.73299800025757],[-84.53765700007045,33.73290000023485],[-84.53773400002405,33.73277699995862],[-84.53777600016224,33.73263199956716],[-84.53779900032356,33.73183599973163],[-84.53780799983929,33.731555000263086],[-84.53779800027746,33.73144399964093],[-84.53775800023146,33.73131299989507],[-84.53768100027793,33.73117900001091],[-84.53757399984016,33.73106200001132],[-84.53742700025583,33.73095799971196],[-84.5372700002103,33.73088900012732],[-84.53707800034942,33.73083999966633]]},"properties":{"overall":33,"safety":99,"sidewalk":0,"sidewalk_present":0,"canopy":0.0,"comfort":0.0,"name":"Fern Brooks Drive Southwest","road_type":"residential","osm_id":9265050}},{"type":"Feature","geometry":{"type":"LineString","coordinates":[[-84.52709560028171,33.73139529955347],[-84.5270732997929,33.731505800152604],[-84.52707219992203,33.73176919988873],[-84.52706580034635,33.73192119970366],[-84.5270095000883,33.732048399813834],[-84.52687080034713,33.73222339979014]]},"properties":{"overall":33,"safety":100,"sidewalk":0,"sidewalk_present":0,"canopy":0.0,"comfort":0.0,"name":"","road_type":"service","osm_id":730226508}},{"type":"Feature","geometry":{"type":"LineString","coordinates":[[-84.52781899964708,33.73155920009708],[-84.52781419996529,33.73161169982012],[-84.52782730038956,33.7317059002072],[-84.5278309003757,33.73176140006859],[-84.5278309003757,33.73187940011428],[-84.52781069980392,33.73196760022461],[-84.52775460009468,33.73207270039484],[-84.5276818997998,33.73216389974425],[-84.52761760007218,33.73222439983624],[-84.52747929962993,33.7323402999649],[-84.52732296508276,33.732432609077705]]},"properties":{"overall":33,"safety":99,"sidewalk":0,"sidewalk_present":0,"canopy":0.0,"comfort":0.0,"name":"","road_type":"service","osm_id":917239648}},{"type":"Feature","geometry":{"type":"LineString","coordinates":[[-84.53545600019419,33.73264099998221],[-84.53616399956888,33.73234900000642],[-84.53631700032929,33.732256000214306],[-84.53659299956723,33.73204200023815],[-84.53672100007407,33.73197299975419],[-84.53685900014273,33.73191599982357],[-84.53702399965783,33.73187000040025],[-84.53719600039506,33.73184300005448],[-84.53779900032356,33.73183599973163]]},"properties":{"overall":33,"safety":100,"sidewalk":0,"sidewalk_present":0,"canopy":0.0,"comfort":0.0,"name":"Boise Trail Southwest","road_type":"residential","osm_id":9272694}},{"type":"Feature","geometry":{"type":"LineString","coordinates":[[-84.52828870026326,33.73284789981079],[-84.52830119994042,33.73258049989022],[-84.52834670023998,33.73239539962805],[-84.52840449966789,33.73223219965632],[-84.52846919959387,33.73207669968002],[-84.52850909981504,33.73205299984613],[-84.52855040028072,33.7320496004088],[-84.52862120030812,33.73207290004433],[-84.52864919980067,33.73212250035317],[-84.52867150028948,33.732170499868744],[-84.52864359972233,33.73224029984999],[-84.52860630034047,33.73228680019571],[-84.5284813997967,33.73235040025082],[-84.52834670023998,33.73239539962805]]},"properties":{"overall":33,"safety":100,"sidewalk":0,"sidewalk_present":0,"canopy":0.0,"comfort":0.0,"name":"","road_type":"service","osm_id":1456290508}},{"type":"Feature","geometry":{"type":"LineString","coordinates":[[-84.52783289956864,33.73265149956711],[-84.52795830013542,33.73248430031026],[-84.52800640037503,33.73240159955424],[-84.52804490035186,33.73228420025566],[-84.52804650024575,33.73216549963814],[-84.5280175996325,33.73196410006324],[-84.52799999990003,33.7316065997648],[-84.52800640037503,33.731470599788395]]},"properties":{"overall":33,"safety":100,"sidewalk":0,"sidewalk_present":0,"canopy":0.0,"comfort":0.0,"name":"","road_type":"service","osm_id":730226507}},{"type":"Feature","geometry":{"type":"MultiLineString","coordinates":[[[-84.52684696291698,33.732214154759504],[-84.52687080034713,33.73222339979014],[-84.5271581769083,33.732366901911064]],[[-84.52744585024573,33.73248921780322],[-84.52745750006352,33.732494100222596],[-84.52783289956864,33.73265149956711],[-84.52787830004348,33.732670500443305],[-84.52828870026326,33.73284789981079],[-84.52883289981844,33.733087999911334],[-84.52905759992825,33.733186199583486],[-84.52939579987623,33.73333410028857]]]},"properties":{"overall":33,"safety":99,"sidewalk":0,"sidewalk_present":0,"canopy":0.0,"comfort":0.0,"name":"Cascade Road","road_type":"secondary","osm_id":629329045}},{"type":"Feature","geometry":{"type":"LineString","coordinates":[[-84.53328180011493,33.73220010015456],[-84.53297709991318,33.732454500374956],[-84.5327444003338,33.732617399973094],[-84.53249310007646,33.732651200092846],[-84.53220959959333,33.732641500005286]]},"properties":{"overall":33,"safety":100,"sidewalk":0,"sidewalk_present":0,"canopy":0.0,"comfort":0.0,"name":"Glennhurst Lane Southwest","road_type":"residential","osm_id":9273177}},{"type":"Feature","geometry":{"type":"LineString","coordinates":[[-84.54109142283085,33.732596542896204],[-84.54093149998869,33.732623599899284],[-84.54076389963421,33.73265709964551],[-84.54064989977303,33.73279089988017],[-84.54060560006837,33.73305519983768],[-84.5405815998609,33.73347549979451]]},"properties":{"overall":33,"safety":99,"sidewalk":0,"sidewalk_present":0,"canopy":0.0,"comfort":0.0,"name":"","road_type":"service","osm_id":463509908}},{"type":"Feature","geometry":{"type":"LineString","coordinates":[[-84.53679464645575,33.73445934012648],[-84.53675549986639,33.73439130011843],[-84.53667499975143,33.73423099956102],[-84.53655899979799,33.734008000069196],[-84.53641600039805,33.73378200043902],[-84.53630699986809,33.73365299988609],[-84.53611399996112,33.733450000417236],[-84.53574099984723,33.73309500023413],[-84.53564299982452,33.73296100034992],[-84.53545600019419,33.73264099998221],[-84.53511099957291,33.73204999970778],[-84.53500700017287,33.73190700030784],[-84.53487300028871,33.73176700014699],[-84.53471800033543,33.731643999870755],[-84.5345200001978,33.73152799991732],[-84.53430400012945,33.73143900030965],[-84.53409100019945,33.73138399957196]]},"properties":{"overall":33,"safety":98,"sidewalk":0,"sidewalk_present":0,"canopy":0.0,"comfort":0.0,"name":"Cascade Knolls Drive Southwest","road_type":"residential","osm_id":9272578}},{"type":"Feature","geometry":{"type":"LineString","coordinates":[[-84.53387099994666,33.73338319967496],[-84.53349809965755,33.733474599573185],[-84.53311650022624,33.7334985997806]]},"properties":{"overall":33,"safety":100,"sidewalk":0,"sidewalk_present":0,"canopy":0.0,"comfort":0.0,"name":"Straton Trace","road_type":"residential","osm_id":9262984}},{"type":"Feature","geometry":{"type":"LineString","coordinates":[[-84.54109200019559,33.73345399970236],[-84.5405815998609,33.73347549979451]]},"properties":{"overall":32,"safety":96,"sidewalk":0,"sidewalk_present":0,"canopy":0.0,"comfort":0.0,"name":"Cascade Road","road_type":"secondary","osm_id":1411078896}},{"type":"Feature","geometry":{"type":"LineString","coordinates":[[-84.5405815998609,33.73347549979451],[-84.54050929976432,33.73348279959157]]},"properties":{"overall":33,"safety":98,"sidewalk":0,"sidewalk_present":0,"canopy":0.0,"comfort":0.0,"name":"Cascade Road","road_type":"secondary","osm_id":1411078897}},{"type":"Feature","geometry":{"type":"LineString","coordinates":[[-84.53773761709732,33.734113173084495],[-84.53773149990877,33.734101599709106]]},"properties":{"overall":33,"safety":100,"sidewalk":0,"sidewalk_present":0,"canopy":0.0,"comfort":0.0,"name":"","road_type":"service","osm_id":845959371}}]}