{"type": "FeatureCollection", "features": [{"type": "Feature", "geometry": {"type": "MultiPolygon", "coordinates": [[[[-84.54490638541434, 33.69915271027806], [-84.54495129980185, 33.69986372659015], [-84.54493273273738, 33.70020513772236], [-84.54497949421501, 33.700358782539254], [-84.54510757450197, 33.701062695154576], [-84.54515249169597, 33.7017737111555], [-84.54514902290768, 33.70183749697948], [-84.54526567249144, 33.702220762048896], [-84.54539375802337, 33.70292467412021], [-84.54543867869523, 33.70363568977986], [-84.54539999984968, 33.70434696166191], [-84.54536718033575, 33.70453667312338], [-84.5454099425544, 33.704771671951626], [-84.54545486447185, 33.70548268738534], [-84.54541618508273, 33.706193959064734], [-84.54529427483726, 33.706898636991916], [-84.54509030581679, 33.70758993450639], [-84.54495135209717, 33.70791828981271], [-84.54495611758159, 33.707993720725206], [-84.54491743315894, 33.70870499199567], [-84.54479551549038, 33.70940966919703], [-84.54459153672852, 33.710100965675714], [-84.54430745946777, 33.71077222348657], [-84.54394601791397, 33.711416977527065], [-84.54351069161454, 33.712029017819916], [-84.54335057154174, 33.71221082942408], [-84.5433257190381, 33.712295048933754], [-84.54304162484308, 33.712966303712705], [-84.5426801647612, 33.71361105394856], [-84.5422448185182, 33.714223089700575], [-84.54173977773648, 33.714796515990514], [-84.5411699056058, 33.71532580960295], [-84.54054069007236, 33.71580587230778], [-84.53985819099597, 33.71623207999155], [-84.53912898178369, 33.7166003272226], [-84.53836008606255, 33.716907066820184], [-84.53755891000196, 33.71714934404489], [-84.53673317093887, 33.717324825080226], [-84.5358908229951, 33.717431819529814], [-84.53503998040553, 33.71746929671282], [-84.53418883929801, 33.71743689560043], [-84.53334559868141, 33.71733492829648], [-84.53251838140571, 33.717164377029434], [-84.53171515585827, 33.71692688468418], [-84.53094365915345, 33.7166247389654], [-84.53021132255796, 33.716260850345634], [-84.52952519987251, 33.715838724011036], [-84.5288918994614, 33.71536242607607], [-84.52838247617765, 33.71489601597494], [-84.53129558253376, 33.71491793136099], [-84.53070165004728, 33.71455156840473], [-84.53007553516733, 33.71408053703192], [-84.52950700353496, 33.71356100734567], [-84.52900140820458, 33.712997871985905], [-84.52856350925069, 33.712396434150556], [-84.52819742896811, 33.71176235763176], [-84.52790661309098, 33.711101613458574], [-84.5276937983943, 33.71042042365021], [-84.5275609869816, 33.70972520260999], [-84.52750942749847, 33.70902249671261], [-84.52753960344639, 33.708318922654506], [-84.52778818287281, 33.70586220840911], [-84.52778799169637, 33.70583026608826], [-84.52781606608961, 33.70558662974631], [-84.52781987953189, 33.705548940156675], [-84.52782040479691, 33.70554897728098], [-84.52787201793852, 33.705101062152664], [-84.52790203452895, 33.70493106409912], [-84.52806766692827, 33.704232438353245], [-84.52831445218051, 33.70355075086377], [-84.52864001053456, 33.702892569921524], [-84.5290412034342, 33.70226423717731], [-84.52951416381784, 33.701671806556405], [-84.53005433342618, 33.701120985949686], [-84.53065650675656, 33.700617082242275], [-84.53131488123944, 33.70016495020814], [-84.53202311315275, 33.69976894576227], [-84.53277437873521, 33.699432884018904], [-84.53356143991061, 33.69916000255957], [-84.53437671399054, 33.698952930263026], [-84.53521234668575, 33.69881366199693], [-84.5360602877247, 33.69874353941374], [-84.53691236835328, 33.69874323803564], [-84.5377603799714, 33.69881276075206], [-84.53845765722342, 33.69892845805004], [-84.54465866777281, 33.69900544647755], [-84.54488180238607, 33.69901760111162], [-84.54490638541434, 33.69915271027806]]], [[[-84.5279988715175, 33.73462078342277], [-84.52880225236463, 33.73485829823427], [-84.52957390546128, 33.73516045540662], [-84.53030640069889, 33.735524345645366], [-84.53060002530736, 33.73570494924611], [-84.53100983097451, 33.7358654093271], [-84.5317423382125, 33.7362292909261], [-84.53242863486363, 33.73665140239612], [-84.53306211214472, 33.73712767938029], [-84.53363666955666, 33.737653535914546], [-84.53414677362643, 33.73822390856055], [-84.53458751120417, 33.73883330513688], [-84.5349546368011, 33.73947585758016], [-84.53499306206372, 33.7395645774723], [-84.53515557261706, 33.7397892700879], [-84.53552270657426, 33.74043182068686], [-84.53581269097438, 33.74110134004631], [-84.53602273153399, 33.74179138088345], [-84.53605616845307, 33.741975159954286], [-84.5352207007656, 33.741972826147624], [-84.53461200622961, 33.74191459260361], [-84.53435694578829, 33.74229524192767], [-84.53386109885902, 33.7428878867831], [-84.533297096226, 33.74343635436824], [-84.53267053928383, 33.74393519636305], [-84.53198765115324, 33.74437945732238], [-84.53125521486896, 33.744764723929386], [-84.53048050598947, 33.74508716886335], [-84.52967122029906, 33.745343588845245], [-84.52883539732129, 33.74553143648153], [-84.52798134040583, 33.74564884558909], [-84.52711753418488, 33.745694649748515], [-84.52625256022185, 33.74566839390101], [-84.5253950116933, 33.745570338873094], [-84.5245534079551, 33.745401458784045], [-84.52373610984426, 33.74516343136193], [-84.51768571249487, 33.74311327620801], [-84.51720790979554, 33.74293720278349], [-84.5153277984892, 33.74218714730605], [-84.51529865073289, 33.742175463000244], [-84.51457860842056, 33.74188544158267], [-84.5135937920609, 33.74142043228929], [-84.51295376584791, 33.7410704081443], [-84.51218550942977, 33.74059792927045], [-84.51148392735193, 33.74005789984093], [-84.51085748553207, 33.73945683732169], [-84.51044749890157, 33.73901681479893], [-84.50999152433404, 33.73847865374968], [-84.50959591665301, 33.73790812985929], [-84.50926595083541, 33.73737810934001], [-84.50888934044254, 33.73668704371008], [-84.50860124737163, 33.735966876802365], [-84.50840482517683, 33.735225497382956], [-84.50830487334845, 33.73472549024025], [-84.50819762310063, 33.73390171767598], [-84.50820349629528, 33.733073100258366], [-84.50824354941838, 33.732543102693384], [-84.50832761293158, 33.73189519868371], [-84.50848091884691, 33.73125621073946], [-84.50864096860734, 33.73071622119709], [-84.50899375763956, 33.72979443476336], [-84.50925262179416, 33.72924694616643], [-84.50950148660932, 33.72871945766599], [-84.50986714949984, 33.728046928524556], [-84.51031275159107, 33.72740894984762], [-84.51083367279878, 33.72681213385407], [-84.5114245127377, 33.726262666006555], [-84.51207914672959, 33.72576624093262], [-84.51279078930001, 33.72532800343525], [-84.51284694433792, 33.72530030455329], [-84.51329111043675, 33.72543169652648], [-84.51406262538477, 33.72573395197506], [-84.51479497554024, 33.726097935712744], [-84.51548110896908, 33.7265201431173], [-84.51611441845837, 33.72699650890794], [-84.51668880512332, 33.72752244626509], [-84.51719873713404, 33.72809289097167], [-84.51763930299651, 33.72870235015168], [-84.5177022989067, 33.72881266796096], [-84.5178683237496, 33.729042336031654], [-84.51823528279917, 33.729684940282], [-84.51852509636363, 33.73035450251328], [-84.51873497180466, 33.731044575028854], [-84.5187827161818, 33.73130732309541], [-84.51927766378496, 33.73132622367271], [-84.52012102564939, 33.731428286016126], [-84.52094835629202, 33.73159891919535], [-84.52175168989974, 33.73183648030315], [-84.52252329154437, 33.732138682020256], [-84.52258931513788, 33.73217148792965], [-84.52299161006016, 33.73229044821402], [-84.52376322005753, 33.73259264210657], [-84.52449566916647, 33.7329565672692], [-84.52518190450095, 33.73337871964375], [-84.52581531786761, 33.73385503447942], [-84.5263579917632, 33.73435179975985], [-84.5271714983024, 33.73445019784576], [-84.5279988715175, 33.73462078342277]]], [[[-84.52753126135237, 33.715110859268535], [-84.52804119051018, 33.715681260365365], [-84.52848176841039, 33.716290682005834], [-84.52884875110263, 33.716933255884456], [-84.52913860305932, 33.7176027943323], [-84.52934853127398, 33.71829284988193], [-84.52947651221983, 33.718996777338795], [-84.52952131140674, 33.71970779776198], [-84.52948249534549, 33.72041906373891], [-84.52936043580118, 33.7211237253257], [-84.529156306292, 33.72181499601824], [-84.52887207086368, 33.72248621811883], [-84.52851046524522, 33.723130926867924], [-84.5280749705643, 33.72374291272362], [-84.5275697798734, 33.72431628118752], [-84.52699975780686, 33.72484550960063], [-84.52637039375594, 33.72532550036035], [-84.52568774901205, 33.725751630045835], [-84.52495839838649, 33.72611979397653], [-84.52418936686976, 33.72642644577399], [-84.52338806194057, 33.72666863154464], [-84.52256220217842, 33.72684401835311], [-84.52171974286902, 33.72695091671098], [-84.52086879932104, 33.72698829686353], [-84.52001756863565, 33.72695579871709], [-84.51917425068532, 33.72685373531078], [-84.51834696906538, 33.726683089799415], [-84.51754369278315, 33.72644550597633], [-84.51677215944162, 33.72614327242798], [-84.51603980066001, 33.725779300473484], [-84.51535367045207, 33.72535709610218], [-84.51472037725374, 33.724880726180594], [-84.51414762978285, 33.7243562531346], [-84.51414808704183, 33.72430426860186], [-84.51418831860211, 33.722004269895436], [-84.51424222751534, 33.72129616950421], [-84.51437864792432, 33.72059585510387], [-84.51459627320008, 33.719910024062905], [-84.51489302025188, 33.71924523508379], [-84.51526604951698, 33.71860784549287], [-84.51571179217689, 33.718003950461124], [-84.51622598433666, 33.717439324736624], [-84.51680370783916, 33.71691936744477], [-84.51743943732234, 33.716449050483284], [-84.51812709306851, 33.71603287100416], [-84.5188600991405, 33.71567480843602], [-84.51963144624823, 33.71537828645651], [-84.52043375874622, 33.71514614027725], [-84.52125936512205, 33.714980589553335], [-84.52210037130392, 33.71488321717532], [-84.52294873608842, 33.71485495414585], [-84.52728759517684, 33.71488776138444], [-84.52753126135237, 33.715110859268535]]]]}, "properties": {"kind": "walkshed", "buffer_mi": 0.5}}, {"type": "Feature", "geometry": {"type": "Point", "coordinates": [-84.518793, 33.743265]}, "properties": {"kind": "stop", "name": "WILDWOOD LAKE DR SW@PLAINVILLE DR S", "mode": "bus"}}, {"type": "Feature", "geometry": {"type": "Point", "coordinates": [-84.527677, 33.74453]}, "properties": {"kind": "stop", "name": "UTOY CIR SW@DOLLAR MILL RD", "mode": "bus"}}, {"type": "Feature", "geometry": {"type": "Point", "coordinates": [-84.527511, 33.743232]}, "properties": {"kind": "stop", "name": "UTOY CIR SW@DOLLAR MILL WAY", "mode": "bus"}}, {"type": "Feature", "geometry": {"type": "Point", "coordinates": [-84.526943, 33.742276]}, "properties": {"kind": "stop", "name": "UTOY CIR SW@DOLLAR MILL WAY SW", "mode": "bus"}}, {"type": "Feature", "geometry": {"type": "Point", "coordinates": [-84.525507, 33.741571]}, "properties": {"kind": "stop", "name": "UTOY CIR SW@DOLLAR MILL RD SW", "mode": "bus"}}, {"type": "Feature", "geometry": {"type": "Point", "coordinates": [-84.5271, 33.745045]}, "properties": {"kind": "stop", "name": "DOLLAR MILL RD SW@UTOY CT SW", "mode": "bus"}}, {"type": "Feature", "geometry": {"type": "Point", "coordinates": [-84.520955, 33.742653]}, "properties": {"kind": "stop", "name": "PLAINVILLE DR@658", "mode": "bus"}}, {"type": "Feature", "geometry": {"type": "Point", "coordinates": [-84.520889, 33.742438]}, "properties": {"kind": "stop", "name": "PLAINVILLE DR@658", "mode": "bus"}}, {"type": "Feature", "geometry": {"type": "Point", "coordinates": [-84.520855, 33.741839]}, "properties": {"kind": "stop", "name": "PLAINVILLE DR@PLAINVILLE TRL", "mode": "bus"}}, {"type": "Feature", "geometry": {"type": "Point", "coordinates": [-84.520267, 33.741302]}, "properties": {"kind": "stop", "name": "PLAINVILLE DR@PLAINVILLE WAY", "mode": "bus"}}, {"type": "Feature", "geometry": {"type": "Point", "coordinates": [-84.520244, 33.741363]}, "properties": {"kind": "stop", "name": "PLAINVILLE DR SW@PLAINVILLE WAY SW", "mode": "bus"}}, {"type": "Feature", "geometry": {"type": "Point", "coordinates": [-84.519256, 33.74035]}, "properties": {"kind": "stop", "name": "PLAINVILLE DR SW@PLAINVILLE CIR", "mode": "bus"}}, {"type": "Feature", "geometry": {"type": "Point", "coordinates": [-84.519557, 33.740104]}, "properties": {"kind": "stop", "name": "PLAINVILLE CIR @ PLAINVILLE DR", "mode": "bus"}}, {"type": "Feature", "geometry": {"type": "Point", "coordinates": [-84.519696, 33.739003]}, "properties": {"kind": "stop", "name": "PLAINVILLE CIR@PLAINVILLE TER", "mode": "bus"}}, {"type": "Feature", "geometry": {"type": "Point", "coordinates": [-84.518456, 33.738549]}, "properties": {"kind": "stop", "name": "PLAINVILLE CIR@819", "mode": "bus"}}, {"type": "Feature", "geometry": {"type": "Point", "coordinates": [-84.516282, 33.738436]}, "properties": {"kind": "stop", "name": "PLAINVILLE CIR @ PLAINVILLE DR", "mode": "bus"}}, {"type": "Feature", "geometry": {"type": "Point", "coordinates": [-84.516163, 33.738893]}, "properties": {"kind": "stop", "name": "PLAINVILLE DR@PLAINVILLE PL", "mode": "bus"}}, {"type": "Feature", "geometry": {"type": "Point", "coordinates": [-84.517632, 33.739445]}, "properties": {"kind": "stop", "name": "PLAINVILLE DR@828", "mode": "bus"}}, {"type": "Feature", "geometry": {"type": "Point", "coordinates": [-84.526491, 33.74378]}, "properties": {"kind": "stop", "name": "DOLLAR MILL RD@396", "mode": "bus"}}, {"type": "Feature", "geometry": {"type": "Point", "coordinates": [-84.518848, 33.743382]}, "properties": {"kind": "stop", "name": "WILDWOOD LAKE DR@PLAINVILLE DR", "mode": "bus"}}, {"type": "Feature", "geometry": {"type": "Point", "coordinates": [-84.536271, 33.69989]}, "properties": {"kind": "stop", "name": "COUNTY LINE RD SW@2056", "mode": "bus"}}, {"type": "Feature", "geometry": {"type": "Point", "coordinates": [-84.536472, 33.7018]}, "properties": {"kind": "stop", "name": "COUNTY LINE RD SW@2000", "mode": "bus"}}, {"type": "Feature", "geometry": {"type": "Point", "coordinates": [-84.536758, 33.703662]}, "properties": {"kind": "stop", "name": "COUNTY LINE RD SW @ 1947", "mode": "bus"}}, {"type": "Feature", "geometry": {"type": "Point", "coordinates": [-84.536774, 33.705509]}, "properties": {"kind": "stop", "name": "COUNTY LINE RD SW @ GREENBRIAR TRL SW", "mode": "bus"}}, {"type": "Feature", "geometry": {"type": "Point", "coordinates": [-84.536275, 33.70802]}, "properties": {"kind": "stop", "name": "COUNTY LINE RD SW @ REGENCY TRCE SW", "mode": "bus"}}, {"type": "Feature", "geometry": {"type": "Point", "coordinates": [-84.532619, 33.708348]}, "properties": {"kind": "stop", "name": "NISKEY LAKE RD @ LAKE COVE WAY SW", "mode": "bus"}}, {"type": "Feature", "geometry": {"type": "Point", "coordinates": [-84.530636, 33.707486]}, "properties": {"kind": "stop", "name": "NISKEY LAKE RD @ NISKEY OVERLOOK", "mode": "bus"}}, {"type": "Feature", "geometry": {"type": "Point", "coordinates": [-84.529189, 33.706569]}, "properties": {"kind": "stop", "name": "NISKEY LAKE RD SW@1760", "mode": "bus"}}, {"type": "Feature", "geometry": {"type": "Point", "coordinates": [-84.529325, 33.705239]}, "properties": {"kind": "stop", "name": "NISKEY LAKE RD SW@LYON BLVD", "mode": "bus"}}, {"type": "Feature", "geometry": {"type": "Point", "coordinates": [-84.529298, 33.703413]}, "properties": {"kind": "stop", "name": "NISKEY LAKE RD SW@1883", "mode": "bus"}}, {"type": "Feature", "geometry": {"type": "Point", "coordinates": [-84.535009, 33.710214]}, "properties": {"kind": "stop", "name": "NISKEY LAKE RD @ COUNTY LINE RD", "mode": "bus"}}, {"type": "Feature", "geometry": {"type": "Point", "coordinates": [-84.520839, 33.719733]}, "properties": {"kind": "stop", "name": "KIMBERLY RD @ FAIRLY WAY", "mode": "bus"}}, {"type": "Feature", "geometry": {"type": "Point", "coordinates": [-84.509995, 33.732144]}, "properties": {"kind": "stop", "name": "FAIRBURN RD SW @ MAYS XING SW", "mode": "bus"}}, {"type": "Feature", "geometry": {"type": "Point", "coordinates": [-84.510224, 33.732484]}, "properties": {"kind": "stop", "name": "FAIRBURN RD SW @ MAYS XING SW", "mode": "bus"}}, {"type": "Feature", "geometry": {"type": "Point", "coordinates": [-84.510503, 33.735366]}, "properties": {"kind": "stop", "name": "FAIRBURN RD@680", "mode": "bus"}}, {"type": "Feature", "geometry": {"type": "Point", "coordinates": [-84.51033, 33.7358]}, "properties": {"kind": "stop", "name": "FAIRBURN RD @ 680", "mode": "bus"}}], "properties": {"coverage_pct": 25.6, "rail_coverage_pct": 0.0, "stop_count": 36, "rail_stop_count": 0, "bus_stop_count": 36, "transit_index": 9, "weights": {"rail": 2.0, "bus": 1.0}}}