{"type": "FeatureCollection", "features": [{"type": "Feature", "geometry": {"type": "Polygon", "coordinates": [[[-84.4263136, 33.717072], [-84.4263389, 33.7170704], [-84.426363, 33.7170682], [-84.4264121, 33.7170636], [-84.4264203, 33.7170555], [-84.4264166, 33.7170404], [-84.4264053, 33.7170235], [-84.4262523, 33.7169257], [-84.4261936, 33.7168662], [-84.4261439, 33.7167835], [-84.4261162, 33.7167322], [-84.4261044, 33.7166924], [-84.425928, 33.7167748], [-84.425937, 33.7167875], [-84.4259868, 33.7168602], [-84.4260329, 33.7169275], [-84.426076, 33.7169376], [-84.4262959, 33.7169888], [-84.4263136, 33.717072]]]}, "properties": {"surface": "", "highway": "pedestrian"}}, {"type": "Feature", "geometry": {"type": "LineString", "coordinates": [[-84.426406, 33.7140609], [-84.4262644, 33.7145049]]}, "properties": {"surface": "", "highway": "footway"}}, {"type": "Feature", "geometry": {"type": "LineString", "coordinates": [[-84.4262239, 33.714622], [-84.426116, 33.7149727], [-84.4261193, 33.7150148], [-84.4261177, 33.715029], [-84.4261254, 33.7150432], [-84.4261716, 33.7150682], [-84.4262387, 33.7150716], [-84.4263993, 33.7150765], [-84.4268141, 33.7150597]]}, "properties": {"surface": "", "highway": "footway"}}, {"type": "Feature", "geometry": {"type": "LineString", "coordinates": [[-84.4268074, 33.7151915], [-84.4266539, 33.7151952], [-84.4263419, 33.7152028], [-84.4260858, 33.715205], [-84.4260736, 33.7152153], [-84.4260644, 33.7152255], [-84.4260444, 33.7152981], [-84.4258327, 33.71628]]}, "properties": {"surface": "", "highway": "footway"}}, {"type": "Feature", "geometry": {"type": "LineString", "coordinates": [[-84.4267871, 33.7128686], [-84.426551, 33.7135952], [-84.426406, 33.7140609]]}, "properties": {"surface": "", "highway": "footway"}}, {"type": "Feature", "geometry": {"type": "LineString", "coordinates": [[-84.4127674, 33.7258114], [-84.4135145, 33.7258035], [-84.4135044, 33.7253981], [-84.413452, 33.7235162], [-84.413426, 33.7225841], [-84.4134195, 33.7223522]]}, "properties": {"surface": "", "highway": "footway"}}, {"type": "Feature", "geometry": {"type": "LineString", "coordinates": [[-84.4134195, 33.7223522], [-84.4134131, 33.7221218]]}, "properties": {"surface": "", "highway": "footway"}}, {"type": "Feature", "geometry": {"type": "LineString", "coordinates": [[-84.4246452, 33.7317633], [-84.424665, 33.73174], [-84.4247165, 33.7316908]]}, "properties": {"surface": "", "highway": "footway"}}, {"type": "Feature", "geometry": {"type": "LineString", "coordinates": [[-84.4229008, 33.7306758], [-84.4233014, 33.730916], [-84.4245202, 33.731662], [-84.424665, 33.73174], [-84.4247281, 33.7317781]]}, "properties": {"surface": "", "highway": "footway"}}, {"type": "Feature", "geometry": {"type": "LineString", "coordinates": [[-84.4241555, 33.7325845], [-84.4244879, 33.7321985], [-84.4245189, 33.7321624], [-84.4247626, 33.7318748], [-84.4247894, 33.7318539], [-84.4248189, 33.7318467], [-84.4248448, 33.7318491], [-84.4248765, 33.7318651], [-84.4256224, 33.7323164], [-84.4257295, 33.7323818], [-84.4269582, 33.733133], [-84.4277809, 33.733636], [-84.428045, 33.7337974], [-84.4283227, 33.7339672], [-84.4284811, 33.7340634], [-84.4289069, 33.7343222], [-84.4295648, 33.7347219], [-84.429829, 33.7348824], [-84.4303451, 33.735196], [-84.4306018, 33.7353519], [-84.4306297, 33.7353689], [-84.4309204, 33.7355456], [-84.4318394, 33.7361042], [-84.4321491, 33.7362925], [-84.4326691, 33.7366086], [-84.4329276, 33.7367657], [-84.4329748, 33.7367946], [-84.4341472, 33.7375111], [-84.4346319, 33.7378064], [-84.4347231, 33.737862], [-84.4348419, 33.7379344], [-84.4348955, 33.7379671], [-84.4351273, 33.7381098], [-84.435158, 33.7381304], [-84.4351725, 33.7381516], [-84.4351513, 33.7381801], [-84.4351212, 33.7382094], [-84.4350674, 33.7382616], [-84.4349719, 33.7383302], [-84.4349216, 33.7383591], [-84.4348661, 33.738391], [-84.4347741, 33.7384368], [-84.4346522, 33.7384742], [-84.4345872, 33.7384857], [-84.4345608, 33.7384904], [-84.43435, 33.7385277], [-84.4341905, 33.7385559], [-84.4340329, 33.7385905], [-84.4339223, 33.7386189], [-84.4338066, 33.7386516], [-84.4335935, 33.7387249], [-84.4335, 33.7387518], [-84.4333403, 33.7388053], [-84.4332381, 33.738839], [-84.4330653, 33.7389041], [-84.4329747, 33.7389293], [-84.4329391, 33.7389351], [-84.4327748, 33.7389468], [-84.4327234, 33.7389452]]}, "properties": {"surface": "concrete", "highway": "footway"}}, {"type": "Feature", "geometry": {"type": "LineString", "coordinates": [[-84.4306004, 33.7063423], [-84.4307056, 33.7063497], [-84.4308523, 33.7063706]]}, "properties": {"surface": "", "highway": "footway"}}, {"type": "Feature", "geometry": {"type": "LineString", "coordinates": [[-84.4306004, 33.7063423], [-84.4306078, 33.7063028], [-84.4306093, 33.7062535], [-84.4305871, 33.7060785], [-84.4305663, 33.7058837], [-84.4305472, 33.7058326], [-84.4305308, 33.7057888], [-84.430476, 33.7056692], [-84.4304374, 33.7056113], [-84.4303915, 33.7055656], [-84.4303263, 33.7055151], [-84.430224, 33.7054547], [-84.4301055, 33.705398], [-84.4298195, 33.7052661], [-84.4295972, 33.705165], [-84.4295231, 33.7055213], [-84.4295009, 33.7056088], [-84.4294268, 33.7058603], [-84.429326, 33.7061857], [-84.4292593, 33.7064041]]}, "properties": {"surface": "", "highway": "footway"}}, {"type": "Feature", "geometry": {"type": "LineString", "coordinates": [[-84.4309679, 33.7073655], [-84.4310067, 33.7072371], [-84.4310135, 33.7072113], [-84.4310106, 33.7071912]]}, "properties": {"surface": "", "highway": "footway"}}, {"type": "Feature", "geometry": {"type": "LineString", "coordinates": [[-84.4309999, 33.7070074], [-84.4310441, 33.7068491], [-84.4310784, 33.7067263], [-84.431074, 33.7067078], [-84.4310532, 33.7066918], [-84.4310206, 33.7066918], [-84.4309821, 33.7067004], [-84.4309273, 33.7067066], [-84.4308443, 33.7066967], [-84.4307228, 33.7066733], [-84.4306042, 33.7066462], [-84.4305005, 33.7066277], [-84.4306004, 33.7063423]]}, "properties": {"surface": "", "highway": "footway"}}, {"type": "Feature", "geometry": {"type": "LineString", "coordinates": [[-84.4305005, 33.7066277], [-84.4304784, 33.7066767]]}, "properties": {"surface": "", "highway": "footway"}}, {"type": "Feature", "geometry": {"type": "LineString", "coordinates": [[-84.4310532, 33.7066918], [-84.4310964, 33.7066639], [-84.4311273, 33.7066382], [-84.4311376, 33.7066072], [-84.4311299, 33.7065794], [-84.4309999, 33.7063814], [-84.4310591, 33.7063107], [-84.431117, 33.7062433], [-84.431301, 33.7062776], [-84.4312701, 33.7063653], [-84.4312276, 33.7065023], [-84.4311916, 33.7066104], [-84.4311273, 33.7066382]]}, "properties": {"surface": "", "highway": "footway"}}, {"type": "Feature", "geometry": {"type": "LineString", "coordinates": [[-84.4313627, 33.7060785], [-84.4313085, 33.7060735], [-84.4312238, 33.7060657], [-84.4311824, 33.7060722], [-84.4311492, 33.7060774], [-84.4310308, 33.7061299], [-84.4310462, 33.7061416], [-84.4310617, 33.7061673], [-84.4310707, 33.7062026], [-84.4310668, 33.706224], [-84.4310595, 33.7062324], [-84.4310462, 33.7062476], [-84.4310038, 33.7062765], [-84.4309601, 33.7062883], [-84.430933, 33.7062808], [-84.4309176, 33.7062765], [-84.4308944, 33.7062508], [-84.43087, 33.7062176], [-84.4308713, 33.7061812], [-84.4308816, 33.7061502], [-84.4309073, 33.7061309], [-84.4309485, 33.7061202], [-84.4309922, 33.7061202], [-84.4310308, 33.7061299]]}, "properties": {"surface": "", "highway": "footway"}}, {"type": "Feature", "geometry": {"type": "LineString", "coordinates": [[-84.4311824, 33.7060722], [-84.4311929, 33.7060303], [-84.4312006, 33.7059918], [-84.4311916, 33.7059576], [-84.4311749, 33.7059287], [-84.431153, 33.7058934], [-84.431153, 33.7058623], [-84.4311633, 33.7058302], [-84.4311775, 33.7058035], [-84.4311916, 33.7057885], [-84.4312111, 33.7057835], [-84.4312212, 33.705781], [-84.4312817, 33.705782], [-84.4313306, 33.7057853], [-84.4313897, 33.7057885], [-84.4314193, 33.7057891], [-84.4314438, 33.7057895], [-84.431436, 33.7057521], [-84.431427, 33.705705], [-84.4313807, 33.7056376], [-84.4313125, 33.7055734], [-84.4312366, 33.7055038], [-84.4311839, 33.705416], [-84.4311697, 33.7053668]]}, "properties": {"surface": "", "highway": "footway"}}, {"type": "Feature", "geometry": {"type": "LineString", "coordinates": [[-84.4312366, 33.7055038], [-84.4311685, 33.7054695], [-84.4310681, 33.7054374], [-84.4309317, 33.7054139], [-84.4308417, 33.7054107], [-84.4308198, 33.7054118], [-84.4307967, 33.7054075], [-84.4307774, 33.705415], [-84.4307761, 33.7054299], [-84.430789, 33.7054407], [-84.4308082, 33.7054407], [-84.4308173, 33.7054364], [-84.4308263, 33.7054321], [-84.4308198, 33.7054118]]}, "properties": {"surface": "", "highway": "footway"}}, {"type": "Feature", "geometry": {"type": "LineString", "coordinates": [[-84.430789, 33.7054407], [-84.4306474, 33.7056782], [-84.430569, 33.7058259], [-84.4305472, 33.7058326]]}, "properties": {"surface": "", "highway": "footway"}}, {"type": "Feature", "geometry": {"type": "LineString", "coordinates": [[-84.430569, 33.7058259], [-84.4307285, 33.7058645], [-84.4308957, 33.705994], [-84.4309101, 33.7060111], [-84.4309343, 33.70604], [-84.4309729, 33.7060881], [-84.4309922, 33.7061202]]}, "properties": {"surface": "", "highway": "footway"}}, {"type": "Feature", "geometry": {"type": "LineString", "coordinates": [[-84.431117, 33.7062433], [-84.4310595, 33.7062324]]}, "properties": {"surface": "", "highway": "footway"}}, {"type": "Feature", "geometry": {"type": "LineString", "coordinates": [[-84.4313085, 33.7060735], [-84.4312019, 33.7061545], [-84.431135, 33.7062037], [-84.431117, 33.7062433]]}, "properties": {"surface": "", "highway": "footway"}}, {"type": "Feature", "geometry": {"type": "LineString", "coordinates": [[-84.431301, 33.7062776], [-84.4313627, 33.7060785], [-84.4313833, 33.705995], [-84.4314077, 33.7059372], [-84.431418, 33.7058837], [-84.4314219, 33.7058259], [-84.4314193, 33.7057891]]}, "properties": {"surface": "", "highway": "footway"}}, {"type": "Feature", "geometry": {"type": "LineString", "coordinates": [[-84.4309101, 33.7060111], [-84.430906, 33.7059822], [-84.430915, 33.7059544], [-84.4309433, 33.7059255], [-84.4309755, 33.7058976], [-84.4310051, 33.7058698], [-84.4310269, 33.7058473], [-84.4310462, 33.7058174], [-84.4310745, 33.7057906], [-84.4310776, 33.7057829], [-84.4310861, 33.7057617], [-84.4310887, 33.7057414], [-84.4310553, 33.7057168], [-84.4310038, 33.7056772], [-84.4309703, 33.7056311], [-84.4309227, 33.7055691], [-84.4308841, 33.705522], [-84.4308173, 33.7054364]]}, "properties": {"surface": "", "highway": "footway"}}, {"type": "Feature", "geometry": {"type": "LineString", "coordinates": [[-84.4307285, 33.7058645], [-84.4308919, 33.7058184], [-84.4309691, 33.7058002], [-84.4310501, 33.7057842], [-84.4310776, 33.7057829], [-84.4312111, 33.7057835]]}, "properties": {"surface": "", "highway": "footway"}}, {"type": "Feature", "geometry": {"type": "LineString", "coordinates": [[-84.430933, 33.7062808], [-84.4309099, 33.7063696], [-84.4308523, 33.7063706]]}, "properties": {"surface": "", "highway": "footway"}}, {"type": "Feature", "geometry": {"type": "LineString", "coordinates": [[-84.4309999, 33.7063814], [-84.4309099, 33.7063696]]}, "properties": {"surface": "", "highway": "footway"}}, {"type": "Feature", "geometry": {"type": "LineString", "coordinates": [[-84.4310441, 33.7068491], [-84.4310269, 33.7068244], [-84.4310064, 33.7067966], [-84.4309819, 33.7067784], [-84.4309485, 33.706757], [-84.4309189, 33.7067303], [-84.4308777, 33.7067131], [-84.4308443, 33.7066967]]}, "properties": {"surface": "", "highway": "footway"}}, {"type": "Feature", "geometry": {"type": "LineString", "coordinates": [[-84.4292593, 33.7064041], [-84.4292016, 33.706434], [-84.4291703, 33.7064433], [-84.4291413, 33.7064619], [-84.4291156, 33.7064907], [-84.4290977, 33.7065232], [-84.4290341, 33.7065074], [-84.4290701, 33.7063842], [-84.4290855, 33.7063318], [-84.4292597, 33.7057326], [-84.4292954, 33.7056183], [-84.4293356, 33.7054947], [-84.4293356, 33.7054789], [-84.4292932, 33.7053572]]}, "properties": {"surface": "", "highway": "footway"}}, {"type": "Feature", "geometry": {"type": "LineString", "coordinates": [[-84.4290701, 33.7063842], [-84.4287593, 33.7063179]]}, "properties": {"surface": "", "highway": "footway"}}, {"type": "Feature", "geometry": {"type": "LineString", "coordinates": [[-84.4290341, 33.7065074], [-84.4290069, 33.7066007], [-84.4289235, 33.7068865], [-84.428804, 33.7072925], [-84.4287208, 33.7075659], [-84.4286934, 33.7076558], [-84.428622, 33.7079113]]}, "properties": {"surface": "", "highway": "footway"}}, {"type": "Feature", "geometry": {"type": "LineString", "coordinates": [[-84.4286557, 33.7083509], [-84.4286331, 33.7084002], [-84.4285574, 33.7085406], [-84.4284576, 33.7087196], [-84.4283897, 33.7088277], [-84.4283799, 33.7088461], [-84.4282705, 33.7090519], [-84.4282036, 33.709202], [-84.4281716, 33.709306], [-84.4281599, 33.7094149], [-84.4281619, 33.7094504]]}, "properties": {"surface": "", "highway": "footway"}}, {"type": "Feature", "geometry": {"type": "LineString", "coordinates": [[-84.4288261, 33.708369], [-84.4287872, 33.7085374]]}, "properties": {"surface": "", "highway": "footway"}}, {"type": "Feature", "geometry": {"type": "LineString", "coordinates": [[-84.4295972, 33.705165], [-84.4296199, 33.705049], [-84.4296303, 33.7050034], [-84.4296362, 33.7049701], [-84.4296451, 33.7049504], [-84.4296659, 33.7049295], [-84.4296925, 33.7049147], [-84.4297296, 33.704911], [-84.4297978, 33.704911]]}, "properties": {"surface": "", "highway": "footway"}}, {"type": "Feature", "geometry": {"type": "LineString", "coordinates": [[-84.4299138, 33.704816], [-84.429935, 33.7047287], [-84.4299473, 33.7046878], [-84.4299651, 33.7046385], [-84.4299741, 33.7045986], [-84.4299785, 33.7045419], [-84.4299875, 33.7045159], [-84.4300031, 33.7044797], [-84.4300165, 33.7044351], [-84.4300165, 33.7044016], [-84.430012, 33.704331], [-84.4300087, 33.7042641], [-84.430021, 33.7042409], [-84.4300232, 33.7041898], [-84.4300254, 33.7040374], [-84.4300321, 33.7038999], [-84.4300366, 33.7038321], [-84.4300489, 33.7036973], [-84.4300522, 33.7036555], [-84.4300455, 33.7035775], [-84.4300411, 33.7035338], [-84.4300388, 33.7035022], [-84.4300388, 33.7034753], [-84.4300422, 33.70344], [-84.4300522, 33.7034167], [-84.4300087, 33.7034167], [-84.4299852, 33.703427], [-84.4299707, 33.7034502], [-84.4299138, 33.7036351], [-84.4298814, 33.703741]]}, "properties": {"surface": "", "highway": "footway"}}, {"type": "Feature", "geometry": {"type": "LineString", "coordinates": [[-84.4310681, 33.7054374], [-84.4310622, 33.7054119], [-84.4310635, 33.705384], [-84.4310776, 33.7053605], [-84.4310969, 33.7053508], [-84.4311651, 33.7053391], [-84.4311697, 33.7053668]]}, "properties": {"surface": "", "highway": "footway"}}, {"type": "Feature", "geometry": {"type": "LineString", "coordinates": [[-84.4310969, 33.7053508], [-84.4309734, 33.7053776], [-84.4308198, 33.7054118]]}, "properties": {"surface": "", "highway": "footway"}}, {"type": "Feature", "geometry": {"type": "LineString", "coordinates": [[-84.4307774, 33.705415], [-84.4307045, 33.7053348], [-84.4306274, 33.705262], [-84.4306174, 33.7052418], [-84.43059, 33.705186], [-84.4305669, 33.7050897], [-84.4305682, 33.7050488], [-84.4305695, 33.7050062], [-84.4305746, 33.7049185], [-84.4311317, 33.704926]]}, "properties": {"surface": "", "highway": "footway"}}, {"type": "Feature", "geometry": {"type": "LineString", "coordinates": [[-84.4305746, 33.7049185], [-84.4299674, 33.704911]]}, "properties": {"surface": "", "highway": "footway"}}, {"type": "Feature", "geometry": {"type": "LineString", "coordinates": [[-84.4372373, 33.7012979], [-84.4371037, 33.7012564], [-84.4370678, 33.7012307], [-84.4370429, 33.7012033], [-84.437033, 33.701171], [-84.437032, 33.7011378], [-84.4370389, 33.7011146], [-84.4370755, 33.70103], [-84.4371346, 33.7008932], [-84.4371516, 33.7008716], [-84.4371865, 33.7008517], [-84.4372243, 33.7008401], [-84.4372612, 33.7008384], [-84.4372971, 33.7008459], [-84.4374337, 33.7008907], [-84.4374696, 33.7009131], [-84.4374865, 33.7009388], [-84.4374965, 33.7009728], [-84.4374975, 33.7010051], [-84.4374785, 33.701064], [-84.4374097, 33.7012207], [-84.4373988, 33.7012456], [-84.4373559, 33.7012763], [-84.4373061, 33.7012937], [-84.4372373, 33.7012979]]}, "properties": {"surface": "", "highway": "footway"}}, {"type": "Feature", "geometry": {"type": "LineString", "coordinates": [[-84.4374097, 33.7012207], [-84.4373749, 33.7012067], [-84.4373529, 33.7011934], [-84.437344, 33.7011768], [-84.437349, 33.7011536], [-84.4373639, 33.7011154], [-84.4373729, 33.7010806], [-84.4373729, 33.7010483], [-84.4373549, 33.7010176], [-84.437336, 33.7010018], [-84.4373087, 33.7009891], [-84.4373021, 33.7009861], [-84.4372602, 33.7009844], [-84.4372204, 33.7009894], [-84.4371845, 33.7009985], [-84.4371516, 33.7010126], [-84.4371237, 33.7010275], [-84.4371097, 33.7010333], [-84.4370958, 33.7010358], [-84.4370755, 33.70103]]}, "properties": {"surface": "", "highway": "footway"}}, {"type": "Feature", "geometry": {"type": "LineString", "coordinates": [[-84.4373087, 33.7009891], [-84.437341, 33.7009686], [-84.4373799, 33.7009471], [-84.4374177, 33.7009338], [-84.4374606, 33.7009305], [-84.4374865, 33.7009388]]}, "properties": {"surface": "", "highway": "footway"}}, {"type": "Feature", "geometry": {"type": "LineString", "coordinates": [[-84.4244371, 33.7181241], [-84.425003, 33.7181419], [-84.4250264, 33.7181385], [-84.4250586, 33.7181272]]}, "properties": {"surface": "", "highway": "footway"}}, {"type": "Feature", "geometry": {"type": "LineString", "coordinates": [[-84.4249796, 33.7183898], [-84.4249528, 33.7183496], [-84.4249072, 33.7183229], [-84.424867, 33.7183045], [-84.4248194, 33.7182972], [-84.4244029, 33.7182905], [-84.4243674, 33.7182967], [-84.4243478, 33.7183035]]}, "properties": {"surface": "", "highway": "footway"}}, {"type": "Feature", "geometry": {"type": "LineString", "coordinates": [[-84.4165346, 33.7276642], [-84.4166495, 33.7275121], [-84.4167717, 33.7273339], [-84.416784, 33.7273077], [-84.4171899, 33.7268981], [-84.4178172, 33.7263485], [-84.4178299, 33.7263255], [-84.4178299, 33.7263072], [-84.4178372, 33.726304]]}, "properties": {"surface": "", "highway": "footway"}}, {"type": "Feature", "geometry": {"type": "LineString", "coordinates": [[-84.4136117, 33.7255354], [-84.4136211, 33.7255086], [-84.4136163, 33.725399], [-84.4136189, 33.7252793], [-84.4136184, 33.7252569], [-84.4136164, 33.7251768], [-84.4136064, 33.7248931], [-84.4135949, 33.7245036], [-84.4135938, 33.7244785], [-84.4135875, 33.7244374]]}, "properties": {"surface": "", "highway": "footway"}}, {"type": "Feature", "geometry": {"type": "LineString", "coordinates": [[-84.4135949, 33.7245036], [-84.4136399, 33.7245002], [-84.4137797, 33.7244991], [-84.4140706, 33.7245034], [-84.4143557, 33.7245004], [-84.4145661, 33.7245038], [-84.4147597, 33.7245054], [-84.4153301, 33.7245076], [-84.4153667, 33.7245074], [-84.4154095, 33.7245102]]}, "properties": {"surface": "", "highway": "footway"}}, {"type": "Feature", "geometry": {"type": "LineString", "coordinates": [[-84.4153667, 33.7245074], [-84.4153698, 33.7246882], [-84.4153584, 33.7250896]]}, "properties": {"surface": "", "highway": "footway"}}, {"type": "Feature", "geometry": {"type": "LineString", "coordinates": [[-84.4153573, 33.7251682], [-84.4153573, 33.7251941]]}, "properties": {"surface": "", "highway": "footway"}}, {"type": "Feature", "geometry": {"type": "LineString", "coordinates": [[-84.4212277, 33.7241103], [-84.4212321, 33.7241001], [-84.4212365, 33.7240898], [-84.4213208, 33.7240263], [-84.4215261, 33.7238335], [-84.4215639, 33.7238003], [-84.4217218, 33.7236582], [-84.4220501, 33.7233667], [-84.4222803, 33.7231536], [-84.4223269, 33.7231127]]}, "properties": {"surface": "", "highway": "footway"}}, {"type": "Feature", "geometry": {"type": "LineString", "coordinates": [[-84.4176319, 33.72729], [-84.4176458, 33.7272769], [-84.417852, 33.7270803], [-84.4181037, 33.7268428], [-84.4183421, 33.7266198], [-84.4185354, 33.7264558], [-84.4185461, 33.7264462]]}, "properties": {"surface": "", "highway": "footway"}}, {"type": "Feature", "geometry": {"type": "LineString", "coordinates": [[-84.418617, 33.7263803], [-84.4189897, 33.7260613], [-84.4190078, 33.7260444], [-84.4192437, 33.7258349]]}, "properties": {"surface": "", "highway": "footway"}}, {"type": "Feature", "geometry": {"type": "LineString", "coordinates": [[-84.4193177, 33.7257695], [-84.4195025, 33.7256062], [-84.4197072, 33.725421], [-84.4199497, 33.7252121], [-84.4201596, 33.7250243], [-84.4201792, 33.7250167], [-84.4201928, 33.7250176], [-84.4202052, 33.7250201]]}, "properties": {"surface": "", "highway": "footway"}}, {"type": "Feature", "geometry": {"type": "LineString", "coordinates": [[-84.420278, 33.7249292], [-84.420294, 33.724911], [-84.4204336, 33.7247955], [-84.4207193, 33.7245547], [-84.4207657, 33.724508], [-84.4210354, 33.7242706], [-84.4211354, 33.7241733], [-84.4211393, 33.7241695], [-84.4211516, 33.7241643], [-84.4211666, 33.7241622]]}, "properties": {"surface": "", "highway": "footway"}}, {"type": "Feature", "geometry": {"type": "LineString", "coordinates": [[-84.4210021, 33.7240881], [-84.4210165, 33.7240759], [-84.4210317, 33.7240631]]}, "properties": {"surface": "", "highway": "footway"}}, {"type": "Feature", "geometry": {"type": "LineString", "coordinates": [[-84.417495, 33.727185], [-84.4175009, 33.7271798], [-84.4175078, 33.7271733]]}, "properties": {"surface": "", "highway": "footway"}}, {"type": "Feature", "geometry": {"type": "LineString", "coordinates": [[-84.4175275, 33.7273962], [-84.4175615, 33.7274088], [-84.4177997, 33.7275456], [-84.4179589, 33.7276409], [-84.4182768, 33.7278317], [-84.4186201, 33.7280438], [-84.4187252, 33.7281039], [-84.418863, 33.7281936], [-84.4189969, 33.728277], [-84.4191311, 33.7283594], [-84.4194884, 33.7285765], [-84.4197637, 33.7287406], [-84.420036, 33.7289079], [-84.4203054, 33.7290789], [-84.4205762, 33.7292397], [-84.4206502, 33.7292824], [-84.4207547, 33.7293489], [-84.4207686, 33.7293577], [-84.4209868, 33.7294853], [-84.4210589, 33.7295286]]}, "properties": {"surface": "", "highway": "footway"}}, {"type": "Feature", "geometry": {"type": "LineString", "coordinates": [[-84.4180126, 33.7262072], [-84.4180071, 33.726186], [-84.4180087, 33.7261725], [-84.4180123, 33.7261529], [-84.4180146, 33.726139], [-84.4180128, 33.7261213], [-84.4180041, 33.7260991], [-84.418001, 33.7260769], [-84.4180106, 33.7258093], [-84.4180145, 33.7257776], [-84.4180234, 33.7257167], [-84.4180252, 33.725678], [-84.4180273, 33.7255972], [-84.4180219, 33.7253721], [-84.4180254, 33.725017], [-84.4180301, 33.7245506], [-84.4180499, 33.7244113], [-84.4180729, 33.724325], [-84.4180714, 33.7242852], [-84.41807, 33.7242655], [-84.4180641, 33.7242454], [-84.4180506, 33.7241981], [-84.4180513, 33.7241862], [-84.4180588, 33.7241614], [-84.4180727, 33.7240795], [-84.4180731, 33.7240201], [-84.4180616, 33.7239548], [-84.4180607, 33.7238669], [-84.4180646, 33.7237052], [-84.4180704, 33.7235777], [-84.4180738, 33.7235575], [-84.4180687, 33.7235459], [-84.4180639, 33.7233334], [-84.4180724, 33.7229606], [-84.4180784, 33.7224849], [-84.4180898, 33.7222534]]}, "properties": {"surface": "", "highway": "footway"}}, {"type": "Feature", "geometry": {"type": "LineString", "coordinates": [[-84.4178372, 33.726304], [-84.4178351, 33.7262686], [-84.4178424, 33.72616], [-84.4178444, 33.7260933], [-84.4178472, 33.726024], [-84.4178366, 33.7259482], [-84.4178427, 33.7256578], [-84.4178503, 33.7254331], [-84.4178494, 33.7251359], [-84.417858, 33.7248368], [-84.4178632, 33.7247899], [-84.4178643, 33.724606], [-84.4178672, 33.7245276]]}, "properties": {"surface": "", "highway": "footway"}}, {"type": "Feature", "geometry": {"type": "LineString", "coordinates": [[-84.4164675, 33.7244136], [-84.4157745, 33.7244073], [-84.4154106, 33.724409], [-84.4150972, 33.7244]]}, "properties": {"surface": "", "highway": "footway"}}, {"type": "Feature", "geometry": {"type": "LineString", "coordinates": [[-84.4178695, 33.7244065], [-84.4175696, 33.7244048], [-84.4168599, 33.7244067], [-84.416749, 33.7244085], [-84.4167098, 33.7244106]]}, "properties": {"surface": "", "highway": "footway"}}, {"type": "Feature", "geometry": {"type": "LineString", "coordinates": [[-84.4178672, 33.7245276], [-84.4176362, 33.7245279], [-84.4168831, 33.724528]]}, "properties": {"surface": "", "highway": "footway"}}, {"type": "Feature", "geometry": {"type": "LineString", "coordinates": [[-84.4193177, 33.7257695], [-84.4194731, 33.7258663], [-84.4198536, 33.7261017], [-84.4201949, 33.7263196], [-84.4202205, 33.7263334], [-84.4202231, 33.7263423], [-84.420217, 33.7263538], [-84.4202051, 33.7263803]]}, "properties": {"surface": "", "highway": "footway"}}, {"type": "Feature", "geometry": {"type": "LineString", "coordinates": [[-84.418617, 33.7263803], [-84.418835, 33.7265027], [-84.4192442, 33.7267247], [-84.4193005, 33.7267559], [-84.4193014, 33.7267685], [-84.4192922, 33.7267933]]}, "properties": {"surface": "", "highway": "footway"}}, {"type": "Feature", "geometry": {"type": "LineString", "coordinates": [[-84.4176319, 33.72729], [-84.4178144, 33.7274069], [-84.418075, 33.727571], [-84.4182832, 33.727699], [-84.4183638, 33.7277498], [-84.4186064, 33.7278972], [-84.4187857, 33.7280114], [-84.4188952, 33.7280729], [-84.4193477, 33.7283437], [-84.4206277, 33.7291173], [-84.4207038, 33.7291568]]}, "properties": {"surface": "", "highway": "footway"}}, {"type": "Feature", "geometry": {"type": "LineString", "coordinates": [[-84.4222527, 33.7223535], [-84.4222227, 33.7223309], [-84.4221831, 33.722328], [-84.4219141, 33.7223211], [-84.4211983, 33.7223145], [-84.4209415, 33.7223197], [-84.420287, 33.7222949], [-84.419486, 33.7222834], [-84.4186603, 33.7222583], [-84.41817, 33.7222539], [-84.4180898, 33.7222534]]}, "properties": {"surface": "", "highway": "footway"}}, {"type": "Feature", "geometry": {"type": "LineString", "coordinates": [[-84.4216637, 33.7229933], [-84.4214021, 33.723213], [-84.4210123, 33.7235649], [-84.4207525, 33.7238065], [-84.4205178, 33.7240088], [-84.4204954, 33.7240295], [-84.4201888, 33.7243189], [-84.4198699, 33.7245903], [-84.4197336, 33.7247123], [-84.4196543, 33.724779], [-84.4195959, 33.7248282], [-84.4194198, 33.7249864], [-84.4194078, 33.7250088], [-84.4194203, 33.7250466]]}, "properties": {"surface": "", "highway": "footway"}}, {"type": "Feature", "geometry": {"type": "LineString", "coordinates": [[-84.4222527, 33.7223535], [-84.4222548, 33.7223577], [-84.4222579, 33.722364], [-84.4222541, 33.7223759], [-84.4222524, 33.7223866], [-84.4222076, 33.7224423], [-84.4219176, 33.7227503], [-84.4217705, 33.7228932], [-84.4217332, 33.7229303]]}, "properties": {"surface": "", "highway": "footway"}}, {"type": "Feature", "geometry": {"type": "LineString", "coordinates": [[-84.4210918, 33.7277378], [-84.4210693, 33.7277711], [-84.4210625, 33.7277811], [-84.4211914, 33.7278542], [-84.4213139, 33.7279113], [-84.4215162, 33.7280136], [-84.4216988, 33.728117], [-84.4217083, 33.7281227]]}, "properties": {"surface": "", "highway": "footway"}}, {"type": "Feature", "geometry": {"type": "LineString", "coordinates": [[-84.4210625, 33.7277811], [-84.4209667, 33.7277274], [-84.4207874, 33.7276323], [-84.4206067, 33.7275402], [-84.4205746, 33.7275215], [-84.4204803, 33.7274724]]}, "properties": {"surface": "", "highway": "footway"}}, {"type": "Feature", "geometry": {"type": "LineString", "coordinates": [[-84.4205746, 33.7275215], [-84.4205828, 33.7275118], [-84.4206068, 33.7274833]]}, "properties": {"surface": "", "highway": "footway"}}, {"type": "Feature", "geometry": {"type": "LineString", "coordinates": [[-84.4376692, 33.7330859], [-84.4375108, 33.7333121], [-84.4374961, 33.7333317], [-84.4374887, 33.733337], [-84.4374803, 33.7333391], [-84.4374677, 33.7333389], [-84.4374091, 33.7333352]]}, "properties": {"surface": "", "highway": "footway"}}, {"type": "Feature", "geometry": {"type": "LineString", "coordinates": [[-84.4374677, 33.7333389], [-84.4374598, 33.7333513]]}, "properties": {"surface": "", "highway": "footway"}}, {"type": "Feature", "geometry": {"type": "LineString", "coordinates": [[-84.4375262, 33.733317], [-84.4375108, 33.7333121]]}, "properties": {"surface": "", "highway": "footway"}}, {"type": "Feature", "geometry": {"type": "LineString", "coordinates": [[-84.4376833, 33.7333693], [-84.4376797, 33.7333571], [-84.4376799, 33.7333413], [-84.4376868, 33.7333269], [-84.4378276, 33.7331167]]}, "properties": {"surface": "", "highway": "footway"}}, {"type": "Feature", "geometry": {"type": "LineString", "coordinates": [[-84.4376833, 33.7333693], [-84.4376903, 33.7333807], [-84.437701, 33.7333908], [-84.4377179, 33.7333996], [-84.4380556, 33.733488]]}, "properties": {"surface": "", "highway": "footway"}}, {"type": "Feature", "geometry": {"type": "LineString", "coordinates": [[-84.4376903, 33.7333807], [-84.4376805, 33.7333898]]}, "properties": {"surface": "", "highway": "footway"}}, {"type": "Feature", "geometry": {"type": "LineString", "coordinates": [[-84.4376797, 33.7333571], [-84.4376661, 33.7333567]]}, "properties": {"surface": "", "highway": "footway"}}, {"type": "Feature", "geometry": {"type": "LineString", "coordinates": [[-84.437301, 33.7333034], [-84.4369886, 33.7332995], [-84.4369491, 33.7333248], [-84.4362588, 33.733311]]}, "properties": {"surface": "", "highway": "footway"}}, {"type": "Feature", "geometry": {"type": "LineString", "coordinates": [[-84.4341175, 33.7145863], [-84.4340952, 33.7145857], [-84.434064, 33.7145865], [-84.4340422, 33.7145906], [-84.4334724, 33.7147948], [-84.433072, 33.7149544], [-84.4327224, 33.7151114], [-84.4326131, 33.7151713]]}, "properties": {"surface": "", "highway": "footway"}}, {"type": "Feature", "geometry": {"type": "LineString", "coordinates": [[-84.4343014, 33.7145756], [-84.4342906, 33.7145865]]}, "properties": {"surface": "", "highway": "footway"}}, {"type": "Feature", "geometry": {"type": "LineString", "coordinates": [[-84.4339394, 33.7144776], [-84.4339517, 33.7144521], [-84.4339541, 33.7144362], [-84.4339492, 33.7144194], [-84.4339309, 33.7143938]]}, "properties": {"surface": "", "highway": "footway"}}, {"type": "Feature", "geometry": {"type": "LineString", "coordinates": [[-84.4339546, 33.71449], [-84.4339394, 33.7144776]]}, "properties": {"surface": "", "highway": "footway"}}, {"type": "Feature", "geometry": {"type": "LineString", "coordinates": [[-84.4345062, 33.714587], [-84.4344096, 33.7145858]]}, "properties": {"surface": "", "highway": "footway"}}, {"type": "Feature", "geometry": {"type": "LineString", "coordinates": [[-84.4343066, 33.714586], [-84.4342906, 33.7145865], [-84.4342697, 33.7145883]]}, "properties": {"surface": "", "highway": "footway"}}, {"type": "Feature", "geometry": {"type": "LineString", "coordinates": [[-84.4340952, 33.7145857], [-84.4340858, 33.7145797]]}, "properties": {"surface": "", "highway": "footway"}}, {"type": "Feature", "geometry": {"type": "LineString", "coordinates": [[-84.4351922, 33.7144858], [-84.4345098, 33.7144752], [-84.4344941, 33.7144718], [-84.4344794, 33.714464], [-84.4344734, 33.7144541]]}, "properties": {"surface": "", "highway": "footway"}}, {"type": "Feature", "geometry": {"type": "LineString", "coordinates": [[-84.4344734, 33.7144541], [-84.434476, 33.7144418], [-84.4344835, 33.7144304], [-84.4345041, 33.7144189], [-84.435003, 33.7142675]]}, "properties": {"surface": "", "highway": "footway"}}, {"type": "Feature", "geometry": {"type": "LineString", "coordinates": [[-84.4344794, 33.714464], [-84.4344604, 33.714468]]}, "properties": {"surface": "", "highway": "footway"}}, {"type": "Feature", "geometry": {"type": "LineString", "coordinates": [[-84.4344835, 33.7144304], [-84.434473, 33.7144252]]}, "properties": {"surface": "", "highway": "footway"}}, {"type": "Feature", "geometry": {"type": "LineString", "coordinates": [[-84.434339, 33.7143774], [-84.434323, 33.7143721], [-84.4342669, 33.7143897], [-84.4342436, 33.7143939], [-84.4342001, 33.7143942]]}, "properties": {"surface": "", "highway": "footway"}}, {"type": "Feature", "geometry": {"type": "LineString", "coordinates": [[-84.4346107, 33.7145889], [-84.4346644, 33.7145889]]}, "properties": {"surface": "", "highway": "footway"}}, {"type": "Feature", "geometry": {"type": "LineString", "coordinates": [[-84.42944, 33.6998506], [-84.4293721, 33.7006265], [-84.4292667, 33.7014026], [-84.4292726, 33.7014424], [-84.4292985, 33.7014706]]}, "properties": {"surface": "", "highway": "footway"}}, {"type": "Feature", "geometry": {"type": "LineString", "coordinates": [[-84.4285902, 33.7080064], [-84.4285141, 33.7082988], [-84.4284712, 33.7083271], [-84.4284126, 33.7083424], [-84.4282948, 33.7083443], [-84.4280117, 33.7082844], [-84.4279416, 33.7082614], [-84.4278999, 33.708225]]}, "properties": {"surface": "", "highway": "footway"}}, {"type": "Feature", "geometry": {"type": "LineString", "coordinates": [[-84.4289876, 33.7083855], [-84.4288261, 33.708369], [-84.4286557, 33.7083509]]}, "properties": {"surface": "", "highway": "footway"}}, {"type": "Feature", "geometry": {"type": "LineString", "coordinates": [[-84.4286557, 33.7083509], [-84.4287565, 33.7080836], [-84.4287922, 33.7080459]]}, "properties": {"surface": "", "highway": "footway"}}, {"type": "Feature", "geometry": {"type": "LineString", "coordinates": [[-84.4278999, 33.708225], [-84.4278798, 33.7081714], [-84.4282809, 33.7055027], [-84.4287076, 33.7038193], [-84.4290581, 33.7026055], [-84.429212, 33.7018295], [-84.4292349, 33.7017576], [-84.4292814, 33.7017145], [-84.4293353, 33.701679], [-84.4293945, 33.7016607], [-84.4294918, 33.7016567], [-84.4298492, 33.7016727], [-84.4299581, 33.7016612], [-84.4300437, 33.7016441], [-84.4301278, 33.7016426], [-84.4301971, 33.70167]]}, "properties": {"surface": "", "highway": "footway"}}, {"type": "Feature", "geometry": {"type": "LineString", "coordinates": [[-84.4238116, 33.7214199], [-84.423992, 33.7211671], [-84.4241779, 33.7208637], [-84.4243066, 33.7206183], [-84.424554, 33.7201048], [-84.4247679, 33.719658], [-84.4247929, 33.7196223]]}, "properties": {"surface": "", "highway": "footway"}}, {"type": "Feature", "geometry": {"type": "LineString", "coordinates": [[-84.4232948, 33.7220568], [-84.4237132, 33.7215436]]}, "properties": {"surface": "", "highway": "footway"}}, {"type": "Feature", "geometry": {"type": "LineString", "coordinates": [[-84.4248758, 33.7194804], [-84.4248819, 33.7194599], [-84.4248778, 33.7194462], [-84.424877, 33.7194285], [-84.4249849, 33.7191828], [-84.425003, 33.7191629], [-84.4250213, 33.719133], [-84.4250616, 33.719084], [-84.4251029, 33.7189918], [-84.4251672, 33.7188036], [-84.4252573, 33.7185711], [-84.4253005, 33.7184902], [-84.4253309, 33.718451], [-84.4253989, 33.7183934], [-84.4254862, 33.7183405], [-84.42561, 33.7182914], [-84.4257587, 33.7182512], [-84.4258828, 33.7182277]]}, "properties": {"surface": "", "highway": "footway"}}, {"type": "Feature", "geometry": {"type": "LineString", "coordinates": [[-84.4253251, 33.7184418], [-84.4253309, 33.718451]]}, "properties": {"surface": "", "highway": "footway"}}, {"type": "Feature", "geometry": {"type": "LineString", "coordinates": [[-84.4254592, 33.718053], [-84.4254393, 33.7180234], [-84.4254259, 33.7179907], [-84.4254151, 33.7179595], [-84.4254214, 33.7179059], [-84.4254644, 33.717783], [-84.4255767, 33.7174024], [-84.425719, 33.7168862], [-84.425725, 33.716854], [-84.4258327, 33.71628]]}, "properties": {"surface": "", "highway": "footway"}}, {"type": "Feature", "geometry": {"type": "LineString", "coordinates": [[-84.4267871, 33.7128686], [-84.4270462, 33.7120716], [-84.4271798, 33.7116473], [-84.427198, 33.7116009]]}, "properties": {"surface": "", "highway": "footway"}}, {"type": "Feature", "geometry": {"type": "LineString", "coordinates": [[-84.427198, 33.7116009], [-84.4273867, 33.7109837], [-84.4274646, 33.7107006], [-84.4275468, 33.7103217], [-84.427609, 33.7098762], [-84.4276889, 33.7093796], [-84.4277167, 33.7091242], [-84.4277884, 33.7087109], [-84.4278055, 33.7086203], [-84.4278351, 33.7085554]]}, "properties": {"surface": "", "highway": "footway"}}, {"type": "Feature", "geometry": {"type": "LineString", "coordinates": [[-84.4278999, 33.708225], [-84.4278812, 33.7082242]]}, "properties": {"surface": "", "highway": "footway"}}, {"type": "Feature", "geometry": {"type": "LineString", "coordinates": [[-84.4278969, 33.7082413], [-84.4278999, 33.708225]]}, "properties": {"surface": "", "highway": "footway"}}, {"type": "Feature", "geometry": {"type": "LineString", "coordinates": [[-84.4289691, 33.7013438], [-84.4289393, 33.7013625], [-84.4289468, 33.7013735]]}, "properties": {"surface": "", "highway": "footway"}}, {"type": "Feature", "geometry": {"type": "LineString", "coordinates": [[-84.4289393, 33.7013625], [-84.4289073, 33.7013797], [-84.4288845, 33.7013871], [-84.4288197, 33.7013935], [-84.4285954, 33.7013741], [-84.428009, 33.7013108], [-84.4276859, 33.7012858], [-84.427397, 33.7012947]]}, "properties": {"surface": "", "highway": "footway"}}, {"type": "Feature", "geometry": {"type": "LineString", "coordinates": [[-84.4289808, 33.70162], [-84.4289674, 33.7016096], [-84.4289483, 33.7015928], [-84.4289219, 33.7015853], [-84.4287884, 33.7015667], [-84.4280301, 33.7014977], [-84.42781, 33.7014776], [-84.4275595, 33.7014653], [-84.4271591, 33.7014945], [-84.4269539, 33.7015343], [-84.4268278, 33.7015692], [-84.4266585, 33.7015844], [-84.4264012, 33.7016128], [-84.4261059, 33.7016234], [-84.4259396, 33.7016216], [-84.4255165, 33.7016138], [-84.4252558, 33.7016162], [-84.4252285, 33.7016064], [-84.4251919, 33.7016058], [-84.4250165, 33.7015988], [-84.4249955, 33.7016039], [-84.4249792, 33.7016143], [-84.4249607, 33.7016177], [-84.4249066, 33.7016177], [-84.4248856, 33.7016122], [-84.4248581, 33.7016029]]}, "properties": {"surface": "", "highway": "footway"}}, {"type": "Feature", "geometry": {"type": "LineString", "coordinates": [[-84.4232948, 33.7220568], [-84.4232448, 33.7221242], [-84.4231991, 33.7221998]]}, "properties": {"surface": "", "highway": "footway"}}, {"type": "Feature", "geometry": {"type": "LineString", "coordinates": [[-84.4252851, 33.7223295], [-84.4250554, 33.7223256], [-84.4244903, 33.7223315], [-84.4244762, 33.7223308], [-84.4239075, 33.7223297]]}, "properties": {"surface": "", "highway": "footway"}}, {"type": "Feature", "geometry": {"type": "LineString", "coordinates": [[-84.4239075, 33.7223297], [-84.4233708, 33.7223356], [-84.4232337, 33.7223319], [-84.4231176, 33.7223275]]}, "properties": {"surface": "", "highway": "footway"}}, {"type": "Feature", "geometry": {"type": "LineString", "coordinates": [[-84.4231176, 33.7223275], [-84.4230833, 33.7223451], [-84.4230346, 33.7224038], [-84.4228125, 33.7226493]]}, "properties": {"surface": "", "highway": "footway"}}, {"type": "Feature", "geometry": {"type": "LineString", "coordinates": [[-84.4227503, 33.7227143], [-84.4228682, 33.7228118], [-84.4230947, 33.7230018]]}, "properties": {"surface": "", "highway": "footway"}}, {"type": "Feature", "geometry": {"type": "LineString", "coordinates": [[-84.4230947, 33.7230018], [-84.4234653, 33.7233069], [-84.4235178, 33.7232907]]}, "properties": {"surface": "", "highway": "footway"}}, {"type": "Feature", "geometry": {"type": "LineString", "coordinates": [[-84.4228125, 33.7226493], [-84.4228574, 33.7226865], [-84.4230006, 33.7228053], [-84.4231687, 33.7229367], [-84.4231832, 33.722948], [-84.423187, 33.7229652], [-84.4231653, 33.7230045]]}, "properties": {"surface": "", "highway": "footway"}}, {"type": "Feature", "geometry": {"type": "LineString", "coordinates": [[-84.4231991, 33.7221998], [-84.4232286, 33.7222241], [-84.4234378, 33.7222427], [-84.423737, 33.7222406], [-84.4237427, 33.7222563], [-84.4237445, 33.7222726]]}, "properties": {"surface": "", "highway": "footway"}}, {"type": "Feature", "geometry": {"type": "LineString", "coordinates": [[-84.4227503, 33.7227143], [-84.4226126, 33.7228581], [-84.4223269, 33.7231127]]}, "properties": {"surface": "", "highway": "footway"}}, {"type": "Feature", "geometry": {"type": "LineString", "coordinates": [[-84.4218659, 33.7281423], [-84.4219005, 33.7281694]]}, "properties": {"surface": "", "highway": "footway"}}, {"type": "Feature", "geometry": {"type": "LineString", "coordinates": [[-84.4219005, 33.7281694], [-84.4219118, 33.7281783], [-84.421761, 33.7283073]]}, "properties": {"surface": "", "highway": "footway"}}, {"type": "Feature", "geometry": {"type": "LineString", "coordinates": [[-84.4219118, 33.7281783], [-84.4220926, 33.7280112]]}, "properties": {"surface": "", "highway": "footway"}}, {"type": "Feature", "geometry": {"type": "LineString", "coordinates": [[-84.4220926, 33.7280112], [-84.4220794, 33.7280009]]}, "properties": {"surface": "", "highway": "footway"}}, {"type": "Feature", "geometry": {"type": "LineString", "coordinates": [[-84.4220794, 33.7280009], [-84.4220479, 33.7279769]]}, "properties": {"surface": "", "highway": "footway"}}, {"type": "Feature", "geometry": {"type": "LineString", "coordinates": [[-84.4220926, 33.7280112], [-84.4223835, 33.7277554]]}, "properties": {"surface": "", "highway": "footway"}}, {"type": "Feature", "geometry": {"type": "LineString", "coordinates": [[-84.4241555, 33.7325845], [-84.4239466, 33.7328299]]}, "properties": {"surface": "", "highway": "footway"}}, {"type": "Feature", "geometry": {"type": "LineString", "coordinates": [[-84.4170059, 33.7279868], [-84.4170139, 33.7279771], [-84.417091, 33.7278774], [-84.4173391, 33.7275951], [-84.4175275, 33.7273962], [-84.417535, 33.7273935]]}, "properties": {"surface": "", "highway": "footway"}}, {"type": "Feature", "geometry": {"type": "LineString", "coordinates": [[-84.4168528, 33.7281718], [-84.4170059, 33.7279868]]}, "properties": {"surface": "", "highway": "footway"}}, {"type": "Feature", "geometry": {"type": "LineString", "coordinates": [[-84.4163647, 33.7278722], [-84.4165346, 33.7276642]]}, "properties": {"surface": "", "highway": "footway"}}, {"type": "Feature", "geometry": {"type": "LineString", "coordinates": [[-84.4292593, 33.7064041], [-84.4295949, 33.706473], [-84.4297344, 33.7065007], [-84.4298361, 33.706538], [-84.4298914, 33.7065736], [-84.4299407, 33.7066253], [-84.4299588, 33.7066924], [-84.4299973, 33.7067762], [-84.4300003, 33.7068551], [-84.429978, 33.7069574], [-84.429972, 33.7070309], [-84.4299497, 33.7070961], [-84.4299306, 33.7071605], [-84.4298796, 33.7073696]]}, "properties": {"surface": "", "highway": "footway"}}, {"type": "Feature", "geometry": {"type": "LineString", "coordinates": [[-84.4289105, 33.7075963], [-84.4288874, 33.7076847], [-84.4288266, 33.7078869]]}, "properties": {"surface": "", "highway": "footway"}}]}