{"type": "FeatureCollection", "features": [{"type": "Feature", "geometry": {"type": "Polygon", "coordinates": [[[-84.4633413813461, 33.712382268916485], [-84.463333547834, 33.71242729342329], [-84.46312890826495, 33.71311845889099], [-84.4630793999653, 33.71323514781827], [-84.4630319327185, 33.713395465196086], [-84.46285158920661, 33.71382052284285], [-84.46282726435359, 33.713861824812554], [-84.46280110182295, 33.71393951744856], [-84.46274720864945, 33.71406653883661], [-84.46267395972562, 33.71419693085833], [-84.46263070548406, 33.7144455253831], [-84.46260706187549, 33.71451573681467], [-84.46260453259458, 33.71452323226415], [-84.46239823678938, 33.715133325642356], [-84.46238866674535, 33.715163959332756], [-84.46268274352197, 33.71521458001847], [-84.46349193621501, 33.71518503312726], [-84.4644316353343, 33.71523602534595], [-84.46453162708872, 33.71524602456709], [-84.46544717458714, 33.71537944095822], [-84.4655461218564, 33.715398469336364], [-84.46582376089933, 33.71544263903625], [-84.46642039188325, 33.71555589435307], [-84.46737031976613, 33.71576587790648], [-84.46816895111625, 33.715977350094214], [-84.4689394791788, 33.71625215803219], [-84.46967473082685, 33.716587743521565], [-84.47036786110205, 33.71698098255337], [-84.47101241690902, 33.71742821437159], [-84.4716023970738, 33.717925275531215], [-84.47213230820762, 33.71846753863533], [-84.47259721585674, 33.71904995539135], [-84.47299279046182, 33.71966710358698], [-84.4733153476985, 33.720313237549234], [-84.47356188282258, 33.72098234161808], [-84.47412204904997, 33.722812303080225], [-84.47419353167479, 33.723064497088956], [-84.47467370357187, 33.724904463615566], [-84.47471588242432, 33.72507600415686], [-84.47483593179692, 33.7255959957119], [-84.47495686804254, 33.72630794970424], [-84.47499286733272, 33.727026409892964], [-84.47494357392738, 33.72774431886286], [-84.47480946992789, 33.728454624440126], [-84.4745918706242, 33.72915034896992], [-84.47429291165403, 33.72982465786859], [-84.47391552809727, 33.73047092677683], [-84.47346342570798, 33.73108280665332], [-84.47294104456424, 33.73165428616866], [-84.47235351549068, 33.73217975078573], [-84.47170660968048, 33.73265403794478], [-84.47100668201064, 33.73307248780995], [-84.47026060860718, 33.73343098907731], [-84.46993716756656, 33.73355256746346], [-84.46966346659386, 33.733445231497775], [-84.4694946804997, 33.73339523960394], [-84.4687272251486, 33.73309426426632], [-84.4684779219127, 33.73332543841452], [-84.46826784018737, 33.73348546214501], [-84.46825704777484, 33.733504672342114], [-84.46784587563992, 33.734081642276266], [-84.46783282418295, 33.73411240106686], [-84.46782064440517, 33.73411472416157], [-84.46696672041739, 33.73420457940333], [-84.46610634371619, 33.73422336282579], [-84.46566175260824, 33.734214647523636], [-84.46565946695259, 33.734252431590754], [-84.46552679664039, 33.73497768195653], [-84.46530713529545, 33.73568802938967], [-84.4650027270948, 33.736376209755086], [-84.46461668305636, 33.737035185432525], [-84.46415294929751, 33.737658217304364], [-84.46361626674083, 33.738238933696465], [-84.46301212267687, 33.738771395565934], [-84.46234669467756, 33.739250157267605], [-84.46233272897726, 33.7392583082557], [-84.46227838760963, 33.739285696794774], [-84.46216935089156, 33.739353662557086], [-84.46200715634481, 33.73944832567293], [-84.46133136349444, 33.7397889252414], [-84.46056198084204, 33.740095182088076], [-84.4597603670313, 33.74033695617142], [-84.4595904827902, 33.74037293598576], [-84.45953735068463, 33.740388960795535], [-84.45871122631242, 33.74056392165875], [-84.45786855033593, 33.740670385362314], [-84.45784956789421, 33.74067120932694], [-84.45706448412045, 33.740770391297595], [-84.45621337256392, 33.7408073267398], [-84.45588429652989, 33.74079459372642], [-84.4555810478622, 33.740886043355765], [-84.45475491049996, 33.74106097780168], [-84.45469961071986, 33.74106796270995], [-84.4546195465053, 33.741256560753534], [-84.45397441151978, 33.74129420876659], [-84.45307295759908, 33.74126846144102], [-84.45217956390351, 33.74116473490679], [-84.45161951921105, 33.74107472780316], [-84.45090583976895, 33.74093368155227], [-84.45079921195426, 33.74090859260215], [-84.45068977698993, 33.740918984545516], [-84.45026974205616, 33.740948987207524], [-84.44953001993437, 33.740975358048345], [-84.4491099961869, 33.740975358230656], [-84.44897999678156, 33.74097535828702], [-84.44880085123704, 33.74097381433604], [-84.44831039616533, 33.74096535861424], [-84.44823999551318, 33.740965358619135], [-84.44801933769254, 33.74095535895899], [-84.44749999124792, 33.74095535895042], [-84.44738999761118, 33.740955358997844], [-84.44734129273775, 33.74095524488838], [-84.44523556057561, 33.740945359946174], [-84.4451199963299, 33.74094535998415], [-84.44503044906995, 33.74094497423855], [-84.4439151785687, 33.7409353605272], [-84.44381999631993, 33.74093536055044], [-84.44377568084982, 33.74093526607625], [-84.44145774477236, 33.74092536156933], [-84.44139001287368, 33.7409253615918], [-84.44078999500445, 33.74092536184465], [-84.4405299912426, 33.74092536195401], [-84.44038571634947, 33.74092436052093], [-84.43901779724806, 33.74090536264029], [-84.43892000089436, 33.74090536265258], [-84.43883999880545, 33.740905362686036], [-84.43823008529229, 33.74088744661444], [-84.43811793231987, 33.740880849459224], [-84.43796582522091, 33.740873606298194], [-84.43699360385342, 33.740781178515775], [-84.43614224382414, 33.74061760512583], [-84.43598901475056, 33.74061364183102], [-84.43527672466058, 33.74060451001608], [-84.43513661936237, 33.740601768540564], [-84.43480215448359, 33.74059296704261], [-84.43370763818974, 33.74057376527202], [-84.43364838592895, 33.74057255649009], [-84.43322503057391, 33.74056271121272], [-84.43141155856608, 33.74052285542077], [-84.43006732136479, 33.7404927619787], [-84.43005263730785, 33.7404924227739], [-84.42965239835016, 33.74048289347949], [-84.42917215501895, 33.74047328877904], [-84.429156621567, 33.74047296646788], [-84.42729646509832, 33.74043296389541], [-84.42729652898457, 33.74043089115515], [-84.42679218389927, 33.74041515253], [-84.42647215716367, 33.740395151001344], [-84.42601544840896, 33.740356441151235], [-84.4243353102367, 33.74017642698364], [-84.42391908588426, 33.74010931648601], [-84.42391134196141, 33.740108980761285], [-84.42308106343037, 33.74000516902583], [-84.42226666539442, 33.73983486041054], [-84.42147576018023, 33.739599646830776], [-84.42115573937146, 33.73948963848391], [-84.42093976010561, 33.73940115536895], [-84.42030408293472, 33.73918547400065], [-84.41948055013695, 33.73881538373617], [-84.41870942952028, 33.738373456590104], [-84.41575345836122, 33.73647597124057], [-84.41144745241611, 33.733718425206526], [-84.41116883003876, 33.73353227092043], [-84.41002085841599, 33.732732420773445], [-84.40967418274175, 33.7325012941222], [-84.40908469977735, 33.73207053778998], [-84.40868469750438, 33.731750518619265], [-84.40835296590514, 33.731470293760694], [-84.4079829686313, 33.73114027502637], [-84.4076564928706, 33.73083199107951], [-84.4072965010226, 33.73047197188888], [-84.40686974066973, 33.7300084098342], [-84.4065397564702, 33.7296183910818], [-84.40634141777176, 33.72937352956879], [-84.40603143717499, 33.728973511442135], [-84.40579874015353, 33.72865561446669], [-84.4055087643728, 33.728235596944344], [-84.40521965794002, 33.727780181162714], [-84.40499453754448, 33.72739291435534], [-84.40382947287763, 33.72545369273514], [-84.40360080875556, 33.72514703893061], [-84.40318806574365, 33.72452809193838], [-84.40284954827416, 33.72387845471433], [-84.40258848345117, 33.7232043235444], [-84.40240735943966, 33.72251212819492], [-84.40230790179821, 33.72180847057218], [-84.4022910570922, 33.721100061745666], [-84.4023569839415, 33.72039365793615], [-84.40250505158494, 33.719695996079125], [-84.40273384597239, 33.71901372957857], [-84.40304118332344, 33.71835336486331], [-84.40342413102064, 33.71772119935069], [-84.40387903563544, 33.7171232614086], [-84.40440155781738, 33.71656525288783], [-84.40498671371216, 33.716052494771375], [-84.40562892251211, 33.715589876458566], [-84.40632205968512, 33.715181809165955], [-84.40705951537392, 33.71483218388864], [-84.40783425740945, 33.7145443343214], [-84.40863889833821, 33.714321005092415], [-84.40946576582571, 33.71416432561115], [-84.41030697576683, 33.714075789779386], [-84.41115450740791, 33.71405624175758], [-84.4120002797669, 33.71410586792237], [-84.41283622862554, 33.714224195091056], [-84.41365438336211, 33.71441009503037], [-84.41444694289528, 33.71466179520637], [-84.41583063419577, 33.715167128475905], [-84.41635229006746, 33.71505970922637], [-84.41674302145664, 33.71501204361544], [-84.41830263851605, 33.71003650074724], [-84.41836039120786, 33.709821319367514], [-84.41838820465304, 33.70970733056012], [-84.42020137706689, 33.698746668540586], [-84.42035747903194, 33.69805335280624], [-84.42059339881193, 33.69737598635129], [-84.42090690413399, 33.69672097311134], [-84.42129502940682, 33.69609450554923], [-84.42175410381486, 33.69550250612773], [-84.42227978606903, 33.694950571338964], [-84.42286710548397, 33.69444391881897], [-84.42309761952484, 33.69428033924244], [-84.42387937940694, 33.694246607426855], [-84.42406723513818, 33.69425392956077], [-84.42475393786891, 33.69390793113604], [-84.42552303850714, 33.69360189644773], [-84.42632431655474, 33.69336034439849], [-84.42652195040527, 33.69331852156478], [-84.42654483462458, 33.69330699060369], [-84.42731392349948, 33.693000944793454], [-84.42811519089103, 33.692759381157146], [-84.42894092173363, 33.69258462553561], [-84.42978316559301, 33.69247836050863], [-84.43025586568092, 33.692457938742734], [-84.4311339102832, 33.69246107413806], [-84.43148467429188, 33.69247472546759], [-84.43232755676999, 33.69257739043255], [-84.4331543451558, 33.69274861561433], [-84.43395707885148, 33.692986752408004], [-84.43472802869852, 33.69328950795304], [-84.43545977135219, 33.6936539671946], [-84.43614526072145, 33.694076620932236], [-84.43677789578858, 33.694553399586965], [-84.43735158415683, 33.695079712362556], [-84.43786080071483, 33.69565049142502], [-84.43830064085326, 33.696260240676104], [-84.43866686772095, 33.69690308865237], [-84.43895595306469, 33.697572845041634], [-84.4391651112575, 33.698263060273426], [-84.43929232618645, 33.698967087610775], [-84.43933595726602, 33.69967147206901], [-84.43964356889721, 33.69951643921047], [-84.44041266592568, 33.699210312126624], [-84.44121395357561, 33.69896866368062], [-84.44203971658612, 33.698793820529325], [-84.44267835065753, 33.69871318168339], [-84.44286662509454, 33.698077724551595], [-84.44315145227452, 33.69740669447005], [-84.44351359141449, 33.696762230005035], [-84.44394955359215, 33.69615053705525], [-84.44445513926217, 33.69557750581698], [-84.44477876950573, 33.69527741826691], [-84.44479014609917, 33.695264523785156], [-84.44536048145766, 33.694735670502645], [-84.44599007768993, 33.69425608885861], [-84.44610306031808, 33.69418564967097], [-84.44654643917552, 33.694323791465735], [-84.44731014948431, 33.6946359168911], [-84.44803367545542, 33.69500898872573], [-84.44871007774415, 33.6954394291035], [-84.44933286865728, 33.6959231099235], [-84.4498960743636, 33.696455392417], [-84.45039429219045, 33.697031171611755], [-84.45082274245681, 33.69764492526827], [-84.45117731434534, 33.69829076682003], [-84.4514546053727, 33.69896250181081], [-84.45165195407789, 33.699653687289064], [-84.45176746561297, 33.700357693590256], [-84.4517799556877, 33.70063004428436], [-84.45202180773383, 33.70053642559196], [-84.4528282579419, 33.70026437830822], [-84.45366322417493, 33.70006113653205], [-84.45451832763332, 33.6999287397274], [-84.45538498759771, 33.6998685164403], [-84.45625450747285, 33.69988107097753], [-84.45711816198977, 33.69996627734756], [-84.45796728469456, 33.700123280524274], [-84.45879335484908, 33.70035050502106], [-84.45958808287463, 33.70064567068935], [-84.46034349348452, 33.70100581558356], [-84.46105200567345, 33.70142732566395], [-84.46170650876383, 33.70190597104034], [-84.462300433747, 33.702436948393846], [-84.46282781920482, 33.70301492915262], [-84.46328337115028, 33.70363411293909], [-84.46366251618646, 33.70428828575405], [-84.46396144744911, 33.704970882314655], [-84.46417716287054, 33.705675051922114], [-84.4643074953782, 33.70639372719924], [-84.46435113472249, 33.70711969500852], [-84.46435114981364, 33.70726969492709], [-84.46435053984764, 33.7073563138564], [-84.4643406102705, 33.708056314169404], [-84.46433845599515, 33.70815338524826], [-84.46432848917637, 33.708483385762044], [-84.46432805133514, 33.70849734970228], [-84.4642981438315, 33.70941735128164], [-84.46418267608381, 33.71041583433636], [-84.46412270509, 33.7107158382813], [-84.46401962536768, 33.71114967111298], [-84.4639396523764, 33.71143967637013], [-84.46361957891483, 33.71232332139141], [-84.4633413813461, 33.712382268916485]]]}, "properties": {"kind": "walkshed", "buffer_mi": 0.5}}, {"type": "Feature", "geometry": {"type": "Point", "coordinates": [-84.428944, 33.700331]}, "properties": {"kind": "stop", "name": "Lakewood/ Ft. McPherson", "mode": "rail"}}, {"type": "Feature", "geometry": {"type": "Point", "coordinates": [-84.42516, 33.717032]}, "properties": {"kind": "stop", "name": "Oakland City", "mode": "rail"}}, {"type": "Feature", "geometry": {"type": "Point", "coordinates": [-84.428768, 33.70088]}, "properties": {"kind": "stop", "name": "LAKEWOOD-FT MCPHERSON STATION", "mode": "bus"}}, {"type": "Feature", "geometry": {"type": "Point", "coordinates": [-84.428865, 33.700298]}, "properties": {"kind": "stop", "name": "LAKEWOOD-FT MCPHERSON STATION", "mode": "bus"}}, {"type": "Feature", "geometry": {"type": "Point", "coordinates": [-84.42503, 33.7173]}, "properties": {"kind": "stop", "name": "OAKLAND CITY STATION", "mode": "bus"}}, {"type": "Feature", "geometry": {"type": "Point", "coordinates": [-84.425138, 33.716978]}, "properties": {"kind": "stop", "name": "OAKLAND CITY STATION", "mode": "bus"}}, {"type": "Feature", "geometry": {"type": "Point", "coordinates": [-84.435153, 33.738032]}, "properties": {"kind": "stop", "name": "DONNELLY AVE SW @ CASCADE AVE SW", "mode": "bus"}}, {"type": "Feature", "geometry": {"type": "Point", "coordinates": [-84.437172, 33.738552]}, "properties": {"kind": "stop", "name": "WESTWOOD AVE SW @ WILLARD AVE SW", "mode": "bus"}}, {"type": "Feature", "geometry": {"type": "Point", "coordinates": [-84.439143, 33.738699]}, "properties": {"kind": "stop", "name": "WESTWOOD AVE SW @ ONTARIO AVE SW", "mode": "bus"}}, {"type": "Feature", "geometry": {"type": "Point", "coordinates": [-84.441241, 33.738428]}, "properties": {"kind": "stop", "name": "WESTWOOD AVE SW @ MANSON AVE SW", "mode": "bus"}}, {"type": "Feature", "geometry": {"type": "Point", "coordinates": [-84.442991, 33.738516]}, "properties": {"kind": "stop", "name": "WESTWOOD AVE SW @ AKRIDGE PL SW", "mode": "bus"}}, {"type": "Feature", "geometry": {"type": "Point", "coordinates": [-84.446448, 33.738826]}, "properties": {"kind": "stop", "name": "WESTWOOD AVE SW @ S GORDON ST SW", "mode": "bus"}}, {"type": "Feature", "geometry": {"type": "Point", "coordinates": [-84.446858, 33.737348]}, "properties": {"kind": "stop", "name": "S GORDON ST SW @ ROGERS AVE SW", "mode": "bus"}}, {"type": "Feature", "geometry": {"type": "Point", "coordinates": [-84.447192, 33.735441]}, "properties": {"kind": "stop", "name": "S GORDON ST SW @ S OLYMPIAN WAY SW", "mode": "bus"}}, {"type": "Feature", "geometry": {"type": "Point", "coordinates": [-84.447483, 33.733866]}, "properties": {"kind": "stop", "name": "S GORDON ST SW @ BEECHER ST SW", "mode": "bus"}}, {"type": "Feature", "geometry": {"type": "Point", "coordinates": [-84.448825, 33.733782]}, "properties": {"kind": "stop", "name": "BEECHER ST SW@KENNOLIA DR SW", "mode": "bus"}}, {"type": "Feature", "geometry": {"type": "Point", "coordinates": [-84.450787, 33.733665]}, "properties": {"kind": "stop", "name": "BEECHER ST SW @ SHIRLEY ST SW (E)", "mode": "bus"}}, {"type": "Feature", "geometry": {"type": "Point", "coordinates": [-84.439174, 33.738555]}, "properties": {"kind": "stop", "name": "WESTWOOD AVE SW@ONTARIO AVE SW", "mode": "bus"}}, {"type": "Feature", "geometry": {"type": "Point", "coordinates": [-84.446462, 33.73857]}, "properties": {"kind": "stop", "name": "S GORDON ST SW @ WESTWOOD AVE SW", "mode": "bus"}}, {"type": "Feature", "geometry": {"type": "Point", "coordinates": [-84.444719, 33.738568]}, "properties": {"kind": "stop", "name": "WESTWOOD AVE SW@AKRIDGE PL SW", "mode": "bus"}}, {"type": "Feature", "geometry": {"type": "Point", "coordinates": [-84.44311, 33.738435]}, "properties": {"kind": "stop", "name": "WESTWOOD AVE SW@AKRIDGE PL SW", "mode": "bus"}}, {"type": "Feature", "geometry": {"type": "Point", "coordinates": [-84.441099, 33.73833]}, "properties": {"kind": "stop", "name": "WESTWOOD AVE SW@MANSON AVE SW", "mode": "bus"}}, {"type": "Feature", "geometry": {"type": "Point", "coordinates": [-84.463632, 33.726856]}, "properties": {"kind": "stop", "name": "BEECHER RD SW@MT AIRY DR SW", "mode": "bus"}}, {"type": "Feature", "geometry": {"type": "Point", "coordinates": [-84.46232, 33.72821]}, "properties": {"kind": "stop", "name": "BEECHER RD SW@HIGHVIEW RD SW", "mode": "bus"}}, {"type": "Feature", "geometry": {"type": "Point", "coordinates": [-84.460587, 33.730103]}, "properties": {"kind": "stop", "name": "BEECHER RD SW@BEECHER CIR SW", "mode": "bus"}}, {"type": "Feature", "geometry": {"type": "Point", "coordinates": [-84.459327, 33.732]}, "properties": {"kind": "stop", "name": "BEECHER RD SW@HIGHVIEW RD", "mode": "bus"}}, {"type": "Feature", "geometry": {"type": "Point", "coordinates": [-84.458111, 33.732923]}, "properties": {"kind": "stop", "name": "BEECHER RD SW@HIGHVIEW RD SW", "mode": "bus"}}, {"type": "Feature", "geometry": {"type": "Point", "coordinates": [-84.443085, 33.727827]}, "properties": {"kind": "stop", "name": "CASCADE AVE SW @ ORLANDO ST SW", "mode": "bus"}}, {"type": "Feature", "geometry": {"type": "Point", "coordinates": [-84.440666, 33.729683]}, "properties": {"kind": "stop", "name": "CASCADE AVE SW@PINEVIEW TER SW", "mode": "bus"}}, {"type": "Feature", "geometry": {"type": "Point", "coordinates": [-84.439178, 33.731194]}, "properties": {"kind": "stop", "name": "CASCADE AVE SW@RICHLAND RD SW", "mode": "bus"}}, {"type": "Feature", "geometry": {"type": "Point", "coordinates": [-84.438454, 33.731964]}, "properties": {"kind": "stop", "name": "CASCADE AVE SW@WESTHAVEN DR SW", "mode": "bus"}}, {"type": "Feature", "geometry": {"type": "Point", "coordinates": [-84.436554, 33.734879]}, "properties": {"kind": "stop", "name": "CASCADE AVE SW@ALLEGHENY ST SW", "mode": "bus"}}, {"type": "Feature", "geometry": {"type": "Point", "coordinates": [-84.435392, 33.737745]}, "properties": {"kind": "stop", "name": "CASCADE AVE SW @ DONNELLY AVE SW", "mode": "bus"}}, {"type": "Feature", "geometry": {"type": "Point", "coordinates": [-84.4336, 33.73874]}, "properties": {"kind": "stop", "name": "CASCADE AVE @ RALPH D ABERNATHY BLVD", "mode": "bus"}}, {"type": "Feature", "geometry": {"type": "Point", "coordinates": [-84.435317, 33.738094]}, "properties": {"kind": "stop", "name": "CASCADE AVE SW @ WESTWOOD AVE SW", "mode": "bus"}}, {"type": "Feature", "geometry": {"type": "Point", "coordinates": [-84.435783, 33.737154]}, "properties": {"kind": "stop", "name": "CASCADE AVE@ROGERS AVE", "mode": "bus"}}, {"type": "Feature", "geometry": {"type": "Point", "coordinates": [-84.436595, 33.735372]}, "properties": {"kind": "stop", "name": "CASCADE AVE SW@OLYMPIAN WAY SW", "mode": "bus"}}, {"type": "Feature", "geometry": {"type": "Point", "coordinates": [-84.437538, 33.733473]}, "properties": {"kind": "stop", "name": "CASCADE AVE SW@BEECHER ST SW", "mode": "bus"}}, {"type": "Feature", "geometry": {"type": "Point", "coordinates": [-84.438363, 33.732389]}, "properties": {"kind": "stop", "name": "CASCADE AVE SW @ WESTHAVEN DR SW", "mode": "bus"}}, {"type": "Feature", "geometry": {"type": "Point", "coordinates": [-84.439176, 33.731556]}, "properties": {"kind": "stop", "name": "CASCADE AVE SW@RICHLAND RD", "mode": "bus"}}, {"type": "Feature", "geometry": {"type": "Point", "coordinates": [-84.440967, 33.729692]}, "properties": {"kind": "stop", "name": "CASCADE AVE SW@ALTADENA PL SW", "mode": "bus"}}, {"type": "Feature", "geometry": {"type": "Point", "coordinates": [-84.443485, 33.727756]}, "properties": {"kind": "stop", "name": "CASCADE AVE@CASCADE TER", "mode": "bus"}}, {"type": "Feature", "geometry": {"type": "Point", "coordinates": [-84.44532, 33.726519]}, "properties": {"kind": "stop", "name": "CASCADE AVE SW@ CASCADE CIR", "mode": "bus"}}, {"type": "Feature", "geometry": {"type": "Point", "coordinates": [-84.453037, 33.733949]}, "properties": {"kind": "stop", "name": "BEECHER RD SW@SHIRLEY ST SW", "mode": "bus"}}, {"type": "Feature", "geometry": {"type": "Point", "coordinates": [-84.457216, 33.7334]}, "properties": {"kind": "stop", "name": "BEECHER RD SW@BEECHER CIR SW", "mode": "bus"}}, {"type": "Feature", "geometry": {"type": "Point", "coordinates": [-84.448907, 33.733685]}, "properties": {"kind": "stop", "name": "BEECHER ST SW@KENNOLIA DR SW", "mode": "bus"}}, {"type": "Feature", "geometry": {"type": "Point", "coordinates": [-84.4507, 33.733576]}, "properties": {"kind": "stop", "name": "BEECHER ST SW@SHIRLEY ST SW", "mode": "bus"}}, {"type": "Feature", "geometry": {"type": "Point", "coordinates": [-84.453113, 33.733895]}, "properties": {"kind": "stop", "name": "BEECHER RD SW@SHIRLEY ST SW", "mode": "bus"}}, {"type": "Feature", "geometry": {"type": "Point", "coordinates": [-84.462341, 33.728084]}, "properties": {"kind": "stop", "name": "BEECHER RD SW@HIGHVIEW RD SW", "mode": "bus"}}, {"type": "Feature", "geometry": {"type": "Point", "coordinates": [-84.458111, 33.732842]}, "properties": {"kind": "stop", "name": "BEECHER RD SW@HIGHVIEW RD SW", "mode": "bus"}}, {"type": "Feature", "geometry": {"type": "Point", "coordinates": [-84.446688, 33.737172]}, "properties": {"kind": "stop", "name": "S GORDON ST SW @ ROGERS AVE SW", "mode": "bus"}}, {"type": "Feature", "geometry": {"type": "Point", "coordinates": [-84.456993, 33.733452]}, "properties": {"kind": "stop", "name": "BEECHER RD SW@BEECHER CIR", "mode": "bus"}}, {"type": "Feature", "geometry": {"type": "Point", "coordinates": [-84.456243, 33.733507]}, "properties": {"kind": "stop", "name": "BEECHER RD SW@RECTOR DR SW", "mode": "bus"}}, {"type": "Feature", "geometry": {"type": "Point", "coordinates": [-84.437752, 33.738503]}, "properties": {"kind": "stop", "name": "WESTWOOD AVE@WILLARD AVE", "mode": "bus"}}, {"type": "Feature", "geometry": {"type": "Point", "coordinates": [-84.459782, 33.731399]}, "properties": {"kind": "stop", "name": "BEECHER RD @ 2175", "mode": "bus"}}, {"type": "Feature", "geometry": {"type": "Point", "coordinates": [-84.447073, 33.73537]}, "properties": {"kind": "stop", "name": "S GORDON ST SW @ S OLYMPIAN WAY SW", "mode": "bus"}}, {"type": "Feature", "geometry": {"type": "Point", "coordinates": [-84.435557, 33.737954]}, "properties": {"kind": "stop", "name": "WESTWOOD AVE@CASCADE AVE", "mode": "bus"}}, {"type": "Feature", "geometry": {"type": "Point", "coordinates": [-84.437509, 33.733199]}, "properties": {"kind": "stop", "name": "CASCADE AVE SW @ BEECHER ST SW", "mode": "bus"}}, {"type": "Feature", "geometry": {"type": "Point", "coordinates": [-84.419238, 33.735853]}, "properties": {"kind": "stop", "name": "OGLETHORPE AVE SW@GORDON PL SW", "mode": "bus"}}, {"type": "Feature", "geometry": {"type": "Point", "coordinates": [-84.420325, 33.735852]}, "properties": {"kind": "stop", "name": "OGLETHORPE AVE SW@PEEPLES ST SW", "mode": "bus"}}, {"type": "Feature", "geometry": {"type": "Point", "coordinates": [-84.423225, 33.735836]}, "properties": {"kind": "stop", "name": "OGLETHORPE AVE SW@LAWTON ST SW", "mode": "bus"}}, {"type": "Feature", "geometry": {"type": "Point", "coordinates": [-84.4234, 33.734668]}, "properties": {"kind": "stop", "name": "LAWTON ST SW@MATHEWS ST SW", "mode": "bus"}}, {"type": "Feature", "geometry": {"type": "Point", "coordinates": [-84.424516, 33.73208]}, "properties": {"kind": "stop", "name": "LAWTON ST SW@DONNELLY AVE SW", "mode": "bus"}}, {"type": "Feature", "geometry": {"type": "Point", "coordinates": [-84.42681, 33.733018]}, "properties": {"kind": "stop", "name": "DONNELLY AVE SW@OAKLAND DR SW", "mode": "bus"}}, {"type": "Feature", "geometry": {"type": "Point", "coordinates": [-84.432456, 33.736468]}, "properties": {"kind": "stop", "name": "DONNELLY AVE SW @ BERNICE ST SW", "mode": "bus"}}, {"type": "Feature", "geometry": {"type": "Point", "coordinates": [-84.430084, 33.73502]}, "properties": {"kind": "stop", "name": "DONNELLY AVE SW @ ALLEGHENY ST SW", "mode": "bus"}}, {"type": "Feature", "geometry": {"type": "Point", "coordinates": [-84.432875, 33.736541]}, "properties": {"kind": "stop", "name": "DONNELLY AVE@BERNICE ST", "mode": "bus"}}, {"type": "Feature", "geometry": {"type": "Point", "coordinates": [-84.429954, 33.734823]}, "properties": {"kind": "stop", "name": "DONNELLY AVE SW @ ALLEGHENY ST SW", "mode": "bus"}}, {"type": "Feature", "geometry": {"type": "Point", "coordinates": [-84.427354, 33.733259]}, "properties": {"kind": "stop", "name": "DONNELLY AVE SW @ BEECHER ST SW", "mode": "bus"}}, {"type": "Feature", "geometry": {"type": "Point", "coordinates": [-84.424288, 33.732205]}, "properties": {"kind": "stop", "name": "LAWTON ST SW@DONNELLY AVE SW", "mode": "bus"}}, {"type": "Feature", "geometry": {"type": "Point", "coordinates": [-84.423302, 33.734623]}, "properties": {"kind": "stop", "name": "LAWTON ST SW@MATHEWS ST SW", "mode": "bus"}}, {"type": "Feature", "geometry": {"type": "Point", "coordinates": [-84.423314, 33.735733]}, "properties": {"kind": "stop", "name": "LAWTON ST SW@OGLETHORPE AVE SW", "mode": "bus"}}, {"type": "Feature", "geometry": {"type": "Point", "coordinates": [-84.420543, 33.735771]}, "properties": {"kind": "stop", "name": "OGLETHORPE AVE SW@PEEPLES ST SW", "mode": "bus"}}, {"type": "Feature", "geometry": {"type": "Point", "coordinates": [-84.419201, 33.735746]}, "properties": {"kind": "stop", "name": "OGLETHORPE AVE SW@AZALIA ST SW", "mode": "bus"}}, {"type": "Feature", "geometry": {"type": "Point", "coordinates": [-84.417804, 33.735791]}, "properties": {"kind": "stop", "name": "OGLETHORPE AVE SW@ JOSEPH E LOWERY BLVD", "mode": "bus"}}, {"type": "Feature", "geometry": {"type": "Point", "coordinates": [-84.418446, 33.738073]}, "properties": {"kind": "stop", "name": "RALPH D ABERNATHY BLVD SW @ JOSEPH E LOWERY BLVD", "mode": "bus"}}, {"type": "Feature", "geometry": {"type": "Point", "coordinates": [-84.420235, 33.73811]}, "properties": {"kind": "stop", "name": "RALPH DAVID ABERNATH BLVD@PEEPLES S", "mode": "bus"}}, {"type": "Feature", "geometry": {"type": "Point", "coordinates": [-84.423296, 33.7384]}, "properties": {"kind": "stop", "name": "RALPH D ABERNATHY BLVD SW @ LAWTON ST SW", "mode": "bus"}}, {"type": "Feature", "geometry": {"type": "Point", "coordinates": [-84.426826, 33.738594]}, "properties": {"kind": "stop", "name": "RALPH D ABERNATHY BLVD SW @ HOLDERNES ST", "mode": "bus"}}, {"type": "Feature", "geometry": {"type": "Point", "coordinates": [-84.422216, 33.735711]}, "properties": {"kind": "stop", "name": "OGLETHORPE AVE SW@LAWTON ST SW", "mode": "bus"}}, {"type": "Feature", "geometry": {"type": "Point", "coordinates": [-84.429698, 33.738905]}, "properties": {"kind": "stop", "name": "RALPH DAVID ABERNATH BLVD@ATWOOD S", "mode": "bus"}}, {"type": "Feature", "geometry": {"type": "Point", "coordinates": [-84.432259, 33.739109]}, "properties": {"kind": "stop", "name": "RALPH D ABERNATHY BLVD @ LANGHORN ST", "mode": "bus"}}, {"type": "Feature", "geometry": {"type": "Point", "coordinates": [-84.417404, 33.735917]}, "properties": {"kind": "stop", "name": "OGLETHORPE AVE @ JOSEPH E LOWERY BLVD", "mode": "bus"}}, {"type": "Feature", "geometry": {"type": "Point", "coordinates": [-84.4311, 33.738886]}, "properties": {"kind": "stop", "name": "RALPH D ABERNATHY BLVD SW @ HOPKINS ST SW", "mode": "bus"}}, {"type": "Feature", "geometry": {"type": "Point", "coordinates": [-84.429155, 33.738744]}, "properties": {"kind": "stop", "name": "RALPH D ABERNATHY BLVD SW @ ATWOOD ST SW", "mode": "bus"}}, {"type": "Feature", "geometry": {"type": "Point", "coordinates": [-84.425574, 33.738439]}, "properties": {"kind": "stop", "name": "RALPH D ABERNATHY BLVD @ QUEEN ST SW", "mode": "bus"}}, {"type": "Feature", "geometry": {"type": "Point", "coordinates": [-84.423013, 33.738248]}, "properties": {"kind": "stop", "name": "RALPH DAVID ABERNATH BLVD@LAWTON S", "mode": "bus"}}, {"type": "Feature", "geometry": {"type": "Point", "coordinates": [-84.420632, 33.738]}, "properties": {"kind": "stop", "name": "RALPH DAVID ABERNATH BLVD@PEEPLES", "mode": "bus"}}, {"type": "Feature", "geometry": {"type": "Point", "coordinates": [-84.418205, 33.737913]}, "properties": {"kind": "stop", "name": "RALPH DAVID ABERNATH BLVD SW @ JOSEPH E LOWERY BLVD", "mode": "bus"}}, {"type": "Feature", "geometry": {"type": "Point", "coordinates": [-84.423405, 33.730568]}, "properties": {"kind": "stop", "name": "LAWTON ST SW@RICHLAND RD SW", "mode": "bus"}}, {"type": "Feature", "geometry": {"type": "Point", "coordinates": [-84.423383, 33.729646]}, "properties": {"kind": "stop", "name": "LAWTON ST SW@MONTREAT AVE SW", "mode": "bus"}}, {"type": "Feature", "geometry": {"type": "Point", "coordinates": [-84.423381, 33.728679]}, "properties": {"kind": "stop", "name": "LAWTON ST SW@MERRILL AVE SW", "mode": "bus"}}, {"type": "Feature", "geometry": {"type": "Point", "coordinates": [-84.425438, 33.728714]}, "properties": {"kind": "stop", "name": "MERRILL AVE SW@HALL ST SW", "mode": "bus"}}, {"type": "Feature", "geometry": {"type": "Point", "coordinates": [-84.427017, 33.728752]}, "properties": {"kind": "stop", "name": "MERRILL AVE SW@OAKLAND DR SW", "mode": "bus"}}, {"type": "Feature", "geometry": {"type": "Point", "coordinates": [-84.427152, 33.728551]}, "properties": {"kind": "stop", "name": "OAKLAND DR SW@MERRILL AVE SW", "mode": "bus"}}, {"type": "Feature", "geometry": {"type": "Point", "coordinates": [-84.425631, 33.728641]}, "properties": {"kind": "stop", "name": "MERRILL AVE SW@HALL ST SW", "mode": "bus"}}, {"type": "Feature", "geometry": {"type": "Point", "coordinates": [-84.423381, 33.728608]}, "properties": {"kind": "stop", "name": "MERRILL AVE SW@LAWTON ST SW", "mode": "bus"}}, {"type": "Feature", "geometry": {"type": "Point", "coordinates": [-84.423279, 33.729511]}, "properties": {"kind": "stop", "name": "LAWTON ST SW@MONTREAT AVE SW", "mode": "bus"}}, {"type": "Feature", "geometry": {"type": "Point", "coordinates": [-84.423294, 33.730488]}, "properties": {"kind": "stop", "name": "LAWTON ST SW@RICHLAND RD SW", "mode": "bus"}}, {"type": "Feature", "geometry": {"type": "Point", "coordinates": [-84.422032, 33.735841]}, "properties": {"kind": "stop", "name": "OGLETHORPE AVE SW@LAWTON ST SW", "mode": "bus"}}, {"type": "Feature", "geometry": {"type": "Point", "coordinates": [-84.408112, 33.727154]}, "properties": {"kind": "stop", "name": "METROPOLITAN PKY SW@BROOKLINE ST SW", "mode": "bus"}}, {"type": "Feature", "geometry": {"type": "Point", "coordinates": [-84.40811, 33.728942]}, "properties": {"kind": "stop", "name": "METROPOLITAN PKY SW @ MARY ST", "mode": "bus"}}, {"type": "Feature", "geometry": {"type": "Point", "coordinates": [-84.408166, 33.7313]}, "properties": {"kind": "stop", "name": "METROPOLITAN PKY SW @ ROCKWELL ST SW", "mode": "bus"}}, {"type": "Feature", "geometry": {"type": "Point", "coordinates": [-84.407664, 33.727286]}, "properties": {"kind": "stop", "name": "METROPOLITAN PKWY SW @ BROOKLINE ST SW", "mode": "bus"}}, {"type": "Feature", "geometry": {"type": "Point", "coordinates": [-84.407812, 33.727967]}, "properties": {"kind": "stop", "name": "METROPOLITAN PKY SW@ARTHUR ST SW", "mode": "bus"}}, {"type": "Feature", "geometry": {"type": "Point", "coordinates": [-84.407906, 33.729164]}, "properties": {"kind": "stop", "name": "METROPOLITAN PKY SW@MARY ST SW", "mode": "bus"}}, {"type": "Feature", "geometry": {"type": "Point", "coordinates": [-84.408033, 33.7309]}, "properties": {"kind": "stop", "name": "METROPOLITAN PKY SW @ LILLIAN AVE", "mode": "bus"}}, {"type": "Feature", "geometry": {"type": "Point", "coordinates": [-84.415206, 33.735793]}, "properties": {"kind": "stop", "name": "OGLETHORPE AVE SW @ EVANS ST SW", "mode": "bus"}}, {"type": "Feature", "geometry": {"type": "Point", "coordinates": [-84.470487, 33.725326]}, "properties": {"kind": "stop", "name": "BENJAMIN E MAYS DR @ WILLIS MILL RD", "mode": "bus"}}, {"type": "Feature", "geometry": {"type": "Point", "coordinates": [-84.468055, 33.720827]}, "properties": {"kind": "stop", "name": "CASCADE RD SW @ WILLIS MILL RD SW", "mode": "bus"}}, {"type": "Feature", "geometry": {"type": "Point", "coordinates": [-84.471542, 33.720106]}, "properties": {"kind": "stop", "name": "CASCADE RD SW @ DODSON DR SW", "mode": "bus"}}, {"type": "Feature", "geometry": {"type": "Point", "coordinates": [-84.468656, 33.72089]}, "properties": {"kind": "stop", "name": "CASCADE RD SW @ AUDUBON CT", "mode": "bus"}}, {"type": "Feature", "geometry": {"type": "Point", "coordinates": [-84.472281, 33.720025]}, "properties": {"kind": "stop", "name": "CASCADE RD@WILLIS MILL RD", "mode": "bus"}}, {"type": "Feature", "geometry": {"type": "Point", "coordinates": [-84.466473, 33.723138]}, "properties": {"kind": "stop", "name": "BENJAMIN E MAYS DR SW @ FLAMINGO DR NW", "mode": "bus"}}, {"type": "Feature", "geometry": {"type": "Point", "coordinates": [-84.459225, 33.705557]}, "properties": {"kind": "stop", "name": "CAMPBELLTON RD @ 2170", "mode": "bus"}}, {"type": "Feature", "geometry": {"type": "Point", "coordinates": [-84.457223, 33.706608]}, "properties": {"kind": "stop", "name": "CAMPBELLTON RD@DELOWE DR", "mode": "bus"}}, {"type": "Feature", "geometry": {"type": "Point", "coordinates": [-84.464232, 33.723053]}, "properties": {"kind": "stop", "name": "BEECHER RD SW @ BENJAMIN E MAYS DR SW", "mode": "bus"}}, {"type": "Feature", "geometry": {"type": "Point", "coordinates": [-84.463859, 33.725934]}, "properties": {"kind": "stop", "name": "BEECHER RD@MT AIRY DR", "mode": "bus"}}, {"type": "Feature", "geometry": {"type": "Point", "coordinates": [-84.464097, 33.725084]}, "properties": {"kind": "stop", "name": "BEECHER RD SW@2359", "mode": "bus"}}, {"type": "Feature", "geometry": {"type": "Point", "coordinates": [-84.462715, 33.70454]}, "properties": {"kind": "stop", "name": "CAMPBELLTON RD SW @ 2280", "mode": "bus"}}, {"type": "Feature", "geometry": {"type": "Point", "coordinates": [-84.45079, 33.708794]}, "properties": {"kind": "stop", "name": "CAMPBELLTON RD SW@FORT VALLEY DR SW", "mode": "bus"}}, {"type": "Feature", "geometry": {"type": "Point", "coordinates": [-84.446926, 33.710807]}, "properties": {"kind": "stop", "name": "CAMPBELLTON RD SW @ WILLOWBROOK DR", "mode": "bus"}}, {"type": "Feature", "geometry": {"type": "Point", "coordinates": [-84.434262, 33.714463]}, "properties": {"kind": "stop", "name": "CAMPBELLTON RD SW@VENETIAN DR SW", "mode": "bus"}}, {"type": "Feature", "geometry": {"type": "Point", "coordinates": [-84.437032, 33.713664]}, "properties": {"kind": "stop", "name": "CAMPBELLTON RD SW@1473", "mode": "bus"}}, {"type": "Feature", "geometry": {"type": "Point", "coordinates": [-84.439464, 33.712713]}, "properties": {"kind": "stop", "name": "CAMPBELLTON RD SW@ALMA ST SW", "mode": "bus"}}, {"type": "Feature", "geometry": {"type": "Point", "coordinates": [-84.441931, 33.711914]}, "properties": {"kind": "stop", "name": "CAMPBELLTON RD SW @ RIDGEWOOD LN SW", "mode": "bus"}}, {"type": "Feature", "geometry": {"type": "Point", "coordinates": [-84.44446, 33.711517]}, "properties": {"kind": "stop", "name": "CAMPBELLTON RD SW@STANTON RD SW", "mode": "bus"}}, {"type": "Feature", "geometry": {"type": "Point", "coordinates": [-84.446836, 33.711001]}, "properties": {"kind": "stop", "name": "CAMPBELLTON RD SW @ WILLOWBROOK DR SW", "mode": "bus"}}, {"type": "Feature", "geometry": {"type": "Point", "coordinates": [-84.449141, 33.70974]}, "properties": {"kind": "stop", "name": "CAMPBELLTON RD SW @ 1843", "mode": "bus"}}, {"type": "Feature", "geometry": {"type": "Point", "coordinates": [-84.451497, 33.708797]}, "properties": {"kind": "stop", "name": "CAMPBELLTON RD SW @ TIMOTHY DR SW", "mode": "bus"}}, {"type": "Feature", "geometry": {"type": "Point", "coordinates": [-84.459409, 33.705915]}, "properties": {"kind": "stop", "name": "CAMPBELLTON RD SW@2191", "mode": "bus"}}, {"type": "Feature", "geometry": {"type": "Point", "coordinates": [-84.461106, 33.70538]}, "properties": {"kind": "stop", "name": "CAMPBELLTON RD SW @ 2231", "mode": "bus"}}, {"type": "Feature", "geometry": {"type": "Point", "coordinates": [-84.444652, 33.711136]}, "properties": {"kind": "stop", "name": "CAMPBELLTON RD SW @ STANTON RD SW", "mode": "bus"}}, {"type": "Feature", "geometry": {"type": "Point", "coordinates": [-84.442171, 33.711455]}, "properties": {"kind": "stop", "name": "CAMPBELLTON RD SW @ RIDGEWOOD LN SW", "mode": "bus"}}, {"type": "Feature", "geometry": {"type": "Point", "coordinates": [-84.439666, 33.712264]}, "properties": {"kind": "stop", "name": "CAMPBELLTON RD SW@ALMA ST SW", "mode": "bus"}}, {"type": "Feature", "geometry": {"type": "Point", "coordinates": [-84.436282, 33.713683]}, "properties": {"kind": "stop", "name": "CAMPBELLTON RD SW @ 1469", "mode": "bus"}}, {"type": "Feature", "geometry": {"type": "Point", "coordinates": [-84.43433, 33.71413]}, "properties": {"kind": "stop", "name": "CAMPBELLTON RD SW @ VENETIAN DR SW", "mode": "bus"}}, {"type": "Feature", "geometry": {"type": "Point", "coordinates": [-84.443977, 33.710983]}, "properties": {"kind": "stop", "name": "STANTON RD@CAMPBELLTON RD", "mode": "bus"}}, {"type": "Feature", "geometry": {"type": "Point", "coordinates": [-84.444084, 33.70929]}, "properties": {"kind": "stop", "name": "STANTON RD@1665", "mode": "bus"}}, {"type": "Feature", "geometry": {"type": "Point", "coordinates": [-84.444069, 33.708538]}, "properties": {"kind": "stop", "name": "STANTON RD@MARCEL AVE", "mode": "bus"}}, {"type": "Feature", "geometry": {"type": "Point", "coordinates": [-84.44413, 33.707428]}, "properties": {"kind": "stop", "name": "STANTON RD@LESLIE AVE", "mode": "bus"}}, {"type": "Feature", "geometry": {"type": "Point", "coordinates": [-84.444145, 33.706234]}, "properties": {"kind": "stop", "name": "STANTON RD@LAKE AVE SW", "mode": "bus"}}, {"type": "Feature", "geometry": {"type": "Point", "coordinates": [-84.45118, 33.700165]}, "properties": {"kind": "stop", "name": "ALISON CT@1935", "mode": "bus"}}, {"type": "Feature", "geometry": {"type": "Point", "coordinates": [-84.452583, 33.700661]}, "properties": {"kind": "stop", "name": "ALISON CT@PLAZA LN", "mode": "bus"}}, {"type": "Feature", "geometry": {"type": "Point", "coordinates": [-84.454866, 33.700786]}, "properties": {"kind": "stop", "name": "ALISON CT @ MYRTLE DR SW", "mode": "bus"}}, {"type": "Feature", "geometry": {"type": "Point", "coordinates": [-84.457619, 33.705395]}, "properties": {"kind": "stop", "name": "DELOWE DR @ CAMPBELLTON RD", "mode": "bus"}}, {"type": "Feature", "geometry": {"type": "Point", "coordinates": [-84.454743, 33.700657]}, "properties": {"kind": "stop", "name": "ALISON CT SW@MYRTLE DR SW", "mode": "bus"}}, {"type": "Feature", "geometry": {"type": "Point", "coordinates": [-84.452843, 33.700645]}, "properties": {"kind": "stop", "name": "ALISON CT@PLAZA LN SW", "mode": "bus"}}, {"type": "Feature", "geometry": {"type": "Point", "coordinates": [-84.451515, 33.699852]}, "properties": {"kind": "stop", "name": "ALISON CT @ 1935", "mode": "bus"}}, {"type": "Feature", "geometry": {"type": "Point", "coordinates": [-84.443756, 33.705906]}, "properties": {"kind": "stop", "name": "STANTON RD@LAKE AVE SW", "mode": "bus"}}, {"type": "Feature", "geometry": {"type": "Point", "coordinates": [-84.443726, 33.707214]}, "properties": {"kind": "stop", "name": "STANTON RD@LESLIE AVE", "mode": "bus"}}, {"type": "Feature", "geometry": {"type": "Point", "coordinates": [-84.44371, 33.708378]}, "properties": {"kind": "stop", "name": "STANTON RD@MARCEL AVE", "mode": "bus"}}, {"type": "Feature", "geometry": {"type": "Point", "coordinates": [-84.44368, 33.709765]}, "properties": {"kind": "stop", "name": "STANTON RD@1600", "mode": "bus"}}, {"type": "Feature", "geometry": {"type": "Point", "coordinates": [-84.443624, 33.711436]}, "properties": {"kind": "stop", "name": "STANTON RD@CAMPBELLTON RD", "mode": "bus"}}, {"type": "Feature", "geometry": {"type": "Point", "coordinates": [-84.445198, 33.717468]}, "properties": {"kind": "stop", "name": "SANDTOWN RD SW@LOCKHAVEN CIR", "mode": "bus"}}, {"type": "Feature", "geometry": {"type": "Point", "coordinates": [-84.446937, 33.717879]}, "properties": {"kind": "stop", "name": "WESTRIDGE RD@SANDTOWN RD", "mode": "bus"}}, {"type": "Feature", "geometry": {"type": "Point", "coordinates": [-84.446793, 33.715991]}, "properties": {"kind": "stop", "name": "WESTRIDGE RD SW@BAYBERRY DR SW", "mode": "bus"}}, {"type": "Feature", "geometry": {"type": "Point", "coordinates": [-84.446736, 33.714702]}, "properties": {"kind": "stop", "name": "WESTRIDGE RD SW@VENETIAN DR SW", "mode": "bus"}}, {"type": "Feature", "geometry": {"type": "Point", "coordinates": [-84.448578, 33.714737]}, "properties": {"kind": "stop", "name": "VENETIAN DR SW@ALDER LN SW", "mode": "bus"}}, {"type": "Feature", "geometry": {"type": "Point", "coordinates": [-84.449455, 33.714745]}, "properties": {"kind": "stop", "name": "VENETIAN DR SW@CAHABA DR SW", "mode": "bus"}}, {"type": "Feature", "geometry": {"type": "Point", "coordinates": [-84.451669, 33.714777]}, "properties": {"kind": "stop", "name": "VENETIAN DR SW@PINEHURST DR SW", "mode": "bus"}}, {"type": "Feature", "geometry": {"type": "Point", "coordinates": [-84.453339, 33.714798]}, "properties": {"kind": "stop", "name": "VENETIAN DR SW@CENTRA VILLA DR SW", "mode": "bus"}}, {"type": "Feature", "geometry": {"type": "Point", "coordinates": [-84.443092, 33.716518]}, "properties": {"kind": "stop", "name": "SANDTOWN RD SW@WICHITA DR", "mode": "bus"}}, {"type": "Feature", "geometry": {"type": "Point", "coordinates": [-84.455548, 33.707611]}, "properties": {"kind": "stop", "name": "CENTRA VILLA DR SW @ CAMPBELLTON RD SW", "mode": "bus"}}, {"type": "Feature", "geometry": {"type": "Point", "coordinates": [-84.454814, 33.711032]}, "properties": {"kind": "stop", "name": "CENTRA VILLA DR SW @ HONEYSUCKLE SW", "mode": "bus"}}, {"type": "Feature", "geometry": {"type": "Point", "coordinates": [-84.454197, 33.712482]}, "properties": {"kind": "stop", "name": "CENTRA VILLA DR SW @ E CEDAR LN SW", "mode": "bus"}}, {"type": "Feature", "geometry": {"type": "Point", "coordinates": [-84.451985, 33.714741]}, "properties": {"kind": "stop", "name": "VENETIAN DR SW@PINEHURST DR SW", "mode": "bus"}}, {"type": "Feature", "geometry": {"type": "Point", "coordinates": [-84.449616, 33.714654]}, "properties": {"kind": "stop", "name": "VENETIAN DR SW@CAHABA DR SW", "mode": "bus"}}, {"type": "Feature", "geometry": {"type": "Point", "coordinates": [-84.448323, 33.714655]}, "properties": {"kind": "stop", "name": "VENETIAN DR SW@ALDER  SW", "mode": "bus"}}, {"type": "Feature", "geometry": {"type": "Point", "coordinates": [-84.446736, 33.714603]}, "properties": {"kind": "stop", "name": "VENETIAN DR SW@WILLOWBROOK DR SW", "mode": "bus"}}, {"type": "Feature", "geometry": {"type": "Point", "coordinates": [-84.446658, 33.71605]}, "properties": {"kind": "stop", "name": "WESTRIDGE RD SW@BAYBERRY DR SW", "mode": "bus"}}, {"type": "Feature", "geometry": {"type": "Point", "coordinates": [-84.44673, 33.717459]}, "properties": {"kind": "stop", "name": "WESTRIDGE RD SW@CUMMINGS DR SW", "mode": "bus"}}, {"type": "Feature", "geometry": {"type": "Point", "coordinates": [-84.445179, 33.726555]}, "properties": {"kind": "stop", "name": "CASCADE AVE SW @ CASCADE CIR SW", "mode": "bus"}}, {"type": "Feature", "geometry": {"type": "Point", "coordinates": [-84.447609, 33.72506]}, "properties": {"kind": "stop", "name": "CASCADE AVE SW@1113", "mode": "bus"}}, {"type": "Feature", "geometry": {"type": "Point", "coordinates": [-84.447176, 33.725174]}, "properties": {"kind": "stop", "name": "CASCADE AVE SW@1120", "mode": "bus"}}, {"type": "Feature", "geometry": {"type": "Point", "coordinates": [-84.449977, 33.723471]}, "properties": {"kind": "stop", "name": "CASCADE AVE SW @ CASCADE CIR SW", "mode": "bus"}}, {"type": "Feature", "geometry": {"type": "Point", "coordinates": [-84.45027, 33.723175]}, "properties": {"kind": "stop", "name": "CASCADE AVE SW @ AVON AVE SW", "mode": "bus"}}, {"type": "Feature", "geometry": {"type": "Point", "coordinates": [-84.452029, 33.721938]}, "properties": {"kind": "stop", "name": "CASCADE RD SW @ CENTRA VILLA DR SW", "mode": "bus"}}, {"type": "Feature", "geometry": {"type": "Point", "coordinates": [-84.452011, 33.722118]}, "properties": {"kind": "stop", "name": "CASCADE RD SW@CENTRA VILLA DR SW", "mode": "bus"}}, {"type": "Feature", "geometry": {"type": "Point", "coordinates": [-84.455549, 33.721316]}, "properties": {"kind": "stop", "name": "CASCADE RD SW @ POLLARD DR SW", "mode": "bus"}}, {"type": "Feature", "geometry": {"type": "Point", "coordinates": [-84.455509, 33.721457]}, "properties": {"kind": "stop", "name": "CASCADE RD SW@POLLARD DR SW", "mode": "bus"}}, {"type": "Feature", "geometry": {"type": "Point", "coordinates": [-84.458451, 33.721921]}, "properties": {"kind": "stop", "name": "CASCADE RD SW @ BOULEVARD LORRAINE SW", "mode": "bus"}}, {"type": "Feature", "geometry": {"type": "Point", "coordinates": [-84.466122, 33.721501]}, "properties": {"kind": "stop", "name": "CASCADE RD SW @ VENETIAN DR SW", "mode": "bus"}}, {"type": "Feature", "geometry": {"type": "Point", "coordinates": [-84.46168, 33.722491]}, "properties": {"kind": "stop", "name": "CASCADE RD SW@DOLPHIN DR SW", "mode": "bus"}}, {"type": "Feature", "geometry": {"type": "Point", "coordinates": [-84.446002, 33.717728]}, "properties": {"kind": "stop", "name": "SANDTOWN RD SW@WESTRIDGE RD", "mode": "bus"}}, {"type": "Feature", "geometry": {"type": "Point", "coordinates": [-84.443828, 33.716934]}, "properties": {"kind": "stop", "name": "SANDTOWN RD SW@MORAY ST SW", "mode": "bus"}}, {"type": "Feature", "geometry": {"type": "Point", "coordinates": [-84.442609, 33.716111]}, "properties": {"kind": "stop", "name": "SANDTOWN RD SW@WICHITA DR SW", "mode": "bus"}}, {"type": "Feature", "geometry": {"type": "Point", "coordinates": [-84.442109, 33.715763]}, "properties": {"kind": "stop", "name": "SANDTOWN RD SW@WICHITA DR SW", "mode": "bus"}}, {"type": "Feature", "geometry": {"type": "Point", "coordinates": [-84.441326, 33.715217]}, "properties": {"kind": "stop", "name": "SANDTOWN RD SW@ANIWAKA AVE SW", "mode": "bus"}}, {"type": "Feature", "geometry": {"type": "Point", "coordinates": [-84.440423, 33.714628]}, "properties": {"kind": "stop", "name": "SANDTOWN RD SW@VENETIAN DR SW", "mode": "bus"}}, {"type": "Feature", "geometry": {"type": "Point", "coordinates": [-84.439749, 33.714548]}, "properties": {"kind": "stop", "name": "VENETIAN DR SW@WILLOW TRL SW", "mode": "bus"}}, {"type": "Feature", "geometry": {"type": "Point", "coordinates": [-84.438717, 33.714558]}, "properties": {"kind": "stop", "name": "VENETIAN DR SW@LOCKWOOD DR SW", "mode": "bus"}}, {"type": "Feature", "geometry": {"type": "Point", "coordinates": [-84.437569, 33.714802]}, "properties": {"kind": "stop", "name": "WESTMONT RD SW@VENETIAN DR SW", "mode": "bus"}}, {"type": "Feature", "geometry": {"type": "Point", "coordinates": [-84.437599, 33.716553]}, "properties": {"kind": "stop", "name": "WESTMONT RD SW@1420", "mode": "bus"}}, {"type": "Feature", "geometry": {"type": "Point", "coordinates": [-84.43753, 33.71835]}, "properties": {"kind": "stop", "name": "WESTMONT RD SW@TRACY ST", "mode": "bus"}}, {"type": "Feature", "geometry": {"type": "Point", "coordinates": [-84.437563, 33.720306]}, "properties": {"kind": "stop", "name": "WESTMONT RD SW @ 1310", "mode": "bus"}}, {"type": "Feature", "geometry": {"type": "Point", "coordinates": [-84.437501, 33.722427]}, "properties": {"kind": "stop", "name": "WESTMONT RD SW@AVON AVE SW", "mode": "bus"}}, {"type": "Feature", "geometry": {"type": "Point", "coordinates": [-84.436512, 33.722446]}, "properties": {"kind": "stop", "name": "AVON AVE SW@GRAYMONT DR SW", "mode": "bus"}}, {"type": "Feature", "geometry": {"type": "Point", "coordinates": [-84.432502, 33.722369]}, "properties": {"kind": "stop", "name": "AVON AVE SW@LORENZO DR SW", "mode": "bus"}}, {"type": "Feature", "geometry": {"type": "Point", "coordinates": [-84.464157, 33.722965]}, "properties": {"kind": "stop", "name": "BEECHER RD SW @ BENJAMIN E MAYS DR SW", "mode": "bus"}}, {"type": "Feature", "geometry": {"type": "Point", "coordinates": [-84.463989, 33.724716]}, "properties": {"kind": "stop", "name": "BEECHER RD SW@2356", "mode": "bus"}}, {"type": "Feature", "geometry": {"type": "Point", "coordinates": [-84.463679, 33.726097]}, "properties": {"kind": "stop", "name": "BEECHER RD SW @ 2320", "mode": "bus"}}, {"type": "Feature", "geometry": {"type": "Point", "coordinates": [-84.466122, 33.721313]}, "properties": {"kind": "stop", "name": "CASCADE RD SW @ VENETIAN DR SW", "mode": "bus"}}, {"type": "Feature", "geometry": {"type": "Point", "coordinates": [-84.434132, 33.722475]}, "properties": {"kind": "stop", "name": "AVON AVE SW@KENILWORTH DR SW", "mode": "bus"}}, {"type": "Feature", "geometry": {"type": "Point", "coordinates": [-84.43765, 33.720368]}, "properties": {"kind": "stop", "name": "WESTMONT RD SW@1285", "mode": "bus"}}, {"type": "Feature", "geometry": {"type": "Point", "coordinates": [-84.443863, 33.717079]}, "properties": {"kind": "stop", "name": "SANDTOWN RD SW@LOCKHAVEN CIR SW", "mode": "bus"}}, {"type": "Feature", "geometry": {"type": "Point", "coordinates": [-84.441994, 33.715782]}, "properties": {"kind": "stop", "name": "SANDTOWN RD SW@WICHITA DR SW", "mode": "bus"}}, {"type": "Feature", "geometry": {"type": "Point", "coordinates": [-84.441399, 33.715347]}, "properties": {"kind": "stop", "name": "SANDTOWN RD SW@ANIWAKA AVE SW", "mode": "bus"}}, {"type": "Feature", "geometry": {"type": "Point", "coordinates": [-84.440358, 33.714708]}, "properties": {"kind": "stop", "name": "SANDTOWN RD SW@VENETIAN DR SW", "mode": "bus"}}, {"type": "Feature", "geometry": {"type": "Point", "coordinates": [-84.439636, 33.714653]}, "properties": {"kind": "stop", "name": "VENETIAN DR SW@WILLOW TRL SW", "mode": "bus"}}, {"type": "Feature", "geometry": {"type": "Point", "coordinates": [-84.43792, 33.714642]}, "properties": {"kind": "stop", "name": "WESTMONT RD SW@VENETIAN DR SW", "mode": "bus"}}, {"type": "Feature", "geometry": {"type": "Point", "coordinates": [-84.437688, 33.716609]}, "properties": {"kind": "stop", "name": "WESTMONT RD SW@1411", "mode": "bus"}}, {"type": "Feature", "geometry": {"type": "Point", "coordinates": [-84.437723, 33.718524]}, "properties": {"kind": "stop", "name": "WESTMONT RD SW@TRACY ST SW", "mode": "bus"}}, {"type": "Feature", "geometry": {"type": "Point", "coordinates": [-84.437544, 33.722526]}, "properties": {"kind": "stop", "name": "AVON AVE SW@WESTMONT RD SW", "mode": "bus"}}, {"type": "Feature", "geometry": {"type": "Point", "coordinates": [-84.436447, 33.722485]}, "properties": {"kind": "stop", "name": "AVON AVE SW@GRAYMONT DR SW", "mode": "bus"}}, {"type": "Feature", "geometry": {"type": "Point", "coordinates": [-84.435512, 33.72251]}, "properties": {"kind": "stop", "name": "AVON AVE SW@ELIZABETH AVE SW", "mode": "bus"}}, {"type": "Feature", "geometry": {"type": "Point", "coordinates": [-84.457984, 33.721743]}, "properties": {"kind": "stop", "name": "CASCADE RD SW @ BOULEVARD LORRAINE SW", "mode": "bus"}}, {"type": "Feature", "geometry": {"type": "Point", "coordinates": [-84.455263, 33.707124]}, "properties": {"kind": "stop", "name": "CAMPBELLTON RD SW @ MYRTLE DR SW", "mode": "bus"}}, {"type": "Feature", "geometry": {"type": "Point", "coordinates": [-84.453484, 33.707963]}, "properties": {"kind": "stop", "name": "CAMPBELLTON RD @ HONEYSUCKLE LN", "mode": "bus"}}, {"type": "Feature", "geometry": {"type": "Point", "coordinates": [-84.453212, 33.708192]}, "properties": {"kind": "stop", "name": "CAMPBELLTON RD @ HONEYSUCKLE LN", "mode": "bus"}}, {"type": "Feature", "geometry": {"type": "Point", "coordinates": [-84.457545, 33.706301]}, "properties": {"kind": "stop", "name": "CAMPBELLTON RD@DELOWE DR", "mode": "bus"}}, {"type": "Feature", "geometry": {"type": "Point", "coordinates": [-84.455532, 33.707257]}, "properties": {"kind": "stop", "name": "CAMPBELLTON RD @ CENTRA VILLA DR", "mode": "bus"}}, {"type": "Feature", "geometry": {"type": "Point", "coordinates": [-84.463556, 33.726758]}, "properties": {"kind": "stop", "name": "BEECHER RD @ MT AIRY DR", "mode": "bus"}}, {"type": "Feature", "geometry": {"type": "Point", "coordinates": [-84.464254, 33.722031]}, "properties": {"kind": "stop", "name": "CASCADE RD SW @ BOULEVARD GRANADA SW", "mode": "bus"}}, {"type": "Feature", "geometry": {"type": "Point", "coordinates": [-84.435512, 33.722438]}, "properties": {"kind": "stop", "name": "AVON AVE@ELIZABETH AVE", "mode": "bus"}}, {"type": "Feature", "geometry": {"type": "Point", "coordinates": [-84.434143, 33.722403]}, "properties": {"kind": "stop", "name": "AVON AVE@KENILWORTH DR", "mode": "bus"}}, {"type": "Feature", "geometry": {"type": "Point", "coordinates": [-84.448274, 33.709861]}, "properties": {"kind": "stop", "name": "CAMPBELLTON RD SW @ 1870", "mode": "bus"}}, {"type": "Feature", "geometry": {"type": "Point", "coordinates": [-84.424626, 33.716536]}, "properties": {"kind": "stop", "name": "MURPHY AVE SW@ARDEN AVE SW", "mode": "bus"}}, {"type": "Feature", "geometry": {"type": "Point", "coordinates": [-84.424097, 33.713715]}, "properties": {"kind": "stop", "name": "LANGSTON AVE SW@DECKNER AVE SW", "mode": "bus"}}, {"type": "Feature", "geometry": {"type": "Point", "coordinates": [-84.425298, 33.714436]}, "properties": {"kind": "stop", "name": "LANGSTON AVE SW@MURPHY AVE SW", "mode": "bus"}}, {"type": "Feature", "geometry": {"type": "Point", "coordinates": [-84.425439, 33.714534]}, "properties": {"kind": "stop", "name": "MURPHY AVE SW@LANGSTON AVE SW", "mode": "bus"}}, {"type": "Feature", "geometry": {"type": "Point", "coordinates": [-84.423349, 33.712353]}, "properties": {"kind": "stop", "name": "LANGSTON AVE SW@HOOD DR SW", "mode": "bus"}}, {"type": "Feature", "geometry": {"type": "Point", "coordinates": [-84.427377, 33.717639]}, "properties": {"kind": "stop", "name": "CAMPBELLTON RD SW@OAKLAND DR SW", "mode": "bus"}}, {"type": "Feature", "geometry": {"type": "Point", "coordinates": [-84.430689, 33.716291]}, "properties": {"kind": "stop", "name": "CAMPBELLTON RD SW@EPWORTH ST SW", "mode": "bus"}}, {"type": "Feature", "geometry": {"type": "Point", "coordinates": [-84.432418, 33.71538]}, "properties": {"kind": "stop", "name": "CAMPBELLTON RD SW@LORENZO DR SW", "mode": "bus"}}, {"type": "Feature", "geometry": {"type": "Point", "coordinates": [-84.432287, 33.715045]}, "properties": {"kind": "stop", "name": "CAMPBELLTON RD SW@LORENZO DR SW", "mode": "bus"}}, {"type": "Feature", "geometry": {"type": "Point", "coordinates": [-84.430591, 33.71596]}, "properties": {"kind": "stop", "name": "CAMPBELLTON RD SW @ RYAN ST SW", "mode": "bus"}}, {"type": "Feature", "geometry": {"type": "Point", "coordinates": [-84.427602, 33.717373]}, "properties": {"kind": "stop", "name": "CAMPBELLTON RD SW@OAKLAND DR SW", "mode": "bus"}}, {"type": "Feature", "geometry": {"type": "Point", "coordinates": [-84.418178, 33.71258]}, "properties": {"kind": "stop", "name": "SYLVAN RD SW@BYRON DR SW", "mode": "bus"}}, {"type": "Feature", "geometry": {"type": "Point", "coordinates": [-84.418092, 33.71292]}, "properties": {"kind": "stop", "name": "SYLVAN RD SW@BYRON DR SW", "mode": "bus"}}, {"type": "Feature", "geometry": {"type": "Point", "coordinates": [-84.427323, 33.725954]}, "properties": {"kind": "stop", "name": "OAKLAND DR SW@ALMONT DR SW", "mode": "bus"}}, {"type": "Feature", "geometry": {"type": "Point", "coordinates": [-84.428345, 33.725906]}, "properties": {"kind": "stop", "name": "ALMONT DR SW@INDALE PL SW", "mode": "bus"}}, {"type": "Feature", "geometry": {"type": "Point", "coordinates": [-84.42939, 33.725929]}, "properties": {"kind": "stop", "name": "ALMONT DR SW@EDGEFIELD DR SW", "mode": "bus"}}, {"type": "Feature", "geometry": {"type": "Point", "coordinates": [-84.430664, 33.725975]}, "properties": {"kind": "stop", "name": "ALMONT DR SW@WYLAND DR SW", "mode": "bus"}}, {"type": "Feature", "geometry": {"type": "Point", "coordinates": [-84.430874, 33.724188]}, "properties": {"kind": "stop", "name": "WYLAND DR SW@LANVALE DR SW", "mode": "bus"}}, {"type": "Feature", "geometry": {"type": "Point", "coordinates": [-84.430688, 33.723329]}, "properties": {"kind": "stop", "name": "WYLAND DR SW@LYNFORD DR SW", "mode": "bus"}}, {"type": "Feature", "geometry": {"type": "Point", "coordinates": [-84.430763, 33.722398]}, "properties": {"kind": "stop", "name": "WYLAND DR SW@AVON AVE SW", "mode": "bus"}}, {"type": "Feature", "geometry": {"type": "Point", "coordinates": [-84.432465, 33.72245]}, "properties": {"kind": "stop", "name": "AVON AVE SW@LORENZO DR SW", "mode": "bus"}}, {"type": "Feature", "geometry": {"type": "Point", "coordinates": [-84.430882, 33.722326]}, "properties": {"kind": "stop", "name": "AVON AVE SW@EPWORTH ST SW", "mode": "bus"}}, {"type": "Feature", "geometry": {"type": "Point", "coordinates": [-84.430595, 33.722939]}, "properties": {"kind": "stop", "name": "WYLAND DR SW@EDGEFIELD DR SW", "mode": "bus"}}, {"type": "Feature", "geometry": {"type": "Point", "coordinates": [-84.430695, 33.724049]}, "properties": {"kind": "stop", "name": "WYLAND DR SW@LANVALE DR SW", "mode": "bus"}}, {"type": "Feature", "geometry": {"type": "Point", "coordinates": [-84.430735, 33.725862]}, "properties": {"kind": "stop", "name": "WYLAND DR SW@ALMONT DR SW", "mode": "bus"}}, {"type": "Feature", "geometry": {"type": "Point", "coordinates": [-84.429735, 33.725881]}, "properties": {"kind": "stop", "name": "ALMONT DR SW@EDGEFIELD DR SW", "mode": "bus"}}, {"type": "Feature", "geometry": {"type": "Point", "coordinates": [-84.428529, 33.725846]}, "properties": {"kind": "stop", "name": "ALMONT DR SW@INDALE PL SW", "mode": "bus"}}, {"type": "Feature", "geometry": {"type": "Point", "coordinates": [-84.427355, 33.725838]}, "properties": {"kind": "stop", "name": "ALMONT DR@OAKLAND DR", "mode": "bus"}}, {"type": "Feature", "geometry": {"type": "Point", "coordinates": [-84.424417, 33.713926]}, "properties": {"kind": "stop", "name": "LANGSTON AVE@DECKNER AVE", "mode": "bus"}}, {"type": "Feature", "geometry": {"type": "Point", "coordinates": [-84.423766, 33.712641]}, "properties": {"kind": "stop", "name": "LANGSTON AVE@HOOD DR", "mode": "bus"}}, {"type": "Feature", "geometry": {"type": "Point", "coordinates": [-84.426301, 33.717407]}, "properties": {"kind": "stop", "name": "OAKLAND CITY STATION", "mode": "bus"}}, {"type": "Feature", "geometry": {"type": "Point", "coordinates": [-84.408035, 33.719791]}, "properties": {"kind": "stop", "name": "METROPOLITAN PKY SW@ERIN AVE SW", "mode": "bus"}}, {"type": "Feature", "geometry": {"type": "Point", "coordinates": [-84.408058, 33.716171]}, "properties": {"kind": "stop", "name": "METROPOLITAN PKY SW@GENESSEE AVE SW", "mode": "bus"}}, {"type": "Feature", "geometry": {"type": "Point", "coordinates": [-84.40791, 33.722273]}, "properties": {"kind": "stop", "name": "METROPOLITAN PKY SW @ UNIVERSITY AVE", "mode": "bus"}}, {"type": "Feature", "geometry": {"type": "Point", "coordinates": [-84.408107, 33.724873]}, "properties": {"kind": "stop", "name": "METROPOLITAN PKY SW@MAYLAND AVE SW", "mode": "bus"}}, {"type": "Feature", "geometry": {"type": "Point", "coordinates": [-84.408073, 33.725582]}, "properties": {"kind": "stop", "name": "METROPOLITAN PKY SW@FLETCHER ST SW", "mode": "bus"}}, {"type": "Feature", "geometry": {"type": "Point", "coordinates": [-84.407776, 33.715893]}, "properties": {"kind": "stop", "name": "METROPOLITAN PKY SW@LYNNHAVEN DR SW", "mode": "bus"}}, {"type": "Feature", "geometry": {"type": "Point", "coordinates": [-84.407808, 33.718532]}, "properties": {"kind": "stop", "name": "METROPOLITAN PKWY SW @ MANFORD RD SW", "mode": "bus"}}, {"type": "Feature", "geometry": {"type": "Point", "coordinates": [-84.407749, 33.724471]}, "properties": {"kind": "stop", "name": "METROPOLITAN PKY SW@MAYLAND AVE SW", "mode": "bus"}}, {"type": "Feature", "geometry": {"type": "Point", "coordinates": [-84.407878, 33.726148]}, "properties": {"kind": "stop", "name": "METROPOLITAN PKY SW @ FLETCHER ST SW", "mode": "bus"}}, {"type": "Feature", "geometry": {"type": "Point", "coordinates": [-84.407793, 33.722545]}, "properties": {"kind": "stop", "name": "METROPOLITAN PKY SW @ UNIVERSITY AVE", "mode": "bus"}}, {"type": "Feature", "geometry": {"type": "Point", "coordinates": [-84.422815, 33.70998]}, "properties": {"kind": "stop", "name": "LANGSTON AVE SW@KATHERWOOD DR SW", "mode": "bus"}}, {"type": "Feature", "geometry": {"type": "Point", "coordinates": [-84.422081, 33.708076]}, "properties": {"kind": "stop", "name": "LANGSTON AVE SW@HARTE DR SW", "mode": "bus"}}, {"type": "Feature", "geometry": {"type": "Point", "coordinates": [-84.42126, 33.706988]}, "properties": {"kind": "stop", "name": "LANGSTON AVE SW@VICTORY DR SW", "mode": "bus"}}, {"type": "Feature", "geometry": {"type": "Point", "coordinates": [-84.420761, 33.705494]}, "properties": {"kind": "stop", "name": "LANGSTON AVE SW@BIRCH ST SW", "mode": "bus"}}, {"type": "Feature", "geometry": {"type": "Point", "coordinates": [-84.420486, 33.705605]}, "properties": {"kind": "stop", "name": "LANGSTON AVE SW@BIRCH ST SW", "mode": "bus"}}, {"type": "Feature", "geometry": {"type": "Point", "coordinates": [-84.419404, 33.704321]}, "properties": {"kind": "stop", "name": "LANGSTON AVE SW @ SYLVAN PL SW", "mode": "bus"}}, {"type": "Feature", "geometry": {"type": "Point", "coordinates": [-84.418209, 33.71121]}, "properties": {"kind": "stop", "name": "SYLVAN RD SW @ KATHERWOOD DR SW", "mode": "bus"}}, {"type": "Feature", "geometry": {"type": "Point", "coordinates": [-84.423901, 33.701502]}, "properties": {"kind": "stop", "name": "ASTOR AVE SW@1082", "mode": "bus"}}, {"type": "Feature", "geometry": {"type": "Point", "coordinates": [-84.421652, 33.70145]}, "properties": {"kind": "stop", "name": "ASTOR AVE SW@BILLUPS ST SW", "mode": "bus"}}, {"type": "Feature", "geometry": {"type": "Point", "coordinates": [-84.430656, 33.699697]}, "properties": {"kind": "stop", "name": "HARDEE AVE @ WOMACK AVE", "mode": "bus"}}, {"type": "Feature", "geometry": {"type": "Point", "coordinates": [-84.42391, 33.70157]}, "properties": {"kind": "stop", "name": "ASTOR AVE SW@1069", "mode": "bus"}}, {"type": "Feature", "geometry": {"type": "Point", "coordinates": [-84.421566, 33.701513]}, "properties": {"kind": "stop", "name": "ASTOR AVE SW@BILLUPS ST SW", "mode": "bus"}}, {"type": "Feature", "geometry": {"type": "Point", "coordinates": [-84.423149, 33.710168]}, "properties": {"kind": "stop", "name": "LANGSTON AVE@KATHERWOOD DR", "mode": "bus"}}, {"type": "Feature", "geometry": {"type": "Point", "coordinates": [-84.422566, 33.708346]}, "properties": {"kind": "stop", "name": "LANGSTON AVE@HARTE DR", "mode": "bus"}}, {"type": "Feature", "geometry": {"type": "Point", "coordinates": [-84.421857, 33.707248]}, "properties": {"kind": "stop", "name": "LANGSTON AVE@VICTORY DR", "mode": "bus"}}, {"type": "Feature", "geometry": {"type": "Point", "coordinates": [-84.419614, 33.704272]}, "properties": {"kind": "stop", "name": "LANGSTON AVE@SYLVAN PL", "mode": "bus"}}, {"type": "Feature", "geometry": {"type": "Point", "coordinates": [-84.429884, 33.700637]}, "properties": {"kind": "stop", "name": "LEE ST SW@DESHLER ST  SW", "mode": "bus"}}, {"type": "Feature", "geometry": {"type": "Point", "coordinates": [-84.429541, 33.700649]}, "properties": {"kind": "stop", "name": "LAKEWOOD STATION", "mode": "bus"}}, {"type": "Feature", "geometry": {"type": "Point", "coordinates": [-84.425824, 33.701617]}, "properties": {"kind": "stop", "name": "ASTOR AVE@ARROW ST", "mode": "bus"}}, {"type": "Feature", "geometry": {"type": "Point", "coordinates": [-84.425922, 33.701545]}, "properties": {"kind": "stop", "name": "ASTOR AVE @ ARROW ST", "mode": "bus"}}, {"type": "Feature", "geometry": {"type": "Point", "coordinates": [-84.457295, 33.706365]}, "properties": {"kind": "stop", "name": "DELOWE DR SW @ CAMPBELLTON RD SW", "mode": "bus"}}, {"type": "Feature", "geometry": {"type": "Point", "coordinates": [-84.45504, 33.702706]}, "properties": {"kind": "stop", "name": "MYRTLE DR @ 1890", "mode": "bus"}}, {"type": "Feature", "geometry": {"type": "Point", "coordinates": [-84.45506, 33.703568]}, "properties": {"kind": "stop", "name": "MYRTLE DR @ 1881", "mode": "bus"}}, {"type": "Feature", "geometry": {"type": "Point", "coordinates": [-84.457448, 33.700842]}, "properties": {"kind": "stop", "name": "DELOWE DR @ ALISON CT", "mode": "bus"}}, {"type": "Feature", "geometry": {"type": "Point", "coordinates": [-84.455055, 33.705419]}, "properties": {"kind": "stop", "name": "MYRTLE DR @ PLAZA LN", "mode": "bus"}}, {"type": "Feature", "geometry": {"type": "Point", "coordinates": [-84.457247, 33.703939]}, "properties": {"kind": "stop", "name": "DELOWE DR SW @ DELOWE PL SW", "mode": "bus"}}, {"type": "Feature", "geometry": {"type": "Point", "coordinates": [-84.464113, 33.722192]}, "properties": {"kind": "stop", "name": "CASCADE RD @ BEECHER RD", "mode": "bus"}}, {"type": "Feature", "geometry": {"type": "Point", "coordinates": [-84.41802, 33.716152]}, "properties": {"kind": "stop", "name": "SYLVAN RD@GENESSEE AVE", "mode": "bus"}}, {"type": "Feature", "geometry": {"type": "Point", "coordinates": [-84.418118, 33.717109]}, "properties": {"kind": "stop", "name": "SYLVAN RD@ARDEN AVE", "mode": "bus"}}, {"type": "Feature", "geometry": {"type": "Point", "coordinates": [-84.417968, 33.718175]}, "properties": {"kind": "stop", "name": "SYLVAN RD @ DILL AVE", "mode": "bus"}}, {"type": "Feature", "geometry": {"type": "Point", "coordinates": [-84.418109, 33.718336]}, "properties": {"kind": "stop", "name": "SYLVAN RD@DILL AVE", "mode": "bus"}}, {"type": "Feature", "geometry": {"type": "Point", "coordinates": [-84.4222, 33.722327]}, "properties": {"kind": "stop", "name": "AVON AVE SW @ MURPHY AVE SW", "mode": "bus"}}, {"type": "Feature", "geometry": {"type": "Point", "coordinates": [-84.422441, 33.722226]}, "properties": {"kind": "stop", "name": "MURPHY AVE @ AVON AVE", "mode": "bus"}}, {"type": "Feature", "geometry": {"type": "Point", "coordinates": [-84.424054, 33.718886]}, "properties": {"kind": "stop", "name": "MURPHY AVE@DILL AVE", "mode": "bus"}}, {"type": "Feature", "geometry": {"type": "Point", "coordinates": [-84.423696, 33.719504]}, "properties": {"kind": "stop", "name": "MURPHY AVE SW @ DILL AVE SW", "mode": "bus"}}, {"type": "Feature", "geometry": {"type": "Point", "coordinates": [-84.461908, 33.722437]}, "properties": {"kind": "stop", "name": "CASCADE RD SW @ DOLPHIN DR SW", "mode": "bus"}}, {"type": "Feature", "geometry": {"type": "Point", "coordinates": [-84.417896, 33.722051]}, "properties": {"kind": "stop", "name": "SYLVAN RD@AVON AVE", "mode": "bus"}}, {"type": "Feature", "geometry": {"type": "Point", "coordinates": [-84.418113, 33.722051]}, "properties": {"kind": "stop", "name": "SYLVAN RD@AVON AVE", "mode": "bus"}}, {"type": "Feature", "geometry": {"type": "Point", "coordinates": [-84.418078, 33.719625]}, "properties": {"kind": "stop", "name": "SYLVAN RD@COX AVE", "mode": "bus"}}, {"type": "Feature", "geometry": {"type": "Point", "coordinates": [-84.417958, 33.719186]}, "properties": {"kind": "stop", "name": "SYLVAN RD@ERIN AVE", "mode": "bus"}}, {"type": "Feature", "geometry": {"type": "Point", "coordinates": [-84.456189, 33.733552]}, "properties": {"kind": "stop", "name": "BEECHER RD SW@RECTOR DR SW", "mode": "bus"}}, {"type": "Feature", "geometry": {"type": "Point", "coordinates": [-84.414967, 33.73591]}, "properties": {"kind": "stop", "name": "OGLETHROPE AVE SW @ EVANS ST SW", "mode": "bus"}}, {"type": "Feature", "geometry": {"type": "Point", "coordinates": [-84.41818, 33.713905]}, "properties": {"kind": "stop", "name": "SYLVAN RD SW @ DECKNER AVE SW", "mode": "bus"}}, {"type": "Feature", "geometry": {"type": "Point", "coordinates": [-84.46054, 33.729895]}, "properties": {"kind": "stop", "name": "BEECHER RD SW @ BEECHER CIR SW", "mode": "bus"}}, {"type": "Feature", "geometry": {"type": "Point", "coordinates": [-84.418122, 33.711183]}, "properties": {"kind": "stop", "name": "SYLVAN RD SW @ KATHERWOOD DR SW", "mode": "bus"}}, {"type": "Feature", "geometry": {"type": "Point", "coordinates": [-84.454068, 33.713297]}, "properties": {"kind": "stop", "name": "CENTRA VILLA DR @ W CEDAR LN", "mode": "bus"}}, {"type": "Feature", "geometry": {"type": "Point", "coordinates": [-84.455677, 33.707352]}, "properties": {"kind": "stop", "name": "CENTRA VILLA DR SW @ CAMPBELLTON RD SW", "mode": "bus"}}, {"type": "Feature", "geometry": {"type": "Point", "coordinates": [-84.44757, 33.733651]}, "properties": {"kind": "stop", "name": "BEECHER ST @ S GORDON ST", "mode": "bus"}}, {"type": "Feature", "geometry": {"type": "Point", "coordinates": [-84.466538, 33.723058]}, "properties": {"kind": "stop", "name": "BENJAMIN E MAYS DR SW @ FLAMINGO DR SW", "mode": "bus"}}, {"type": "Feature", "geometry": {"type": "Point", "coordinates": [-84.470802, 33.725433]}, "properties": {"kind": "stop", "name": "BENJAMIN E MAYS DR SW @ WILLIS MILL RD SW", "mode": "bus"}}, {"type": "Feature", "geometry": {"type": "Point", "coordinates": [-84.457286, 33.701307]}, "properties": {"kind": "stop", "name": "DELOWE DR SW @ ALISON CT", "mode": "bus"}}, {"type": "Feature", "geometry": {"type": "Point", "coordinates": [-84.473381, 33.726898]}, "properties": {"kind": "stop", "name": "BENJAMIN E MAYS DR @ ORIOLE DR", "mode": "bus"}}, {"type": "Feature", "geometry": {"type": "Point", "coordinates": [-84.472794, 33.726684]}, "properties": {"kind": "stop", "name": "BENJAMIN E MAYS DR @ ORIOLE DR", "mode": "bus"}}, {"type": "Feature", "geometry": {"type": "Point", "coordinates": [-84.454717, 33.711309]}, "properties": {"kind": "stop", "name": "CENTRA VILLA DR @ HONEYSUCKLE LN", "mode": "bus"}}, {"type": "Feature", "geometry": {"type": "Point", "coordinates": [-84.428768, 33.70088]}, "properties": {"kind": "stop", "name": "LAKEWOOD-FT MCPHERSON STATION", "mode": "bus"}}, {"type": "Feature", "geometry": {"type": "Point", "coordinates": [-84.428865, 33.700298]}, "properties": {"kind": "stop", "name": "LAKEWOOD-FT MCPHERSON STATION", "mode": "bus"}}, {"type": "Feature", "geometry": {"type": "Point", "coordinates": [-84.42503, 33.7173]}, "properties": {"kind": "stop", "name": "OAKLAND CITY STATION", "mode": "bus"}}, {"type": "Feature", "geometry": {"type": "Point", "coordinates": [-84.425138, 33.716978]}, "properties": {"kind": "stop", "name": "OAKLAND CITY STATION", "mode": "bus"}}], "properties": {"coverage_pct": 100.0, "rail_coverage_pct": 17.0, "stop_count": 326, "rail_stop_count": 2, "bus_stop_count": 324, "transit_index": 45, "weights": {"rail": 2.0, "bus": 1.0}}}