{"type": "FeatureCollection", "features": [{"type": "Feature", "geometry": {"type": "Polygon", "coordinates": [[[-84.39957095212299, 33.81840687254316], [-84.3991340599827, 33.81901840081136], [-84.3986274516427, 33.81959123954138], [-84.39812101105827, 33.82005973640814], [-84.39762347943218, 33.82062229345651], [-84.3972692084061, 33.820950012047746], [-84.39719330484155, 33.82138379112978], [-84.39698788009389, 33.82207483831059], [-84.39670228604118, 33.822745751731446], [-84.39654297613124, 33.82302851368289], [-84.39640782826565, 33.823483130360934], [-84.39639388420925, 33.82373132891499], [-84.39637350659238, 33.823847774181864], [-84.3964132578189, 33.824068047089916], [-84.3964570189457, 33.82477910878289], [-84.39641706164753, 33.82549032637108], [-84.39635534384172, 33.825842997338434], [-84.39636113618869, 33.825937115069515], [-84.39632117761518, 33.826648332498515], [-84.39619788224593, 33.82735285627849], [-84.3961450713315, 33.82753049325323], [-84.39618162873386, 33.8277330622647], [-84.39622538999235, 33.82844412361711], [-84.39618542925241, 33.82915534072228], [-84.39614619002641, 33.82937955090684], [-84.3961675197847, 33.829726127174624], [-84.3961275580324, 33.83043734411751], [-84.39600425582032, 33.83114186729988], [-84.39579879862656, 33.83183291154257], [-84.39551316327855, 33.83250382132065], [-84.39515009898567, 33.8331481348746], [-84.39471310092493, 33.83375964646106], [-84.3942063766318, 33.83433246614261], [-84.39363480551752, 33.83486107653968], [-84.39300389190164, 33.83534038599731], [-84.39288598106852, 33.83541369811376], [-84.39277516390871, 33.83556875880191], [-84.39236156445911, 33.83603627917032], [-84.3921182017283, 33.83637679669433], [-84.39161144472077, 33.836949605602925], [-84.3910398402348, 33.83747820388321], [-84.39092750515152, 33.83756353932002], [-84.39089224931566, 33.83761286767629], [-84.39038547685311, 33.83818567149434], [-84.39022531001476, 33.83833378298414], [-84.39018390185839, 33.83857026570163], [-84.38997838034403, 33.83926129967656], [-84.38969267506891, 33.83993219544867], [-84.38932953591556, 33.84057649139288], [-84.38889245878185, 33.84118798193509], [-84.38888638950078, 33.84119484152224], [-84.38884277611133, 33.84129724985937], [-84.38847962485043, 33.84194154320657], [-84.38804253475189, 33.84255303065263], [-84.3875357142376, 33.84312582249216], [-84.38696404364576, 33.843654401613385], [-84.38674932720389, 33.843817486132686], [-84.3867295830321, 33.84384510671685], [-84.38622274614707, 33.84441789310438], [-84.38565105887639, 33.844946466093184], [-84.38502002665886, 33.84542573438816], [-84.38486198051339, 33.84552397343952], [-84.38487823054231, 33.84553398502698], [-84.38551170243888, 33.846011011238865], [-84.38608609474991, 33.84653754642561], [-84.38659587557896, 33.84710852061586], [-84.3869073499813, 33.8475400241691], [-84.38716521825704, 33.84769888497289], [-84.38779871884337, 33.84817589915149], [-84.38837313968733, 33.84870242338366], [-84.3888829486178, 33.84927338780363], [-84.38932323531216, 33.84988329453205], [-84.38968975860772, 33.85052627059205], [-84.38997898738336, 33.85119612444008], [-84.39018813461611, 33.85188640556823], [-84.3902273083078, 33.852103492575694], [-84.39023939750861, 33.8521202382067], [-84.39060593730403, 33.85276321124278], [-84.39089518085967, 33.85343306263844], [-84.39110434101015, 33.854123341909414], [-84.39123140160771, 33.85482740170212], [-84.39127513700895, 33.85553846179531], [-84.39123512395443, 33.85624967438738], [-84.39111174572423, 33.8569541900407], [-84.3909061885262, 33.85764522364819], [-84.39062043014867, 33.85831611978668], [-84.3902572209841, 33.85896041682725], [-84.39000457510255, 33.859313812332566], [-84.38980838846751, 33.859973296234486], [-84.38952261384166, 33.8606441896404], [-84.38917374358114, 33.86126301712068], [-84.38912466432748, 33.86154321605957], [-84.38910667414835, 33.86186282106581], [-84.38900227734273, 33.86245882508753], [-84.3890741163623, 33.86262518498862], [-84.38928328471884, 33.863315466287936], [-84.38941034443518, 33.86401952691224], [-84.38945406987544, 33.864730586632255], [-84.38944065672582, 33.86496888674318], [-84.38944309806948, 33.8650085872967], [-84.38942606578745, 33.8653111836799], [-84.38946837603176, 33.865409158322656], [-84.38967755447608, 33.86609943860064], [-84.389804621683, 33.86680349847048], [-84.38984835194428, 33.8675145577102], [-84.38980832204871, 33.86822576852641], [-84.38968491543737, 33.86893028149844], [-84.38965468635996, 33.8690318849451], [-84.38976290727591, 33.86963150061202], [-84.38980663876949, 33.87034255953555], [-84.38976660734394, 33.87105377001827], [-84.3896460152847, 33.87174219098895], [-84.38974317465666, 33.87228050126089], [-84.38978690746501, 33.8729915598807], [-84.38974687476656, 33.87370277005668], [-84.38962346002879, 33.87440728237434], [-84.38941784980946, 33.875098311758464], [-84.3893039400177, 33.8753656809576], [-84.38927009980326, 33.875966802416], [-84.38914667799393, 33.87667131402601], [-84.38894105860331, 33.87736234239786], [-84.38892805243539, 33.877392869326485], [-84.38888277143325, 33.87765133171573], [-84.38867714760806, 33.87834235955522], [-84.3883913037296, 33.8790132486182], [-84.38802799101218, 33.87965753734339], [-84.38789304136215, 33.879846247387356], [-84.38780738233041, 33.88004728596212], [-84.38744406087675, 33.88069157289259], [-84.38700676747764, 33.881303053637176], [-84.38649971251104, 33.88187583855394], [-84.38592777857195, 33.88240441059654], [-84.38529647347427, 33.882883678477796], [-84.38461187721614, 33.88330902573417], [-84.38388058341914, 33.88367635521762], [-84.38310963580564, 33.88398212858492], [-84.38230646032689, 33.884223400403165], [-84.38147879359691, 33.884397846541425], [-84.38063460832333, 33.88450378657476], [-84.37978203645577, 33.88454019998343], [-84.37892929079432, 33.88450673599109], [-84.37808458581642, 33.88440371694659], [-84.37725605848726, 33.884232135216855], [-84.37645168981973, 33.88399364362063], [-84.37567922794202, 33.883690539495866], [-84.37494611341675, 33.88332574255463], [-84.37425940753307, 33.88290276673945], [-84.37362572426427, 33.882425686353386], [-84.37305116654784, 33.881899096790946], [-84.37254126750236, 33.88132807024924], [-84.37210093714774, 33.880718106847134], [-84.3717344151416, 33.880075081624724], [-84.37144522998624, 33.87940518793409], [-84.37123616509732, 33.87871487776843], [-84.37110923205948, 33.878010799604624], [-84.3710656513238, 33.87729973435896], [-84.37110584053043, 33.87658853007321], [-84.37122941056593, 33.87588403596075], [-84.37143516939008, 33.875193036447584], [-84.37172113359257, 33.87452218584379], [-84.37207246362775, 33.87389936622844], [-84.37207759767776, 33.87387009352953], [-84.37228334491266, 33.873179092417494], [-84.37228386281824, 33.873177877399584], [-84.37227208962832, 33.87298581784725], [-84.37231226699485, 33.87227461271438], [-84.37243582108408, 33.87157011695847], [-84.37244668657004, 33.87153362404454], [-84.37233495889033, 33.87091388374017], [-84.37229137191328, 33.87020281813257], [-84.3723315479394, 33.86949161267734], [-84.37245509798286, 33.868787116599165], [-84.37246422329, 33.8687564672527], [-84.37237722553945, 33.86827388599618], [-84.37233363967086, 33.867562820094925], [-84.37236847056343, 33.86694621326772], [-84.37221939998477, 33.86645394392497], [-84.3720924775644, 33.86574986533419], [-84.37207197552758, 33.865415364802956], [-84.37187164075165, 33.86495121629886], [-84.37166260829014, 33.86426090511791], [-84.37153569377821, 33.863556825673975], [-84.37149211748998, 33.86284575889556], [-84.3715322970242, 33.862134552839215], [-84.37165584336206, 33.861430056735365], [-84.37173021481918, 33.86118025020467], [-84.37174287403244, 33.861108062570146], [-84.37175056860183, 33.86108221713517], [-84.37171934804877, 33.860572774052265], [-84.37175952473466, 33.85986156767024], [-84.37188306603151, 33.85915707109765], [-84.37208878017756, 33.85846606878443], [-84.37237468419423, 33.857795215067895], [-84.3724116878053, 33.85772960355755], [-84.37241874746238, 33.857604612857166], [-84.37254228019188, 33.85690011539791], [-84.37274798370879, 33.85620911177125], [-84.37281316378906, 33.8560561651391], [-84.37265347697867, 33.855976674542056], [-84.37196700201609, 33.85555368321497], [-84.37179480653431, 33.855423995345774], [-84.37167443609121, 33.85539905270053], [-84.37087035357399, 33.855160522493165], [-84.3707161010813, 33.855099966948515], [-84.37053121290634, 33.85519283939364], [-84.36976047271611, 33.85549852988979], [-84.36895752550704, 33.855739714974355], [-84.36822372345662, 33.85589434425181], [-84.36814050516077, 33.85608959065426], [-84.36777713616078, 33.85673382228882], [-84.36733982338754, 33.85734523569976], [-84.36683277740819, 33.85791794189377], [-84.36626088073355, 33.858446424583065], [-84.36562964082054, 33.85892559334164], [-84.364945137041, 33.85935083266144], [-84.36421396212683, 33.85971804643496], [-84.36344315865578, 33.860023697434535], [-84.36264015119075, 33.860264841406945], [-84.36225551248288, 33.86034586917895], [-84.36183882603434, 33.86055512531154], [-84.36106800651973, 33.86086076147352], [-84.36026498447667, 33.86110188999099], [-84.35943749504092, 33.86127618811452], [-84.35859350921146, 33.861381976846026], [-84.35774115701545, 33.86141823712425], [-84.35748018204018, 33.86140794656429], [-84.35675071637891, 33.861626962733276], [-84.35656804330216, 33.86166543481552], [-84.35628947391233, 33.86180531041883], [-84.35551862324304, 33.862110911922485], [-84.35518591427393, 33.862210798975745], [-84.35510864413902, 33.86226943925208], [-84.35486449527754, 33.86249499212622], [-84.35423316174139, 33.86297410253028], [-84.35354856895135, 33.86339927858836], [-84.3528173104976, 33.86376642480224], [-84.3520464297635, 33.86407200459506], [-84.35124335205701, 33.86431307439966], [-84.35041581305069, 33.86448731203235], [-84.34957178422158, 33.86459303907798], [-84.34871939601148, 33.864629237069806], [-84.34786685945001, 33.864595557307815], [-84.3470223869986, 33.86449232422045], [-84.34619411338038, 33.86432053223738], [-84.34539001716179, 33.864081836203425], [-84.34461784384395, 33.863778535426285], [-84.34388503120715, 33.86341355151246], [-84.34319863762984, 33.862990400205376], [-84.34256527407453, 33.862513157498064], [-84.34199104039683, 33.86198642034778], [-84.34148146659221, 33.86141526237219], [-84.34104145954636, 33.860805184954884], [-84.34067525580187, 33.860162064232576], [-84.3403863807952, 33.859492094475534], [-84.34017761495501, 33.85880172840781], [-84.34005096698647, 33.85809761504286], [-84.34000765459645, 33.85738653563418], [-84.34004809284252, 33.85667533835821], [-84.34017189021515, 33.85597087235917], [-84.34037785248744, 33.85527992179093], [-84.34066399429281, 33.85460914049099], [-84.34102755831562, 33.85396498791573], [-84.34146504190767, 33.853353666952685], [-84.3419722308716, 33.8527810642086], [-84.34254424008388, 33.85225269334689], [-84.34263708947822, 33.852182238979445], [-84.34288124137929, 33.85195670993644], [-84.34351255780139, 33.851477656873], [-84.34419710574628, 33.85105253587663], [-84.344928293231, 33.850685440275456], [-84.34524092700613, 33.850561514729065], [-84.34540620282979, 33.850408834946805], [-84.34603749375084, 33.84992976891492], [-84.34672201681212, 33.8495046338719], [-84.34745318027005, 33.84913752328116], [-84.34822394358541, 33.84883197186116], [-84.34884297372862, 33.84864613402875], [-84.34859869090293, 33.848079648097304], [-84.34838988725028, 33.847389294782], [-84.34826318921736, 33.84668518871299], [-84.34821981499452, 33.84597411107385], [-84.34826018023607, 33.845262910024374], [-84.34838389413659, 33.844558434745586], [-84.34858976327405, 33.84386746948124], [-84.34887580317948, 33.84319666821099], [-84.34923925751907, 33.84255249058407], [-84.34939988735067, 33.84232796376457], [-84.3493846465615, 33.84224326636939], [-84.34934126546989, 33.84153218863513], [-84.34938161950481, 33.8408209867431], [-84.34943768502359, 33.8405016886585], [-84.34940683944878, 33.840330267490586], [-84.34936345921537, 33.839619189540656], [-84.34940381224263, 33.83890798742402], [-84.34948060680136, 33.83847062475223], [-84.34947258888793, 33.83833919679439], [-84.34949107085313, 33.838013450896405], [-84.34948983657138, 33.838009369764784], [-84.34945293651819, 33.837804295872644], [-84.3493427283169, 33.837548698358425], [-84.34913394470142, 33.83685834505774], [-84.34902899415754, 33.83627505262906], [-84.3487558980816, 33.83564165886001], [-84.34854712388893, 33.834951304321045], [-84.34850389309614, 33.83471102302668], [-84.34846668656728, 33.83464567394388], [-84.34834804903932, 33.83451267362095], [-84.3479081320876, 33.83390261775549], [-84.34754199268914, 33.833259514414394], [-84.34725315566293, 33.83258955770009], [-84.34704440107429, 33.83189920021077], [-84.34702380038965, 33.83178468398696], [-84.34701532003027, 33.83175663888428], [-84.34662000138236, 33.83155968309928], [-84.34593384981059, 33.83113654404917], [-84.34530070693978, 33.83065931221562], [-84.34472667050012, 33.83013258445013], [-84.3442172685881, 33.829561434278965], [-84.34377740643515, 33.828951363009594], [-84.3434113191902, 33.82830824671871], [-84.34312253116998, 33.82763827963319], [-84.3429138219681, 33.82694791445082], [-84.34278719974724, 33.82624380017616], [-84.34275517460587, 33.825718093302676], [-84.34266472564858, 33.82550824885659], [-84.34245602537614, 33.82481788263241], [-84.34232941012516, 33.824113767622244], [-84.34228609729081, 33.82340268509518], [-84.34232650193847, 33.822691483257735], [-84.34237587900148, 33.82241035242504], [-84.34181915463306, 33.82189943081712], [-84.34130982106907, 33.821328267655545], [-84.34126540242139, 33.821266651253026], [-84.34165020608253, 33.82081288524546], [-84.34218729705732, 33.82029206240825], [-84.34278100779937, 33.81981598390769], [-84.34342601235335, 33.81938891975262], [-84.34411652497006, 33.81901470027546], [-84.34526450854484, 33.81845519290989], [-84.34542281620368, 33.818376041063416], [-84.34614570567699, 33.81805226880679], [-84.34737563364914, 33.81756230586657], [-84.34795678978722, 33.81735212760072], [-84.34887672869738, 33.817052151071096], [-84.34901053158273, 33.8170095764316], [-84.34930051187173, 33.81691958352146], [-84.35036177108411, 33.81665313618753], [-84.35103171905999, 33.81652314690546], [-84.35141119722985, 33.81645692415775], [-84.3519911508168, 33.816366931681785], [-84.35362262581641, 33.816114758654415], [-84.35426063680315, 33.81506006857124], [-84.35469639556669, 33.814422151509966], [-84.3552071671855, 33.81382426685123], [-84.35578771856412, 33.81327253844682], [-84.35643210222962, 33.812772617278995], [-84.35713371726966, 33.812329623609656], [-84.35734566408904, 33.81222204399232], [-84.35739291386547, 33.812251182254975], [-84.35802598745826, 33.81272835367011], [-84.35811115376634, 33.8128064975538], [-84.35813955704253, 33.812711093758395], [-84.35822182238456, 33.81251804504987], [-84.35814475867343, 33.81208987344313], [-84.35813014432667, 33.81185063394032], [-84.35867938229057, 33.81163193770076], [-84.35950760093101, 33.81138439099394], [-84.3607375108408, 33.81107441601757], [-84.36121312026775, 33.810977794848164], [-84.36155067703959, 33.81087614245538], [-84.36243089240602, 33.810694872176605], [-84.3630193500719, 33.81062688650777], [-84.36320532828448, 33.81055566164138], [-84.36399157863451, 33.810292457346215], [-84.36480478537246, 33.81009438969398], [-84.36482646950823, 33.810090053019245], [-84.36539489119504, 33.809736488389575], [-84.36612603711862, 33.80936885433181], [-84.3668968494407, 33.80906285290582], [-84.36712683469622, 33.80898285910686], [-84.36793373477553, 33.808740456670996], [-84.3687653200048, 33.80856560721574], [-84.36961349655157, 33.80846001252544], [-84.37047000922405, 33.808424700329624], [-84.37064999402958, 33.80842470038587], [-84.37131166594777, 33.808445753693334], [-84.3715002062844, 33.80846382137231], [-84.37226109209078, 33.80840273436868], [-84.37310943891681, 33.80840397971522], [-84.3738193791859, 33.80843397744526], [-84.37414829965715, 33.80845310161881], [-84.37424569382055, 33.80846031610526], [-84.37598097019018, 33.80774490252093], [-84.37648700153515, 33.807552822083956], [-84.37763692783284, 33.80715285310086], [-84.37840255393263, 33.806921052536936], [-84.37866132345071, 33.80686492904458], [-84.37866557946774, 33.80686353847533], [-84.37938117984001, 33.80659408688757], [-84.38021444194212, 33.80636155601598], [-84.38107156543347, 33.806200435043266], [-84.38194379334739, 33.80611237006917], [-84.3819879312929, 33.80611166127167], [-84.38230722455049, 33.80601705335812], [-84.38270070011681, 33.805933916800754], [-84.38278196985941, 33.805896308069336], [-84.38358184556056, 33.805609292159374], [-84.38441210202475, 33.805390517427284], [-84.38526440929901, 33.80524217878348], [-84.38613021636438, 33.80516576445876], [-84.38678016178233, 33.80513576716994], [-84.38769439486084, 33.80513376942229], [-84.3886038222861, 33.80521194831407], [-84.38949838326535, 33.80536943895864], [-84.39036818134983, 33.805604499053736], [-84.39120359384113, 33.80591452814265], [-84.39199537817983, 33.806296096363], [-84.39258535378505, 33.80661607412757], [-84.39324102590207, 33.80700898461153], [-84.39385021465615, 33.807450972509585], [-84.39440766661703, 33.80793822680355], [-84.3949085742107, 33.8084665461025], [-84.39497305421345, 33.808549311676686], [-84.39535200279765, 33.80876272264582], [-84.39606701616056, 33.80926670144446], [-84.39671298285187, 33.80983192705661], [-84.39728241410144, 33.810451847977326], [-84.39776870782919, 33.81111927858719], [-84.39794872546253, 33.81139926749268], [-84.39831580678492, 33.81204456373308], [-84.39860509149695, 33.81271686424277], [-84.39881377359309, 33.813409652126055], [-84.39893982821874, 33.81411621173792], [-84.39898203137079, 33.81482969377109], [-84.39898205058837, 33.8150196936909], [-84.39894485835192, 33.81569075894321], [-84.39883346359225, 33.816356076049566], [-84.39870529176261, 33.816809961773146], [-84.39910796509207, 33.81727858394992], [-84.39952585574835, 33.81787872740034], [-84.39969520423004, 33.81818630675619], [-84.39957095212299, 33.81840687254316]], [[-84.37752193230128, 33.82769642162256], [-84.37815287685368, 33.8272171906632], [-84.37841628108237, 33.82705344964125], [-84.37857255830481, 33.82683482645661], [-84.37881234131089, 33.826563830596854], [-84.37874951932103, 33.82621532139541], [-84.37870590393312, 33.82550425301068], [-84.37874600790516, 33.824793040585305], [-84.3788694429498, 33.824088533411626], [-84.37899558431506, 33.8236645254635], [-84.37887784289231, 33.82301132949035], [-84.3788342282157, 33.82230026077903], [-84.37887432977605, 33.82158904795193], [-84.3789977593096, 33.82088454030521], [-84.37920332613446, 33.82019352239616], [-84.37940041567666, 33.81973075933368], [-84.37915826993378, 33.8198035461888], [-84.37833121704124, 33.81997797064629], [-84.37797900747742, 33.820022194916184], [-84.37805905774096, 33.82046633467286], [-84.37805992160163, 33.82048042109255], [-84.37826335646798, 33.820951914164844], [-84.37847233461476, 33.8216422192082], [-84.3785992421502, 33.822346296322635], [-84.37864285490782, 33.82305736511914], [-84.37860275081252, 33.82376857771148], [-84.3784793140245, 33.824473084661484], [-84.37827373131911, 33.825164100945486], [-84.37798798073375, 33.82583497130707], [-84.37762481258908, 33.82647923436567], [-84.37718772306387, 33.82709068486386], [-84.37668092057605, 33.827663433452216], [-84.37625549904203, 33.828056776098116], [-84.37630502354978, 33.828220367958444], [-84.37641600856756, 33.8288361472031], [-84.37644349126715, 33.82879770302154], [-84.3769503019947, 33.82822495548286], [-84.37752193230128, 33.82769642162256]]]}, "properties": {"kind": "walkshed", "buffer_mi": 0.5}}, {"type": "Feature", "geometry": {"type": "Point", "coordinates": [-84.367657, 33.847773]}, "properties": {"kind": "stop", "name": "Buckhead", "mode": "rail"}}, {"type": "Feature", "geometry": {"type": "Point", "coordinates": [-84.356915, 33.845961]}, "properties": {"kind": "stop", "name": "Lenox", "mode": "rail"}}, {"type": "Feature", "geometry": {"type": "Point", "coordinates": [-84.369534, 33.822486]}, "properties": {"kind": "stop", "name": "Lindbergh Center", "mode": "rail"}}, {"type": "Feature", "geometry": {"type": "Point", "coordinates": [-84.369357, 33.823385]}, "properties": {"kind": "stop", "name": "LINDBERGH CENTER STATION", "mode": "bus"}}, {"type": "Feature", "geometry": {"type": "Point", "coordinates": [-84.369324, 33.823492]}, "properties": {"kind": "stop", "name": "LINDBERGH CENTER STATION", "mode": "bus"}}, {"type": "Feature", "geometry": {"type": "Point", "coordinates": [-84.358387, 33.845307]}, "properties": {"kind": "stop", "name": "LENOX STATION", "mode": "bus"}}, {"type": "Feature", "geometry": {"type": "Point", "coordinates": [-84.367629, 33.84781]}, "properties": {"kind": "stop", "name": "BUCKHEAD STATION", "mode": "bus"}}, {"type": "Feature", "geometry": {"type": "Point", "coordinates": [-84.367716, 33.847944]}, "properties": {"kind": "stop", "name": "BUCKHEAD STATION", "mode": "bus"}}, {"type": "Feature", "geometry": {"type": "Point", "coordinates": [-84.358235, 33.845388]}, "properties": {"kind": "stop", "name": "LENOX STATION", "mode": "bus"}}, {"type": "Feature", "geometry": {"type": "Point", "coordinates": [-84.38097, 33.872971]}, "properties": {"kind": "stop", "name": "ROSWELL RD NE @ MIDVALE DR NE", "mode": "bus"}}, {"type": "Feature", "geometry": {"type": "Point", "coordinates": [-84.380612, 33.875271]}, "properties": {"kind": "stop", "name": "ROSWELL RD NE @ WIEUCA RD NE", "mode": "bus"}}, {"type": "Feature", "geometry": {"type": "Point", "coordinates": [-84.379764, 33.877285]}, "properties": {"kind": "stop", "name": "ROSWELL RD NE @ DILBECK PL NW", "mode": "bus"}}, {"type": "Feature", "geometry": {"type": "Point", "coordinates": [-84.381089, 33.873007]}, "properties": {"kind": "stop", "name": "ROSWELL RD NE @ MIDVALE DR NE", "mode": "bus"}}, {"type": "Feature", "geometry": {"type": "Point", "coordinates": [-84.380348, 33.876251]}, "properties": {"kind": "stop", "name": "ROSWELL RD NE @ WIEUCA RD NE", "mode": "bus"}}, {"type": "Feature", "geometry": {"type": "Point", "coordinates": [-84.382579, 33.855554]}, "properties": {"kind": "stop", "name": "ROSWELL RD NE @ POWERS FERRY RD NW", "mode": "bus"}}, {"type": "Feature", "geometry": {"type": "Point", "coordinates": [-84.381075, 33.858301]}, "properties": {"kind": "stop", "name": "ROSWELL RD NE @ IVY PKWY NE", "mode": "bus"}}, {"type": "Feature", "geometry": {"type": "Point", "coordinates": [-84.381481, 33.857882]}, "properties": {"kind": "stop", "name": "ROSWELL RD NE @ IVY PKWY NE", "mode": "bus"}}, {"type": "Feature", "geometry": {"type": "Point", "coordinates": [-84.381663, 33.853317]}, "properties": {"kind": "stop", "name": "PIEDMONT RD NE @ HABERSHAM RD NE", "mode": "bus"}}, {"type": "Feature", "geometry": {"type": "Point", "coordinates": [-84.372646, 33.846358]}, "properties": {"kind": "stop", "name": "PIEDMONT RD NE @ TOWER PLACE DR", "mode": "bus"}}, {"type": "Feature", "geometry": {"type": "Point", "coordinates": [-84.37747, 33.849936]}, "properties": {"kind": "stop", "name": "PIEDMONT RD NE @ 3525", "mode": "bus"}}, {"type": "Feature", "geometry": {"type": "Point", "coordinates": [-84.378984, 33.85092]}, "properties": {"kind": "stop", "name": "PIEDMONT RD NE @ 3565", "mode": "bus"}}, {"type": "Feature", "geometry": {"type": "Point", "coordinates": [-84.381053, 33.852924]}, "properties": {"kind": "stop", "name": "PIEDMONT RD NE @ HABERSHAM RD NE", "mode": "bus"}}, {"type": "Feature", "geometry": {"type": "Point", "coordinates": [-84.377089, 33.849614]}, "properties": {"kind": "stop", "name": "PIEDMONT RD NE @ 3500", "mode": "bus"}}, {"type": "Feature", "geometry": {"type": "Point", "coordinates": [-84.374182, 33.848452]}, "properties": {"kind": "stop", "name": "PIEDMONT RD NE @ CARSON LN NE", "mode": "bus"}}, {"type": "Feature", "geometry": {"type": "Point", "coordinates": [-84.372831, 33.84651]}, "properties": {"kind": "stop", "name": "PIEDMONT RD NE @ TOWER PLACE DR NE", "mode": "bus"}}, {"type": "Feature", "geometry": {"type": "Point", "coordinates": [-84.371807, 33.844399]}, "properties": {"kind": "stop", "name": "PIEDMONT RD NE @ PEACHTREE RD NE", "mode": "bus"}}, {"type": "Feature", "geometry": {"type": "Point", "coordinates": [-84.380416, 33.860558]}, "properties": {"kind": "stop", "name": "ROSWELL RD NE @ SHELDON DR NE", "mode": "bus"}}, {"type": "Feature", "geometry": {"type": "Point", "coordinates": [-84.380189, 33.862831]}, "properties": {"kind": "stop", "name": "ROSWELL RD NE @ LAND O LAKES DR NE", "mode": "bus"}}, {"type": "Feature", "geometry": {"type": "Point", "coordinates": [-84.380746, 33.865024]}, "properties": {"kind": "stop", "name": "ROSWELL RD NE @ LAKEMOORE DR NE", "mode": "bus"}}, {"type": "Feature", "geometry": {"type": "Point", "coordinates": [-84.381031, 33.867548]}, "properties": {"kind": "stop", "name": "ROSWELL RD NE @ CHASTAIN DR NE", "mode": "bus"}}, {"type": "Feature", "geometry": {"type": "Point", "coordinates": [-84.380989, 33.870188]}, "properties": {"kind": "stop", "name": "ROSWELL RD NE @ RICKENBACKER DR NE", "mode": "bus"}}, {"type": "Feature", "geometry": {"type": "Point", "coordinates": [-84.379376, 33.851152]}, "properties": {"kind": "stop", "name": "PIEDMONT RD NE @ 3558", "mode": "bus"}}, {"type": "Feature", "geometry": {"type": "Point", "coordinates": [-84.381109, 33.870358]}, "properties": {"kind": "stop", "name": "ROSWELL RD NE @ RICKENBACKER DR NE", "mode": "bus"}}, {"type": "Feature", "geometry": {"type": "Point", "coordinates": [-84.380558, 33.860334]}, "properties": {"kind": "stop", "name": "ROSWELL RD NE @ LE BRUN RD", "mode": "bus"}}, {"type": "Feature", "geometry": {"type": "Point", "coordinates": [-84.38045, 33.861167]}, "properties": {"kind": "stop", "name": "ROSWELL RD NE @ LE BRUN RD NE", "mode": "bus"}}, {"type": "Feature", "geometry": {"type": "Point", "coordinates": [-84.380276, 33.862509]}, "properties": {"kind": "stop", "name": "ROSWELL RD NE @ LAUREL FOREST CIR", "mode": "bus"}}, {"type": "Feature", "geometry": {"type": "Point", "coordinates": [-84.380757, 33.864746]}, "properties": {"kind": "stop", "name": "ROSWELL RD NE @ LAKEMOORE DR", "mode": "bus"}}, {"type": "Feature", "geometry": {"type": "Point", "coordinates": [-84.381151, 33.86753]}, "properties": {"kind": "stop", "name": "ROSWELL RD NE @ CHASTAIN DR NE", "mode": "bus"}}, {"type": "Feature", "geometry": {"type": "Point", "coordinates": [-84.362045, 33.850174]}, "properties": {"kind": "stop", "name": "PEACHTREE RD NE@LENOX RD NE", "mode": "bus"}}, {"type": "Feature", "geometry": {"type": "Point", "coordinates": [-84.362343, 33.850395]}, "properties": {"kind": "stop", "name": "PEACHTREE RD NE @ LENOX RD", "mode": "bus"}}, {"type": "Feature", "geometry": {"type": "Point", "coordinates": [-84.363944, 33.849046]}, "properties": {"kind": "stop", "name": "PEACHTREE RD NE @ LENOX PKWY", "mode": "bus"}}, {"type": "Feature", "geometry": {"type": "Point", "coordinates": [-84.363655, 33.849373]}, "properties": {"kind": "stop", "name": "PEACHTREE RD NE @ 3414", "mode": "bus"}}, {"type": "Feature", "geometry": {"type": "Point", "coordinates": [-84.366417, 33.848801]}, "properties": {"kind": "stop", "name": "PEACHTREE RD NE@STRATFORD RD NE", "mode": "bus"}}, {"type": "Feature", "geometry": {"type": "Point", "coordinates": [-84.36631, 33.848236]}, "properties": {"kind": "stop", "name": "PEACHTREE RD NE@STRATFORD RD NE", "mode": "bus"}}, {"type": "Feature", "geometry": {"type": "Point", "coordinates": [-84.367296, 33.847874]}, "properties": {"kind": "stop", "name": "BUCKHEAD STATION - SOUTHBOUND", "mode": "bus"}}, {"type": "Feature", "geometry": {"type": "Point", "coordinates": [-84.367542, 33.847366]}, "properties": {"kind": "stop", "name": "BUCKHEAD STATION - NORTHBOUND", "mode": "bus"}}, {"type": "Feature", "geometry": {"type": "Point", "coordinates": [-84.368791, 33.845641]}, "properties": {"kind": "stop", "name": "PEACHTREE RD @ HIGHLAND DR", "mode": "bus"}}, {"type": "Feature", "geometry": {"type": "Point", "coordinates": [-84.371445, 33.843456]}, "properties": {"kind": "stop", "name": "PEACHTREE RD @ PIEDMONT RD", "mode": "bus"}}, {"type": "Feature", "geometry": {"type": "Point", "coordinates": [-84.360883, 33.851634]}, "properties": {"kind": "stop", "name": "PEACHTREE RD NE @ OAK VALLEY RD NE", "mode": "bus"}}, {"type": "Feature", "geometry": {"type": "Point", "coordinates": [-84.357705, 33.853944]}, "properties": {"kind": "stop", "name": "PEACHTREE RD@ROXBORO RD NE", "mode": "bus"}}, {"type": "Feature", "geometry": {"type": "Point", "coordinates": [-84.355561, 33.854168]}, "properties": {"kind": "stop", "name": "PEACHTREE RD@3669", "mode": "bus"}}, {"type": "Feature", "geometry": {"type": "Point", "coordinates": [-84.353721, 33.854786]}, "properties": {"kind": "stop", "name": "PEACHTREE RD NE@CANTRELL RD NE", "mode": "bus"}}, {"type": "Feature", "geometry": {"type": "Point", "coordinates": [-84.351566, 33.85553]}, "properties": {"kind": "stop", "name": "PEACHTREE RD NE@KINGSBORO RD NE", "mode": "bus"}}, {"type": "Feature", "geometry": {"type": "Point", "coordinates": [-84.349041, 33.857078]}, "properties": {"kind": "stop", "name": "PEACHTREE RD NE@CLUB DR NE", "mode": "bus"}}, {"type": "Feature", "geometry": {"type": "Point", "coordinates": [-84.348704, 33.857374]}, "properties": {"kind": "stop", "name": "PEACHTREE RD@CLUB DR", "mode": "bus"}}, {"type": "Feature", "geometry": {"type": "Point", "coordinates": [-84.352176, 33.855413]}, "properties": {"kind": "stop", "name": "PEACHTREE RD@VERMONT RD", "mode": "bus"}}, {"type": "Feature", "geometry": {"type": "Point", "coordinates": [-84.354211, 33.854688]}, "properties": {"kind": "stop", "name": "PEACHTREE RD@NARMORE DR", "mode": "bus"}}, {"type": "Feature", "geometry": {"type": "Point", "coordinates": [-84.356283, 33.854138]}, "properties": {"kind": "stop", "name": "PEACHTREE RD@3660", "mode": "bus"}}, {"type": "Feature", "geometry": {"type": "Point", "coordinates": [-84.3601, 33.853326]}, "properties": {"kind": "stop", "name": "PEACHTREE RD @ WIEUCA RD", "mode": "bus"}}, {"type": "Feature", "geometry": {"type": "Point", "coordinates": [-84.372473, 33.843217]}, "properties": {"kind": "stop", "name": "PEACHTREE RD NE @ MAPLE DR NE", "mode": "bus"}}, {"type": "Feature", "geometry": {"type": "Point", "coordinates": [-84.358093, 33.84358]}, "properties": {"kind": "stop", "name": "LENOX RD NE @ FERNCLIFF RD NE", "mode": "bus"}}, {"type": "Feature", "geometry": {"type": "Point", "coordinates": [-84.371829, 33.844667]}, "properties": {"kind": "stop", "name": "PIEDMONT RD NE @ PEACHTREE RD NE", "mode": "bus"}}, {"type": "Feature", "geometry": {"type": "Point", "coordinates": [-84.357725, 33.854163]}, "properties": {"kind": "stop", "name": "PEACHTREE RD @ PEACHTREE DUNWOODY RD", "mode": "bus"}}, {"type": "Feature", "geometry": {"type": "Point", "coordinates": [-84.358006, 33.845245]}, "properties": {"kind": "stop", "name": "LENOX STATION", "mode": "bus"}}, {"type": "Feature", "geometry": {"type": "Point", "coordinates": [-84.381653, 33.83717]}, "properties": {"kind": "stop", "name": "PEACHTREE RD NW@PHARR RD NW", "mode": "bus"}}, {"type": "Feature", "geometry": {"type": "Point", "coordinates": [-84.382922, 33.834173]}, "properties": {"kind": "stop", "name": "PEACHTREE RD NW@PEACHTREE AVE", "mode": "bus"}}, {"type": "Feature", "geometry": {"type": "Point", "coordinates": [-84.383653, 33.833595]}, "properties": {"kind": "stop", "name": "PEACHTREE RD NW@SHERIDAN", "mode": "bus"}}, {"type": "Feature", "geometry": {"type": "Point", "coordinates": [-84.384879, 33.832359]}, "properties": {"kind": "stop", "name": "PEACHTREE RD NW@2820", "mode": "bus"}}, {"type": "Feature", "geometry": {"type": "Point", "coordinates": [-84.385536, 33.831551]}, "properties": {"kind": "stop", "name": "PEACHTREE RD NW@RUMSON RD", "mode": "bus"}}, {"type": "Feature", "geometry": {"type": "Point", "coordinates": [-84.387474, 33.829742]}, "properties": {"kind": "stop", "name": "PEACHTREE RD NW@ANDREWS DR NW", "mode": "bus"}}, {"type": "Feature", "geometry": {"type": "Point", "coordinates": [-84.387532, 33.82846]}, "properties": {"kind": "stop", "name": "PEACHTREE RD NW@WESLEY RD NW", "mode": "bus"}}, {"type": "Feature", "geometry": {"type": "Point", "coordinates": [-84.387764, 33.824795]}, "properties": {"kind": "stop", "name": "PEACHTREE RD NW@MUSCOGEE AVE NW", "mode": "bus"}}, {"type": "Feature", "geometry": {"type": "Point", "coordinates": [-84.387741, 33.823036]}, "properties": {"kind": "stop", "name": "PEACHTREE RD@LINDBERGH DR", "mode": "bus"}}, {"type": "Feature", "geometry": {"type": "Point", "coordinates": [-84.38805, 33.821506]}, "properties": {"kind": "stop", "name": "PEACHTREE RD NW @ TERRACE DR NE", "mode": "bus"}}, {"type": "Feature", "geometry": {"type": "Point", "coordinates": [-84.388664, 33.819984]}, "properties": {"kind": "stop", "name": "PEACHTREE RD@PEACHTREE BATTLE AVE", "mode": "bus"}}, {"type": "Feature", "geometry": {"type": "Point", "coordinates": [-84.38902, 33.818177]}, "properties": {"kind": "stop", "name": "PEACHTREE RD NW @ PEACHTREE HILLS AVE", "mode": "bus"}}, {"type": "Feature", "geometry": {"type": "Point", "coordinates": [-84.390526, 33.816357]}, "properties": {"kind": "stop", "name": "PEACHTREE RD @ PEACHTREE MEMORIAL DR", "mode": "bus"}}, {"type": "Feature", "geometry": {"type": "Point", "coordinates": [-84.390892, 33.816032]}, "properties": {"kind": "stop", "name": "PEACHTREE RD @ PEACHTREE MEMORIAL DR", "mode": "bus"}}, {"type": "Feature", "geometry": {"type": "Point", "coordinates": [-84.391896, 33.815001]}, "properties": {"kind": "stop", "name": "PEACHTREE RD NW @ BISCAYNE DR NW", "mode": "bus"}}, {"type": "Feature", "geometry": {"type": "Point", "coordinates": [-84.392509, 33.813778]}, "properties": {"kind": "stop", "name": "PEACHTREE RD NW @ COLONIAL HOMES DR NW", "mode": "bus"}}, {"type": "Feature", "geometry": {"type": "Point", "coordinates": [-84.391815, 33.814449]}, "properties": {"kind": "stop", "name": "PEACHTREE RD NW@BISCAYNE DR NW", "mode": "bus"}}, {"type": "Feature", "geometry": {"type": "Point", "coordinates": [-84.389916, 33.816537]}, "properties": {"kind": "stop", "name": "PEACHTREE RD @ PEACHTREE MEMORIAL DR", "mode": "bus"}}, {"type": "Feature", "geometry": {"type": "Point", "coordinates": [-84.388868, 33.817801]}, "properties": {"kind": "stop", "name": "PEACHTREE RD NW @ PEACHTREE HILLS AVE", "mode": "bus"}}, {"type": "Feature", "geometry": {"type": "Point", "coordinates": [-84.388374, 33.819576]}, "properties": {"kind": "stop", "name": "PEACHTREE RD NE @ PEACHTREE BATTLE AVE", "mode": "bus"}}, {"type": "Feature", "geometry": {"type": "Point", "coordinates": [-84.387527, 33.822285]}, "properties": {"kind": "stop", "name": "PEACHTREE RD NW@LINDBERGH DR NE", "mode": "bus"}}, {"type": "Feature", "geometry": {"type": "Point", "coordinates": [-84.387399, 33.825489]}, "properties": {"kind": "stop", "name": "PEACHTREE RD NW@LAKEVIEW AVE NE", "mode": "bus"}}, {"type": "Feature", "geometry": {"type": "Point", "coordinates": [-84.387375, 33.828384]}, "properties": {"kind": "stop", "name": "PEACHTREE RD NW@E WESLEY RD NE", "mode": "bus"}}, {"type": "Feature", "geometry": {"type": "Point", "coordinates": [-84.386565, 33.830227]}, "properties": {"kind": "stop", "name": "PEACHTREE RD NW@2765", "mode": "bus"}}, {"type": "Feature", "geometry": {"type": "Point", "coordinates": [-84.385811, 33.830853]}, "properties": {"kind": "stop", "name": "PEACHTREE RD NW@RUMSON RD NE", "mode": "bus"}}, {"type": "Feature", "geometry": {"type": "Point", "coordinates": [-84.383682, 33.832816]}, "properties": {"kind": "stop", "name": "PEACHTREE RD NW@SHERIDAN DR NE", "mode": "bus"}}, {"type": "Feature", "geometry": {"type": "Point", "coordinates": [-84.383064, 33.833716]}, "properties": {"kind": "stop", "name": "PEACHTREE RD NW @ DELMONT DR", "mode": "bus"}}, {"type": "Feature", "geometry": {"type": "Point", "coordinates": [-84.382422, 33.83479]}, "properties": {"kind": "stop", "name": "PEACHTREE RD NW@PEACHTREE AVE NE", "mode": "bus"}}, {"type": "Feature", "geometry": {"type": "Point", "coordinates": [-84.387668, 33.825953]}, "properties": {"kind": "stop", "name": "PEACHTREE RD@2626", "mode": "bus"}}, {"type": "Feature", "geometry": {"type": "Point", "coordinates": [-84.387985, 33.821087]}, "properties": {"kind": "stop", "name": "PEACHTREE RD NW@TERRACE DR NE", "mode": "bus"}}, {"type": "Feature", "geometry": {"type": "Point", "coordinates": [-84.367019, 33.82701]}, "properties": {"kind": "stop", "name": "PIEDMONT RD NE @ MIAMI CIR NE", "mode": "bus"}}, {"type": "Feature", "geometry": {"type": "Point", "coordinates": [-84.367652, 33.829409]}, "properties": {"kind": "stop", "name": "PIEDMONT RD NE @ ALPINE RD NE", "mode": "bus"}}, {"type": "Feature", "geometry": {"type": "Point", "coordinates": [-84.367959, 33.833553]}, "properties": {"kind": "stop", "name": "PIEDMONT RD NE @ ELLIOTT CIR NE", "mode": "bus"}}, {"type": "Feature", "geometry": {"type": "Point", "coordinates": [-84.367927, 33.835906]}, "properties": {"kind": "stop", "name": "PIEDMONT RD NE @ BURKE RD NE", "mode": "bus"}}, {"type": "Feature", "geometry": {"type": "Point", "coordinates": [-84.368222, 33.837499]}, "properties": {"kind": "stop", "name": "PIEDMONT RD NE @ PEACHTREE DR NE", "mode": "bus"}}, {"type": "Feature", "geometry": {"type": "Point", "coordinates": [-84.368854, 33.838752]}, "properties": {"kind": "stop", "name": "PIEDMONT RD NE @ E PACES FERRY RD NE", "mode": "bus"}}, {"type": "Feature", "geometry": {"type": "Point", "coordinates": [-84.37063, 33.842269]}, "properties": {"kind": "stop", "name": "PIEDMONT RD NE @ MARTINA DR NE", "mode": "bus"}}, {"type": "Feature", "geometry": {"type": "Point", "coordinates": [-84.37053, 33.84171]}, "properties": {"kind": "stop", "name": "PIEDMONT RD NE @ MARTINA DR NE", "mode": "bus"}}, {"type": "Feature", "geometry": {"type": "Point", "coordinates": [-84.369377, 33.839531]}, "properties": {"kind": "stop", "name": "PIEDMONT RD NE @ E PACES FERRY RD NE", "mode": "bus"}}, {"type": "Feature", "geometry": {"type": "Point", "coordinates": [-84.368146, 33.837061]}, "properties": {"kind": "stop", "name": "PIEDMONT RD NE @ PHARR RD NE", "mode": "bus"}}, {"type": "Feature", "geometry": {"type": "Point", "coordinates": [-84.368046, 33.834197]}, "properties": {"kind": "stop", "name": "PIEDMONT RD NE @ N HILLS DR NE", "mode": "bus"}}, {"type": "Feature", "geometry": {"type": "Point", "coordinates": [-84.368088, 33.831503]}, "properties": {"kind": "stop", "name": "PIEDMONT RD NE @ WESLEY RD NE", "mode": "bus"}}, {"type": "Feature", "geometry": {"type": "Point", "coordinates": [-84.367782, 33.82965]}, "properties": {"kind": "stop", "name": "PIEDMONT RD NE @ ALPINE RD NE", "mode": "bus"}}, {"type": "Feature", "geometry": {"type": "Point", "coordinates": [-84.367303, 33.828013]}, "properties": {"kind": "stop", "name": "PIEDMONT RD NE @ MIAMI CIR NE", "mode": "bus"}}, {"type": "Feature", "geometry": {"type": "Point", "coordinates": [-84.367215, 33.825981]}, "properties": {"kind": "stop", "name": "PIEDMONT RD NE @ SIDNEY MARCUS BLVD NE", "mode": "bus"}}, {"type": "Feature", "geometry": {"type": "Point", "coordinates": [-84.366927, 33.817962]}, "properties": {"kind": "stop", "name": "PIEDMONT RD NE @ GARSON DR NE", "mode": "bus"}}, {"type": "Feature", "geometry": {"type": "Point", "coordinates": [-84.368001, 33.831619]}, "properties": {"kind": "stop", "name": "PIEDMONT RD NE @ DARLINGTON RD", "mode": "bus"}}, {"type": "Feature", "geometry": {"type": "Point", "coordinates": [-84.372604, 33.84259]}, "properties": {"kind": "stop", "name": "PEACHTREE RD NE@MAPLE DR NE", "mode": "bus"}}, {"type": "Feature", "geometry": {"type": "Point", "coordinates": [-84.374199, 33.842022]}, "properties": {"kind": "stop", "name": "PEACHTREE RD NW @ W SHADOWLAWN AVE", "mode": "bus"}}, {"type": "Feature", "geometry": {"type": "Point", "coordinates": [-84.37426, 33.841644]}, "properties": {"kind": "stop", "name": "PEACHTREE RD NE @ E SHADOWLAWN AVE", "mode": "bus"}}, {"type": "Feature", "geometry": {"type": "Point", "coordinates": [-84.375565, 33.841171]}, "properties": {"kind": "stop", "name": "PEACHTREE RD NW @ 3180", "mode": "bus"}}, {"type": "Feature", "geometry": {"type": "Point", "coordinates": [-84.377246, 33.840422]}, "properties": {"kind": "stop", "name": "PEACHTREE RD @ MATHIESON DR NE", "mode": "bus"}}, {"type": "Feature", "geometry": {"type": "Point", "coordinates": [-84.37949, 33.839827]}, "properties": {"kind": "stop", "name": "PEACHTREE RD NE @ E PACES FERRY RD", "mode": "bus"}}, {"type": "Feature", "geometry": {"type": "Point", "coordinates": [-84.37867, 33.840135]}, "properties": {"kind": "stop", "name": "PEACHTREE RD @ BOLLING WAY NE", "mode": "bus"}}, {"type": "Feature", "geometry": {"type": "Point", "coordinates": [-84.377192, 33.840317]}, "properties": {"kind": "stop", "name": "PEACHTREE RD NW@MATHIESON DR NE", "mode": "bus"}}, {"type": "Feature", "geometry": {"type": "Point", "coordinates": [-84.379912, 33.839284]}, "properties": {"kind": "stop", "name": "PEACHTREE RD @ E PACES FERRY RD NE", "mode": "bus"}}, {"type": "Feature", "geometry": {"type": "Point", "coordinates": [-84.380803, 33.838535]}, "properties": {"kind": "stop", "name": "PEACHTREE RD @ BUCKHEAD AVE NE", "mode": "bus"}}, {"type": "Feature", "geometry": {"type": "Point", "coordinates": [-84.364005, 33.82592]}, "properties": {"kind": "stop", "name": "SIDNEY MARCUS BLVD@740", "mode": "bus"}}, {"type": "Feature", "geometry": {"type": "Point", "coordinates": [-84.362089, 33.825589]}, "properties": {"kind": "stop", "name": "SIDNEY MARCUS BLVD @ ADINA DR", "mode": "bus"}}, {"type": "Feature", "geometry": {"type": "Point", "coordinates": [-84.362372, 33.825866]}, "properties": {"kind": "stop", "name": "SIDNEY MARCUS BLVD @ ADINA DR", "mode": "bus"}}, {"type": "Feature", "geometry": {"type": "Point", "coordinates": [-84.358727, 33.82474]}, "properties": {"kind": "stop", "name": "SIDNEY MARCUS BLVD @ PINE TREE RD NE", "mode": "bus"}}, {"type": "Feature", "geometry": {"type": "Point", "coordinates": [-84.358368, 33.824874]}, "properties": {"kind": "stop", "name": "SIDNEY MARCUS BLVD @ PINE TREE RD NE", "mode": "bus"}}, {"type": "Feature", "geometry": {"type": "Point", "coordinates": [-84.3537, 33.825215]}, "properties": {"kind": "stop", "name": "BUFORD HWY NE @ LENOX RD", "mode": "bus"}}, {"type": "Feature", "geometry": {"type": "Point", "coordinates": [-84.352688, 33.825744]}, "properties": {"kind": "stop", "name": "BUFORD HWY NE@LENOX RD", "mode": "bus"}}, {"type": "Feature", "geometry": {"type": "Point", "coordinates": [-84.351437, 33.82552]}, "properties": {"kind": "stop", "name": "BUFORD HWY NE @ SHADY VALLEY DR NE", "mode": "bus"}}, {"type": "Feature", "geometry": {"type": "Point", "coordinates": [-84.348529, 33.817287]}, "properties": {"kind": "stop", "name": "LAVISTA RD NE @ CITADEL DR NE", "mode": "bus"}}, {"type": "Feature", "geometry": {"type": "Point", "coordinates": [-84.349737, 33.817859]}, "properties": {"kind": "stop", "name": "LAVISTA RD NE @ CHESHIRE BRIDGE RD", "mode": "bus"}}, {"type": "Feature", "geometry": {"type": "Point", "coordinates": [-84.350433, 33.817931]}, "properties": {"kind": "stop", "name": "LAVISTA RD NE @ LAVISTA WALK", "mode": "bus"}}, {"type": "Feature", "geometry": {"type": "Point", "coordinates": [-84.351804, 33.818441]}, "properties": {"kind": "stop", "name": "LINDBERGH DR NE @ CHESHIRE BRIDGE RD", "mode": "bus"}}, {"type": "Feature", "geometry": {"type": "Point", "coordinates": [-84.353012, 33.818897]}, "properties": {"kind": "stop", "name": "LINDBERGH DR NE @ MELANTE DR NE", "mode": "bus"}}, {"type": "Feature", "geometry": {"type": "Point", "coordinates": [-84.353208, 33.818879]}, "properties": {"kind": "stop", "name": "LINDBERGH DR NE @ MELANTE DR NE", "mode": "bus"}}, {"type": "Feature", "geometry": {"type": "Point", "coordinates": [-84.354927, 33.819584]}, "properties": {"kind": "stop", "name": "LINDBERGH DR NE @ 1002", "mode": "bus"}}, {"type": "Feature", "geometry": {"type": "Point", "coordinates": [-84.357434, 33.820518]}, "properties": {"kind": "stop", "name": "LINDBERGH DR NE @ LINDRIDGE DR NE", "mode": "bus"}}, {"type": "Feature", "geometry": {"type": "Point", "coordinates": [-84.356461, 33.820006]}, "properties": {"kind": "stop", "name": "LINDBERGH DR NE @ STRATHMORE DR NE", "mode": "bus"}}, {"type": "Feature", "geometry": {"type": "Point", "coordinates": [-84.363153, 33.820666]}, "properties": {"kind": "stop", "name": "LINDBERGH DR NE @ ADINA DR NE", "mode": "bus"}}, {"type": "Feature", "geometry": {"type": "Point", "coordinates": [-84.358269, 33.841343]}, "properties": {"kind": "stop", "name": "LENOX RD NE @ CANTER RD NE", "mode": "bus"}}, {"type": "Feature", "geometry": {"type": "Point", "coordinates": [-84.358318, 33.839823]}, "properties": {"kind": "stop", "name": "LENOX RD NE @ CRANE RD NE", "mode": "bus"}}, {"type": "Feature", "geometry": {"type": "Point", "coordinates": [-84.358167, 33.838326]}, "properties": {"kind": "stop", "name": "LENOX RD NE @ 3071", "mode": "bus"}}, {"type": "Feature", "geometry": {"type": "Point", "coordinates": [-84.357752, 33.835301]}, "properties": {"kind": "stop", "name": "LENOX RD NE @ EMBASSY CT", "mode": "bus"}}, {"type": "Feature", "geometry": {"type": "Point", "coordinates": [-84.357414, 33.834156]}, "properties": {"kind": "stop", "name": "LENOX RD NE @ BURKE RD NE", "mode": "bus"}}, {"type": "Feature", "geometry": {"type": "Point", "coordinates": [-84.354811, 33.828348]}, "properties": {"kind": "stop", "name": "LENOX RD NE @ CANTERBURY RD", "mode": "bus"}}, {"type": "Feature", "geometry": {"type": "Point", "coordinates": [-84.354778, 33.827587]}, "properties": {"kind": "stop", "name": "LENOX RD NE @ CANTERBURY RD NE", "mode": "bus"}}, {"type": "Feature", "geometry": {"type": "Point", "coordinates": [-84.353918, 33.826674]}, "properties": {"kind": "stop", "name": "LENOX RD NE @ LENOX POINTE  NE", "mode": "bus"}}, {"type": "Feature", "geometry": {"type": "Point", "coordinates": [-84.351044, 33.823131]}, "properties": {"kind": "stop", "name": "CHANTILLY DR NE @ CHESHIRE BRIDGE RD NE", "mode": "bus"}}, {"type": "Feature", "geometry": {"type": "Point", "coordinates": [-84.354561, 33.827358]}, "properties": {"kind": "stop", "name": "LENOX RD NE @ CANTERBURY RD NE", "mode": "bus"}}, {"type": "Feature", "geometry": {"type": "Point", "coordinates": [-84.355568, 33.830471]}, "properties": {"kind": "stop", "name": "LENOX RD NE @ 2791", "mode": "bus"}}, {"type": "Feature", "geometry": {"type": "Point", "coordinates": [-84.357071, 33.833523]}, "properties": {"kind": "stop", "name": "LENOX RD NE @ LENOX WAY", "mode": "bus"}}, {"type": "Feature", "geometry": {"type": "Point", "coordinates": [-84.357658, 33.83543]}, "properties": {"kind": "stop", "name": "LENOX RD NE @ PLANTATION DR NE", "mode": "bus"}}, {"type": "Feature", "geometry": {"type": "Point", "coordinates": [-84.358014, 33.836581]}, "properties": {"kind": "stop", "name": "LENOX RD NE @ 3016", "mode": "bus"}}, {"type": "Feature", "geometry": {"type": "Point", "coordinates": [-84.358058, 33.839606]}, "properties": {"kind": "stop", "name": "LENOX RD NE @ CRANE RD NE", "mode": "bus"}}, {"type": "Feature", "geometry": {"type": "Point", "coordinates": [-84.358036, 33.841519]}, "properties": {"kind": "stop", "name": "LENOX RD NE @ CANTER RD NE", "mode": "bus"}}, {"type": "Feature", "geometry": {"type": "Point", "coordinates": [-84.366322, 33.82574]}, "properties": {"kind": "stop", "name": "SIDNEY MARCUS BLVD NE @ PIEDMONT RD NE", "mode": "bus"}}, {"type": "Feature", "geometry": {"type": "Point", "coordinates": [-84.354494, 33.825135]}, "properties": {"kind": "stop", "name": "BUFORD HWY NE @ LENOX POINTE", "mode": "bus"}}, {"type": "Feature", "geometry": {"type": "Point", "coordinates": [-84.356458, 33.831796]}, "properties": {"kind": "stop", "name": "LENOX RD NE @ VALE CLOSE", "mode": "bus"}}, {"type": "Feature", "geometry": {"type": "Point", "coordinates": [-84.35693, 33.832244]}, "properties": {"kind": "stop", "name": "LENOX RD NE @ VALE CLOSE", "mode": "bus"}}, {"type": "Feature", "geometry": {"type": "Point", "coordinates": [-84.353737, 33.826724]}, "properties": {"kind": "stop", "name": "LENOX RD NE @ LENOX POINTE  NE", "mode": "bus"}}, {"type": "Feature", "geometry": {"type": "Point", "coordinates": [-84.35553, 33.830299]}, "properties": {"kind": "stop", "name": "LENOX RD NE @ 2770", "mode": "bus"}}, {"type": "Feature", "geometry": {"type": "Point", "coordinates": [-84.375471, 33.840947]}, "properties": {"kind": "stop", "name": "PEACHTREE RD@3171", "mode": "bus"}}, {"type": "Feature", "geometry": {"type": "Point", "coordinates": [-84.35828, 33.843676]}, "properties": {"kind": "stop", "name": "LENOX RD NE @ FERNCLIFF RD NE", "mode": "bus"}}, {"type": "Feature", "geometry": {"type": "Point", "coordinates": [-84.36941, 33.821192]}, "properties": {"kind": "stop", "name": "LINDBERGH STATION - SOUTH LOOP/LINDBERGH DR", "mode": "bus"}}, {"type": "Feature", "geometry": {"type": "Point", "coordinates": [-84.36995, 33.823072]}, "properties": {"kind": "stop", "name": "LINDBERGH CENTER STATION - NORTH LOOP/MOROSGO DR", "mode": "bus"}}, {"type": "Feature", "geometry": {"type": "Point", "coordinates": [-84.392487, 33.81216]}, "properties": {"kind": "stop", "name": "PEACHTREE RD NW @ BENNETT ST NW", "mode": "bus"}}, {"type": "Feature", "geometry": {"type": "Point", "coordinates": [-84.392805, 33.810451]}, "properties": {"kind": "stop", "name": "PEACHTREE RD NW @ PEACHTREE VALLEY RD", "mode": "bus"}}, {"type": "Feature", "geometry": {"type": "Point", "coordinates": [-84.393872, 33.807977]}, "properties": {"kind": "stop", "name": "PEACHTREE RD NW @ BRIGHTON RD", "mode": "bus"}}, {"type": "Feature", "geometry": {"type": "Point", "coordinates": [-84.381379, 33.836966]}, "properties": {"kind": "stop", "name": "PEACHTREE RD @ PHARR RD NE", "mode": "bus"}}, {"type": "Feature", "geometry": {"type": "Point", "coordinates": [-84.393374, 33.808643]}, "properties": {"kind": "stop", "name": "PEACHTREE RD NW @ BRIGHTON RD NE", "mode": "bus"}}, {"type": "Feature", "geometry": {"type": "Point", "coordinates": [-84.392823, 33.809901]}, "properties": {"kind": "stop", "name": "PEACHTREE RD NW @ BROOKWOOD VALLEY CIR NE", "mode": "bus"}}, {"type": "Feature", "geometry": {"type": "Point", "coordinates": [-84.392485, 33.810714]}, "properties": {"kind": "stop", "name": "PEACHTREE RD NW @ PEACHTREE VALLEY RD", "mode": "bus"}}, {"type": "Feature", "geometry": {"type": "Point", "coordinates": [-84.392128, 33.81205]}, "properties": {"kind": "stop", "name": "PEACHTREE RD NW@PEACHTREE PARK DR N", "mode": "bus"}}, {"type": "Feature", "geometry": {"type": "Point", "coordinates": [-84.36676, 33.810954]}, "properties": {"kind": "stop", "name": "PIEDMONT RD NE @ PIEDMONT CIR NE", "mode": "bus"}}, {"type": "Feature", "geometry": {"type": "Point", "coordinates": [-84.367123, 33.818159]}, "properties": {"kind": "stop", "name": "PIEDMONT RD NE @ GARSON DR NE", "mode": "bus"}}, {"type": "Feature", "geometry": {"type": "Point", "coordinates": [-84.368044, 33.810461]}, "properties": {"kind": "stop", "name": "MONROE DR NE @ PIEDMONT CIR", "mode": "bus"}}, {"type": "Feature", "geometry": {"type": "Point", "coordinates": [-84.370383, 33.810693]}, "properties": {"kind": "stop", "name": "MONROE DR NE@MONROE PL NE", "mode": "bus"}}, {"type": "Feature", "geometry": {"type": "Point", "coordinates": [-84.375201, 33.808561]}, "properties": {"kind": "stop", "name": "MONROE DR NE@1942", "mode": "bus"}}, {"type": "Feature", "geometry": {"type": "Point", "coordinates": [-84.375277, 33.808149]}, "properties": {"kind": "stop", "name": "MONROE DR NE@1925", "mode": "bus"}}, {"type": "Feature", "geometry": {"type": "Point", "coordinates": [-84.373527, 33.810002]}, "properties": {"kind": "stop", "name": "MONROE DR NE@2075", "mode": "bus"}}, {"type": "Feature", "geometry": {"type": "Point", "coordinates": [-84.371427, 33.810549]}, "properties": {"kind": "stop", "name": "MONROE DR NE@ARMOUR DR NE", "mode": "bus"}}, {"type": "Feature", "geometry": {"type": "Point", "coordinates": [-84.370709, 33.810603]}, "properties": {"kind": "stop", "name": "MONROE DR NE@MONROE PL NE", "mode": "bus"}}, {"type": "Feature", "geometry": {"type": "Point", "coordinates": [-84.374821, 33.809127]}, "properties": {"kind": "stop", "name": "MONROE DR@2025", "mode": "bus"}}, {"type": "Feature", "geometry": {"type": "Point", "coordinates": [-84.374181, 33.812795]}, "properties": {"kind": "stop", "name": "ARMOUR DR @ ARMOUR CIR", "mode": "bus"}}, {"type": "Feature", "geometry": {"type": "Point", "coordinates": [-84.376988, 33.812408]}, "properties": {"kind": "stop", "name": "ARMOUR DR @ OTTLEY DR", "mode": "bus"}}, {"type": "Feature", "geometry": {"type": "Point", "coordinates": [-84.383438, 33.807061]}, "properties": {"kind": "stop", "name": "OTTLEY DR@125", "mode": "bus"}}, {"type": "Feature", "geometry": {"type": "Point", "coordinates": [-84.374127, 33.812705]}, "properties": {"kind": "stop", "name": "ARMOUR DR @ ARMOUR CIR", "mode": "bus"}}, {"type": "Feature", "geometry": {"type": "Point", "coordinates": [-84.369313, 33.823501]}, "properties": {"kind": "stop", "name": "LINDBERGH CENTER STATION", "mode": "bus"}}, {"type": "Feature", "geometry": {"type": "Point", "coordinates": [-84.369324, 33.823447]}, "properties": {"kind": "stop", "name": "LINDBERGH CENTER STATION", "mode": "bus"}}, {"type": "Feature", "geometry": {"type": "Point", "coordinates": [-84.367071, 33.821443]}, "properties": {"kind": "stop", "name": "LINDBERGH DR NE @ PIEDMONT RD NE", "mode": "bus"}}, {"type": "Feature", "geometry": {"type": "Point", "coordinates": [-84.364804, 33.820486]}, "properties": {"kind": "stop", "name": "LINDBERGH WAY NE @ W LINDMONT CT", "mode": "bus"}}, {"type": "Feature", "geometry": {"type": "Point", "coordinates": [-84.363316, 33.820585]}, "properties": {"kind": "stop", "name": "LINDBERGH DR NE @ ADINA DR NE", "mode": "bus"}}, {"type": "Feature", "geometry": {"type": "Point", "coordinates": [-84.365358, 33.820766]}, "properties": {"kind": "stop", "name": "LINDBERGH DR NE @ MOROSGO WAY", "mode": "bus"}}, {"type": "Feature", "geometry": {"type": "Point", "coordinates": [-84.368814, 33.845026]}, "properties": {"kind": "stop", "name": "PEACHTREE RD @ HIGHLAND DR", "mode": "bus"}}, {"type": "Feature", "geometry": {"type": "Point", "coordinates": [-84.381138, 33.808758]}, "properties": {"kind": "stop", "name": "OTTLEY DR @ 195", "mode": "bus"}}, {"type": "Feature", "geometry": {"type": "Point", "coordinates": [-84.381187, 33.810861]}, "properties": {"kind": "stop", "name": "ARMOUR DR @ 205", "mode": "bus"}}, {"type": "Feature", "geometry": {"type": "Point", "coordinates": [-84.350979, 33.82339]}, "properties": {"kind": "stop", "name": "CHANTILLY DR NE @ CHESHIRE BRIDGE RD", "mode": "bus"}}, {"type": "Feature", "geometry": {"type": "Point", "coordinates": [-84.376618, 33.812865]}, "properties": {"kind": "stop", "name": "ARMOUR DR @ 340", "mode": "bus"}}, {"type": "Feature", "geometry": {"type": "Point", "coordinates": [-84.385611, 33.80698]}, "properties": {"kind": "stop", "name": "CLAYTON DR NE @ ARMOUR DR NE", "mode": "bus"}}, {"type": "Feature", "geometry": {"type": "Point", "coordinates": [-84.378741, 33.811252]}, "properties": {"kind": "stop", "name": "OTTLEY DR @ 255", "mode": "bus"}}, {"type": "Feature", "geometry": {"type": "Point", "coordinates": [-84.366793, 33.811365]}, "properties": {"kind": "stop", "name": "PIEDMONT CIR @ PIEDMONT RD", "mode": "bus"}}, {"type": "Feature", "geometry": {"type": "Point", "coordinates": [-84.3515, 33.818647]}, "properties": {"kind": "stop", "name": "CHESHIRE BRIDGE RD @ LAVISTA RD", "mode": "bus"}}, {"type": "Feature", "geometry": {"type": "Point", "coordinates": [-84.351337, 33.820777]}, "properties": {"kind": "stop", "name": "CHESHIRE BRIDGE RD @ SHERIDAN RD", "mode": "bus"}}, {"type": "Feature", "geometry": {"type": "Point", "coordinates": [-84.35138, 33.820472]}, "properties": {"kind": "stop", "name": "CHESHIRE BRIDGE RD @ SHERIDAN RD", "mode": "bus"}}, {"type": "Feature", "geometry": {"type": "Point", "coordinates": [-84.351891, 33.817868]}, "properties": {"kind": "stop", "name": "CHESHIRE BRIDGE RD @ LAVISTA RD", "mode": "bus"}}, {"type": "Feature", "geometry": {"type": "Point", "coordinates": [-84.366462, 33.814804]}, "properties": {"kind": "stop", "name": "PIEDMONT RD @ 2135", "mode": "bus"}}, {"type": "Feature", "geometry": {"type": "Point", "coordinates": [-84.372031, 33.812043]}, "properties": {"kind": "stop", "name": "ARMOUR DR NE @ PLASTERS AVE NE", "mode": "bus"}}, {"type": "Feature", "geometry": {"type": "Point", "coordinates": [-84.351488, 33.82264]}, "properties": {"kind": "stop", "name": "CHESHIRE BRIDGE RD @ CHANTILLY DR", "mode": "bus"}}, {"type": "Feature", "geometry": {"type": "Point", "coordinates": [-84.369357, 33.823385]}, "properties": {"kind": "stop", "name": "LINDBERGH CENTER STATION", "mode": "bus"}}, {"type": "Feature", "geometry": {"type": "Point", "coordinates": [-84.369324, 33.823492]}, "properties": {"kind": "stop", "name": "LINDBERGH CENTER STATION", "mode": "bus"}}, {"type": "Feature", "geometry": {"type": "Point", "coordinates": [-84.358387, 33.845307]}, "properties": {"kind": "stop", "name": "LENOX STATION", "mode": "bus"}}, {"type": "Feature", "geometry": {"type": "Point", "coordinates": [-84.367629, 33.84781]}, "properties": {"kind": "stop", "name": "BUCKHEAD STATION", "mode": "bus"}}, {"type": "Feature", "geometry": {"type": "Point", "coordinates": [-84.367716, 33.847944]}, "properties": {"kind": "stop", "name": "BUCKHEAD STATION", "mode": "bus"}}, {"type": "Feature", "geometry": {"type": "Point", "coordinates": [-84.358235, 33.845388]}, "properties": {"kind": "stop", "name": "LENOX STATION", "mode": "bus"}}, {"type": "Feature", "geometry": {"type": "Point", "coordinates": [-84.369313, 33.823501]}, "properties": {"kind": "stop", "name": "LINDBERGH CENTER STATION", "mode": "bus"}}, {"type": "Feature", "geometry": {"type": "Point", "coordinates": [-84.369324, 33.823447]}, "properties": {"kind": "stop", "name": "LINDBERGH CENTER STATION", "mode": "bus"}}], "properties": {"coverage_pct": 78.2, "rail_coverage_pct": 20.8, "stop_count": 216, "rail_stop_count": 3, "bus_stop_count": 213, "transit_index": 40, "weights": {"rail": 2.0, "bus": 1.0}}}