{"type": "FeatureCollection", "features": [{"type": "Feature", "geometry": {"type": "LineString", "coordinates": [[-84.4405304, 33.7777425], [-84.4406266, 33.7778269], [-84.4407718, 33.7779586], [-84.440877, 33.7780598], [-84.440951, 33.7781547], [-84.4410084, 33.7782818], [-84.4410686, 33.7784646], [-84.4411281, 33.7786751], [-84.4411903, 33.7789442], [-84.441272, 33.7793518], [-84.44132, 33.779631], [-84.441362, 33.779914], [-84.4413882, 33.7801924], [-84.4414, 33.7804328], [-84.441411, 33.7805846], [-84.4414221, 33.780672], [-84.4414318, 33.7807962], [-84.4414235, 33.7809273], [-84.4414096, 33.7810262], [-84.4414083, 33.781167], [-84.4414138, 33.7813844], [-84.4414262, 33.7814787], [-84.4414442, 33.7815799], [-84.4414442, 33.7816397], [-84.4414276, 33.7817156], [-84.4413835, 33.7818083]]}, "properties": {"surface": "", "highway": "pedestrian"}}, {"type": "Feature", "geometry": {"type": "LineString", "coordinates": [[-84.4350266, 33.7832689], [-84.434706, 33.783294], [-84.4339013, 33.7834366], [-84.4334052, 33.7836487], [-84.4330611, 33.7839292], [-84.4330301, 33.7849951], [-84.4330235, 33.7852213], [-84.4329881, 33.7864364]]}, "properties": {"surface": "", "highway": "unclassified"}}, {"type": "Feature", "geometry": {"type": "LineString", "coordinates": [[-84.469513, 33.760225], [-84.4695216, 33.7602762], [-84.4695461, 33.7604228], [-84.469747, 33.761625], [-84.4697584, 33.7616956], [-84.4697863, 33.7618675]]}, "properties": {"surface": "asphalt", "highway": "secondary"}}, {"type": "Feature", "geometry": {"type": "LineString", "coordinates": [[-84.471944, 33.769137], [-84.4719166, 33.7691084], [-84.471201, 33.76836], [-84.4709496, 33.7680819], [-84.470598, 33.767693], [-84.4704947, 33.7675098], [-84.470425, 33.767386], [-84.470303, 33.767128], [-84.470202, 33.766858], [-84.470118, 33.766561], [-84.470064, 33.766274], [-84.470035, 33.765992], [-84.470016, 33.765201], [-84.4700291, 33.763982]]}, "properties": {"surface": "asphalt", "highway": "secondary"}}, {"type": "Feature", "geometry": {"type": "LineString", "coordinates": [[-84.4282091, 33.7635757], [-84.4282272, 33.7635782], [-84.4282885, 33.7636019], [-84.4287788, 33.7636174], [-84.4288775, 33.7636181], [-84.4291011, 33.7636197], [-84.4291649, 33.7636202], [-84.4293304, 33.7636214], [-84.4294008, 33.7636087], [-84.4294343, 33.7636013], [-84.4294785, 33.7635915], [-84.4295876, 33.7635936], [-84.4298827, 33.7635991], [-84.4303474, 33.7636027], [-84.4308445, 33.7635964], [-84.4313781, 33.7635896], [-84.4317426, 33.7635959], [-84.4319418, 33.7636005], [-84.4321806, 33.7635996], [-84.4329341, 33.7635967], [-84.4331071, 33.7635984], [-84.4334673, 33.7636019], [-84.4337705, 33.7636049], [-84.4344873, 33.7636119], [-84.4362836, 33.7636294], [-84.4367352, 33.763634], [-84.437692, 33.7636439], [-84.4377742, 33.7636429], [-84.4391611, 33.7636253], [-84.4396361, 33.7636439], [-84.4405877, 33.763644], [-84.4408698, 33.7636441], [-84.4409823, 33.7636441], [-84.4410276, 33.7636441], [-84.4411299, 33.7636463], [-84.4412167, 33.7636481], [-84.442043, 33.7636501], [-84.4430166, 33.7636574], [-84.4431537, 33.7636646], [-84.4432135, 33.7636677], [-84.4435473, 33.7636851], [-84.4438391, 33.7637813], [-84.4442629, 33.7640624], [-84.4444713, 33.7642453], [-84.4446658, 33.7643589], [-84.4449066, 33.7644282], [-84.4451729, 33.7644859], [-84.4453651, 33.7644628], [-84.4456337, 33.7643569], [-84.4464095, 33.7638372], [-84.4467545, 33.7637467], [-84.4470555, 33.7637005], [-84.4473679, 33.763689], [-84.4480964, 33.7637], [-84.4484227, 33.7637049], [-84.4485121, 33.7637062], [-84.4490655, 33.7637236], [-84.4492477, 33.763789], [-84.4494708, 33.7639238], [-84.4496861, 33.7641144], [-84.4498969, 33.7643858], [-84.4501168, 33.7646457], [-84.4501389, 33.7646574], [-84.4503137, 33.7647496], [-84.4504873, 33.7648132], [-84.4506605, 33.7648463], [-84.450749, 33.7648632], [-84.4510802, 33.7648478], [-84.4513527, 33.7647561], [-84.4514576, 33.7647208], [-84.4515498, 33.7646765], [-84.4517007, 33.7646054], [-84.4518026, 33.7645571], [-84.4518531, 33.7645363], [-84.451967, 33.7644493], [-84.4528563, 33.7640006], [-84.4532441, 33.7638193], [-84.4536482, 33.7637082], [-84.4537758, 33.7636966], [-84.4538613, 33.7636889], [-84.4544564, 33.7636831], [-84.4558823, 33.7636776], [-84.4559316, 33.7636774], [-84.4560403, 33.7636774], [-84.4561764, 33.7636887], [-84.4564446, 33.763711], [-84.4566192, 33.7637255], [-84.4568878, 33.7638198], [-84.4574853, 33.7644744], [-84.4575479, 33.7645489], [-84.4576844, 33.7646919]]}, "properties": {"surface": "concrete", "highway": "footway"}}, {"type": "Feature", "geometry": {"type": "LineString", "coordinates": [[-84.4552808, 33.7635696], [-84.4546893, 33.7635683], [-84.4542942, 33.7635674], [-84.454122, 33.763567], [-84.4540442, 33.7635734], [-84.4537776, 33.7635885], [-84.4537385, 33.7635907], [-84.4536667, 33.7635638], [-84.4531897, 33.7633289]]}, "properties": {"surface": "", "highway": "footway"}}, {"type": "Feature", "geometry": {"type": "LineString", "coordinates": [[-84.4537776, 33.7635885], [-84.4537763, 33.7636416], [-84.4537758, 33.7636966]]}, "properties": {"surface": "", "highway": "footway"}}, {"type": "Feature", "geometry": {"type": "LineString", "coordinates": [[-84.4413289, 33.7635234], [-84.4410957, 33.7635189], [-84.4410284, 33.7635176], [-84.440969, 33.7635173], [-84.4407672, 33.7635166], [-84.4403649, 33.7635152], [-84.4399569, 33.7635138], [-84.4394364, 33.7635117], [-84.439159, 33.7635082], [-84.4391429, 33.763508], [-84.4377816, 33.7635044], [-84.4376946, 33.7635042], [-84.4372332, 33.7635043], [-84.4364805, 33.7635036], [-84.433788, 33.7635038], [-84.4332354, 33.7634912], [-84.4329943, 33.7634857], [-84.4314155, 33.7634926], [-84.4310604, 33.7634824], [-84.4302292, 33.7634778], [-84.4293768, 33.7634801], [-84.4292973, 33.7634803], [-84.4292301, 33.7634797], [-84.4285502, 33.7634743]]}, "properties": {"surface": "", "highway": "footway"}}, {"type": "Feature", "geometry": {"type": "LineString", "coordinates": [[-84.4411299, 33.7636463], [-84.441109, 33.7635795], [-84.4410957, 33.7635189]]}, "properties": {"surface": "", "highway": "footway"}}, {"type": "Feature", "geometry": {"type": "LineString", "coordinates": [[-84.440969, 33.7635173], [-84.4409838, 33.7635789], [-84.4409823, 33.7636441]]}, "properties": {"surface": "", "highway": "footway"}}, {"type": "Feature", "geometry": {"type": "LineString", "coordinates": [[-84.4377742, 33.7636429], [-84.4377771, 33.7635683], [-84.4377816, 33.7635044], [-84.437798, 33.7626669], [-84.4378129, 33.762097], [-84.4378353, 33.7609969], [-84.4378727, 33.759304]]}, "properties": {"surface": "", "highway": "footway"}}, {"type": "Feature", "geometry": {"type": "LineString", "coordinates": [[-84.4711842, 33.7751437], [-84.4711453, 33.7751672], [-84.4709198, 33.7751704], [-84.4705359, 33.7751505], [-84.470292, 33.7751754], [-84.4695783, 33.7753383], [-84.4691871, 33.7754202], [-84.4689266, 33.7754912], [-84.4680144, 33.7756829], [-84.4672912, 33.7758102], [-84.4667356, 33.7759586], [-84.4663716, 33.776079], [-84.4649581, 33.7765757], [-84.4642654, 33.7768191], [-84.4636829, 33.7770238], [-84.4632648, 33.7771579], [-84.4630109, 33.7772044], [-84.462783, 33.7772211], [-84.462571, 33.7772045], [-84.4622325, 33.7771586], [-84.4612464, 33.7770093], [-84.4610199, 33.776975], [-84.4589771, 33.7766494], [-84.4587942, 33.776622], [-84.4586054, 33.7765949], [-84.4583137, 33.7765499], [-84.4582093, 33.7764984], [-84.4580567, 33.7764556], [-84.4577808, 33.7764349], [-84.4576927, 33.7764578], [-84.4576255, 33.7764752], [-84.4573633, 33.7764811], [-84.4571849, 33.7764813], [-84.4566463, 33.7764932], [-84.4557389, 33.7765115], [-84.4552094, 33.7765355], [-84.4540532, 33.7765879], [-84.4538148, 33.7766015], [-84.4536317, 33.7766078], [-84.4534242, 33.7766175], [-84.4528768, 33.7766433], [-84.4528009, 33.7766469], [-84.4526531, 33.7766539], [-84.4523981, 33.7766659], [-84.4522194, 33.7766743], [-84.4508824, 33.7767245], [-84.4507932, 33.7767366], [-84.4504122, 33.7767366], [-84.4502289, 33.7767219], [-84.4501726, 33.7767174], [-84.4500482, 33.7766964], [-84.4499589, 33.7766814], [-84.4497829, 33.7766094], [-84.4497572, 33.7765931], [-84.4496125, 33.7765014], [-84.4495018, 33.7764139], [-84.4491992, 33.7761748], [-84.4488499, 33.7758987], [-84.4486793, 33.7757639], [-84.4484637, 33.7755993], [-84.4479383, 33.7751553], [-84.4474677, 33.7748194], [-84.4474107, 33.7747829], [-84.4472166, 33.7746754], [-84.446925, 33.7745291], [-84.4465584, 33.7743851], [-84.4463044, 33.7743011], [-84.4460047, 33.7742243], [-84.4458054, 33.7741859], [-84.44516, 33.7740834], [-84.4446907, 33.7740084], [-84.4442952, 33.7739292], [-84.4439319, 33.7737728], [-84.4425683, 33.7730525], [-84.4425321, 33.772988], [-84.4424307, 33.7729226], [-84.442196, 33.7727921], [-84.4421092, 33.7727584], [-84.4420785, 33.7727434], [-84.4419683, 33.7726895], [-84.4419358, 33.77268], [-84.4418503, 33.7726551], [-84.4411205, 33.7723005], [-84.4409304, 33.7722305], [-84.4408026, 33.7721415], [-84.44068, 33.7720572], [-84.4401761, 33.771856], [-84.4401071, 33.7718416], [-84.4398016, 33.7717182], [-84.4394719, 33.7716508], [-84.4393723, 33.7716404], [-84.4386951, 33.7715701], [-84.4381819, 33.7715128], [-84.4376157, 33.7714496], [-84.4362668, 33.7713122], [-84.4359783, 33.7712644], [-84.4358163, 33.7712491], [-84.4352484, 33.7712175], [-84.4348273, 33.7712089], [-84.434413, 33.7712141]]}, "properties": {"surface": "", "highway": "footway"}}, {"type": "Feature", "geometry": {"type": "LineString", "coordinates": [[-84.432348, 33.7657764], [-84.432286, 33.7657809], [-84.4322342, 33.7657822]]}, "properties": {"surface": "", "highway": "footway"}}, {"type": "Feature", "geometry": {"type": "LineString", "coordinates": [[-84.4736547, 33.776347], [-84.4736407, 33.7763204], [-84.4736108, 33.7762978], [-84.4736003, 33.7762919], [-84.4733996, 33.7761798], [-84.4730448, 33.7760179], [-84.4729061, 33.7759391], [-84.4727308, 33.775858], [-84.4725222, 33.7757611], [-84.4722933, 33.7757267], [-84.4719365, 33.7756004], [-84.471878, 33.7755481], [-84.4718157, 33.7755116], [-84.4716408, 33.7754616], [-84.471346, 33.7753855], [-84.4711342, 33.7753291], [-84.4709534, 33.7752877], [-84.4706714, 33.7752759], [-84.470438, 33.7752801], [-84.4702001, 33.7753117], [-84.4697452, 33.7754239], [-84.4692381, 33.7755505], [-84.4691048, 33.7755903], [-84.4688965, 33.7756415], [-84.46838, 33.7757526], [-84.4681773, 33.7757937], [-84.4679934, 33.775823], [-84.4674304, 33.7759349], [-84.4669814, 33.7760163], [-84.4665735, 33.7761509], [-84.4663009, 33.7762408], [-84.4659594, 33.7763603], [-84.46538, 33.776548], [-84.465364, 33.7765846], [-84.465364, 33.7766095], [-84.4653032, 33.7766226], [-84.4651601, 33.776666], [-84.4648762, 33.7767707], [-84.4646903, 33.7767973], [-84.4638347, 33.7771026], [-84.4632588, 33.7772908], [-84.4632053, 33.7772991], [-84.4630689, 33.7773257], [-84.4628686, 33.7773424], [-84.4625931, 33.7773307], [-84.4623191, 33.7773059], [-84.4621573, 33.7772776], [-84.4609566, 33.7770882], [-84.4605302, 33.7770194], [-84.4595052, 33.7768601], [-84.457965, 33.7766378], [-84.457799, 33.7766112], [-84.4572912, 33.7766112], [-84.4573352, 33.7765537], [-84.4573633, 33.7764811]]}, "properties": {"surface": "", "highway": "footway"}}, {"type": "Feature", "geometry": {"type": "LineString", "coordinates": [[-84.4572912, 33.7766112], [-84.4571853, 33.7766078], [-84.4564545, 33.7766261], [-84.4559858, 33.7766444], [-84.4542505, 33.7767026], [-84.4530749, 33.7767707], [-84.4529535, 33.7767592], [-84.4526619, 33.7767773], [-84.4524727, 33.7767892], [-84.4519231, 33.7768204], [-84.4514756, 33.7768239], [-84.4514276, 33.7768638], [-84.4513712, 33.7768721], [-84.4510437, 33.7768821], [-84.4508558, 33.7768488], [-84.4507622, 33.77685], [-84.450464, 33.7768538], [-84.4502541, 33.7768505], [-84.4502042, 33.7768488], [-84.4501541, 33.7768472], [-84.4501181, 33.7768704], [-84.4501121, 33.7769037], [-84.4501421, 33.7769386], [-84.450426, 33.777123], [-84.4507076, 33.7773044], [-84.4507639, 33.7773407], [-84.4510296, 33.7774468], [-84.4512177, 33.7775351], [-84.4515301, 33.7776202], [-84.4524052, 33.7778076], [-84.452957, 33.7780253], [-84.4530571, 33.7780794], [-84.4533108, 33.7782164], [-84.4539543, 33.7784765], [-84.4545563, 33.778931], [-84.4549522, 33.7791836], [-84.4550741, 33.7792999], [-84.4551941, 33.7794378], [-84.455322, 33.7796488], [-84.455426, 33.7798416], [-84.4554497, 33.779914], [-84.4556679, 33.780581]]}, "properties": {"surface": "", "highway": "footway"}}, {"type": "Feature", "geometry": {"type": "LineString", "coordinates": [[-84.4554497, 33.779914], [-84.4553362, 33.7799135], [-84.4552541, 33.779913], [-84.4553, 33.7800842]]}, "properties": {"surface": "", "highway": "footway"}}, {"type": "Feature", "geometry": {"type": "LineString", "coordinates": [[-84.4502042, 33.7768488], [-84.4502203, 33.7767809], [-84.4502289, 33.7767219]]}, "properties": {"surface": "asphalt", "highway": "footway"}}, {"type": "Feature", "geometry": {"type": "LineString", "coordinates": [[-84.4501421, 33.7769386], [-84.4500959, 33.7769784], [-84.4500521, 33.7770283], [-84.4491365, 33.776332], [-84.449082, 33.776281], [-84.4489672, 33.7761951], [-84.4485608, 33.7758634], [-84.4474232, 33.7749876], [-84.4473695, 33.7749535], [-84.4471473, 33.7748132], [-84.4468294, 33.7746669], [-84.4462697, 33.7744609], [-84.4460047, 33.774401], [-84.4457759, 33.7743528], [-84.4457195, 33.7743413], [-84.445504, 33.7742814], [-84.4449722, 33.7741999], [-84.4446407, 33.7741395], [-84.4443767, 33.7740964], [-84.4442305, 33.7740454], [-84.4439126, 33.773944], [-84.4438104, 33.7738934], [-84.4437247, 33.773851], [-84.44325, 33.773593], [-84.4429821, 33.7734546], [-84.442971, 33.7734488], [-84.4426311, 33.7732577], [-84.4423831, 33.7731198], [-84.4420997, 33.772963], [-84.4420134, 33.7729154], [-84.4419655, 33.7729021], [-84.4418494, 33.7728406], [-84.4419191, 33.7727778], [-84.4419358, 33.77268]]}, "properties": {"surface": "concrete", "highway": "footway"}}, {"type": "Feature", "geometry": {"type": "LineString", "coordinates": [[-84.4420134, 33.7729154], [-84.4420396, 33.7728405], [-84.4420785, 33.7727434], [-84.442069, 33.772693], [-84.4420633, 33.7725695], [-84.4420656, 33.7725129], [-84.4420646, 33.7717179], [-84.4420622, 33.7716255], [-84.4420617, 33.7716097], [-84.4420721, 33.7714074], [-84.4420151, 33.7710415], [-84.4419288, 33.7706613]]}, "properties": {"surface": "", "highway": "footway"}}, {"type": "Feature", "geometry": {"type": "LineString", "coordinates": [[-84.441924, 33.7712442], [-84.4419396, 33.7713725], [-84.4419407, 33.7714823], [-84.4419445, 33.7716255], [-84.441954, 33.7719846], [-84.4419358, 33.77268]]}, "properties": {"surface": "", "highway": "footway"}}, {"type": "Feature", "geometry": {"type": "LineString", "coordinates": [[-84.4420622, 33.7716255], [-84.4419969, 33.7716273], [-84.4419445, 33.7716255]]}, "properties": {"surface": "", "highway": "footway"}}, {"type": "Feature", "geometry": {"type": "LineString", "coordinates": [[-84.4418494, 33.7728406], [-84.441643, 33.7727407], [-84.4411767, 33.7725227], [-84.440546, 33.772235], [-84.4399037, 33.7719209], [-84.4397516, 33.7718627], [-84.4396128, 33.7718267], [-84.4393884, 33.7717889], [-84.4391429, 33.7717593], [-84.4381963, 33.7716627], [-84.4381106, 33.7716539], [-84.4372159, 33.7715498], [-84.4363216, 33.7714539], [-84.4361318, 33.7714351], [-84.4359438, 33.7714093], [-84.4355158, 33.7713648], [-84.4352362, 33.7713433], [-84.4341885, 33.7713476], [-84.4340523, 33.7713667]]}, "properties": {"surface": "concrete", "highway": "footway"}}, {"type": "Feature", "geometry": {"type": "LineString", "coordinates": [[-84.4380966, 33.7726406], [-84.4381242, 33.7724917], [-84.4381304, 33.7723751], [-84.4381433, 33.7721342], [-84.4381789, 33.7716799], [-84.4381963, 33.7716627], [-84.4381856, 33.7715875], [-84.4381819, 33.7715128]]}, "properties": {"surface": "", "highway": "footway"}}, {"type": "Feature", "geometry": {"type": "LineString", "coordinates": [[-84.4268054, 33.771847], [-84.4267701, 33.7718569], [-84.4267443, 33.7718641], [-84.4265337, 33.7719387], [-84.4262714, 33.7720478], [-84.4259797, 33.7721841], [-84.4252082, 33.7725499], [-84.4251436, 33.7725819], [-84.4251184, 33.7725944], [-84.4250649, 33.7725915], [-84.4250183, 33.7725054], [-84.4249648, 33.7723634], [-84.4249545, 33.7722515], [-84.4249855, 33.7721152], [-84.4250183, 33.7720306], [-84.4251081, 33.7718971]]}, "properties": {"surface": "concrete", "highway": "footway"}}, {"type": "Feature", "geometry": {"type": "LineString", "coordinates": [[-84.4253048, 33.7729029], [-84.4253068, 33.7728757], [-84.4253083, 33.772857], [-84.4253359, 33.7728254], [-84.425353, 33.7728167], [-84.4254377, 33.7727737], [-84.4260884, 33.7724552], [-84.4263956, 33.7723204], [-84.4267374, 33.7721669], [-84.4269566, 33.7720808], [-84.4272034, 33.7720219], [-84.4274226, 33.7719861], [-84.4276384, 33.7719746], [-84.4279111, 33.7719746], [-84.4280025, 33.7719961], [-84.4280353, 33.7720406], [-84.4280612, 33.772108], [-84.4281346, 33.7728291], [-84.4281201, 33.772875], [-84.4281004, 33.7728895], [-84.4277254, 33.7729134], [-84.4268768, 33.7729766]]}, "properties": {"surface": "concrete", "highway": "footway"}}, {"type": "Feature", "geometry": {"type": "LineString", "coordinates": [[-84.4282927, 33.7726437], [-84.4282373, 33.7721941], [-84.4282459, 33.772131], [-84.4282891, 33.772075], [-84.4283201, 33.7720449], [-84.4283443, 33.7720306], [-84.4284375, 33.7719947], [-84.4292435, 33.7720062], [-84.4293229, 33.7720076], [-84.4293813, 33.7720267], [-84.4294075, 33.7720406], [-84.4294334, 33.7720822], [-84.429442, 33.7720994]]}, "properties": {"surface": "", "highway": "footway"}}, {"type": "Feature", "geometry": {"type": "LineString", "coordinates": [[-84.4300306, 33.7719976], [-84.4304517, 33.7719775], [-84.430828, 33.7719416], [-84.4312785, 33.7718727], [-84.4314021, 33.7718542], [-84.4315287, 33.7718353], [-84.4316669, 33.7718075], [-84.4321121, 33.7717178], [-84.4322925, 33.7716845], [-84.432392, 33.7716661], [-84.4325195, 33.7716331], [-84.4337466, 33.7713978], [-84.4338814, 33.7713868]]}, "properties": {"surface": "concrete", "highway": "footway"}}, {"type": "Feature", "geometry": {"type": "LineString", "coordinates": [[-84.4267701, 33.7718569], [-84.4268047, 33.7717881], [-84.4268116, 33.7712744]]}, "properties": {"surface": "", "highway": "footway"}}, {"type": "Feature", "geometry": {"type": "LineString", "coordinates": [[-84.4340299, 33.771219], [-84.4340297, 33.7709518], [-84.4340367, 33.7705142], [-84.4340428, 33.7698755], [-84.4340344, 33.7695804], [-84.4340206, 33.7694365], [-84.4339956, 33.7693467], [-84.4334127, 33.7686354], [-84.4331691, 33.7682648], [-84.4329988, 33.7678978], [-84.4327537, 33.7673003], [-84.4325943, 33.7668381], [-84.4324214, 33.7661585], [-84.4323591, 33.7659145], [-84.4323494, 33.7658178], [-84.432348, 33.7657764], [-84.4323315, 33.7652871], [-84.4323245, 33.7650271]]}, "properties": {"surface": "", "highway": "footway"}}, {"type": "Feature", "geometry": {"type": "LineString", "coordinates": [[-84.4338659, 33.7712218], [-84.4338685, 33.7713131], [-84.4338814, 33.7713868], [-84.4339616, 33.7713796], [-84.4340523, 33.7713667], [-84.4340404, 33.7712977], [-84.4340299, 33.771219]]}, "properties": {"surface": "asphalt", "highway": "footway"}}, {"type": "Feature", "geometry": {"type": "LineString", "coordinates": [[-84.4340299, 33.771219], [-84.4339641, 33.7712208], [-84.4338659, 33.7712218]]}, "properties": {"surface": "", "highway": "footway"}}, {"type": "Feature", "geometry": {"type": "LineString", "coordinates": [[-84.4295769, 33.7720293], [-84.4296612, 33.7720291], [-84.4297372, 33.7720105], [-84.429801, 33.7720076], [-84.4299104, 33.7720047]]}, "properties": {"surface": "", "highway": "footway"}}, {"type": "Feature", "geometry": {"type": "LineString", "coordinates": [[-84.4299104, 33.7720047], [-84.4300306, 33.7719976]]}, "properties": {"surface": "", "highway": "footway"}}, {"type": "Feature", "geometry": {"type": "LineString", "coordinates": [[-84.4379895, 33.7814534], [-84.4378733, 33.781466], [-84.4377253, 33.7814591], [-84.4376008, 33.781458], [-84.4374486, 33.7814821], [-84.4372466, 33.7815373], [-84.4370584, 33.7816144], [-84.4369173, 33.781665], [-84.4367817, 33.7816926], [-84.4366212, 33.7817064], [-84.4364732, 33.7817029], [-84.4363016, 33.7816776], [-84.4361494, 33.7816661], [-84.4359696, 33.7816673], [-84.4357482, 33.7816857], [-84.4356278, 33.7816937], [-84.4355504, 33.7816799], [-84.4355033, 33.7816592], [-84.4354106, 33.7815753], [-84.4353691, 33.7814879], [-84.4353345, 33.7813867]]}, "properties": {"surface": "", "highway": "path"}}, {"type": "Feature", "geometry": {"type": "LineString", "coordinates": [[-84.4581625, 33.7794651], [-84.458412, 33.7794455], [-84.4586114, 33.7794298], [-84.4586333, 33.7794241], [-84.4586482, 33.7794136], [-84.4586459, 33.7794002], [-84.4586287, 33.779384], [-84.4586011, 33.7793792], [-84.4585448, 33.7793735], [-84.4584955, 33.7793649], [-84.4584737, 33.7793516], [-84.4584495, 33.779322], [-84.4584277, 33.7792523], [-84.4584072, 33.7792532], [-84.4581866, 33.7792628]]}, "properties": {"surface": "", "highway": "footway"}}, {"type": "Feature", "geometry": {"type": "LineString", "coordinates": [[-84.4584128, 33.7794795], [-84.458412, 33.7794455], [-84.4584072, 33.7792532]]}, "properties": {"surface": "", "highway": "footway"}}, {"type": "Feature", "geometry": {"type": "LineString", "coordinates": [[-84.4584277, 33.7792523], [-84.4584633, 33.779237]]}, "properties": {"surface": "", "highway": "footway"}}, {"type": "Feature", "geometry": {"type": "LineString", "coordinates": [[-84.434413, 33.7712141], [-84.4341546, 33.7712174], [-84.4340299, 33.771219]]}, "properties": {"surface": "", "highway": "footway"}}, {"type": "Feature", "geometry": {"type": "LineString", "coordinates": [[-84.4459546, 33.7509285], [-84.4458753, 33.750871], [-84.4457976, 33.7508545], [-84.4457084, 33.7508521], [-84.4456192, 33.7508629], [-84.4455258, 33.7508742], [-84.4450464, 33.7509495], [-84.4443932, 33.7511277], [-84.4442593, 33.751155], [-84.4442146, 33.7511753], [-84.4442004, 33.7512192], [-84.4442055, 33.7514626]]}, "properties": {"surface": "", "highway": "footway"}}, {"type": "Feature", "geometry": {"type": "LineString", "coordinates": [[-84.4462097, 33.7510299], [-84.4461808, 33.7518672], [-84.4462085, 33.751898], [-84.4462932, 33.75193]]}, "properties": {"surface": "", "highway": "footway"}}, {"type": "Feature", "geometry": {"type": "LineString", "coordinates": [[-84.4459546, 33.7509285], [-84.4460036, 33.7509796], [-84.4460267, 33.7510603], [-84.4460019, 33.7519794], [-84.4459898, 33.7524283], [-84.4459728, 33.7524859], [-84.4459427, 33.7525249]]}, "properties": {"surface": "", "highway": "footway"}}, {"type": "Feature", "geometry": {"type": "LineString", "coordinates": [[-84.4451137, 33.7506482], [-84.4450674, 33.7506953], [-84.4444246, 33.7508405], [-84.4443275, 33.7508651], [-84.4443185, 33.7508631], [-84.4443047, 33.75086], [-84.4442828, 33.7508435]]}, "properties": {"surface": "", "highway": "footway"}}, {"type": "Feature", "geometry": {"type": "LineString", "coordinates": [[-84.4443363, 33.7538709], [-84.4443325, 33.7539103], [-84.4442024, 33.7544778], [-84.4441206, 33.7548937], [-84.4440911, 33.7550543], [-84.4440589, 33.7554802], [-84.4440938, 33.7556954], [-84.4441444, 33.7559995], [-84.4442024, 33.7563477], [-84.4442615, 33.756932], [-84.4442619, 33.7569862], [-84.4442641, 33.7572799], [-84.444232, 33.7577805], [-84.4442105, 33.7579266], [-84.444177, 33.7580213], [-84.4436714, 33.7593437], [-84.4436566, 33.7593582], [-84.443611, 33.7593493], [-84.4423584, 33.7590137], [-84.4422994, 33.7589958]]}, "properties": {"surface": "", "highway": "footway"}}, {"type": "Feature", "geometry": {"type": "LineString", "coordinates": [[-84.4422994, 33.7589958], [-84.4423061, 33.7589824], [-84.4426548, 33.7588341], [-84.4426575, 33.7587762], [-84.442628, 33.7587204], [-84.4425529, 33.7586636], [-84.4421599, 33.7588386], [-84.4420862, 33.7588197], [-84.4420325, 33.7588185], [-84.4419816, 33.7588319], [-84.4419279, 33.7588609], [-84.4418917, 33.7588999], [-84.4418837, 33.7589155], [-84.4414961, 33.7589401], [-84.4414894, 33.7589902], [-84.4414438, 33.7590505], [-84.4414813, 33.7591129], [-84.4418971, 33.7590884], [-84.4419548, 33.7591374], [-84.4420339, 33.7591608], [-84.4421371, 33.759153], [-84.4422029, 33.7591174], [-84.4422471, 33.7590973], [-84.4427018, 33.759211], [-84.4427219, 33.7592422], [-84.4427138, 33.7592779], [-84.4430625, 33.7593548], [-84.4431121, 33.7593348], [-84.443611, 33.759444], [-84.4436271, 33.7594585], [-84.4436137, 33.7595009], [-84.4434313, 33.7599837], [-84.4433173, 33.7601866], [-84.4432141, 33.7603304], [-84.443096, 33.7604598], [-84.4430543, 33.7604904], [-84.4425878, 33.7608322], [-84.4417455, 33.7614944], [-84.4417268, 33.7615045], [-84.4414854, 33.7611834]]}, "properties": {"surface": "", "highway": "footway"}}, {"type": "Feature", "geometry": {"type": "LineString", "coordinates": [[-84.4443447, 33.7537847], [-84.4443363, 33.7538709]]}, "properties": {"surface": "", "highway": "footway"}}, {"type": "Feature", "geometry": {"type": "LineString", "coordinates": [[-84.4443494, 33.7537029], [-84.4443473, 33.7537575], [-84.4443447, 33.7537847]]}, "properties": {"surface": "", "highway": "footway"}}, {"type": "Feature", "geometry": {"type": "LineString", "coordinates": [[-84.4712838, 33.7752273], [-84.4717006, 33.7753439], [-84.4721233, 33.7754622], [-84.4723703, 33.7755593], [-84.4724196, 33.7755816], [-84.4729151, 33.7758052], [-84.4730994, 33.7758978], [-84.4732749, 33.775986], [-84.4734621, 33.7760857], [-84.4735889, 33.7761532], [-84.4736057, 33.7761524], [-84.4736225, 33.7761515], [-84.4736519, 33.7761363], [-84.4736662, 33.7761152], [-84.4736585, 33.7759028], [-84.4736235, 33.7749274], [-84.4736092, 33.774826]]}, "properties": {"surface": "", "highway": "footway"}}, {"type": "Feature", "geometry": {"type": "LineString", "coordinates": [[-84.4736547, 33.776347], [-84.4736567, 33.776376], [-84.4736606, 33.7764337], [-84.4736628, 33.7764665], [-84.4737106, 33.7767369], [-84.4737515, 33.776885], [-84.4737706, 33.776954], [-84.473858, 33.7771914], [-84.4739738, 33.7774271], [-84.4740989, 33.7776459], [-84.4741822, 33.7777532], [-84.4741813, 33.7777685], [-84.474172, 33.7778529], [-84.4741578, 33.7780041], [-84.4742015, 33.778157], [-84.474356, 33.7785262], [-84.4744586, 33.7786732], [-84.474668, 33.7788759], [-84.4747097, 33.7789275], [-84.4747107, 33.7789503], [-84.4746822, 33.7789621]]}, "properties": {"surface": "", "highway": "footway"}}, {"type": "Feature", "geometry": {"type": "LineString", "coordinates": [[-84.4698376, 33.7621839], [-84.4698834, 33.7624661]]}, "properties": {"surface": "asphalt", "highway": "secondary"}}, {"type": "Feature", "geometry": {"type": "LineString", "coordinates": [[-84.4697863, 33.7618675], [-84.4698376, 33.7621839]]}, "properties": {"surface": "asphalt", "highway": "secondary"}}, {"type": "Feature", "geometry": {"type": "LineString", "coordinates": [[-84.469954, 33.7637815], [-84.4699107, 33.7637407], [-84.4698585, 33.7637095], [-84.4697709, 33.7636843], [-84.4688772, 33.7636868], [-84.468357, 33.763689]]}, "properties": {"surface": "", "highway": "footway"}}, {"type": "Feature", "geometry": {"type": "LineString", "coordinates": [[-84.4692534, 33.7594923], [-84.4694418, 33.7602836], [-84.469478, 33.7604356], [-84.4696917, 33.761708], [-84.4697199, 33.7618761], [-84.4697739, 33.7621876], [-84.4698352, 33.762551], [-84.4698602, 33.7626992], [-84.4699565, 33.7633491], [-84.4699598, 33.7634041], [-84.4699435, 33.7634454], [-84.4699238, 33.7634751], [-84.4699026, 33.7635006], [-84.4698621, 33.7635311], [-84.469793, 33.7635568], [-84.4696874, 33.7635632], [-84.4687, 33.7635679], [-84.46823, 33.7635671], [-84.4655987, 33.7635714]]}, "properties": {"surface": "", "highway": "footway"}}, {"type": "Feature", "geometry": {"type": "LineString", "coordinates": [[-84.4699138, 33.7635107], [-84.4699026, 33.7635006]]}, "properties": {"surface": "", "highway": "footway"}}, {"type": "Feature", "geometry": {"type": "LineString", "coordinates": [[-84.4298965, 33.771857], [-84.4297838, 33.7718613], [-84.4294714, 33.771834], [-84.4291289, 33.7718256], [-84.4282176, 33.7717664], [-84.4278282, 33.7717407], [-84.4274709, 33.771735], [-84.4272051, 33.7717637], [-84.426992, 33.7718052]]}, "properties": {"surface": "concrete", "highway": "footway"}}, {"type": "Feature", "geometry": {"type": "LineString", "coordinates": [[-84.4268726, 33.772864], [-84.4268513, 33.7724882]]}, "properties": {"surface": "", "highway": "footway"}}, {"type": "Feature", "geometry": {"type": "LineString", "coordinates": [[-84.4705031, 33.7676344], [-84.470211, 33.7670374], [-84.4700544, 33.7664671], [-84.469996, 33.7660414], [-84.4699826, 33.7657359], [-84.4699733, 33.7638849], [-84.4699721, 33.7638318], [-84.469954, 33.7637815]]}, "properties": {"surface": "", "highway": "footway"}}, {"type": "Feature", "geometry": {"type": "LineString", "coordinates": [[-84.4718695, 33.7691381], [-84.4709008, 33.768112], [-84.4705784, 33.7677439]]}, "properties": {"surface": "", "highway": "footway"}}, {"type": "Feature", "geometry": {"type": "LineString", "coordinates": [[-84.4330699, 33.7852543], [-84.4330705, 33.7850693], [-84.4330718, 33.7849802]]}, "properties": {"surface": "", "highway": "footway"}}, {"type": "Feature", "geometry": {"type": "LineString", "coordinates": [[-84.4373323, 33.7826389], [-84.4374171, 33.7827778], [-84.437424, 33.7828744], [-84.4373284, 33.7830685], [-84.4371684, 33.7831752], [-84.436985, 33.7832079], [-84.4364762, 33.7832672], [-84.4356179, 33.7832226], [-84.4350266, 33.7832689]]}, "properties": {"surface": "", "highway": "unclassified"}}]}