{"type": "FeatureCollection", "features": [{"type": "Feature", "geometry": {"type": "Polygon", "coordinates": [[[-84.48193301291361, 33.769985393921004], [-84.48205748910048, 33.77039508658902], [-84.48213563324153, 33.77082595428386], [-84.48215793552875, 33.77110215677295], [-84.48216712151789, 33.7712337055513], [-84.48217713860215, 33.77140370476062], [-84.48218631116266, 33.771633482629234], [-84.48219369304532, 33.771986105751], [-84.4822758171897, 33.7732888794814], [-84.48228094073174, 33.77338140045103], [-84.4822885264403, 33.77354036384104], [-84.48230526198638, 33.77379936017385], [-84.48230947194547, 33.77387111293194], [-84.48233952928149, 33.77444111052447], [-84.48234001213378, 33.77445040261829], [-84.4823757393243, 33.77514826365483], [-84.48257067397, 33.775618713793506], [-84.48265340197396, 33.775907926177965], [-84.48271852871176, 33.77601301544994], [-84.48293855866933, 33.77642300134019], [-84.4832021287754, 33.776973302518144], [-84.48341103522483, 33.777539732254596], [-84.48353106960846, 33.77791972400178], [-84.48374380030029, 33.77882129835913], [-84.48377381895438, 33.77901129618728], [-84.48384437635079, 33.779737740556875], [-84.48382729881132, 33.78046643076133], [-84.48372275645215, 33.78119001342658], [-84.48353180207232, 33.78190118653797], [-84.48325636061658, 33.782592773134425], [-84.48289920983147, 33.783257793747744], [-84.48246395230649, 33.78388953685533], [-84.48195497917955, 33.784481626634566], [-84.48137742587075, 33.78502808733398], [-84.48073712028898, 33.785523403610355], [-84.48004052403326, 33.78596257622149], [-84.47929466718122, 33.78634117251138], [-84.47850707732354, 33.78665537117629], [-84.477685703561, 33.78690200085939], [-84.47683883623283, 33.78707857218233], [-84.47597502318902, 33.787183302889915], [-84.47510298345357, 33.78721513585293], [-84.47160169137045, 33.787195901626355], [-84.46891042609369, 33.78725295992629], [-84.4682569833188, 33.787246279830505], [-84.46811160356211, 33.78724022246989], [-84.4656461087623, 33.78718243768802], [-84.46553153030129, 33.787179119289135], [-84.46507673265545, 33.78716343760452], [-84.46496224313358, 33.78759040131657], [-84.4648722685758, 33.787870407216026], [-84.4646216584136, 33.78852478757505], [-84.46429803814671, 33.78915644098424], [-84.46390430828446, 33.789759703057314], [-84.46344399826192, 33.790329163893055], [-84.46292123482901, 33.79085971660711], [-84.46234070507252, 33.79134660314901], [-84.46170761440172, 33.79178545699307], [-84.46102763987392, 33.79217234231898], [-84.4603068792782, 33.79250378933013], [-84.45955179643457, 33.79277682539184], [-84.45876916319956, 33.792989001709465], [-84.45823604433666, 33.793088179053], [-84.45771369066239, 33.79260971579014], [-84.45720376510762, 33.792039031239845], [-84.45680377044977, 33.79148538274176], [-84.45644898317421, 33.791308963816135], [-84.45576261761025, 33.790886433979495], [-84.4551291666478, 33.79040976424055], [-84.45455473099305, 33.78988354603562], [-84.45404484259682, 33.78931284798288], [-84.45379997327312, 33.788973881089824], [-84.45346218592623, 33.78871968276811], [-84.4534603499434, 33.788718000821554], [-84.45305431352246, 33.78859775831024], [-84.45228244456911, 33.78829512656529], [-84.45154982451659, 33.78793077708554], [-84.45086350989307, 33.78750821949956], [-84.45023011090714, 33.787031524078465], [-84.44965572776398, 33.78650528250581], [-84.44914589190833, 33.78593456362469], [-84.44899462320818, 33.78572513529931], [-84.44853492332736, 33.7852105282288], [-84.44809455223728, 33.78460082690019], [-84.4478760982973, 33.78421786176152], [-84.44771829724573, 33.784155980904856], [-84.4475486583901, 33.78407160343487], [-84.44707602247853, 33.78393160486592], [-84.44630421626563, 33.78362893517319], [-84.44557166115169, 33.78326454959096], [-84.44488541303882, 33.782841958095446], [-84.44425208149445, 33.78236523128432], [-84.44383760029086, 33.78198542509547], [-84.44345838842891, 33.78175189568246], [-84.44282507280533, 33.781275161382844], [-84.44268646545142, 33.78114814510746], [-84.44221927638876, 33.78105153387658], [-84.4414156979017, 33.780813458388266], [-84.44064393939381, 33.78051075289943], [-84.44055310405142, 33.78046556290725], [-84.44001260744396, 33.78030542183562], [-84.43924085837864, 33.78000270749971], [-84.43850836385911, 33.77963827946907], [-84.43794774445924, 33.779292986238076], [-84.43768178004541, 33.779188657249584], [-84.43728796635742, 33.77899272076773], [-84.43745301455016, 33.77922130354118], [-84.43781959219395, 33.77986414367566], [-84.43810895395332, 33.780533891698404], [-84.43815514416973, 33.7806861718006], [-84.43850837755069, 33.780861911302495], [-84.43919457873525, 33.78128453863263], [-84.43948191764112, 33.78150085206577], [-84.44001795555695, 33.78165967242236], [-84.4407897222245, 33.78196238172936], [-84.44152224616461, 33.78232679593401], [-84.44220847376677, 33.78274940627196], [-84.4428417969069, 33.78322614358483], [-84.44296074017193, 33.783335137187905], [-84.44312211663636, 33.78336850691808], [-84.44392572367866, 33.78360657105169], [-84.44469752143114, 33.783909255665684], [-84.44543007838982, 33.784273646390204], [-84.44611634062659, 33.78469623468699], [-84.44674969968419, 33.78517295160992], [-84.44732405619527, 33.785699206960125], [-84.44783387861386, 33.78626993345959], [-84.4482742564941, 33.78687963551921], [-84.44864094780256, 33.78752244213291], [-84.44893041980804, 33.788192163389425], [-84.44913988315328, 33.78888235005891], [-84.44926731877885, 33.789586355681315], [-84.44931149743748, 33.79029740055949], [-84.44927199160806, 33.791008637041244], [-84.44914917969199, 33.791713215462224], [-84.4489442424482, 33.792404350114474], [-84.4486591516982, 33.79307538460547], [-84.44835623530501, 33.79361392544232], [-84.44763545890312, 33.79341644102312], [-84.44686759208454, 33.793135019672306], [-84.44613579600404, 33.79279310803588], [-84.44544688670942, 33.79239389092479], [-84.44480728051597, 33.7919410868897], [-84.44422293422721, 33.79143891356321], [-84.44379724481811, 33.79099434797636], [-84.44359830916736, 33.790965646171905], [-84.44273058759003, 33.79076129705212], [-84.44242707011996, 33.79066045364105], [-84.44232000831187, 33.7907425268753], [-84.44162637971641, 33.791176395833915], [-84.44088443086018, 33.791550411913846], [-84.44010154347721, 33.791860853694025], [-84.43928550691096, 33.79210463227212], [-84.43844444057365, 33.7922793220201], [-84.43758671310984, 33.79238318473662], [-84.43672085907123, 33.79241518695525], [-84.43252525748063, 33.792395304756106], [-84.43230999199918, 33.792395304822236], [-84.43144967783854, 33.79235965672604], [-84.43059781910247, 33.7922530637614], [-84.42976278803694, 33.79207657353831], [-84.42895279138138, 33.791831920625214], [-84.42817578965709, 33.79152150948943], [-84.42743941888403, 33.79114839084958], [-84.4267509154979, 33.79071623167326], [-84.42611704520726, 33.79022927911566], [-84.42554403649132, 33.789692318754895], [-84.42503751939263, 33.78911062753555], [-84.42460247020661, 33.78848992188411], [-84.42424316261075, 33.78783630150761], [-84.42396312571286, 33.78715618942881], [-84.42376510942886, 33.78645626884856], [-84.42365105752837, 33.78574341745635], [-84.42363036760611, 33.78553631114678], [-84.42354919205387, 33.7853517813061], [-84.42323866734036, 33.7850477025947], [-84.42298343807205, 33.78478565146035], [-84.42272344678847, 33.784505637152584], [-84.42255594220144, 33.784319117794404], [-84.4222420583625, 33.78395764233159], [-84.4218183183262, 33.78347607552009], [-84.42177268456271, 33.78342372585063], [-84.42139270156677, 33.782983704371176], [-84.42132418063547, 33.782903207081155], [-84.42059421669785, 33.78203316540341], [-84.4204346106352, 33.78183613230162], [-84.42000463697877, 33.78128610718025], [-84.41981803052124, 33.7810364787648], [-84.4197680343915, 33.780966475765446], [-84.41942089525884, 33.78043045620423], [-84.4191288513373, 33.77987200105016], [-84.41889396196468, 33.77929505030411], [-84.41870400958732, 33.77875503742755], [-84.41863761605113, 33.778555831198915], [-84.41840768218398, 33.77782581545077], [-84.41829656027419, 33.77742774701208], [-84.41819659905894, 33.777017740030146], [-84.41812028747661, 33.7766588330265], [-84.41808030889133, 33.77643883018214], [-84.41805643112033, 33.776298157518106], [-84.41804204033816, 33.77620695825554], [-84.41797092028327, 33.775835359888895], [-84.4178841582819, 33.775207724785865], [-84.41764443852284, 33.772407706874965], [-84.41762578749092, 33.771685316918415], [-84.41769326726906, 33.77096495996924], [-84.41784620644684, 33.7702537805106], [-84.41808308612089, 33.76955883183024], [-84.41840155503985, 33.768887006076774], [-84.41879845299732, 33.76824496592057], [-84.41926984223778, 33.767639078496096], [-84.41981104656186, 33.767075352280195], [-84.42041669774045, 33.76655937753105], [-84.4210807887768, 33.76609627087744], [-84.42179673348694, 33.765690624606265], [-84.42255743180755, 33.76534646115032], [-84.42260742889934, 33.765326462663005], [-84.42313971609603, 33.76513155400375], [-84.42319971216891, 33.76511155556591], [-84.42358301810118, 33.764992999429836], [-84.42358303155203, 33.76485969423025], [-84.42359353233779, 33.76450367440585], [-84.42360354943719, 33.76433367501828], [-84.42364008193357, 33.7639363348963], [-84.42365008988321, 33.763856335549015], [-84.4237218907325, 33.763414331099646], [-84.42375190527078, 33.7632643330845], [-84.42387048549229, 33.76277565978159], [-84.42389049198887, 33.76270566110095], [-84.42416167248895, 33.76194417534642], [-84.42453090411932, 33.761212017756044], [-84.424600912479, 33.76109202208352], [-84.42518738822267, 33.76023900097162], [-84.42526739292926, 33.76013900556533], [-84.42539620519312, 33.759982481039636], [-84.42545955411916, 33.75990762146874], [-84.42547901927381, 33.75987659874886], [-84.42593721521087, 33.7592913585888], [-84.42646072884962, 33.7587456767403], [-84.42704469684902, 33.75824462124268], [-84.4276836946828, 33.75779284558155], [-84.42837178702995, 33.75739454549244], [-84.42910258289622, 33.757053420016284], [-84.4291716158279, 33.757028139265834], [-84.429185172011, 33.7565015182211], [-84.42920483725291, 33.75532870005344], [-84.42921948355269, 33.7550463230868], [-84.42921593444468, 33.754937974488456], [-84.42927411498535, 33.754238318114915], [-84.42941289546708, 33.75354662271208], [-84.42963097722311, 33.75286935138595], [-84.42992632073381, 33.752212832317085], [-84.43029616474827, 33.75158319964359], [-84.43073705214171, 33.750986336161986], [-84.43124486226498, 33.75042781838073], [-84.4318148494822, 33.749912864439004], [-84.43244168753516, 33.74944628537628], [-84.43311951931933, 33.74903244020701], [-84.43384201160588, 33.74867519521916], [-84.43460241419885, 33.748377887875634], [-84.43539362297561, 33.74814329565496], [-84.43600983035239, 33.74801494058453], [-84.43630823338893, 33.747426001240015], [-84.43671847853132, 33.74679736279879], [-84.43720089114004, 33.74620556201382], [-84.43775077247173, 33.74565636132149], [-84.43836276713802, 33.74515510824983], [-84.4390309152736, 33.74470668337475], [-84.43974871057509, 33.7443154528242], [-84.44050916364533, 33.74398522579174], [-84.44130487002711, 33.74371921747148], [-84.44212808226474, 33.74352001777489], [-84.44297078529385, 33.74338956613236], [-84.44382477442717, 33.74332913262437], [-84.44468173517981, 33.74333930562529], [-84.44553332415941, 33.74341998607955], [-84.44637125023648, 33.74357038846574], [-84.44718735520794, 33.7437890484393], [-84.44797369317094, 33.744073837079554], [-84.4482317942156, 33.74419382016276], [-84.44857942039455, 33.7441278899637], [-84.44915484558148, 33.74399122687485], [-84.44934269358633, 33.74394850756686], [-84.44980265875843, 33.74384851578345], [-84.45032046055985, 33.74374996499292], [-84.45087041696372, 33.74365997255335], [-84.45107602153821, 33.74362846914893], [-84.4515659821428, 33.7435584750834], [-84.45245368500981, 33.743470645628015], [-84.45263366996532, 33.74346064653505], [-84.45305487973734, 33.74344581225381], [-84.45372482335799, 33.743435813378824], [-84.45452799530474, 33.7434548773156], [-84.4546879819317, 33.74346487655764], [-84.45485717411312, 33.74347684145934], [-84.45523714250287, 33.74350683914518], [-84.45593661089896, 33.74358612877246], [-84.45620658916621, 33.7436261256163], [-84.45668084008756, 33.743707837083576], [-84.45729079271213, 33.743827827634], [-84.45754833212254, 33.74388197490109], [-84.458218281355, 33.74403196313815], [-84.4586814178796, 33.7441472766432], [-84.45919138131461, 33.74428726579242], [-84.45942743618997, 33.74435521981207], [-84.46088148360384, 33.74479342258522], [-84.46297548339282, 33.74542161773618], [-84.46298501417273, 33.74542448208841], [-84.46577482081452, 33.74626441750602], [-84.4662966457993, 33.74643763412553], [-84.46646836606703, 33.74650007714499], [-84.46732979059153, 33.74680299201869], [-84.46842075122328, 33.747264648809235], [-84.46938070616012, 33.747744614850305], [-84.47033787729583, 33.74829922899799], [-84.47129785368699, 33.74893918758193], [-84.47203872750326, 33.74949398045147], [-84.47223889521597, 33.74966211162699], [-84.47325825005757, 33.750490886208645], [-84.47325785103081, 33.75049122867885], [-84.47353688269449, 33.75071180180833], [-84.47393558524973, 33.751054258297955], [-84.4743181009629, 33.75130925702549], [-84.47431330578942, 33.75131427622964], [-84.47469314876415, 33.75156701607007], [-84.4753122248626, 33.75207063222602], [-84.47586833554816, 33.75262313923831], [-84.47635597582753, 33.75321906901428], [-84.47677031804636, 33.75385252359797], [-84.47710725970565, 33.754517233517916], [-84.4773634641157, 33.7552066198156], [-84.4775363934828, 33.75591385914153], [-84.47768647315772, 33.75673384840466], [-84.47775097196681, 33.757177205563316], [-84.47778424273557, 33.75748467492499], [-84.47779278936052, 33.75755085997285], [-84.47782775995739, 33.75772036552284], [-84.47786778134459, 33.75794036265834], [-84.47791380834474, 33.75824776959159], [-84.47792693788944, 33.758302299700375], [-84.47806700227879, 33.758972289767556], [-84.47809533976807, 33.75911638194239], [-84.47816537667708, 33.759496376933484], [-84.47819125334003, 33.75964730209224], [-84.47830201060434, 33.76034548597682], [-84.47831777981159, 33.76042429275291], [-84.47836229408517, 33.760673239244504], [-84.47859243732309, 33.76213322261208], [-84.47864177690954, 33.762530391762034], [-84.47864385092733, 33.76255318077989], [-84.47866342401873, 33.76271615348406], [-84.47867539966006, 33.76291591244051], [-84.47867660738117, 33.76291582810693], [-84.47868661735335, 33.763015827359105], [-84.47871681906443, 33.76361969437334], [-84.47871683823345, 33.76380969426525], [-84.47871636054381, 33.763886394576964], [-84.47870757219383, 33.76458625301645], [-84.4788054027691, 33.76469385729815], [-84.47944862379944, 33.76537226744217], [-84.47971720943048, 33.76564873078483], [-84.47978761820171, 33.765719134164414], [-84.48029256464413, 33.7662765601912], [-84.48038256944459, 33.76638655500621], [-84.48067055542376, 33.766762861763695], [-84.48072055928209, 33.7668328587613], [-84.481100186917, 33.76742494170057], [-84.48118019668057, 33.7675649366336], [-84.48135642613613, 33.767894085655456], [-84.48137642919032, 33.767934084357044], [-84.48142643896274, 33.768034085384166], [-84.48174366904871, 33.7687806327181], [-84.48196155898765, 33.76955161358236], [-84.48199157241625, 33.76969161145601], [-84.48202776560825, 33.76993763410653], [-84.48193301291361, 33.769985393921004]]]}, "properties": {"kind": "walkshed", "buffer_mi": 0.5}}, {"type": "Feature", "geometry": {"type": "Point", "coordinates": [-84.428936, 33.772147]}, "properties": {"kind": "stop", "name": "Bankhead", "mode": "rail"}}, {"type": "Feature", "geometry": {"type": "Point", "coordinates": [-84.47044, 33.754412]}, "properties": {"kind": "stop", "name": "Hamilton E. Holmes", "mode": "rail"}}, {"type": "Feature", "geometry": {"type": "Point", "coordinates": [-84.445385, 33.753249]}, "properties": {"kind": "stop", "name": "West Lake", "mode": "rail"}}, {"type": "Feature", "geometry": {"type": "Point", "coordinates": [-84.469302, 33.754553]}, "properties": {"kind": "stop", "name": "HAMILTON E HOLMES STATION", "mode": "bus"}}, {"type": "Feature", "geometry": {"type": "Point", "coordinates": [-84.445329, 33.753328]}, "properties": {"kind": "stop", "name": "WEST LAKE STATION", "mode": "bus"}}, {"type": "Feature", "geometry": {"type": "Point", "coordinates": [-84.445568, 33.753247]}, "properties": {"kind": "stop", "name": "WEST LAKE STATION", "mode": "bus"}}, {"type": "Feature", "geometry": {"type": "Point", "coordinates": [-84.469824, 33.754517]}, "properties": {"kind": "stop", "name": "HAMILTON E HOLMES STATION", "mode": "bus"}}, {"type": "Feature", "geometry": {"type": "Point", "coordinates": [-84.428873, 33.772159]}, "properties": {"kind": "stop", "name": "BANKHEAD STATION", "mode": "bus"}}, {"type": "Feature", "geometry": {"type": "Point", "coordinates": [-84.428906, 33.772436]}, "properties": {"kind": "stop", "name": "BANKHEAD STATION", "mode": "bus"}}, {"type": "Feature", "geometry": {"type": "Point", "coordinates": [-84.472565, 33.78569]}, "properties": {"kind": "stop", "name": "HIGHTOWER RD NW @ SAINT JAMES AVE NW", "mode": "bus"}}, {"type": "Feature", "geometry": {"type": "Point", "coordinates": [-84.461256, 33.785265]}, "properties": {"kind": "stop", "name": "HOLLYWOOD RD NW @ BROOKS AVE NW", "mode": "bus"}}, {"type": "Feature", "geometry": {"type": "Point", "coordinates": [-84.464415, 33.787991]}, "properties": {"kind": "stop", "name": "HOLLYWOOD RD NW@ALVIN DR NW", "mode": "bus"}}, {"type": "Feature", "geometry": {"type": "Point", "coordinates": [-84.472748, 33.785938]}, "properties": {"kind": "stop", "name": "HIGHTOWER RD @ SAINT JAMES AVE NW", "mode": "bus"}}, {"type": "Feature", "geometry": {"type": "Point", "coordinates": [-84.45862, 33.782869]}, "properties": {"kind": "stop", "name": "HOLLYWOOD RD@MILTON AVE", "mode": "bus"}}, {"type": "Feature", "geometry": {"type": "Point", "coordinates": [-84.464459, 33.787937]}, "properties": {"kind": "stop", "name": "HOLLYWOOD RD@ALVIN DR", "mode": "bus"}}, {"type": "Feature", "geometry": {"type": "Point", "coordinates": [-84.473479, 33.784623]}, "properties": {"kind": "stop", "name": "HIGHTOWER RD NW @ 7TH ST NW", "mode": "bus"}}, {"type": "Feature", "geometry": {"type": "Point", "coordinates": [-84.42887, 33.786346]}, "properties": {"kind": "stop", "name": "MARIETTA ST NW @ MARIETTA BLVD NW", "mode": "bus"}}, {"type": "Feature", "geometry": {"type": "Point", "coordinates": [-84.437008, 33.788638]}, "properties": {"kind": "stop", "name": "PERRY BLVD NW @ JOHNSON RD NW", "mode": "bus"}}, {"type": "Feature", "geometry": {"type": "Point", "coordinates": [-84.428076, 33.786266]}, "properties": {"kind": "stop", "name": "MARIETTA ST NW@MARIETTA BLVD NW", "mode": "bus"}}, {"type": "Feature", "geometry": {"type": "Point", "coordinates": [-84.4337, 33.786905]}, "properties": {"kind": "stop", "name": "MARIETTA ST NW@ROCKDALE ST NW", "mode": "bus"}}, {"type": "Feature", "geometry": {"type": "Point", "coordinates": [-84.436714, 33.78837]}, "properties": {"kind": "stop", "name": "PERRY BLVD NW @ JOHNSON RD NW", "mode": "bus"}}, {"type": "Feature", "geometry": {"type": "Point", "coordinates": [-84.426788, 33.785946]}, "properties": {"kind": "stop", "name": "W MARIETTA ST NW @ RICE ST NW", "mode": "bus"}}, {"type": "Feature", "geometry": {"type": "Point", "coordinates": [-84.424187, 33.785328]}, "properties": {"kind": "stop", "name": "W MARIETTA ST NW @ LONGLEY AVE NW", "mode": "bus"}}, {"type": "Feature", "geometry": {"type": "Point", "coordinates": [-84.426328, 33.788908]}, "properties": {"kind": "stop", "name": "HUFF RD NW@ELLSWORTH IND BLVD", "mode": "bus"}}, {"type": "Feature", "geometry": {"type": "Point", "coordinates": [-84.425991, 33.788863]}, "properties": {"kind": "stop", "name": "HUFF RD NW @ ELLSWORTH INDUSTRIAL BLVD NW", "mode": "bus"}}, {"type": "Feature", "geometry": {"type": "Point", "coordinates": [-84.423791, 33.785523]}, "properties": {"kind": "stop", "name": "W MARIETTA ST NW @ LONGLEY AVE NW", "mode": "bus"}}, {"type": "Feature", "geometry": {"type": "Point", "coordinates": [-84.440459, 33.790342]}, "properties": {"kind": "stop", "name": "PERRY BLVD@1600", "mode": "bus"}}, {"type": "Feature", "geometry": {"type": "Point", "coordinates": [-84.440622, 33.790317]}, "properties": {"kind": "stop", "name": "PERRY BLVD@1600", "mode": "bus"}}, {"type": "Feature", "geometry": {"type": "Point", "coordinates": [-84.427901, 33.78558]}, "properties": {"kind": "stop", "name": "MARIETTA BLVD NW @ W MARIETTA ST NW", "mode": "bus"}}, {"type": "Feature", "geometry": {"type": "Point", "coordinates": [-84.468717, 33.755745]}, "properties": {"kind": "stop", "name": "BURTON RD NW@HAMILTON E HOLMES DR N", "mode": "bus"}}, {"type": "Feature", "geometry": {"type": "Point", "coordinates": [-84.472718, 33.755704]}, "properties": {"kind": "stop", "name": "BURTON RD NW@WESTLAND BLVD NW", "mode": "bus"}}, {"type": "Feature", "geometry": {"type": "Point", "coordinates": [-84.475186, 33.755826]}, "properties": {"kind": "stop", "name": "BURTON RD NW@HOLLIS TER NW", "mode": "bus"}}, {"type": "Feature", "geometry": {"type": "Point", "coordinates": [-84.476132, 33.755834]}, "properties": {"kind": "stop", "name": "BURTON RD NW@HEDGEWOOD DR NW", "mode": "bus"}}, {"type": "Feature", "geometry": {"type": "Point", "coordinates": [-84.474976, 33.755947]}, "properties": {"kind": "stop", "name": "BURTON RD NW@HOLLIS TER NW", "mode": "bus"}}, {"type": "Feature", "geometry": {"type": "Point", "coordinates": [-84.475807, 33.755981]}, "properties": {"kind": "stop", "name": "BURTON RD NW@HEDGEWOOD DR NW", "mode": "bus"}}, {"type": "Feature", "geometry": {"type": "Point", "coordinates": [-84.475037, 33.778969]}, "properties": {"kind": "stop", "name": "HIGHTOWER RD NW @ WHITING ST NW", "mode": "bus"}}, {"type": "Feature", "geometry": {"type": "Point", "coordinates": [-84.451424, 33.764698]}, "properties": {"kind": "stop", "name": "JOSEPH E BOONE BLVD @ ANDERSON AVE NW", "mode": "bus"}}, {"type": "Feature", "geometry": {"type": "Point", "coordinates": [-84.45364, 33.763675]}, "properties": {"kind": "stop", "name": "JOSEPH E BOONE BLVD @ SPELLMAN ST NW", "mode": "bus"}}, {"type": "Feature", "geometry": {"type": "Point", "coordinates": [-84.46917, 33.759262]}, "properties": {"kind": "stop", "name": "HAMILTON E HOLMES DR @ HARVEL DR NW", "mode": "bus"}}, {"type": "Feature", "geometry": {"type": "Point", "coordinates": [-84.469719, 33.763184]}, "properties": {"kind": "stop", "name": "HAMILTON E HOLMES DR NW @ JOSEPH E BOONE BLVD NW", "mode": "bus"}}, {"type": "Feature", "geometry": {"type": "Point", "coordinates": [-84.469795, 33.764736]}, "properties": {"kind": "stop", "name": "HAMILTON E HOLMES DR@SANTA BARBARA", "mode": "bus"}}, {"type": "Feature", "geometry": {"type": "Point", "coordinates": [-84.469867, 33.766405]}, "properties": {"kind": "stop", "name": "HAMILTON E HOLMES DR NW@RYNE ST", "mode": "bus"}}, {"type": "Feature", "geometry": {"type": "Point", "coordinates": [-84.471873, 33.769106]}, "properties": {"kind": "stop", "name": "HAMILTON E HOLMES DR NW @ BAKER RD NW", "mode": "bus"}}, {"type": "Feature", "geometry": {"type": "Point", "coordinates": [-84.473444, 33.771653]}, "properties": {"kind": "stop", "name": "HAMILTON E HOLMES DR NW @ OLDKNOW DR", "mode": "bus"}}, {"type": "Feature", "geometry": {"type": "Point", "coordinates": [-84.473467, 33.773282]}, "properties": {"kind": "stop", "name": "HAMILTON E HOLMES DR NW @ WASHINGTON ST", "mode": "bus"}}, {"type": "Feature", "geometry": {"type": "Point", "coordinates": [-84.450878, 33.776809]}, "properties": {"kind": "stop", "name": "DONALD L HOLLOWELL PKY @ CHARLOTTE PL NW", "mode": "bus"}}, {"type": "Feature", "geometry": {"type": "Point", "coordinates": [-84.452194, 33.776754]}, "properties": {"kind": "stop", "name": "DONALD L HOLLOWELL PKY @ EMILY PL NW", "mode": "bus"}}, {"type": "Feature", "geometry": {"type": "Point", "coordinates": [-84.452814, 33.776717]}, "properties": {"kind": "stop", "name": "DONALD L HOLLOWELL PKY @ EUGENIA PL NW", "mode": "bus"}}, {"type": "Feature", "geometry": {"type": "Point", "coordinates": [-84.457163, 33.776578]}, "properties": {"kind": "stop", "name": "DONALD L HOLLOWELL PKY @ WOOD ST NW", "mode": "bus"}}, {"type": "Feature", "geometry": {"type": "Point", "coordinates": [-84.45898, 33.776737]}, "properties": {"kind": "stop", "name": "DONALD L HOLLOWELL PKY @ COMMODORE DR NW", "mode": "bus"}}, {"type": "Feature", "geometry": {"type": "Point", "coordinates": [-84.461372, 33.777195]}, "properties": {"kind": "stop", "name": "DONALD L HOLLOWELL PKY @ GARY RD NW", "mode": "bus"}}, {"type": "Feature", "geometry": {"type": "Point", "coordinates": [-84.463178, 33.777269]}, "properties": {"kind": "stop", "name": "DONALD L HOLLOWELL PKY @ OAK ST NW", "mode": "bus"}}, {"type": "Feature", "geometry": {"type": "Point", "coordinates": [-84.465884, 33.776326]}, "properties": {"kind": "stop", "name": "DONALD L HOLLOWELL PKY @ HALL ST NW", "mode": "bus"}}, {"type": "Feature", "geometry": {"type": "Point", "coordinates": [-84.467339, 33.775902]}, "properties": {"kind": "stop", "name": "DONALD L HOLLOWELL PKY @ PEYTON AVE NW", "mode": "bus"}}, {"type": "Feature", "geometry": {"type": "Point", "coordinates": [-84.469167, 33.775517]}, "properties": {"kind": "stop", "name": "DONALD L HOLLOWELL PKY @ WOODS DR NW", "mode": "bus"}}, {"type": "Feature", "geometry": {"type": "Point", "coordinates": [-84.471575, 33.775413]}, "properties": {"kind": "stop", "name": "DONALD L HOLLOWELL PKY @ BELLVIEW AVE NW", "mode": "bus"}}, {"type": "Feature", "geometry": {"type": "Point", "coordinates": [-84.474323, 33.776651]}, "properties": {"kind": "stop", "name": "DONALD L HOLLOWELL PKY @ HAMILTON E HOLMES DR", "mode": "bus"}}, {"type": "Feature", "geometry": {"type": "Point", "coordinates": [-84.476772, 33.777646]}, "properties": {"kind": "stop", "name": "DONALD L HOLLOWELL PKWY @ OZBURN RD NW", "mode": "bus"}}, {"type": "Feature", "geometry": {"type": "Point", "coordinates": [-84.477638, 33.778152]}, "properties": {"kind": "stop", "name": "DONALD L HOLLOWELL PKY @ PEEK RD NW", "mode": "bus"}}, {"type": "Feature", "geometry": {"type": "Point", "coordinates": [-84.47956, 33.779522]}, "properties": {"kind": "stop", "name": "DONALD L HOLLOWELL PKY @ YATES DR NW", "mode": "bus"}}, {"type": "Feature", "geometry": {"type": "Point", "coordinates": [-84.473582, 33.775699]}, "properties": {"kind": "stop", "name": "HAMILTON E HOLMES DR NW @ DONALD L HOLLOWELL PKY", "mode": "bus"}}, {"type": "Feature", "geometry": {"type": "Point", "coordinates": [-84.47414, 33.777623]}, "properties": {"kind": "stop", "name": "JAMES JACKSON PKY @ HIGHTOWER RD", "mode": "bus"}}, {"type": "Feature", "geometry": {"type": "Point", "coordinates": [-84.47349, 33.784435]}, "properties": {"kind": "stop", "name": "HIGHTOWER RD NW @ NORTHWEST DR NW", "mode": "bus"}}, {"type": "Feature", "geometry": {"type": "Point", "coordinates": [-84.449358, 33.763698]}, "properties": {"kind": "stop", "name": "JOSEPH E BOONE BLVD @ DIXIE HILLS CIR NW", "mode": "bus"}}, {"type": "Feature", "geometry": {"type": "Point", "coordinates": [-84.45113, 33.764662]}, "properties": {"kind": "stop", "name": "JOSEPH E BOONE BLVD @ ANDERSON AVE NW", "mode": "bus"}}, {"type": "Feature", "geometry": {"type": "Point", "coordinates": [-84.457039, 33.760288]}, "properties": {"kind": "stop", "name": "TIGER FLOWERS DR NW @ CARVER CIR NW", "mode": "bus"}}, {"type": "Feature", "geometry": {"type": "Point", "coordinates": [-84.458822, 33.760841]}, "properties": {"kind": "stop", "name": "TIGER FLOWERS DR NW @ WADLEY ST NW", "mode": "bus"}}, {"type": "Feature", "geometry": {"type": "Point", "coordinates": [-84.457344, 33.755087]}, "properties": {"kind": "stop", "name": "VERBENA ST NW @ PENELOPE ST NW", "mode": "bus"}}, {"type": "Feature", "geometry": {"type": "Point", "coordinates": [-84.46077, 33.755817]}, "properties": {"kind": "stop", "name": "VERBENA ST NW @ 2208", "mode": "bus"}}, {"type": "Feature", "geometry": {"type": "Point", "coordinates": [-84.461272, 33.756559]}, "properties": {"kind": "stop", "name": "VERBENA ST NW @ 2240", "mode": "bus"}}, {"type": "Feature", "geometry": {"type": "Point", "coordinates": [-84.46122, 33.758197]}, "properties": {"kind": "stop", "name": "HYACINTH AVE NW @ PANSY ST NW", "mode": "bus"}}, {"type": "Feature", "geometry": {"type": "Point", "coordinates": [-84.461223, 33.759898]}, "properties": {"kind": "stop", "name": "CARVER DR NW @ HYACINTH AVE NW", "mode": "bus"}}, {"type": "Feature", "geometry": {"type": "Point", "coordinates": [-84.462202, 33.759897]}, "properties": {"kind": "stop", "name": "CARVER DR NW @ DAHLIA AVE NW", "mode": "bus"}}, {"type": "Feature", "geometry": {"type": "Point", "coordinates": [-84.460495, 33.760975]}, "properties": {"kind": "stop", "name": "TIGER FLOWERS DR NW @ JOE LOUIS DR NW", "mode": "bus"}}, {"type": "Feature", "geometry": {"type": "Point", "coordinates": [-84.462685, 33.761002]}, "properties": {"kind": "stop", "name": "TIGER FLOWERS DR NW @ 2269", "mode": "bus"}}, {"type": "Feature", "geometry": {"type": "Point", "coordinates": [-84.46373, 33.760784]}, "properties": {"kind": "stop", "name": "TIGER FLOWERS DR NW @ 2219", "mode": "bus"}}, {"type": "Feature", "geometry": {"type": "Point", "coordinates": [-84.463158, 33.759905]}, "properties": {"kind": "stop", "name": "CARVER DR NW @ FAIRFIELD PL NW", "mode": "bus"}}, {"type": "Feature", "geometry": {"type": "Point", "coordinates": [-84.45364, 33.763541]}, "properties": {"kind": "stop", "name": "JOSEPH E BOONE BLVD @ SPELLMAN ST NW", "mode": "bus"}}, {"type": "Feature", "geometry": {"type": "Point", "coordinates": [-84.479836, 33.779232]}, "properties": {"kind": "stop", "name": "DONALD L HOLLOWELL PKY @ KINGS GRANT DR NW", "mode": "bus"}}, {"type": "Feature", "geometry": {"type": "Point", "coordinates": [-84.477124, 33.777672]}, "properties": {"kind": "stop", "name": "DONALD L HOLLOWELL PWKY @ PEEK RD NW", "mode": "bus"}}, {"type": "Feature", "geometry": {"type": "Point", "coordinates": [-84.474768, 33.776724]}, "properties": {"kind": "stop", "name": "DONALD L HOLLOWELL PKY @ HAMILTON E HOLMES DR", "mode": "bus"}}, {"type": "Feature", "geometry": {"type": "Point", "coordinates": [-84.473244, 33.775761]}, "properties": {"kind": "stop", "name": "DONALD L HOLLOWELL PKY @ REGINA DR NW", "mode": "bus"}}, {"type": "Feature", "geometry": {"type": "Point", "coordinates": [-84.47168, 33.775169]}, "properties": {"kind": "stop", "name": "DONALD L HOLLOWELL PKY @ COMMERCIAL AVE NW", "mode": "bus"}}, {"type": "Feature", "geometry": {"type": "Point", "coordinates": [-84.467369, 33.775669]}, "properties": {"kind": "stop", "name": "DONALD L HOLLOWELL PKY @ PEYTON AVE NW", "mode": "bus"}}, {"type": "Feature", "geometry": {"type": "Point", "coordinates": [-84.464508, 33.776585]}, "properties": {"kind": "stop", "name": "DONALD L HOLLOWELL PKY @ CENTER HILL AVE NW", "mode": "bus"}}, {"type": "Feature", "geometry": {"type": "Point", "coordinates": [-84.463348, 33.776997]}, "properties": {"kind": "stop", "name": "DONALD L HOLLOWELL PKY @ OAK ST NW", "mode": "bus"}}, {"type": "Feature", "geometry": {"type": "Point", "coordinates": [-84.460818, 33.776968]}, "properties": {"kind": "stop", "name": "DONALD L HOLLOWELL PKY @ GARY RD NW", "mode": "bus"}}, {"type": "Feature", "geometry": {"type": "Point", "coordinates": [-84.459034, 33.776675]}, "properties": {"kind": "stop", "name": "DONALD L HOLLOWELL PKY @ COMMODORE DR NW", "mode": "bus"}}, {"type": "Feature", "geometry": {"type": "Point", "coordinates": [-84.456978, 33.776507]}, "properties": {"kind": "stop", "name": "DONALD L HOLLOWELL PKY @ WOOD ST NW", "mode": "bus"}}, {"type": "Feature", "geometry": {"type": "Point", "coordinates": [-84.454239, 33.776436]}, "properties": {"kind": "stop", "name": "DONALD L HOLLOWELL PKY @ EUGENIA PL NW", "mode": "bus"}}, {"type": "Feature", "geometry": {"type": "Point", "coordinates": [-84.452226, 33.776682]}, "properties": {"kind": "stop", "name": "DONALD L HOLLOWELL PKY @ EMILY PL NW", "mode": "bus"}}, {"type": "Feature", "geometry": {"type": "Point", "coordinates": [-84.47374, 33.782764]}, "properties": {"kind": "stop", "name": "HIGHTOWER RD NW @ JAMES DR NW", "mode": "bus"}}, {"type": "Feature", "geometry": {"type": "Point", "coordinates": [-84.474233, 33.777497]}, "properties": {"kind": "stop", "name": "JAMES JACKSON PKWY @ HIGHTOWER RD", "mode": "bus"}}, {"type": "Feature", "geometry": {"type": "Point", "coordinates": [-84.473767, 33.775609]}, "properties": {"kind": "stop", "name": "HAMILTON E HOLMES DR NW @  DONALD L HOLLOWELL PKWY", "mode": "bus"}}, {"type": "Feature", "geometry": {"type": "Point", "coordinates": [-84.461322, 33.785229]}, "properties": {"kind": "stop", "name": "HOLLYWOOD RD NW @ BROOKS AVE NW", "mode": "bus"}}, {"type": "Feature", "geometry": {"type": "Point", "coordinates": [-84.458979, 33.783039]}, "properties": {"kind": "stop", "name": "HOLLYWOOD RD NW@GRAND AVE NW", "mode": "bus"}}, {"type": "Feature", "geometry": {"type": "Point", "coordinates": [-84.45825, 33.782565]}, "properties": {"kind": "stop", "name": "HOLLYWOOD RD NW@HOLLYWOOD DR NW", "mode": "bus"}}, {"type": "Feature", "geometry": {"type": "Point", "coordinates": [-84.456629, 33.781913]}, "properties": {"kind": "stop", "name": "HOLLYWOOD RD NW@MILDRED PL NW", "mode": "bus"}}, {"type": "Feature", "geometry": {"type": "Point", "coordinates": [-84.455811, 33.780957]}, "properties": {"kind": "stop", "name": "HOLLYWOOD RD NW@CATO ST NW", "mode": "bus"}}, {"type": "Feature", "geometry": {"type": "Point", "coordinates": [-84.455481, 33.780045]}, "properties": {"kind": "stop", "name": "HOLLYWOOD RD NW @ SUMLIN AVE NW", "mode": "bus"}}, {"type": "Feature", "geometry": {"type": "Point", "coordinates": [-84.453121, 33.778149]}, "properties": {"kind": "stop", "name": "HOLLYWOOD RD NW@EUGENIA PL NW", "mode": "bus"}}, {"type": "Feature", "geometry": {"type": "Point", "coordinates": [-84.451782, 33.777676]}, "properties": {"kind": "stop", "name": "HOLLYWOOD RD NW@843", "mode": "bus"}}, {"type": "Feature", "geometry": {"type": "Point", "coordinates": [-84.470721, 33.763682]}, "properties": {"kind": "stop", "name": "COLLIER DR NW@HAMILTON E HOLMES DR", "mode": "bus"}}, {"type": "Feature", "geometry": {"type": "Point", "coordinates": [-84.470417, 33.763521]}, "properties": {"kind": "stop", "name": "COLLIER DR NW@HAMILTON E HOLMES DR", "mode": "bus"}}, {"type": "Feature", "geometry": {"type": "Point", "coordinates": [-84.451793, 33.777748]}, "properties": {"kind": "stop", "name": "HOLLYWOOD RD NW@829", "mode": "bus"}}, {"type": "Feature", "geometry": {"type": "Point", "coordinates": [-84.452979, 33.778149]}, "properties": {"kind": "stop", "name": "HOLLYWOOD RD NW@EUGENIA PL NW", "mode": "bus"}}, {"type": "Feature", "geometry": {"type": "Point", "coordinates": [-84.453861, 33.778632]}, "properties": {"kind": "stop", "name": "HOLLYWOOD RD NW@LOUISE PL NW", "mode": "bus"}}, {"type": "Feature", "geometry": {"type": "Point", "coordinates": [-84.455231, 33.77969]}, "properties": {"kind": "stop", "name": "HOLLYWOOD RD NW@JOHNSON RD NW", "mode": "bus"}}, {"type": "Feature", "geometry": {"type": "Point", "coordinates": [-84.455746, 33.781163]}, "properties": {"kind": "stop", "name": "HOLLYWOOD DR NW@CATO ST NW", "mode": "bus"}}, {"type": "Feature", "geometry": {"type": "Point", "coordinates": [-84.456357, 33.781887]}, "properties": {"kind": "stop", "name": "HOLLYWOOD RD NW@GUN CLUB RD NW", "mode": "bus"}}, {"type": "Feature", "geometry": {"type": "Point", "coordinates": [-84.463762, 33.769508]}, "properties": {"kind": "stop", "name": "BAKER RD NW@CENTER HILL AVE NW", "mode": "bus"}}, {"type": "Feature", "geometry": {"type": "Point", "coordinates": [-84.461469, 33.770138]}, "properties": {"kind": "stop", "name": "BAKER RD NW@GARY RD NW", "mode": "bus"}}, {"type": "Feature", "geometry": {"type": "Point", "coordinates": [-84.457443, 33.770154]}, "properties": {"kind": "stop", "name": "BAKER RD NW @ BAKER CIR", "mode": "bus"}}, {"type": "Feature", "geometry": {"type": "Point", "coordinates": [-84.477452, 33.76378]}, "properties": {"kind": "stop", "name": "COLLIER DR NW @ CHALMERS DR", "mode": "bus"}}, {"type": "Feature", "geometry": {"type": "Point", "coordinates": [-84.476658, 33.763808]}, "properties": {"kind": "stop", "name": "COLLIER DR NW@COLLIER RIDGE DR NW", "mode": "bus"}}, {"type": "Feature", "geometry": {"type": "Point", "coordinates": [-84.472887, 33.770177]}, "properties": {"kind": "stop", "name": "HAMILTON E HOLMES DR NW @ BAKER RIDGE DR NW", "mode": "bus"}}, {"type": "Feature", "geometry": {"type": "Point", "coordinates": [-84.4717, 33.769391]}, "properties": {"kind": "stop", "name": "BAKER RD NW @ HAMILTON E HOLMES DR NW", "mode": "bus"}}, {"type": "Feature", "geometry": {"type": "Point", "coordinates": [-84.470232, 33.769465]}, "properties": {"kind": "stop", "name": "BAKER RD NW@HOOD AVE NW", "mode": "bus"}}, {"type": "Feature", "geometry": {"type": "Point", "coordinates": [-84.470024, 33.769566]}, "properties": {"kind": "stop", "name": "BAKER RD NW@HOOD AVE NW", "mode": "bus"}}, {"type": "Feature", "geometry": {"type": "Point", "coordinates": [-84.466883, 33.769585]}, "properties": {"kind": "stop", "name": "BAKER RD NW@CHURCH ST NW", "mode": "bus"}}, {"type": "Feature", "geometry": {"type": "Point", "coordinates": [-84.466687, 33.769496]}, "properties": {"kind": "stop", "name": "BAKER RD NW@LINCOLN DR NW", "mode": "bus"}}, {"type": "Feature", "geometry": {"type": "Point", "coordinates": [-84.463502, 33.769768]}, "properties": {"kind": "stop", "name": "BAKER RD NW@CENTER HILL AVE", "mode": "bus"}}, {"type": "Feature", "geometry": {"type": "Point", "coordinates": [-84.461187, 33.77021]}, "properties": {"kind": "stop", "name": "BAKER RD NW@GARY RD NW", "mode": "bus"}}, {"type": "Feature", "geometry": {"type": "Point", "coordinates": [-84.469524, 33.761741]}, "properties": {"kind": "stop", "name": "HAMILTON E HOLMES DR NW @ HIGHTOWER CT", "mode": "bus"}}, {"type": "Feature", "geometry": {"type": "Point", "coordinates": [-84.458656, 33.77034]}, "properties": {"kind": "stop", "name": "BAKER RD NW@TWILLEY RD NW", "mode": "bus"}}, {"type": "Feature", "geometry": {"type": "Point", "coordinates": [-84.470775, 33.767769]}, "properties": {"kind": "stop", "name": "HAMILTON E HOLMES DR NW@RYNE ST NW", "mode": "bus"}}, {"type": "Feature", "geometry": {"type": "Point", "coordinates": [-84.474752, 33.778947]}, "properties": {"kind": "stop", "name": "HIGHTOWER RD NW @ WHITING ST NW", "mode": "bus"}}, {"type": "Feature", "geometry": {"type": "Point", "coordinates": [-84.474419, 33.781283]}, "properties": {"kind": "stop", "name": "HIGHTOWER RD @ 954", "mode": "bus"}}, {"type": "Feature", "geometry": {"type": "Point", "coordinates": [-84.473399, 33.782673]}, "properties": {"kind": "stop", "name": "HIGHTOWER RD NW @ JAMES DR NW", "mode": "bus"}}, {"type": "Feature", "geometry": {"type": "Point", "coordinates": [-84.464667, 33.776784]}, "properties": {"kind": "stop", "name": "DONALD L HOLLOWELL PKY @ CENTER HILL AVE", "mode": "bus"}}, {"type": "Feature", "geometry": {"type": "Point", "coordinates": [-84.466081, 33.776135]}, "properties": {"kind": "stop", "name": "DONALD L HOLLOWELL PKY @ HALL ST", "mode": "bus"}}, {"type": "Feature", "geometry": {"type": "Point", "coordinates": [-84.427103, 33.771792]}, "properties": {"kind": "stop", "name": "DONALD L HOLLOWELL PKWY @ STIFF ST", "mode": "bus"}}, {"type": "Feature", "geometry": {"type": "Point", "coordinates": [-84.426017, 33.775518]}, "properties": {"kind": "stop", "name": "MARIETTA BLVD NW @ JEFFERSON ST NW", "mode": "bus"}}, {"type": "Feature", "geometry": {"type": "Point", "coordinates": [-84.4265, 33.7778]}, "properties": {"kind": "stop", "name": "MARIETTA BLVD NW @ RICE ST NW", "mode": "bus"}}, {"type": "Feature", "geometry": {"type": "Point", "coordinates": [-84.428299, 33.779687]}, "properties": {"kind": "stop", "name": "MARIETTA BLVD NW @ 860", "mode": "bus"}}, {"type": "Feature", "geometry": {"type": "Point", "coordinates": [-84.419599, 33.773259]}, "properties": {"kind": "stop", "name": "DONALD L HOLLOWELL PKWY @ ADDIE ST", "mode": "bus"}}, {"type": "Feature", "geometry": {"type": "Point", "coordinates": [-84.426094, 33.775625]}, "properties": {"kind": "stop", "name": "MARIETTA BLVD NW @ JEFFERSON ST NW", "mode": "bus"}}, {"type": "Feature", "geometry": {"type": "Point", "coordinates": [-84.426491, 33.777424]}, "properties": {"kind": "stop", "name": "MARIETTA BLVD NW @ RICE ST", "mode": "bus"}}, {"type": "Feature", "geometry": {"type": "Point", "coordinates": [-84.428366, 33.779552]}, "properties": {"kind": "stop", "name": "MARIETTA BLVD NW @ 860", "mode": "bus"}}, {"type": "Feature", "geometry": {"type": "Point", "coordinates": [-84.429801, 33.782658]}, "properties": {"kind": "stop", "name": "MARIETTA BLVD NW @ 930", "mode": "bus"}}, {"type": "Feature", "geometry": {"type": "Point", "coordinates": [-84.42432, 33.76357]}, "properties": {"kind": "stop", "name": "JOSEPH E BOONE BLVD @ ARCHER WAY NW", "mode": "bus"}}, {"type": "Feature", "geometry": {"type": "Point", "coordinates": [-84.427091, 33.76366]}, "properties": {"kind": "stop", "name": "JOSEPH E BOONE BLVD @ TROY ST NW", "mode": "bus"}}, {"type": "Feature", "geometry": {"type": "Point", "coordinates": [-84.429775, 33.763601]}, "properties": {"kind": "stop", "name": "JOSEPH E BOONE BLVD @ MAYSON TURNER RD NW", "mode": "bus"}}, {"type": "Feature", "geometry": {"type": "Point", "coordinates": [-84.432652, 33.763718]}, "properties": {"kind": "stop", "name": "JOSEPH E BOONE BLVD @ CHAPPELL RD NW", "mode": "bus"}}, {"type": "Feature", "geometry": {"type": "Point", "coordinates": [-84.435135, 33.763605]}, "properties": {"kind": "stop", "name": "JOSEPH E BOONE BLVD NW @ WOODLAWN AVE NW", "mode": "bus"}}, {"type": "Feature", "geometry": {"type": "Point", "coordinates": [-84.437777, 33.763316]}, "properties": {"kind": "stop", "name": "HOLLY RD NW @ JOSEPH E BOONE BLVD", "mode": "bus"}}, {"type": "Feature", "geometry": {"type": "Point", "coordinates": [-84.438019, 33.761169]}, "properties": {"kind": "stop", "name": "HOLLY RD NW@236", "mode": "bus"}}, {"type": "Feature", "geometry": {"type": "Point", "coordinates": [-84.438011, 33.760178]}, "properties": {"kind": "stop", "name": "HOLLY RD NW@ANDREWS ST NW", "mode": "bus"}}, {"type": "Feature", "geometry": {"type": "Point", "coordinates": [-84.437996, 33.758984]}, "properties": {"kind": "stop", "name": "HOLLY RD NW@WILLIS ST NW", "mode": "bus"}}, {"type": "Feature", "geometry": {"type": "Point", "coordinates": [-84.437891, 33.756709]}, "properties": {"kind": "stop", "name": "HOLLY RD NW @ EZRA CHURCH DR NW", "mode": "bus"}}, {"type": "Feature", "geometry": {"type": "Point", "coordinates": [-84.447159, 33.763755]}, "properties": {"kind": "stop", "name": "JOSEPH E BOONE BLVD @ SIMPSON TER NW", "mode": "bus"}}, {"type": "Feature", "geometry": {"type": "Point", "coordinates": [-84.449205, 33.763734]}, "properties": {"kind": "stop", "name": "JOSEPH E BOONE BLVD @ DIXIE HILLS CIR NW", "mode": "bus"}}, {"type": "Feature", "geometry": {"type": "Point", "coordinates": [-84.444159, 33.755961]}, "properties": {"kind": "stop", "name": "W LAKE AVE NW @ PORTER DR NW", "mode": "bus"}}, {"type": "Feature", "geometry": {"type": "Point", "coordinates": [-84.444194, 33.758019]}, "properties": {"kind": "stop", "name": "W LAKE AVE NW @ CALLOWAY DR NW", "mode": "bus"}}, {"type": "Feature", "geometry": {"type": "Point", "coordinates": [-84.443316, 33.773595]}, "properties": {"kind": "stop", "name": "DONALD L HOLLOWELL PKY @ MATILDA PL NW", "mode": "bus"}}, {"type": "Feature", "geometry": {"type": "Point", "coordinates": [-84.444719, 33.774103]}, "properties": {"kind": "stop", "name": "DONALD L HOLLOWELL PKY @ GERTRUDE PL NW", "mode": "bus"}}, {"type": "Feature", "geometry": {"type": "Point", "coordinates": [-84.4456, 33.774255]}, "properties": {"kind": "stop", "name": "DONALD L HOLLOWELL PKY @ EVELYN PL NW", "mode": "bus"}}, {"type": "Feature", "geometry": {"type": "Point", "coordinates": [-84.447548, 33.775049]}, "properties": {"kind": "stop", "name": "DONALD L HOLLOWELL PKY @ ELIZABETH PL NW", "mode": "bus"}}, {"type": "Feature", "geometry": {"type": "Point", "coordinates": [-84.448952, 33.776131]}, "properties": {"kind": "stop", "name": "DONALD L HOLLOWELL PKY @ EDWIN PL NW", "mode": "bus"}}, {"type": "Feature", "geometry": {"type": "Point", "coordinates": [-84.420229, 33.773151]}, "properties": {"kind": "stop", "name": "DONALD L HOLLOWELL PKWY @ SIMMONS ST", "mode": "bus"}}, {"type": "Feature", "geometry": {"type": "Point", "coordinates": [-84.425452, 33.77332]}, "properties": {"kind": "stop", "name": "MARIETTA BLVD @ DONALD L HOLLOWELL PKWY", "mode": "bus"}}, {"type": "Feature", "geometry": {"type": "Point", "coordinates": [-84.433787, 33.771349]}, "properties": {"kind": "stop", "name": "DONALD L HOLLOWELL PKY @ CHAPPELL RD NW", "mode": "bus"}}, {"type": "Feature", "geometry": {"type": "Point", "coordinates": [-84.431178, 33.771852]}, "properties": {"kind": "stop", "name": "DONALD L HOLLOWELL PKY @ PIERCE AVE NW", "mode": "bus"}}, {"type": "Feature", "geometry": {"type": "Point", "coordinates": [-84.449269, 33.75617]}, "properties": {"kind": "stop", "name": "ANDERSON AVE NW @ 83", "mode": "bus"}}, {"type": "Feature", "geometry": {"type": "Point", "coordinates": [-84.45012, 33.758201]}, "properties": {"kind": "stop", "name": "ANDERSON AVE NW @ CALLOWAY DR NW", "mode": "bus"}}, {"type": "Feature", "geometry": {"type": "Point", "coordinates": [-84.451004, 33.760133]}, "properties": {"kind": "stop", "name": "TIGER FLOWERS DR @ ANDERSON AVE NW", "mode": "bus"}}, {"type": "Feature", "geometry": {"type": "Point", "coordinates": [-84.447269, 33.763584]}, "properties": {"kind": "stop", "name": "JOSEPH E BOONE BLVD NW @ SIMPSON TER NW", "mode": "bus"}}, {"type": "Feature", "geometry": {"type": "Point", "coordinates": [-84.444249, 33.7581]}, "properties": {"kind": "stop", "name": "W LAKE AVE NW @ CALLOWAY DR NW", "mode": "bus"}}, {"type": "Feature", "geometry": {"type": "Point", "coordinates": [-84.444235, 33.755907]}, "properties": {"kind": "stop", "name": "W LAKE AVE NW @ PORTER DR NW", "mode": "bus"}}, {"type": "Feature", "geometry": {"type": "Point", "coordinates": [-84.437605, 33.757507]}, "properties": {"kind": "stop", "name": "EASON ST NW@HOLLY RD NW", "mode": "bus"}}, {"type": "Feature", "geometry": {"type": "Point", "coordinates": [-84.437737, 33.758375]}, "properties": {"kind": "stop", "name": "HOLLY RD NW@AKRIDGE ST NW", "mode": "bus"}}, {"type": "Feature", "geometry": {"type": "Point", "coordinates": [-84.43774, 33.760246]}, "properties": {"kind": "stop", "name": "HOLLY RD NW@ANDREWS ST NW", "mode": "bus"}}, {"type": "Feature", "geometry": {"type": "Point", "coordinates": [-84.435287, 33.763488]}, "properties": {"kind": "stop", "name": "JOSEPH E BOONE BLVD @ WOODLAWN AVE", "mode": "bus"}}, {"type": "Feature", "geometry": {"type": "Point", "coordinates": [-84.433143, 33.763479]}, "properties": {"kind": "stop", "name": "JOSEPH E BOONE BLVD @ CHAPPELL RD", "mode": "bus"}}, {"type": "Feature", "geometry": {"type": "Point", "coordinates": [-84.429862, 33.763484]}, "properties": {"kind": "stop", "name": "JOSEPH E BOONE BLVD @ BURBANK DR NW", "mode": "bus"}}, {"type": "Feature", "geometry": {"type": "Point", "coordinates": [-84.42689, 33.76348]}, "properties": {"kind": "stop", "name": "JOSEPH E BOONE BLVD NW @ TROY ST NW", "mode": "bus"}}, {"type": "Feature", "geometry": {"type": "Point", "coordinates": [-84.425488, 33.763402]}, "properties": {"kind": "stop", "name": "JOSEPH E BOONE BLVD @ MAYSON TURNER", "mode": "bus"}}, {"type": "Feature", "geometry": {"type": "Point", "coordinates": [-84.449039, 33.776095]}, "properties": {"kind": "stop", "name": "DONALD L HOLLOWELL PKY @ EDWIN PL NW", "mode": "bus"}}, {"type": "Feature", "geometry": {"type": "Point", "coordinates": [-84.447526, 33.774933]}, "properties": {"kind": "stop", "name": "DONALD L HOLLOWELL PKY @  ELIZABETH PL NW", "mode": "bus"}}, {"type": "Feature", "geometry": {"type": "Point", "coordinates": [-84.446013, 33.774263]}, "properties": {"kind": "stop", "name": "DONALD L HOLLOWELL PKY @ EVELYN PL NW", "mode": "bus"}}, {"type": "Feature", "geometry": {"type": "Point", "coordinates": [-84.444599, 33.774014]}, "properties": {"kind": "stop", "name": "DONALD L HOLLOWELL PKY @ GERTRUDE PL NW", "mode": "bus"}}, {"type": "Feature", "geometry": {"type": "Point", "coordinates": [-84.443431, 33.773395]}, "properties": {"kind": "stop", "name": "DONALD L HOLLOWELL PKY @ MATILDA PL NW", "mode": "bus"}}, {"type": "Feature", "geometry": {"type": "Point", "coordinates": [-84.442282, 33.772942]}, "properties": {"kind": "stop", "name": "DONALD L HOLLOWELL PKY @ W LAKE AVE NW", "mode": "bus"}}, {"type": "Feature", "geometry": {"type": "Point", "coordinates": [-84.440559, 33.77198]}, "properties": {"kind": "stop", "name": "DONALD L HOLLOWELL PKY @ HORTENSE PL", "mode": "bus"}}, {"type": "Feature", "geometry": {"type": "Point", "coordinates": [-84.438904, 33.77142]}, "properties": {"kind": "stop", "name": "DONALD L HOLLOWELL PKY @ ELMWOOD RD NW", "mode": "bus"}}, {"type": "Feature", "geometry": {"type": "Point", "coordinates": [-84.437791, 33.77142]}, "properties": {"kind": "stop", "name": "DONALD L HOLLOWELL PKY @ HOLLY ST NW", "mode": "bus"}}, {"type": "Feature", "geometry": {"type": "Point", "coordinates": [-84.434227, 33.771137]}, "properties": {"kind": "stop", "name": "DONALD L HOLLOWELL PKY @ CHAPPELL RD NW", "mode": "bus"}}, {"type": "Feature", "geometry": {"type": "Point", "coordinates": [-84.441887, 33.770616]}, "properties": {"kind": "stop", "name": "LAKE AVE NW@MADRONA ST NW", "mode": "bus"}}, {"type": "Feature", "geometry": {"type": "Point", "coordinates": [-84.441035, 33.768074]}, "properties": {"kind": "stop", "name": "LAKE AVE NW@NORTH AVE NW", "mode": "bus"}}, {"type": "Feature", "geometry": {"type": "Point", "coordinates": [-84.441011, 33.76683]}, "properties": {"kind": "stop", "name": "W LAKE AVE NW @ NEKOMA ST NW", "mode": "bus"}}, {"type": "Feature", "geometry": {"type": "Point", "coordinates": [-84.441031, 33.76581]}, "properties": {"kind": "stop", "name": "W LAKE AVE NW @ CARLISLE ST", "mode": "bus"}}, {"type": "Feature", "geometry": {"type": "Point", "coordinates": [-84.441073, 33.764494]}, "properties": {"kind": "stop", "name": "W LAKE AVE NW @ JOSEPH E BOONE BLVD", "mode": "bus"}}, {"type": "Feature", "geometry": {"type": "Point", "coordinates": [-84.443696, 33.7593]}, "properties": {"kind": "stop", "name": "W LAKE AVE NW @ LAKE CT NW", "mode": "bus"}}, {"type": "Feature", "geometry": {"type": "Point", "coordinates": [-84.443686, 33.759586]}, "properties": {"kind": "stop", "name": "W LAKE AVE NW @ TIGER FLOWERS DR NW", "mode": "bus"}}, {"type": "Feature", "geometry": {"type": "Point", "coordinates": [-84.443078, 33.760571]}, "properties": {"kind": "stop", "name": "W LAKE AVE NW @ SPRINGVIEW RD NW", "mode": "bus"}}, {"type": "Feature", "geometry": {"type": "Point", "coordinates": [-84.441732, 33.761522]}, "properties": {"kind": "stop", "name": "W LAKE AVE NW @ EZRA CHURCH DR NW", "mode": "bus"}}, {"type": "Feature", "geometry": {"type": "Point", "coordinates": [-84.441688, 33.761665]}, "properties": {"kind": "stop", "name": "W LAKE AVE NW @ EZRA CHURCH DR NW", "mode": "bus"}}, {"type": "Feature", "geometry": {"type": "Point", "coordinates": [-84.440973, 33.763366]}, "properties": {"kind": "stop", "name": "W LAKE AVE NW @ JOSEPH E BOONE BLVD NW", "mode": "bus"}}, {"type": "Feature", "geometry": {"type": "Point", "coordinates": [-84.440474, 33.763608]}, "properties": {"kind": "stop", "name": "JOSEPH E BOONE BLVD @ W LAKE AVE NW", "mode": "bus"}}, {"type": "Feature", "geometry": {"type": "Point", "coordinates": [-84.440926, 33.76461]}, "properties": {"kind": "stop", "name": "W LAKE AVE NW @ 359", "mode": "bus"}}, {"type": "Feature", "geometry": {"type": "Point", "coordinates": [-84.440944, 33.76581]}, "properties": {"kind": "stop", "name": "W LAKE AVE NW @ CARLISLE ST NW", "mode": "bus"}}, {"type": "Feature", "geometry": {"type": "Point", "coordinates": [-84.440903, 33.766594]}, "properties": {"kind": "stop", "name": "W LAKE AVE NW @ NEKOMA ST NW", "mode": "bus"}}, {"type": "Feature", "geometry": {"type": "Point", "coordinates": [-84.440918, 33.767765]}, "properties": {"kind": "stop", "name": "W LAKE AVE NW @ NORTH AVE NW", "mode": "bus"}}, {"type": "Feature", "geometry": {"type": "Point", "coordinates": [-84.441789, 33.770607]}, "properties": {"kind": "stop", "name": "LAKE AVE NW@MADRONA ST NW", "mode": "bus"}}, {"type": "Feature", "geometry": {"type": "Point", "coordinates": [-84.450379, 33.777221]}, "properties": {"kind": "stop", "name": "HOLLYWOOD RD NW@MARGARET PL NW", "mode": "bus"}}, {"type": "Feature", "geometry": {"type": "Point", "coordinates": [-84.447124, 33.768399]}, "properties": {"kind": "stop", "name": "NORTH AVE NW@MARKTWO PL NW", "mode": "bus"}}, {"type": "Feature", "geometry": {"type": "Point", "coordinates": [-84.444482, 33.768366]}, "properties": {"kind": "stop", "name": "NORTH AVE NW@BLANCHE ST NW", "mode": "bus"}}, {"type": "Feature", "geometry": {"type": "Point", "coordinates": [-84.442568, 33.768028]}, "properties": {"kind": "stop", "name": "NORTH AVE NW@1676", "mode": "bus"}}, {"type": "Feature", "geometry": {"type": "Point", "coordinates": [-84.441013, 33.768012]}, "properties": {"kind": "stop", "name": "NORTH AVE NW @ W LAKE AVE NW", "mode": "bus"}}, {"type": "Feature", "geometry": {"type": "Point", "coordinates": [-84.438936, 33.768005]}, "properties": {"kind": "stop", "name": "NORTH AVE NW @ ELMWOOD RD", "mode": "bus"}}, {"type": "Feature", "geometry": {"type": "Point", "coordinates": [-84.446961, 33.768471]}, "properties": {"kind": "stop", "name": "NORTH AVE NW @ MARKTWO PL NW", "mode": "bus"}}, {"type": "Feature", "geometry": {"type": "Point", "coordinates": [-84.445994, 33.768472]}, "properties": {"kind": "stop", "name": "NORTH AVE NW @ EVELYN PL NW", "mode": "bus"}}, {"type": "Feature", "geometry": {"type": "Point", "coordinates": [-84.444384, 33.76842]}, "properties": {"kind": "stop", "name": "NORTH AVE NW @ BLANCHE ST NW", "mode": "bus"}}, {"type": "Feature", "geometry": {"type": "Point", "coordinates": [-84.442307, 33.7681]}, "properties": {"kind": "stop", "name": "NORTH AVE NW @ 1667", "mode": "bus"}}, {"type": "Feature", "geometry": {"type": "Point", "coordinates": [-84.440904, 33.768083]}, "properties": {"kind": "stop", "name": "NORTH AVE NW @ WLAKE AVE NW", "mode": "bus"}}, {"type": "Feature", "geometry": {"type": "Point", "coordinates": [-84.436109, 33.768017]}, "properties": {"kind": "stop", "name": "NORTH AVE NW@WOODLAWN AVE NW", "mode": "bus"}}, {"type": "Feature", "geometry": {"type": "Point", "coordinates": [-84.43313, 33.767939]}, "properties": {"kind": "stop", "name": "NORTH AVE NW@CHAPPELL RD NW", "mode": "bus"}}, {"type": "Feature", "geometry": {"type": "Point", "coordinates": [-84.43314, 33.767867]}, "properties": {"kind": "stop", "name": "NORTH AVE NW@ CHAPPELL RD", "mode": "bus"}}, {"type": "Feature", "geometry": {"type": "Point", "coordinates": [-84.445874, 33.768401]}, "properties": {"kind": "stop", "name": "NORTH AVE NW@EVELYN PL NW", "mode": "bus"}}, {"type": "Feature", "geometry": {"type": "Point", "coordinates": [-84.437528, 33.771542]}, "properties": {"kind": "stop", "name": "DONALD L HOLLOWELL PKY @ HOLLY ST NW", "mode": "bus"}}, {"type": "Feature", "geometry": {"type": "Point", "coordinates": [-84.439061, 33.77171]}, "properties": {"kind": "stop", "name": "DONALD L HOLLOWELL PKY @ ELMWOOD RD NW", "mode": "bus"}}, {"type": "Feature", "geometry": {"type": "Point", "coordinates": [-84.441757, 33.772781]}, "properties": {"kind": "stop", "name": "DONALD L HOLLOWELL PKY @ FLORENCE PL NW", "mode": "bus"}}, {"type": "Feature", "geometry": {"type": "Point", "coordinates": [-84.449878, 33.776774]}, "properties": {"kind": "stop", "name": "HOLLYWOOD RD NW@BANKHEAD HWY NW", "mode": "bus"}}, {"type": "Feature", "geometry": {"type": "Point", "coordinates": [-84.431232, 33.771772]}, "properties": {"kind": "stop", "name": "DONALD L HOLLOWELL PKY @ PIERCE AVE NW", "mode": "bus"}}, {"type": "Feature", "geometry": {"type": "Point", "coordinates": [-84.441944, 33.772352]}, "properties": {"kind": "stop", "name": "W LAKE AVE@DONALD L HOLLOWELL PKWY", "mode": "bus"}}, {"type": "Feature", "geometry": {"type": "Point", "coordinates": [-84.425327, 33.77299]}, "properties": {"kind": "stop", "name": "MARIETTA BLVD @ DONALD L HOLLOWELL PKY", "mode": "bus"}}, {"type": "Feature", "geometry": {"type": "Point", "coordinates": [-84.429201, 33.783307]}, "properties": {"kind": "stop", "name": "MARIETTA BLVD NW @ 1079", "mode": "bus"}}, {"type": "Feature", "geometry": {"type": "Point", "coordinates": [-84.428966, 33.772621]}, "properties": {"kind": "stop", "name": "BANKHEAD STATION", "mode": "bus"}}, {"type": "Feature", "geometry": {"type": "Point", "coordinates": [-84.468511, 33.755727]}, "properties": {"kind": "stop", "name": "HAMILTON E HOLMES DR NW @ BURTON RD NW", "mode": "bus"}}, {"type": "Feature", "geometry": {"type": "Point", "coordinates": [-84.470229, 33.754334]}, "properties": {"kind": "stop", "name": "HAMILTON E HOLMES STATION - OUTSIDE LOOP", "mode": "bus"}}, {"type": "Feature", "geometry": {"type": "Point", "coordinates": [-84.469668, 33.752718]}, "properties": {"kind": "stop", "name": "MARTIN L KING JR DR SW @ 2500", "mode": "bus"}}, {"type": "Feature", "geometry": {"type": "Point", "coordinates": [-84.472355, 33.753583]}, "properties": {"kind": "stop", "name": "MARTIN L KING JR DR SW @ WESTLAND BLVD NW", "mode": "bus"}}, {"type": "Feature", "geometry": {"type": "Point", "coordinates": [-84.476135, 33.754337]}, "properties": {"kind": "stop", "name": "MARTIN L KING JR DR SW @ PEYTON PL SW", "mode": "bus"}}, {"type": "Feature", "geometry": {"type": "Point", "coordinates": [-84.476466, 33.754249]}, "properties": {"kind": "stop", "name": "MARTIN LUTHER KING J DR SW@PEYTON P", "mode": "bus"}}, {"type": "Feature", "geometry": {"type": "Point", "coordinates": [-84.473551, 33.753734]}, "properties": {"kind": "stop", "name": "MARTIN L KING JR DR @ WESTLAND BLVD NW", "mode": "bus"}}, {"type": "Feature", "geometry": {"type": "Point", "coordinates": [-84.472257, 33.753458]}, "properties": {"kind": "stop", "name": "MARTIN L KING JR DR @ 2600", "mode": "bus"}}, {"type": "Feature", "geometry": {"type": "Point", "coordinates": [-84.467482, 33.752336]}, "properties": {"kind": "stop", "name": "HAMILTON E HOLMES @ MARTIN L KING JR DR", "mode": "bus"}}, {"type": "Feature", "geometry": {"type": "Point", "coordinates": [-84.469058, 33.754259]}, "properties": {"kind": "stop", "name": "HAMILTON E HOLMES STATION - BUS LOOP", "mode": "bus"}}, {"type": "Feature", "geometry": {"type": "Point", "coordinates": [-84.46717, 33.75249]}, "properties": {"kind": "stop", "name": "HAMILTON E HOLMES @ MARTIN L KING JR DR", "mode": "bus"}}, {"type": "Feature", "geometry": {"type": "Point", "coordinates": [-84.471253, 33.755852]}, "properties": {"kind": "stop", "name": "BURTON RD NW @ LAUREL CIR NW", "mode": "bus"}}, {"type": "Feature", "geometry": {"type": "Point", "coordinates": [-84.434686, 33.753768]}, "properties": {"kind": "stop", "name": "MARTIN L KING JR DR NW @ 1457", "mode": "bus"}}, {"type": "Feature", "geometry": {"type": "Point", "coordinates": [-84.436012, 33.753471]}, "properties": {"kind": "stop", "name": "MARTIN L KING JR DR NW @ MATHEWSON PL SW", "mode": "bus"}}, {"type": "Feature", "geometry": {"type": "Point", "coordinates": [-84.437096, 33.753025]}, "properties": {"kind": "stop", "name": "MARTIN L KING JR DR NW @ WELLINGTON ST SW", "mode": "bus"}}, {"type": "Feature", "geometry": {"type": "Point", "coordinates": [-84.438178, 33.752901]}, "properties": {"kind": "stop", "name": "MARTIN L KING JR DR NW @ WELLINGTON ST SW", "mode": "bus"}}, {"type": "Feature", "geometry": {"type": "Point", "coordinates": [-84.440413, 33.751999]}, "properties": {"kind": "stop", "name": "MARTIN L KING JR DR NW @ BROWNING ST SW", "mode": "bus"}}, {"type": "Feature", "geometry": {"type": "Point", "coordinates": [-84.458321, 33.747791]}, "properties": {"kind": "stop", "name": "WYNNWOOD DR SW @ LARCHWOOD ST", "mode": "bus"}}, {"type": "Feature", "geometry": {"type": "Point", "coordinates": [-84.444008, 33.749695]}, "properties": {"kind": "stop", "name": "RALPH D ABERNATHY BLVD @ W LAKE AVE SW", "mode": "bus"}}, {"type": "Feature", "geometry": {"type": "Point", "coordinates": [-84.445982, 33.75373]}, "properties": {"kind": "stop", "name": "ANDERSON AVE SW @ PENELOPE RD NW", "mode": "bus"}}, {"type": "Feature", "geometry": {"type": "Point", "coordinates": [-84.445918, 33.754777]}, "properties": {"kind": "stop", "name": "ANDERSON AVE SW @ 25", "mode": "bus"}}, {"type": "Feature", "geometry": {"type": "Point", "coordinates": [-84.447451, 33.755152]}, "properties": {"kind": "stop", "name": "WATERBURY DR NW @ 56", "mode": "bus"}}, {"type": "Feature", "geometry": {"type": "Point", "coordinates": [-84.448734, 33.75515]}, "properties": {"kind": "stop", "name": "WATERBURY DR @ ANDERSON AVE SW", "mode": "bus"}}, {"type": "Feature", "geometry": {"type": "Point", "coordinates": [-84.458279, 33.755086]}, "properties": {"kind": "stop", "name": "VERBENA ST NW @ WADLEY ST NW", "mode": "bus"}}, {"type": "Feature", "geometry": {"type": "Point", "coordinates": [-84.459203, 33.755085]}, "properties": {"kind": "stop", "name": "VERBENA ST NW @ LAMAR AVE NW", "mode": "bus"}}, {"type": "Feature", "geometry": {"type": "Point", "coordinates": [-84.446177, 33.753783]}, "properties": {"kind": "stop", "name": "PENELOPE RD NW@ANDERSON AVE SW", "mode": "bus"}}, {"type": "Feature", "geometry": {"type": "Point", "coordinates": [-84.447536, 33.753818]}, "properties": {"kind": "stop", "name": "PENELOPE RD NW@HELENA AVE NW", "mode": "bus"}}, {"type": "Feature", "geometry": {"type": "Point", "coordinates": [-84.449515, 33.753789]}, "properties": {"kind": "stop", "name": "PENELOPE RD NW@PENELOPE DR NW", "mode": "bus"}}, {"type": "Feature", "geometry": {"type": "Point", "coordinates": [-84.451514, 33.752838]}, "properties": {"kind": "stop", "name": "PENELOPE ST NW@AARON ST NW", "mode": "bus"}}, {"type": "Feature", "geometry": {"type": "Point", "coordinates": [-84.433436, 33.753751]}, "properties": {"kind": "stop", "name": "MARTIN LUTHER KING J DR@CHAPPELL RD", "mode": "bus"}}, {"type": "Feature", "geometry": {"type": "Point", "coordinates": [-84.436186, 33.753328]}, "properties": {"kind": "stop", "name": "MARTIN L KING JR DR NW @ MATHEWSON PL SW", "mode": "bus"}}, {"type": "Feature", "geometry": {"type": "Point", "coordinates": [-84.43799, 33.752834]}, "properties": {"kind": "stop", "name": "MARTIN L KING JR DR NW @ WELLINGTON ST SW", "mode": "bus"}}, {"type": "Feature", "geometry": {"type": "Point", "coordinates": [-84.440217, 33.752026]}, "properties": {"kind": "stop", "name": "MARTIN L KING JR DR @ LAUREL AVE SW", "mode": "bus"}}, {"type": "Feature", "geometry": {"type": "Point", "coordinates": [-84.441282, 33.75164]}, "properties": {"kind": "stop", "name": "MARTIN L KING JR DR NW @ RACINE ST SW", "mode": "bus"}}, {"type": "Feature", "geometry": {"type": "Point", "coordinates": [-84.443075, 33.751289]}, "properties": {"kind": "stop", "name": "MARTIN L KING JR DR NW @ GORDON TER", "mode": "bus"}}, {"type": "Feature", "geometry": {"type": "Point", "coordinates": [-84.434947, 33.753651]}, "properties": {"kind": "stop", "name": "MARTIN L KING JR DR NW @ 1444", "mode": "bus"}}, {"type": "Feature", "geometry": {"type": "Point", "coordinates": [-84.461715, 33.748888]}, "properties": {"kind": "stop", "name": "BARFIELD AVE SW @ WINGATE ST SW", "mode": "bus"}}, {"type": "Feature", "geometry": {"type": "Point", "coordinates": [-84.461723, 33.747635]}, "properties": {"kind": "stop", "name": "BARFIELD AVE SW @ LARCHWOOD ST SW", "mode": "bus"}}, {"type": "Feature", "geometry": {"type": "Point", "coordinates": [-84.461049, 33.747501]}, "properties": {"kind": "stop", "name": "LARCHWOOD ST SW @ CAMFIELD CT SW", "mode": "bus"}}, {"type": "Feature", "geometry": {"type": "Point", "coordinates": [-84.459614, 33.747503]}, "properties": {"kind": "stop", "name": "LARCHWOOD ST SW @ AUTUMN LN SW", "mode": "bus"}}, {"type": "Feature", "geometry": {"type": "Point", "coordinates": [-84.458394, 33.748879]}, "properties": {"kind": "stop", "name": "WYNNWOOD DR @ WINGATE ST", "mode": "bus"}}, {"type": "Feature", "geometry": {"type": "Point", "coordinates": [-84.458358, 33.750082]}, "properties": {"kind": "stop", "name": "WYNNWOOD DR @ TELHURST DR", "mode": "bus"}}, {"type": "Feature", "geometry": {"type": "Point", "coordinates": [-84.456923, 33.750272]}, "properties": {"kind": "stop", "name": "MARTIN LUTHER KING J DR@LARCHWOOD", "mode": "bus"}}, {"type": "Feature", "geometry": {"type": "Point", "coordinates": [-84.45289, 33.749981]}, "properties": {"kind": "stop", "name": "MARTIN LUTHER KING J DR SW@2035", "mode": "bus"}}, {"type": "Feature", "geometry": {"type": "Point", "coordinates": [-84.450509, 33.750163]}, "properties": {"kind": "stop", "name": "MARTIN L KING JR DR SW @ 2001", "mode": "bus"}}, {"type": "Feature", "geometry": {"type": "Point", "coordinates": [-84.473611, 33.773515]}, "properties": {"kind": "stop", "name": "HAMILTON E HOLMES DR NW@WASHINGTON", "mode": "bus"}}, {"type": "Feature", "geometry": {"type": "Point", "coordinates": [-84.473542, 33.771832]}, "properties": {"kind": "stop", "name": "HAMILTON E HOLMES DR NW@OLDKNOW DR", "mode": "bus"}}, {"type": "Feature", "geometry": {"type": "Point", "coordinates": [-84.473235, 33.770471]}, "properties": {"kind": "stop", "name": "HAMILTON E HOLMES DR @ BAKER RIDGE DR", "mode": "bus"}}, {"type": "Feature", "geometry": {"type": "Point", "coordinates": [-84.472037, 33.769176]}, "properties": {"kind": "stop", "name": "HAMILTON E HOLMES DR NW @ BAKER RD NW", "mode": "bus"}}, {"type": "Feature", "geometry": {"type": "Point", "coordinates": [-84.471285, 33.768407]}, "properties": {"kind": "stop", "name": "HAMILTON E HOLMES DR NW@RENFRO DR N", "mode": "bus"}}, {"type": "Feature", "geometry": {"type": "Point", "coordinates": [-84.470259, 33.767579]}, "properties": {"kind": "stop", "name": "HAMILTON E HOLMES DR NW@RYNE ST NW", "mode": "bus"}}, {"type": "Feature", "geometry": {"type": "Point", "coordinates": [-84.470451, 33.766739]}, "properties": {"kind": "stop", "name": "HAMILTON E HOLMES DR@SANTA BARBARA", "mode": "bus"}}, {"type": "Feature", "geometry": {"type": "Point", "coordinates": [-84.47036, 33.765347]}, "properties": {"kind": "stop", "name": "HAMILTON E HOLMES DR@SANTA BARBARA", "mode": "bus"}}, {"type": "Feature", "geometry": {"type": "Point", "coordinates": [-84.4702, 33.763901]}, "properties": {"kind": "stop", "name": "HAMILTON E HOLMES DR NW@COLLIER DR", "mode": "bus"}}, {"type": "Feature", "geometry": {"type": "Point", "coordinates": [-84.469838, 33.761717]}, "properties": {"kind": "stop", "name": "HAMILTON E HOLMES DR NW @ HIGHTOWER CT", "mode": "bus"}}, {"type": "Feature", "geometry": {"type": "Point", "coordinates": [-84.469538, 33.759597]}, "properties": {"kind": "stop", "name": "HAMILTON E HOLMES DR NW @ GODFREY DR", "mode": "bus"}}, {"type": "Feature", "geometry": {"type": "Point", "coordinates": [-84.46875, 33.755879]}, "properties": {"kind": "stop", "name": "HAMILTON E HOLMES DR NW @ BURTON RD NW", "mode": "bus"}}, {"type": "Feature", "geometry": {"type": "Point", "coordinates": [-84.447651, 33.750515]}, "properties": {"kind": "stop", "name": "MARTIN L KING JR DR SW @ ANDERSON AVE NW", "mode": "bus"}}, {"type": "Feature", "geometry": {"type": "Point", "coordinates": [-84.451042, 33.750207]}, "properties": {"kind": "stop", "name": "MARTIN L KING JR DR SW @ 2001", "mode": "bus"}}, {"type": "Feature", "geometry": {"type": "Point", "coordinates": [-84.453292, 33.750052]}, "properties": {"kind": "stop", "name": "MARTIN L KING JR DR SW @ 2051", "mode": "bus"}}, {"type": "Feature", "geometry": {"type": "Point", "coordinates": [-84.455194, 33.749951]}, "properties": {"kind": "stop", "name": "MARTIN L KING JR DR SW @ 2085", "mode": "bus"}}, {"type": "Feature", "geometry": {"type": "Point", "coordinates": [-84.46672, 33.751728]}, "properties": {"kind": "stop", "name": "MARTIN L KING JR DR @ WILLIS MILL RD SW", "mode": "bus"}}, {"type": "Feature", "geometry": {"type": "Point", "coordinates": [-84.456898, 33.750377]}, "properties": {"kind": "stop", "name": "MARTIN L KING JR DR SW @ WILSON AVE", "mode": "bus"}}, {"type": "Feature", "geometry": {"type": "Point", "coordinates": [-84.461686, 33.751126]}, "properties": {"kind": "stop", "name": "BARFIELD AVE @ MARTIN L KING JR DR SW", "mode": "bus"}}, {"type": "Feature", "geometry": {"type": "Point", "coordinates": [-84.464395, 33.75217]}, "properties": {"kind": "stop", "name": "MARTIN L KING JR DR @ FLORIDA AVE", "mode": "bus"}}, {"type": "Feature", "geometry": {"type": "Point", "coordinates": [-84.46281, 33.752544]}, "properties": {"kind": "stop", "name": "MARTIN L KING JR DR SW @ FAIRFIELD PL NW", "mode": "bus"}}, {"type": "Feature", "geometry": {"type": "Point", "coordinates": [-84.464275, 33.752286]}, "properties": {"kind": "stop", "name": "MARTIN L KING JR DR NW @ FLORIDA AVE SW", "mode": "bus"}}, {"type": "Feature", "geometry": {"type": "Point", "coordinates": [-84.466808, 33.751826]}, "properties": {"kind": "stop", "name": "MARTIN L KING JR DR SW @ HAMILTON E HOLMES DR NW", "mode": "bus"}}, {"type": "Feature", "geometry": {"type": "Point", "coordinates": [-84.462116, 33.751932]}, "properties": {"kind": "stop", "name": "MARTIN L KING JR DR SW @ BARFIELD AVE SW", "mode": "bus"}}, {"type": "Feature", "geometry": {"type": "Point", "coordinates": [-84.436544, 33.749551]}, "properties": {"kind": "stop", "name": "MIMS ST SW @ MATHEWSON PL SW", "mode": "bus"}}, {"type": "Feature", "geometry": {"type": "Point", "coordinates": [-84.43804, 33.749576]}, "properties": {"kind": "stop", "name": "MIMS ST SW @ WELLINGTON ST SW", "mode": "bus"}}, {"type": "Feature", "geometry": {"type": "Point", "coordinates": [-84.437966, 33.749833]}, "properties": {"kind": "stop", "name": "MIMS ST SW @ WELLINGTON ST SW", "mode": "bus"}}, {"type": "Feature", "geometry": {"type": "Point", "coordinates": [-84.438281, 33.750927]}, "properties": {"kind": "stop", "name": "WELLINGTON ST SW @ ARCHER ST SW", "mode": "bus"}}, {"type": "Feature", "geometry": {"type": "Point", "coordinates": [-84.438326, 33.751941]}, "properties": {"kind": "stop", "name": "WELLINGTON ST SW @ MOZLEY PL SW", "mode": "bus"}}, {"type": "Feature", "geometry": {"type": "Point", "coordinates": [-84.43835, 33.752451]}, "properties": {"kind": "stop", "name": "WELLINGTON ST @ MARTIN L KING JR DR", "mode": "bus"}}, {"type": "Feature", "geometry": {"type": "Point", "coordinates": [-84.440032, 33.750663]}, "properties": {"kind": "stop", "name": "LAUREL AVE SW@ARCHER ST SW", "mode": "bus"}}, {"type": "Feature", "geometry": {"type": "Point", "coordinates": [-84.439784, 33.749829]}, "properties": {"kind": "stop", "name": "MIMS ST SW@LAUREL AVE SW", "mode": "bus"}}, {"type": "Feature", "geometry": {"type": "Point", "coordinates": [-84.44244, 33.751611]}, "properties": {"kind": "stop", "name": "MARTIN L KING JR DR NW @ FEDERAL DR SW", "mode": "bus"}}, {"type": "Feature", "geometry": {"type": "Point", "coordinates": [-84.44352, 33.751304]}, "properties": {"kind": "stop", "name": "MARTIN L KING JR DR NW @ W LAKE AVE SW", "mode": "bus"}}, {"type": "Feature", "geometry": {"type": "Point", "coordinates": [-84.445906, 33.75232]}, "properties": {"kind": "stop", "name": "ANDERSON AVE @ 93", "mode": "bus"}}, {"type": "Feature", "geometry": {"type": "Point", "coordinates": [-84.44256, 33.748112]}, "properties": {"kind": "stop", "name": "RALPH D ABERNATHY BLVD @ 1701", "mode": "bus"}}, {"type": "Feature", "geometry": {"type": "Point", "coordinates": [-84.441721, 33.747236]}, "properties": {"kind": "stop", "name": "RALPH D ABERNATHY BLVD SW @ WESTVIEW DR SW", "mode": "bus"}}, {"type": "Feature", "geometry": {"type": "Point", "coordinates": [-84.440437, 33.745948]}, "properties": {"kind": "stop", "name": "RALPH D ABERNATHY BLVD @ LAUREL AVE", "mode": "bus"}}, {"type": "Feature", "geometry": {"type": "Point", "coordinates": [-84.442527, 33.748166]}, "properties": {"kind": "stop", "name": "RALPH D ABERNATHY BLVD @ 1701", "mode": "bus"}}, {"type": "Feature", "geometry": {"type": "Point", "coordinates": [-84.441345, 33.747078]}, "properties": {"kind": "stop", "name": "RALPH D ABERNATH BLVD @ WESTVIEW DR SW", "mode": "bus"}}, {"type": "Feature", "geometry": {"type": "Point", "coordinates": [-84.440475, 33.746109]}, "properties": {"kind": "stop", "name": "RALPH D ABERNATHY BLVD @ LAUREL AVE SW", "mode": "bus"}}, {"type": "Feature", "geometry": {"type": "Point", "coordinates": [-84.439392, 33.745063]}, "properties": {"kind": "stop", "name": "RALPH D ABERNATHY BLVD @ W ONTARIO AVE SW", "mode": "bus"}}, {"type": "Feature", "geometry": {"type": "Point", "coordinates": [-84.451602, 33.753724]}, "properties": {"kind": "stop", "name": "AARON ST@PENELOPE RD", "mode": "bus"}}, {"type": "Feature", "geometry": {"type": "Point", "coordinates": [-84.446151, 33.750812]}, "properties": {"kind": "stop", "name": "ANDERSON AVE @ MARTIN LUTHER KING J D", "mode": "bus"}}, {"type": "Feature", "geometry": {"type": "Point", "coordinates": [-84.439664, 33.74517]}, "properties": {"kind": "stop", "name": "RALPH D ABERNATHY BLVD @ W ONTARIO AVE", "mode": "bus"}}, {"type": "Feature", "geometry": {"type": "Point", "coordinates": [-84.47086, 33.768239]}, "properties": {"kind": "stop", "name": "HAMILTON E HOLMES DR@RENFRO DR", "mode": "bus"}}, {"type": "Feature", "geometry": {"type": "Point", "coordinates": [-84.444998, 33.750419]}, "properties": {"kind": "stop", "name": "RALPH D ABERNATHY BLVD @ MARTIN L KING JR DR", "mode": "bus"}}, {"type": "Feature", "geometry": {"type": "Point", "coordinates": [-84.445389, 33.752833]}, "properties": {"kind": "stop", "name": "WEST LAKE STATION - WEST LOOP", "mode": "bus"}}, {"type": "Feature", "geometry": {"type": "Point", "coordinates": [-84.444717, 33.753061]}, "properties": {"kind": "stop", "name": "WEST LAKE STATION - EAST LOOP", "mode": "bus"}}, {"type": "Feature", "geometry": {"type": "Point", "coordinates": [-84.45589, 33.750022]}, "properties": {"kind": "stop", "name": "MARTIN LUTHER KING J DR@LARCHWOOD", "mode": "bus"}}, {"type": "Feature", "geometry": {"type": "Point", "coordinates": [-84.446462, 33.750561]}, "properties": {"kind": "stop", "name": "MARTIN LUTHER KING J DR @ 1981", "mode": "bus"}}, {"type": "Feature", "geometry": {"type": "Point", "coordinates": [-84.435365, 33.749596]}, "properties": {"kind": "stop", "name": "MIMS ST SW @ ALTOONA PL", "mode": "bus"}}, {"type": "Feature", "geometry": {"type": "Point", "coordinates": [-84.45083, 33.753805]}, "properties": {"kind": "stop", "name": "PENELOPE RD@ABBEY ST", "mode": "bus"}}, {"type": "Feature", "geometry": {"type": "Point", "coordinates": [-84.432088, 33.75369]}, "properties": {"kind": "stop", "name": "MARTIN LUTHER KING J@CHICAMAUGA AVE", "mode": "bus"}}, {"type": "Feature", "geometry": {"type": "Point", "coordinates": [-84.429794, 33.753549]}, "properties": {"kind": "stop", "name": "MARTIN LUTHER KING J DR SW@CERRO ST", "mode": "bus"}}, {"type": "Feature", "geometry": {"type": "Point", "coordinates": [-84.42959, 33.753645]}, "properties": {"kind": "stop", "name": "MARTIN L KING JR DR NW @ CERRO ST SW", "mode": "bus"}}, {"type": "Feature", "geometry": {"type": "Point", "coordinates": [-84.431838, 33.753823]}, "properties": {"kind": "stop", "name": "MARTIN L KING JR DR NW @ CHICAMAUGA AVE NW", "mode": "bus"}}, {"type": "Feature", "geometry": {"type": "Point", "coordinates": [-84.433255, 33.753851]}, "properties": {"kind": "stop", "name": "MARTIN L KING JR DR NW @ CHAPPELL RD", "mode": "bus"}}, {"type": "Feature", "geometry": {"type": "Point", "coordinates": [-84.45899, 33.750851]}, "properties": {"kind": "stop", "name": "MARTIN L KING JR DR SW @ LAMAR AVE", "mode": "bus"}}, {"type": "Feature", "geometry": {"type": "Point", "coordinates": [-84.425263, 33.772544]}, "properties": {"kind": "stop", "name": "DONALD L HOLLOWELL PKWY @ MARIETTA BLVD", "mode": "bus"}}, {"type": "Feature", "geometry": {"type": "Point", "coordinates": [-84.437643, 33.761338]}, "properties": {"kind": "stop", "name": "HOLLY RD @ 231", "mode": "bus"}}, {"type": "Feature", "geometry": {"type": "Point", "coordinates": [-84.429714, 33.791205]}, "properties": {"kind": "stop", "name": "MARIETTA BLVD NW @ ELAINE AVE NW", "mode": "bus"}}, {"type": "Feature", "geometry": {"type": "Point", "coordinates": [-84.430271, 33.791786]}, "properties": {"kind": "stop", "name": "MARIETTA BLVD @ ELAINE AVE", "mode": "bus"}}, {"type": "Feature", "geometry": {"type": "Point", "coordinates": [-84.422165, 33.773122]}, "properties": {"kind": "stop", "name": "DONALD L HOLLOWELL PKWY @ FINLEY AVE", "mode": "bus"}}, {"type": "Feature", "geometry": {"type": "Point", "coordinates": [-84.42198, 33.773248]}, "properties": {"kind": "stop", "name": "DONALD L HOLLOWELL PKWY @ FINLEY AVE", "mode": "bus"}}, {"type": "Feature", "geometry": {"type": "Point", "coordinates": [-84.449386, 33.768504]}, "properties": {"kind": "stop", "name": "NORTH AVE @ JETAL PL", "mode": "bus"}}, {"type": "Feature", "geometry": {"type": "Point", "coordinates": [-84.452615, 33.768528]}, "properties": {"kind": "stop", "name": "NORTH AVE@PELTON PL", "mode": "bus"}}, {"type": "Feature", "geometry": {"type": "Point", "coordinates": [-84.456402, 33.770135]}, "properties": {"kind": "stop", "name": "NORTH AVE @ BAKER RD", "mode": "bus"}}, {"type": "Feature", "geometry": {"type": "Point", "coordinates": [-84.452735, 33.768465]}, "properties": {"kind": "stop", "name": "NORTH AVE@PELTON PL", "mode": "bus"}}, {"type": "Feature", "geometry": {"type": "Point", "coordinates": [-84.441338, 33.763533]}, "properties": {"kind": "stop", "name": "JOSEPH E BOONE BLVD @ W LAKE AVE NW", "mode": "bus"}}, {"type": "Feature", "geometry": {"type": "Point", "coordinates": [-84.437353, 33.763495]}, "properties": {"kind": "stop", "name": "JOSEPH E BOONE BLVD NW @ HOLLY RD NW", "mode": "bus"}}, {"type": "Feature", "geometry": {"type": "Point", "coordinates": [-84.438016, 33.763647]}, "properties": {"kind": "stop", "name": "JOSEPH E BOONE BLVD @ HOLLY RD/ST", "mode": "bus"}}, {"type": "Feature", "geometry": {"type": "Point", "coordinates": [-84.45056, 33.76853]}, "properties": {"kind": "stop", "name": "NORTH AVE NW@CHARLOTTE PL NW", "mode": "bus"}}, {"type": "Feature", "geometry": {"type": "Point", "coordinates": [-84.450419, 33.768458]}, "properties": {"kind": "stop", "name": "NORTH AVE NW@CHARLOTTE PL NW", "mode": "bus"}}, {"type": "Feature", "geometry": {"type": "Point", "coordinates": [-84.439636, 33.763493]}, "properties": {"kind": "stop", "name": "JOSEPH E BOONE BLVD NW @ W LAKE DR NW", "mode": "bus"}}, {"type": "Feature", "geometry": {"type": "Point", "coordinates": [-84.461524, 33.751904]}, "properties": {"kind": "stop", "name": "MARTIN L KING JR DR SW @ BARFIELD AVE SW", "mode": "bus"}}, {"type": "Feature", "geometry": {"type": "Point", "coordinates": [-84.458551, 33.750653]}, "properties": {"kind": "stop", "name": "MARTIN L KING JR DR SW @ WYNNWOOD", "mode": "bus"}}, {"type": "Feature", "geometry": {"type": "Point", "coordinates": [-84.459589, 33.783575]}, "properties": {"kind": "stop", "name": "HOLLYWOOD RD NW @ N GRAND AVE NW", "mode": "bus"}}, {"type": "Feature", "geometry": {"type": "Point", "coordinates": [-84.455222, 33.753362]}, "properties": {"kind": "stop", "name": "PENELOPE ST NW @ COLLUM ST NW", "mode": "bus"}}, {"type": "Feature", "geometry": {"type": "Point", "coordinates": [-84.453959, 33.752665]}, "properties": {"kind": "stop", "name": "PENELOPE ST NW @ TORRENCE ST NW", "mode": "bus"}}, {"type": "Feature", "geometry": {"type": "Point", "coordinates": [-84.455228, 33.763566]}, "properties": {"kind": "stop", "name": "JOSEPH E BOONE BLVD @ AURORA AVE NW", "mode": "bus"}}, {"type": "Feature", "geometry": {"type": "Point", "coordinates": [-84.476291, 33.75399]}, "properties": {"kind": "stop", "name": "PEYTON PL @ MARTIN L KING JR DR", "mode": "bus"}}, {"type": "Feature", "geometry": {"type": "Point", "coordinates": [-84.456261, 33.763663]}, "properties": {"kind": "stop", "name": "JOSEPH E BOONE BLVD NW @ NEW JERSEY AVE NW", "mode": "bus"}}, {"type": "Feature", "geometry": {"type": "Point", "coordinates": [-84.45748, 33.764503]}, "properties": {"kind": "stop", "name": "JOSEPH E BOONE BLVD NW @ 2125", "mode": "bus"}}, {"type": "Feature", "geometry": {"type": "Point", "coordinates": [-84.468666, 33.763657]}, "properties": {"kind": "stop", "name": "JOSEPH E BOONE BLVD NW @  HAMILTON E HOLMES DR NW", "mode": "bus"}}, {"type": "Feature", "geometry": {"type": "Point", "coordinates": [-84.456826, 33.763636]}, "properties": {"kind": "stop", "name": "JOSEPH E BOONE BLVD NW @ 2150", "mode": "bus"}}, {"type": "Feature", "geometry": {"type": "Point", "coordinates": [-84.434614, 33.748872]}, "properties": {"kind": "stop", "name": "WESTVIEW PL SW @ MIMS ST SW", "mode": "bus"}}, {"type": "Feature", "geometry": {"type": "Point", "coordinates": [-84.436366, 33.749667]}, "properties": {"kind": "stop", "name": "MIMS ST SW @ MATHEWSON PL SW", "mode": "bus"}}, {"type": "Feature", "geometry": {"type": "Point", "coordinates": [-84.434691, 33.749176]}, "properties": {"kind": "stop", "name": "WESTVIEW PL SW @ MIMS ST SW", "mode": "bus"}}, {"type": "Feature", "geometry": {"type": "Point", "coordinates": [-84.464996, 33.760046]}, "properties": {"kind": "stop", "name": "CARVER DR @ SEWANEE AVE", "mode": "bus"}}, {"type": "Feature", "geometry": {"type": "Point", "coordinates": [-84.466406, 33.758209]}, "properties": {"kind": "stop", "name": "VERBENA CIR @ GAS LIGHT LN", "mode": "bus"}}, {"type": "Feature", "geometry": {"type": "Point", "coordinates": [-84.465803, 33.755587]}, "properties": {"kind": "stop", "name": "VERBENA CIR @ SEWANEE AVE", "mode": "bus"}}, {"type": "Feature", "geometry": {"type": "Point", "coordinates": [-84.465003, 33.757781]}, "properties": {"kind": "stop", "name": "SEWANEE AVE @ 131", "mode": "bus"}}, {"type": "Feature", "geometry": {"type": "Point", "coordinates": [-84.452934, 33.763962]}, "properties": {"kind": "stop", "name": "JOSEPH E BOONE BLVD @ 2015", "mode": "bus"}}, {"type": "Feature", "geometry": {"type": "Point", "coordinates": [-84.461588, 33.763514]}, "properties": {"kind": "stop", "name": "JOSEPH E BOONE BLVD @ 2275", "mode": "bus"}}, {"type": "Feature", "geometry": {"type": "Point", "coordinates": [-84.4627, 33.76333]}, "properties": {"kind": "stop", "name": "JOSEPH E BOONE BLVD @ 2275", "mode": "bus"}}, {"type": "Feature", "geometry": {"type": "Point", "coordinates": [-84.464763, 33.763644]}, "properties": {"kind": "stop", "name": "JOSEPH E BOONE BLVD @ SEWANEE AVE", "mode": "bus"}}, {"type": "Feature", "geometry": {"type": "Point", "coordinates": [-84.465502, 33.76359]}, "properties": {"kind": "stop", "name": "JOSEPH E BOONE BLVD @ SEWANEE AVE", "mode": "bus"}}, {"type": "Feature", "geometry": {"type": "Point", "coordinates": [-84.449049, 33.768442]}, "properties": {"kind": "stop", "name": "NORTH AVE @ JETAL PL", "mode": "bus"}}, {"type": "Feature", "geometry": {"type": "Point", "coordinates": [-84.455289, 33.761167]}, "properties": {"kind": "stop", "name": "MOREHOUSE DR @ CROECUS AVE", "mode": "bus"}}, {"type": "Feature", "geometry": {"type": "Point", "coordinates": [-84.453227, 33.761168]}, "properties": {"kind": "stop", "name": "MOREHOUSE DR @  2007", "mode": "bus"}}, {"type": "Feature", "geometry": {"type": "Point", "coordinates": [-84.428482, 33.789237]}, "properties": {"kind": "stop", "name": "MARIETTA BLVD @ HUFF RD", "mode": "bus"}}, {"type": "Feature", "geometry": {"type": "Point", "coordinates": [-84.432657, 33.763876]}, "properties": {"kind": "stop", "name": "CHAPPELL RD @ JOSEPH E BOONE BLVD", "mode": "bus"}}, {"type": "Feature", "geometry": {"type": "Point", "coordinates": [-84.432928, 33.763652]}, "properties": {"kind": "stop", "name": "CHAPPELL RD @ JOSEPH E BOONE BLVD", "mode": "bus"}}, {"type": "Feature", "geometry": {"type": "Point", "coordinates": [-84.432246, 33.765899]}, "properties": {"kind": "stop", "name": "CHAPPELL RD @ MAYSON TURNER RD", "mode": "bus"}}, {"type": "Feature", "geometry": {"type": "Point", "coordinates": [-84.432355, 33.766078]}, "properties": {"kind": "stop", "name": "CHAPPELL RD @ WEST AVE", "mode": "bus"}}, {"type": "Feature", "geometry": {"type": "Point", "coordinates": [-84.43625, 33.767954]}, "properties": {"kind": "stop", "name": "NORTH AVE @ WOODLAWN AVE", "mode": "bus"}}, {"type": "Feature", "geometry": {"type": "Point", "coordinates": [-84.474431, 33.781552]}, "properties": {"kind": "stop", "name": "HIGHTOWER RD @ 954", "mode": "bus"}}, {"type": "Feature", "geometry": {"type": "Point", "coordinates": [-84.476506, 33.780466]}, "properties": {"kind": "stop", "name": "JAMES JACKSON PKWY @ 954", "mode": "bus"}}, {"type": "Feature", "geometry": {"type": "Point", "coordinates": [-84.438436, 33.768068]}, "properties": {"kind": "stop", "name": "NORTH AVE @ ELMWOOD RD", "mode": "bus"}}, {"type": "Feature", "geometry": {"type": "Point", "coordinates": [-84.44106, 33.763116]}, "properties": {"kind": "stop", "name": "W LAKE AVE @ JOSEPH E BOONE BLVD", "mode": "bus"}}, {"type": "Feature", "geometry": {"type": "Point", "coordinates": [-84.433484, 33.75718]}, "properties": {"kind": "stop", "name": "CHAPPEL RD @ EASON ST", "mode": "bus"}}, {"type": "Feature", "geometry": {"type": "Point", "coordinates": [-84.469302, 33.754553]}, "properties": {"kind": "stop", "name": "HAMILTON E HOLMES STATION", "mode": "bus"}}, {"type": "Feature", "geometry": {"type": "Point", "coordinates": [-84.445329, 33.753328]}, "properties": {"kind": "stop", "name": "WEST LAKE STATION", "mode": "bus"}}, {"type": "Feature", "geometry": {"type": "Point", "coordinates": [-84.445568, 33.753247]}, "properties": {"kind": "stop", "name": "WEST LAKE STATION", "mode": "bus"}}, {"type": "Feature", "geometry": {"type": "Point", "coordinates": [-84.469824, 33.754517]}, "properties": {"kind": "stop", "name": "HAMILTON E HOLMES STATION", "mode": "bus"}}, {"type": "Feature", "geometry": {"type": "Point", "coordinates": [-84.428873, 33.772159]}, "properties": {"kind": "stop", "name": "BANKHEAD STATION", "mode": "bus"}}, {"type": "Feature", "geometry": {"type": "Point", "coordinates": [-84.428906, 33.772436]}, "properties": {"kind": "stop", "name": "BANKHEAD STATION", "mode": "bus"}}], "properties": {"coverage_pct": 99.9, "rail_coverage_pct": 20.8, "stop_count": 391, "rail_stop_count": 3, "bus_stop_count": 388, "transit_index": 47, "weights": {"rail": 2.0, "bus": 1.0}}}