{"type": "FeatureCollection", "features": [{"type": "Feature", "geometry": {"type": "Polygon", "coordinates": [[[-84.45475491049996, 33.74106097780168], [-84.45469961071986, 33.74106796270995], [-84.4544805179832, 33.741584052142585], [-84.45411827527376, 33.74222854463619], [-84.45368215493555, 33.742840269748484], [-84.45334825098345, 33.74321858111278], [-84.45354013352835, 33.74325826101467], [-84.45434339378455, 33.74349626065942], [-84.45511486717125, 33.743798883778716], [-84.45535897033409, 33.743920337397], [-84.45535262993724, 33.744154429599746], [-84.45529292159348, 33.744855208475656], [-84.4551523581372, 33.745547877395595], [-84.45493225568347, 33.74622594129619], [-84.45463467630277, 33.74688304191356], [-84.4542624087502, 33.74751301741664], [-84.45381894237272, 33.74810996020338], [-84.45330843443692, 33.74866827231753], [-84.45273567118187, 33.74918271796483], [-84.452106022961, 33.749648472635975], [-84.45142539389289, 33.75006116837398], [-84.45070016649288, 33.75041693476073], [-84.44993714180495, 33.750712435237084], [-84.44914347559597, 33.75094489841511], [-84.44832661121212, 33.75111214408752], [-84.44802752952369, 33.75114823987533], [-84.44785555898747, 33.75144786938642], [-84.4474072804517, 33.752063555757], [-84.44688808997911, 33.75263905699731], [-84.44630310873862, 33.75316869498997], [-84.44565810733712, 33.75364724402131], [-84.44495944890039, 33.75406998236718], [-84.44421402629182, 33.75443273890699], [-84.44342919408922, 33.75473193430455], [-84.44261269599137, 33.754964616348346], [-84.44177258837225, 33.755128489101445], [-84.44091716073903, 33.755221935572244], [-84.44005485388149, 33.75524403368179], [-84.43919417652292, 33.755194565369294], [-84.4383436212981, 33.75507401874589], [-84.43751158089054, 33.75488358327505], [-84.4367062651596, 33.75462513802765], [-84.43600883155526, 33.75433200448788], [-84.43573066484532, 33.75424159868744], [-84.43560311864006, 33.754194939267265], [-84.435600942884, 33.75419464915878], [-84.43556426278201, 33.754189620813094], [-84.43509816707464, 33.754178654327426], [-84.43499085596255, 33.75418155455443], [-84.4348924240739, 33.75418374827376], [-84.43456961228752, 33.754189412834], [-84.43429446169164, 33.75518785420376], [-84.43405774163917, 33.75588535517534], [-84.43373886191166, 33.756559639790865], [-84.4333410048876, 33.75720397478687], [-84.43286814185085, 33.75781192582387], [-84.4323249933889, 33.75837742176156], [-84.43171698229396, 33.75889481531089], [-84.43105017943645, 33.75935893945657], [-84.43033124315015, 33.75976515908482], [-84.42956735273435, 33.760109417299866], [-84.42918054670807, 33.760244043809124], [-84.42916205893134, 33.76025297671016], [-84.42874203838248, 33.76045299124169], [-84.42864104100408, 33.76050034363646], [-84.4283825294124, 33.7606196595817], [-84.42835143820409, 33.760635205559396], [-84.42812667310685, 33.76074381226154], [-84.4279766655883, 33.76081381737378], [-84.42707870678144, 33.76117452121371], [-84.42643432164958, 33.76136862938412], [-84.42612217222667, 33.761434633748564], [-84.42611349353864, 33.761484362474775], [-84.42566080580102, 33.761615112457015], [-84.42520077171686, 33.76172512140264], [-84.4243828088991, 33.76188541810902], [-84.4237670892304, 33.76195458682378], [-84.42376748787875, 33.76195720088782], [-84.4232974492916, 33.76200720518869], [-84.42220001172727, 33.762065344543764], [-84.42196999234966, 33.76206534463393], [-84.42165026080585, 33.7620604277582], [-84.42100020613204, 33.76204042635156], [-84.4210002174237, 33.762040170364905], [-84.42069737462766, 33.76203269958775], [-84.42014344058484, 33.762005345639444], [-84.41992999349756, 33.76200534550066], [-84.41985999907179, 33.76200534552786], [-84.41968530574749, 33.762003878131345], [-84.41856491638646, 33.7619850488305], [-84.41842380023266, 33.76198385323857], [-84.41792187688944, 33.76197534644613], [-84.41754998262641, 33.761975346456666], [-84.41750695255638, 33.761975257369826], [-84.41511838530015, 33.7619653474386], [-84.41467998260352, 33.76196534756719], [-84.41437949699161, 33.76195534769359], [-84.41422999565822, 33.76195534775011], [-84.41390525807746, 33.761950275740965], [-84.41374756356487, 33.76194534795653], [-84.41373000222883, 33.76194534795163], [-84.41355000018011, 33.761945348019864], [-84.4134500141051, 33.76194534805775], [-84.41277000832811, 33.761945348314995], [-84.41178996067764, 33.761945348684286], [-84.41172925965387, 33.7619451713109], [-84.41021999895132, 33.76193634702929], [-84.40981068136838, 33.76194976708307], [-84.40947006975257, 33.76195534954102], [-84.4078599724293, 33.761955350139274], [-84.40765000314173, 33.76195535021695], [-84.40737999054845, 33.761955350316754], [-84.40722483834472, 33.76195419274133], [-84.40663238971923, 33.761945350639586], [-84.40651999391117, 33.76194535064565], [-84.40642100964371, 33.761944879516726], [-84.4054204723607, 33.761935351169676], [-84.40495428098576, 33.76193535138706], [-84.40432851511177, 33.76194429092941], [-84.40380632382957, 33.76193863498576], [-84.40241620699561, 33.76188863133938], [-84.40154569918542, 33.761820526121255], [-84.40068779988387, 33.76167967244502], [-84.39985120212829, 33.76146749757094], [-84.39904438295164, 33.76118615144435], [-84.39827551743063, 33.76083848489517], [-84.39755239580417, 33.76042802073137], [-84.39688234450448, 33.75995891802027], [-84.39627215190302, 33.7594359299205], [-84.39572799952454, 33.75886435549373], [-84.3952553994269, 33.75824998598501], [-84.39485913838094, 33.757599046118436], [-84.39454322941505, 33.75691813100339], [-84.39431087121392, 33.75621413929245], [-84.39416441578032, 33.75549420326923], [-84.39410534468539, 33.754765616575185], [-84.39411429346292, 33.75453969447346], [-84.39411405917421, 33.75453969445697], [-84.3941140743007, 33.75438969439359], [-84.39411412273667, 33.75390936823677], [-84.39410499347231, 33.7533490366052], [-84.39410619651905, 33.753094332454374], [-84.39411547430136, 33.75273391624345], [-84.39412506518964, 33.752133504135756], [-84.39416971079544, 33.7514892987954], [-84.39423976742447, 33.750919303389026], [-84.3942523051866, 33.750823553087024], [-84.3943023407985, 33.750463556383366], [-84.39444202768495, 33.74976132790623], [-84.3946634194855, 33.74907391388656], [-84.39496438318824, 33.7484079312775], [-84.39534202001914, 33.747769790587135], [-84.39552469321094, 33.74749581706925], [-84.39566851623998, 33.74727588214519], [-84.39598391011413, 33.74678852197708], [-84.3962483579317, 33.74637721545348], [-84.39627373389379, 33.74633825225899], [-84.39613174906204, 33.74569241642239], [-84.39606059355927, 33.74498951679948], [-84.39607148390738, 33.74428416678462], [-84.39616431515445, 33.74358303392731], [-84.39633820782021, 33.74289274575346], [-84.39659151628362, 33.742219827122796], [-84.39692184440807, 33.74157063856277], [-84.39732606825396, 33.740951316161066], [-84.39780036566152, 33.74036771358441], [-84.39834025242246, 33.73982534677077], [-84.39890025878056, 33.739315375365784], [-84.39947015918027, 33.738842308439665], [-84.40008994082655, 33.738415261011994], [-84.40075430007779, 33.73803788696512], [-84.40145755211368, 33.73771341512255], [-84.40219367956334, 33.73744462164003], [-84.40363749497129, 33.736982606519895], [-84.40417646334467, 33.7368029528481], [-84.40414778982336, 33.7356282324219], [-84.40414631311886, 33.735417204020436], [-84.40415641084024, 33.73444720428615], [-84.40419914188661, 33.733788675745906], [-84.40431326496923, 33.73313610941403], [-84.40442764671498, 33.73264066780395], [-84.4045022159772, 33.73230525559871], [-84.40464495176474, 33.73177477863738], [-84.40483483096949, 33.73125472190735], [-84.40494301109817, 33.73099387726961], [-84.40498900294237, 33.73086513468201], [-84.40501357150985, 33.730797562690036], [-84.40528363528128, 33.73006758029688], [-84.40528504657132, 33.73006794479933], [-84.40534821976307, 33.729870604615044], [-84.40569755634506, 33.72912265684144], [-84.40614365421472, 33.72841153799519], [-84.4069937211225, 33.727221588307515], [-84.40754381690859, 33.72645154737767], [-84.40767235870256, 33.72627724440642], [-84.40837240581597, 33.72535728515368], [-84.40854101993969, 33.72514408674807], [-84.40894349354481, 33.72465416883575], [-84.40945795724588, 33.7239953647026], [-84.40995092770561, 33.72342630851853], [-84.41050744230532, 33.722899755422674], [-84.4111222834394, 33.722420641066456], [-84.41178968707108, 33.72199345635496], [-84.41250339676579, 33.7216222053749], [-84.41325672232648, 33.72131036788572], [-84.4140426024823, 33.72106086672412], [-84.41485367104369, 33.72087604042683], [-84.41568232590565, 33.72075762132723], [-84.41652080025425, 33.720706719330344], [-84.41736123531116, 33.720723811518006], [-84.41819575393686, 33.720808737680734], [-84.41901653440515, 33.72096070181878], [-84.41981588366033, 33.72117827959752], [-84.42058630937262, 33.72145943168816], [-84.42132059011892, 33.7218015228688], [-84.42201184303349, 33.72220134670773], [-84.42632172178718, 33.72496116550723], [-84.4263299480356, 33.724966439364515], [-84.42781503092576, 33.7259196855885], [-84.4279187435228, 33.7259307972731], [-84.42959557978696, 33.72596685784441], [-84.43008777214334, 33.72597670188605], [-84.430127360586, 33.72597756906751], [-84.43053998465174, 33.72598739364028], [-84.43187046912725, 33.72601718115137], [-84.43368825417437, 33.72605713324338], [-84.43370161383153, 33.726057435365625], [-84.43410195899743, 33.72606674594103], [-84.43521223948922, 33.72608622489192], [-84.43530337086749, 33.72608822323149], [-84.43561331129479, 33.72609637978346], [-84.43632319156868, 33.7261054809152], [-84.43637895934279, 33.72610634543207], [-84.43747886681723, 33.72612634422898], [-84.43823738021237, 33.72616793864421], [-84.43846137911899, 33.72619682015498], [-84.43847280650213, 33.72619727350599], [-84.4392882126362, 33.72629491635028], [-84.43982750368836, 33.72640387201454], [-84.44060214340874, 33.72641462960197], [-84.44078999124679, 33.726414629626156], [-84.44138997694382, 33.72641462987904], [-84.44147999840597, 33.726414629917], [-84.44152451303647, 33.7264147252548], [-84.44384216225227, 33.72642463094057], [-84.44395999632121, 33.72642463098016], [-84.44404963791493, 33.72642501757986], [-84.44516477539703, 33.726434631523375], [-84.445259996332, 33.72643463154686], [-84.44530888279425, 33.72643474652092], [-84.4474143553977, 33.72644463249236], [-84.44749999761173, 33.726444632520845], [-84.44832792479528, 33.72647768615637], [-84.44914830954102, 33.72657654596105], [-84.44995367811258, 33.72674031131003], [-84.45073669347211, 33.72696749028116], [-84.4514902220758, 33.727256013237], [-84.45220739882215, 33.727603251666686], [-84.4528816895632, 33.728006042116185], [-84.45350695061062, 33.72846071499015], [-84.45407748469597, 33.728963127963425], [-84.45458809287562, 33.72950870369889], [-84.45503412190804, 33.73009247152893], [-84.45541150667164, 33.73070911272182], [-84.45571680723566, 33.731353008921424], [-84.45594724024596, 33.73201829331984], [-84.4561007043375, 33.73269890409759], [-84.45617579934074, 33.73338863964489], [-84.45617183910444, 33.73408121506178], [-84.45608885781594, 33.73477031942215], [-84.45594868221266, 33.73555574183878], [-84.45591745408029, 33.73575103950517], [-84.45589392199814, 33.73588821242293], [-84.45578801367152, 33.73646620852851], [-84.45563197400882, 33.73735418764396], [-84.4555721039222, 33.73769365026155], [-84.45552201643581, 33.737980028070645], [-84.45549717075471, 33.738160289920046], [-84.45547424580138, 33.73831244760648], [-84.45545796078108, 33.73841202911368], [-84.45549211118065, 33.73900442260036], [-84.45544034467717, 33.74091583767167], [-84.45475491049996, 33.74106097780168]]]}, "properties": {"kind": "walkshed", "buffer_mi": 0.5}}, {"type": "Feature", "geometry": {"type": "Point", "coordinates": [-84.41679, 33.756282]}, "properties": {"kind": "stop", "name": "Ashby", "mode": "rail"}}, {"type": "Feature", "geometry": {"type": "Point", "coordinates": [-84.397404, 33.756179]}, "properties": {"kind": "stop", "name": "Dome/GWCC/ Philips Arena", "mode": "rail"}}, {"type": "Feature", "geometry": {"type": "Point", "coordinates": [-84.395588, 33.748801]}, "properties": {"kind": "stop", "name": "Garnett", "mode": "rail"}}, {"type": "Feature", "geometry": {"type": "Point", "coordinates": [-84.404736, 33.756465]}, "properties": {"kind": "stop", "name": "Vine City", "mode": "rail"}}, {"type": "Feature", "geometry": {"type": "Point", "coordinates": [-84.41367, 33.735823]}, "properties": {"kind": "stop", "name": "West End", "mode": "rail"}}, {"type": "Feature", "geometry": {"type": "Point", "coordinates": [-84.445385, 33.753249]}, "properties": {"kind": "stop", "name": "West Lake", "mode": "rail"}}, {"type": "Feature", "geometry": {"type": "Point", "coordinates": [-84.445329, 33.753328]}, "properties": {"kind": "stop", "name": "WEST LAKE STATION", "mode": "bus"}}, {"type": "Feature", "geometry": {"type": "Point", "coordinates": [-84.445568, 33.753247]}, "properties": {"kind": "stop", "name": "WEST LAKE STATION", "mode": "bus"}}, {"type": "Feature", "geometry": {"type": "Point", "coordinates": [-84.413653, 33.736564]}, "properties": {"kind": "stop", "name": "WEST END STATION", "mode": "bus"}}, {"type": "Feature", "geometry": {"type": "Point", "coordinates": [-84.413663, 33.735705]}, "properties": {"kind": "stop", "name": "WEST END STATION", "mode": "bus"}}, {"type": "Feature", "geometry": {"type": "Point", "coordinates": [-84.403902, 33.756613]}, "properties": {"kind": "stop", "name": "VINE CITY STATION", "mode": "bus"}}, {"type": "Feature", "geometry": {"type": "Point", "coordinates": [-84.404021, 33.756613]}, "properties": {"kind": "stop", "name": "VINE CITY STATION", "mode": "bus"}}, {"type": "Feature", "geometry": {"type": "Point", "coordinates": [-84.41723, 33.756478]}, "properties": {"kind": "stop", "name": "ASHBY STATION", "mode": "bus"}}, {"type": "Feature", "geometry": {"type": "Point", "coordinates": [-84.417328, 33.756477]}, "properties": {"kind": "stop", "name": "ASHBY STATION", "mode": "bus"}}, {"type": "Feature", "geometry": {"type": "Point", "coordinates": [-84.397215, 33.756179]}, "properties": {"kind": "stop", "name": "GWCC-CNN CENTER STATION", "mode": "bus"}}, {"type": "Feature", "geometry": {"type": "Point", "coordinates": [-84.397291, 33.756187]}, "properties": {"kind": "stop", "name": "GWCC-CNN CENTER STATION", "mode": "bus"}}, {"type": "Feature", "geometry": {"type": "Point", "coordinates": [-84.395545, 33.748938]}, "properties": {"kind": "stop", "name": "GARNETT STATION", "mode": "bus"}}, {"type": "Feature", "geometry": {"type": "Point", "coordinates": [-84.395741, 33.748696]}, "properties": {"kind": "stop", "name": "GARNETT STATION", "mode": "bus"}}, {"type": "Feature", "geometry": {"type": "Point", "coordinates": [-84.421186, 33.754809]}, "properties": {"kind": "stop", "name": "MARTIN L KING JR DR NW @ OLLIE ST NW", "mode": "bus"}}, {"type": "Feature", "geometry": {"type": "Point", "coordinates": [-84.404936, 33.748929]}, "properties": {"kind": "stop", "name": "ATLANTA STUDENT MOVEMENT BLVD @ NORTHSIDE DR SW", "mode": "bus"}}, {"type": "Feature", "geometry": {"type": "Point", "coordinates": [-84.41673, 33.75658]}, "properties": {"kind": "stop", "name": "LENA ST @ MAYSON TURNER RD", "mode": "bus"}}, {"type": "Feature", "geometry": {"type": "Point", "coordinates": [-84.414, 33.7564]}, "properties": {"kind": "stop", "name": "CARTER ST @ LEACH ST", "mode": "bus"}}, {"type": "Feature", "geometry": {"type": "Point", "coordinates": [-84.412784, 33.756257]}, "properties": {"kind": "stop", "name": "JAMES P BRAWLEY DR @ CARTER ST", "mode": "bus"}}, {"type": "Feature", "geometry": {"type": "Point", "coordinates": [-84.417371, 33.756066]}, "properties": {"kind": "stop", "name": "ASHBY STATION - NORTHBOUND", "mode": "bus"}}, {"type": "Feature", "geometry": {"type": "Point", "coordinates": [-84.417529, 33.760434]}, "properties": {"kind": "stop", "name": "JOSEPH E LOWERY BLVD NW @ THURMOND ST NW", "mode": "bus"}}, {"type": "Feature", "geometry": {"type": "Point", "coordinates": [-84.417441, 33.760255]}, "properties": {"kind": "stop", "name": "JOSEPH E LOWERY BLVD NW @ THURMOND ST NW", "mode": "bus"}}, {"type": "Feature", "geometry": {"type": "Point", "coordinates": [-84.417569, 33.75808]}, "properties": {"kind": "stop", "name": "JOSEPH E LOWERY BLVD NW @ MAYSON TURNER RD NW", "mode": "bus"}}, {"type": "Feature", "geometry": {"type": "Point", "coordinates": [-84.417483, 33.75842]}, "properties": {"kind": "stop", "name": "JOSEPH E LOWERY BLVD NW @ MAGNOLIA ST NW", "mode": "bus"}}, {"type": "Feature", "geometry": {"type": "Point", "coordinates": [-84.417724, 33.756281]}, "properties": {"kind": "stop", "name": "ASHBY STATION - SOUTHBOUND", "mode": "bus"}}, {"type": "Feature", "geometry": {"type": "Point", "coordinates": [-84.402797, 33.760838]}, "properties": {"kind": "stop", "name": "NORTHSIDE DR NW @ THURMOND ST NW", "mode": "bus"}}, {"type": "Feature", "geometry": {"type": "Point", "coordinates": [-84.402656, 33.761277]}, "properties": {"kind": "stop", "name": "NORTHSIDE DR NW @ THURMOND ST NW", "mode": "bus"}}, {"type": "Feature", "geometry": {"type": "Point", "coordinates": [-84.403597, 33.756595]}, "properties": {"kind": "stop", "name": "VINE CITY STATION (POSTELL ST)", "mode": "bus"}}, {"type": "Feature", "geometry": {"type": "Point", "coordinates": [-84.404411, 33.756545]}, "properties": {"kind": "stop", "name": "VINE CITY STATION (ELECTRIC AVE)", "mode": "bus"}}, {"type": "Feature", "geometry": {"type": "Point", "coordinates": [-84.435153, 33.738032]}, "properties": {"kind": "stop", "name": "DONNELLY AVE SW @ CASCADE AVE SW", "mode": "bus"}}, {"type": "Feature", "geometry": {"type": "Point", "coordinates": [-84.437172, 33.738552]}, "properties": {"kind": "stop", "name": "WESTWOOD AVE SW @ WILLARD AVE SW", "mode": "bus"}}, {"type": "Feature", "geometry": {"type": "Point", "coordinates": [-84.439143, 33.738699]}, "properties": {"kind": "stop", "name": "WESTWOOD AVE SW @ ONTARIO AVE SW", "mode": "bus"}}, {"type": "Feature", "geometry": {"type": "Point", "coordinates": [-84.441241, 33.738428]}, "properties": {"kind": "stop", "name": "WESTWOOD AVE SW @ MANSON AVE SW", "mode": "bus"}}, {"type": "Feature", "geometry": {"type": "Point", "coordinates": [-84.442991, 33.738516]}, "properties": {"kind": "stop", "name": "WESTWOOD AVE SW @ AKRIDGE PL SW", "mode": "bus"}}, {"type": "Feature", "geometry": {"type": "Point", "coordinates": [-84.446448, 33.738826]}, "properties": {"kind": "stop", "name": "WESTWOOD AVE SW @ S GORDON ST SW", "mode": "bus"}}, {"type": "Feature", "geometry": {"type": "Point", "coordinates": [-84.446858, 33.737348]}, "properties": {"kind": "stop", "name": "S GORDON ST SW @ ROGERS AVE SW", "mode": "bus"}}, {"type": "Feature", "geometry": {"type": "Point", "coordinates": [-84.447192, 33.735441]}, "properties": {"kind": "stop", "name": "S GORDON ST SW @ S OLYMPIAN WAY SW", "mode": "bus"}}, {"type": "Feature", "geometry": {"type": "Point", "coordinates": [-84.447483, 33.733866]}, "properties": {"kind": "stop", "name": "S GORDON ST SW @ BEECHER ST SW", "mode": "bus"}}, {"type": "Feature", "geometry": {"type": "Point", "coordinates": [-84.448825, 33.733782]}, "properties": {"kind": "stop", "name": "BEECHER ST SW@KENNOLIA DR SW", "mode": "bus"}}, {"type": "Feature", "geometry": {"type": "Point", "coordinates": [-84.450787, 33.733665]}, "properties": {"kind": "stop", "name": "BEECHER ST SW @ SHIRLEY ST SW (E)", "mode": "bus"}}, {"type": "Feature", "geometry": {"type": "Point", "coordinates": [-84.439174, 33.738555]}, "properties": {"kind": "stop", "name": "WESTWOOD AVE SW@ONTARIO AVE SW", "mode": "bus"}}, {"type": "Feature", "geometry": {"type": "Point", "coordinates": [-84.446462, 33.73857]}, "properties": {"kind": "stop", "name": "S GORDON ST SW @ WESTWOOD AVE SW", "mode": "bus"}}, {"type": "Feature", "geometry": {"type": "Point", "coordinates": [-84.444719, 33.738568]}, "properties": {"kind": "stop", "name": "WESTWOOD AVE SW@AKRIDGE PL SW", "mode": "bus"}}, {"type": "Feature", "geometry": {"type": "Point", "coordinates": [-84.44311, 33.738435]}, "properties": {"kind": "stop", "name": "WESTWOOD AVE SW@AKRIDGE PL SW", "mode": "bus"}}, {"type": "Feature", "geometry": {"type": "Point", "coordinates": [-84.441099, 33.73833]}, "properties": {"kind": "stop", "name": "WESTWOOD AVE SW@MANSON AVE SW", "mode": "bus"}}, {"type": "Feature", "geometry": {"type": "Point", "coordinates": [-84.434686, 33.753768]}, "properties": {"kind": "stop", "name": "MARTIN L KING JR DR NW @ 1457", "mode": "bus"}}, {"type": "Feature", "geometry": {"type": "Point", "coordinates": [-84.436012, 33.753471]}, "properties": {"kind": "stop", "name": "MARTIN L KING JR DR NW @ MATHEWSON PL SW", "mode": "bus"}}, {"type": "Feature", "geometry": {"type": "Point", "coordinates": [-84.437096, 33.753025]}, "properties": {"kind": "stop", "name": "MARTIN L KING JR DR NW @ WELLINGTON ST SW", "mode": "bus"}}, {"type": "Feature", "geometry": {"type": "Point", "coordinates": [-84.438178, 33.752901]}, "properties": {"kind": "stop", "name": "MARTIN L KING JR DR NW @ WELLINGTON ST SW", "mode": "bus"}}, {"type": "Feature", "geometry": {"type": "Point", "coordinates": [-84.440413, 33.751999]}, "properties": {"kind": "stop", "name": "MARTIN L KING JR DR NW @ BROWNING ST SW", "mode": "bus"}}, {"type": "Feature", "geometry": {"type": "Point", "coordinates": [-84.444008, 33.749695]}, "properties": {"kind": "stop", "name": "RALPH D ABERNATHY BLVD @ W LAKE AVE SW", "mode": "bus"}}, {"type": "Feature", "geometry": {"type": "Point", "coordinates": [-84.433436, 33.753751]}, "properties": {"kind": "stop", "name": "MARTIN LUTHER KING J DR@CHAPPELL RD", "mode": "bus"}}, {"type": "Feature", "geometry": {"type": "Point", "coordinates": [-84.436186, 33.753328]}, "properties": {"kind": "stop", "name": "MARTIN L KING JR DR NW @ MATHEWSON PL SW", "mode": "bus"}}, {"type": "Feature", "geometry": {"type": "Point", "coordinates": [-84.43799, 33.752834]}, "properties": {"kind": "stop", "name": "MARTIN L KING JR DR NW @ WELLINGTON ST SW", "mode": "bus"}}, {"type": "Feature", "geometry": {"type": "Point", "coordinates": [-84.440217, 33.752026]}, "properties": {"kind": "stop", "name": "MARTIN L KING JR DR @ LAUREL AVE SW", "mode": "bus"}}, {"type": "Feature", "geometry": {"type": "Point", "coordinates": [-84.441282, 33.75164]}, "properties": {"kind": "stop", "name": "MARTIN L KING JR DR NW @ RACINE ST SW", "mode": "bus"}}, {"type": "Feature", "geometry": {"type": "Point", "coordinates": [-84.443075, 33.751289]}, "properties": {"kind": "stop", "name": "MARTIN L KING JR DR NW @ GORDON TER", "mode": "bus"}}, {"type": "Feature", "geometry": {"type": "Point", "coordinates": [-84.434947, 33.753651]}, "properties": {"kind": "stop", "name": "MARTIN L KING JR DR NW @ 1444", "mode": "bus"}}, {"type": "Feature", "geometry": {"type": "Point", "coordinates": [-84.450509, 33.750163]}, "properties": {"kind": "stop", "name": "MARTIN L KING JR DR SW @ 2001", "mode": "bus"}}, {"type": "Feature", "geometry": {"type": "Point", "coordinates": [-84.447651, 33.750515]}, "properties": {"kind": "stop", "name": "MARTIN L KING JR DR SW @ ANDERSON AVE NW", "mode": "bus"}}, {"type": "Feature", "geometry": {"type": "Point", "coordinates": [-84.451042, 33.750207]}, "properties": {"kind": "stop", "name": "MARTIN L KING JR DR SW @ 2001", "mode": "bus"}}, {"type": "Feature", "geometry": {"type": "Point", "coordinates": [-84.434525, 33.74735]}, "properties": {"kind": "stop", "name": "WESTVIEW DR SW @ WESTVIEW PL SW", "mode": "bus"}}, {"type": "Feature", "geometry": {"type": "Point", "coordinates": [-84.436544, 33.749551]}, "properties": {"kind": "stop", "name": "MIMS ST SW @ MATHEWSON PL SW", "mode": "bus"}}, {"type": "Feature", "geometry": {"type": "Point", "coordinates": [-84.43804, 33.749576]}, "properties": {"kind": "stop", "name": "MIMS ST SW @ WELLINGTON ST SW", "mode": "bus"}}, {"type": "Feature", "geometry": {"type": "Point", "coordinates": [-84.437966, 33.749833]}, "properties": {"kind": "stop", "name": "MIMS ST SW @ WELLINGTON ST SW", "mode": "bus"}}, {"type": "Feature", "geometry": {"type": "Point", "coordinates": [-84.438281, 33.750927]}, "properties": {"kind": "stop", "name": "WELLINGTON ST SW @ ARCHER ST SW", "mode": "bus"}}, {"type": "Feature", "geometry": {"type": "Point", "coordinates": [-84.438326, 33.751941]}, "properties": {"kind": "stop", "name": "WELLINGTON ST SW @ MOZLEY PL SW", "mode": "bus"}}, {"type": "Feature", "geometry": {"type": "Point", "coordinates": [-84.43835, 33.752451]}, "properties": {"kind": "stop", "name": "WELLINGTON ST @ MARTIN L KING JR DR", "mode": "bus"}}, {"type": "Feature", "geometry": {"type": "Point", "coordinates": [-84.440032, 33.750663]}, "properties": {"kind": "stop", "name": "LAUREL AVE SW@ARCHER ST SW", "mode": "bus"}}, {"type": "Feature", "geometry": {"type": "Point", "coordinates": [-84.439784, 33.749829]}, "properties": {"kind": "stop", "name": "MIMS ST SW@LAUREL AVE SW", "mode": "bus"}}, {"type": "Feature", "geometry": {"type": "Point", "coordinates": [-84.44244, 33.751611]}, "properties": {"kind": "stop", "name": "MARTIN L KING JR DR NW @ FEDERAL DR SW", "mode": "bus"}}, {"type": "Feature", "geometry": {"type": "Point", "coordinates": [-84.44352, 33.751304]}, "properties": {"kind": "stop", "name": "MARTIN L KING JR DR NW @ W LAKE AVE SW", "mode": "bus"}}, {"type": "Feature", "geometry": {"type": "Point", "coordinates": [-84.432442, 33.74225]}, "properties": {"kind": "stop", "name": "LUCILE AVE SW @ LANGHORN ST SW", "mode": "bus"}}, {"type": "Feature", "geometry": {"type": "Point", "coordinates": [-84.433716, 33.742374]}, "properties": {"kind": "stop", "name": "LUCILE AVE SW @ MUSE ST SW", "mode": "bus"}}, {"type": "Feature", "geometry": {"type": "Point", "coordinates": [-84.433583, 33.742258]}, "properties": {"kind": "stop", "name": "LUCILE AVE SW @ MUSE ST SW", "mode": "bus"}}, {"type": "Feature", "geometry": {"type": "Point", "coordinates": [-84.43499, 33.742546]}, "properties": {"kind": "stop", "name": "LUCILE AVE SW @ ALTOONA PL SW", "mode": "bus"}}, {"type": "Feature", "geometry": {"type": "Point", "coordinates": [-84.435062, 33.742498]}, "properties": {"kind": "stop", "name": "LUCILE AVE SW @ ALTOONA PL SW", "mode": "bus"}}, {"type": "Feature", "geometry": {"type": "Point", "coordinates": [-84.43615, 33.742775]}, "properties": {"kind": "stop", "name": "LUCILE AVE SW @ MATHEWSON PL SW", "mode": "bus"}}, {"type": "Feature", "geometry": {"type": "Point", "coordinates": [-84.43866, 33.744278]}, "properties": {"kind": "stop", "name": "RALPH D ABERNATHY BLVD @ WELLINGTON ST SW", "mode": "bus"}}, {"type": "Feature", "geometry": {"type": "Point", "coordinates": [-84.438804, 33.744294]}, "properties": {"kind": "stop", "name": "RALPH D ABERNATHY BLVD @ WELLINGTON ST", "mode": "bus"}}, {"type": "Feature", "geometry": {"type": "Point", "coordinates": [-84.443085, 33.727827]}, "properties": {"kind": "stop", "name": "CASCADE AVE SW @ ORLANDO ST SW", "mode": "bus"}}, {"type": "Feature", "geometry": {"type": "Point", "coordinates": [-84.440666, 33.729683]}, "properties": {"kind": "stop", "name": "CASCADE AVE SW@PINEVIEW TER SW", "mode": "bus"}}, {"type": "Feature", "geometry": {"type": "Point", "coordinates": [-84.439178, 33.731194]}, "properties": {"kind": "stop", "name": "CASCADE AVE SW@RICHLAND RD SW", "mode": "bus"}}, {"type": "Feature", "geometry": {"type": "Point", "coordinates": [-84.438454, 33.731964]}, "properties": {"kind": "stop", "name": "CASCADE AVE SW@WESTHAVEN DR SW", "mode": "bus"}}, {"type": "Feature", "geometry": {"type": "Point", "coordinates": [-84.436554, 33.734879]}, "properties": {"kind": "stop", "name": "CASCADE AVE SW@ALLEGHENY ST SW", "mode": "bus"}}, {"type": "Feature", "geometry": {"type": "Point", "coordinates": [-84.435392, 33.737745]}, "properties": {"kind": "stop", "name": "CASCADE AVE SW @ DONNELLY AVE SW", "mode": "bus"}}, {"type": "Feature", "geometry": {"type": "Point", "coordinates": [-84.4336, 33.73874]}, "properties": {"kind": "stop", "name": "CASCADE AVE @ RALPH D ABERNATHY BLVD", "mode": "bus"}}, {"type": "Feature", "geometry": {"type": "Point", "coordinates": [-84.435317, 33.738094]}, "properties": {"kind": "stop", "name": "CASCADE AVE SW @ WESTWOOD AVE SW", "mode": "bus"}}, {"type": "Feature", "geometry": {"type": "Point", "coordinates": [-84.435783, 33.737154]}, "properties": {"kind": "stop", "name": "CASCADE AVE@ROGERS AVE", "mode": "bus"}}, {"type": "Feature", "geometry": {"type": "Point", "coordinates": [-84.436595, 33.735372]}, "properties": {"kind": "stop", "name": "CASCADE AVE SW@OLYMPIAN WAY SW", "mode": "bus"}}, {"type": "Feature", "geometry": {"type": "Point", "coordinates": [-84.437538, 33.733473]}, "properties": {"kind": "stop", "name": "CASCADE AVE SW@BEECHER ST SW", "mode": "bus"}}, {"type": "Feature", "geometry": {"type": "Point", "coordinates": [-84.438363, 33.732389]}, "properties": {"kind": "stop", "name": "CASCADE AVE SW @ WESTHAVEN DR SW", "mode": "bus"}}, {"type": "Feature", "geometry": {"type": "Point", "coordinates": [-84.439176, 33.731556]}, "properties": {"kind": "stop", "name": "CASCADE AVE SW@RICHLAND RD", "mode": "bus"}}, {"type": "Feature", "geometry": {"type": "Point", "coordinates": [-84.440967, 33.729692]}, "properties": {"kind": "stop", "name": "CASCADE AVE SW@ALTADENA PL SW", "mode": "bus"}}, {"type": "Feature", "geometry": {"type": "Point", "coordinates": [-84.443485, 33.727756]}, "properties": {"kind": "stop", "name": "CASCADE AVE@CASCADE TER", "mode": "bus"}}, {"type": "Feature", "geometry": {"type": "Point", "coordinates": [-84.44532, 33.726519]}, "properties": {"kind": "stop", "name": "CASCADE AVE SW@ CASCADE CIR", "mode": "bus"}}, {"type": "Feature", "geometry": {"type": "Point", "coordinates": [-84.445906, 33.75232]}, "properties": {"kind": "stop", "name": "ANDERSON AVE @ 93", "mode": "bus"}}, {"type": "Feature", "geometry": {"type": "Point", "coordinates": [-84.44256, 33.748112]}, "properties": {"kind": "stop", "name": "RALPH D ABERNATHY BLVD @ 1701", "mode": "bus"}}, {"type": "Feature", "geometry": {"type": "Point", "coordinates": [-84.441721, 33.747236]}, "properties": {"kind": "stop", "name": "RALPH D ABERNATHY BLVD SW @ WESTVIEW DR SW", "mode": "bus"}}, {"type": "Feature", "geometry": {"type": "Point", "coordinates": [-84.440437, 33.745948]}, "properties": {"kind": "stop", "name": "RALPH D ABERNATHY BLVD @ LAUREL AVE", "mode": "bus"}}, {"type": "Feature", "geometry": {"type": "Point", "coordinates": [-84.453037, 33.733949]}, "properties": {"kind": "stop", "name": "BEECHER RD SW@SHIRLEY ST SW", "mode": "bus"}}, {"type": "Feature", "geometry": {"type": "Point", "coordinates": [-84.442527, 33.748166]}, "properties": {"kind": "stop", "name": "RALPH D ABERNATHY BLVD @ 1701", "mode": "bus"}}, {"type": "Feature", "geometry": {"type": "Point", "coordinates": [-84.441345, 33.747078]}, "properties": {"kind": "stop", "name": "RALPH D ABERNATH BLVD @ WESTVIEW DR SW", "mode": "bus"}}, {"type": "Feature", "geometry": {"type": "Point", "coordinates": [-84.440475, 33.746109]}, "properties": {"kind": "stop", "name": "RALPH D ABERNATHY BLVD @ LAUREL AVE SW", "mode": "bus"}}, {"type": "Feature", "geometry": {"type": "Point", "coordinates": [-84.439392, 33.745063]}, "properties": {"kind": "stop", "name": "RALPH D ABERNATHY BLVD @ W ONTARIO AVE SW", "mode": "bus"}}, {"type": "Feature", "geometry": {"type": "Point", "coordinates": [-84.448907, 33.733685]}, "properties": {"kind": "stop", "name": "BEECHER ST SW@KENNOLIA DR SW", "mode": "bus"}}, {"type": "Feature", "geometry": {"type": "Point", "coordinates": [-84.4507, 33.733576]}, "properties": {"kind": "stop", "name": "BEECHER ST SW@SHIRLEY ST SW", "mode": "bus"}}, {"type": "Feature", "geometry": {"type": "Point", "coordinates": [-84.453113, 33.733895]}, "properties": {"kind": "stop", "name": "BEECHER RD SW@SHIRLEY ST SW", "mode": "bus"}}, {"type": "Feature", "geometry": {"type": "Point", "coordinates": [-84.446688, 33.737172]}, "properties": {"kind": "stop", "name": "S GORDON ST SW @ ROGERS AVE SW", "mode": "bus"}}, {"type": "Feature", "geometry": {"type": "Point", "coordinates": [-84.446151, 33.750812]}, "properties": {"kind": "stop", "name": "ANDERSON AVE @ MARTIN LUTHER KING J D", "mode": "bus"}}, {"type": "Feature", "geometry": {"type": "Point", "coordinates": [-84.437752, 33.738503]}, "properties": {"kind": "stop", "name": "WESTWOOD AVE@WILLARD AVE", "mode": "bus"}}, {"type": "Feature", "geometry": {"type": "Point", "coordinates": [-84.439664, 33.74517]}, "properties": {"kind": "stop", "name": "RALPH D ABERNATHY BLVD @ W ONTARIO AVE", "mode": "bus"}}, {"type": "Feature", "geometry": {"type": "Point", "coordinates": [-84.437095, 33.742944]}, "properties": {"kind": "stop", "name": "LUCILE AVE @ RALPH D ABERNATHY BLVD", "mode": "bus"}}, {"type": "Feature", "geometry": {"type": "Point", "coordinates": [-84.447073, 33.73537]}, "properties": {"kind": "stop", "name": "S GORDON ST SW @ S OLYMPIAN WAY SW", "mode": "bus"}}, {"type": "Feature", "geometry": {"type": "Point", "coordinates": [-84.435557, 33.737954]}, "properties": {"kind": "stop", "name": "WESTWOOD AVE@CASCADE AVE", "mode": "bus"}}, {"type": "Feature", "geometry": {"type": "Point", "coordinates": [-84.444998, 33.750419]}, "properties": {"kind": "stop", "name": "RALPH D ABERNATHY BLVD @ MARTIN L KING JR DR", "mode": "bus"}}, {"type": "Feature", "geometry": {"type": "Point", "coordinates": [-84.445389, 33.752833]}, "properties": {"kind": "stop", "name": "WEST LAKE STATION - WEST LOOP", "mode": "bus"}}, {"type": "Feature", "geometry": {"type": "Point", "coordinates": [-84.444717, 33.753061]}, "properties": {"kind": "stop", "name": "WEST LAKE STATION - EAST LOOP", "mode": "bus"}}, {"type": "Feature", "geometry": {"type": "Point", "coordinates": [-84.446462, 33.750561]}, "properties": {"kind": "stop", "name": "MARTIN LUTHER KING J DR @ 1981", "mode": "bus"}}, {"type": "Feature", "geometry": {"type": "Point", "coordinates": [-84.437509, 33.733199]}, "properties": {"kind": "stop", "name": "CASCADE AVE SW @ BEECHER ST SW", "mode": "bus"}}, {"type": "Feature", "geometry": {"type": "Point", "coordinates": [-84.435365, 33.749596]}, "properties": {"kind": "stop", "name": "MIMS ST SW @ ALTOONA PL", "mode": "bus"}}, {"type": "Feature", "geometry": {"type": "Point", "coordinates": [-84.4176, 33.752569]}, "properties": {"kind": "stop", "name": "JOSEPH E LOWERY BLVD @ BECKWITH ST SW", "mode": "bus"}}, {"type": "Feature", "geometry": {"type": "Point", "coordinates": [-84.417762, 33.751251]}, "properties": {"kind": "stop", "name": "JOSEPH E LOWERY BLVD@PARSONS ST SW", "mode": "bus"}}, {"type": "Feature", "geometry": {"type": "Point", "coordinates": [-84.417604, 33.750004]}, "properties": {"kind": "stop", "name": "JOSEPH E LOWERY BLVD @ ASHBY GRV SW", "mode": "bus"}}, {"type": "Feature", "geometry": {"type": "Point", "coordinates": [-84.417594, 33.749212]}, "properties": {"kind": "stop", "name": "JOSEPH E LOWERY BLVD @ FAIR ST SW", "mode": "bus"}}, {"type": "Feature", "geometry": {"type": "Point", "coordinates": [-84.417803, 33.746685]}, "properties": {"kind": "stop", "name": "JOSEPH E LOWERY BLVD@WESTVIEW DR SW", "mode": "bus"}}, {"type": "Feature", "geometry": {"type": "Point", "coordinates": [-84.417784, 33.745587]}, "properties": {"kind": "stop", "name": "JOSEPH E LOWERY BLVD@SELLS AVE SW", "mode": "bus"}}, {"type": "Feature", "geometry": {"type": "Point", "coordinates": [-84.417246, 33.744403]}, "properties": {"kind": "stop", "name": "W END AVE SW @ ASHBY ST SW", "mode": "bus"}}, {"type": "Feature", "geometry": {"type": "Point", "coordinates": [-84.415499, 33.744304]}, "properties": {"kind": "stop", "name": "W END AVE SW @ WELLBORN ST SW", "mode": "bus"}}, {"type": "Feature", "geometry": {"type": "Point", "coordinates": [-84.417367, 33.74457]}, "properties": {"kind": "stop", "name": "W END AVE SW @ ASHBY ST SW", "mode": "bus"}}, {"type": "Feature", "geometry": {"type": "Point", "coordinates": [-84.417337, 33.749024]}, "properties": {"kind": "stop", "name": "JOSEPH E LOWERY BLVD @ ATLANTA STUDENT MOVEMENT BLVD", "mode": "bus"}}, {"type": "Feature", "geometry": {"type": "Point", "coordinates": [-84.417277, 33.75063]}, "properties": {"kind": "stop", "name": "JOSEPH E LOWERY BLVD@PARSONS ST SW", "mode": "bus"}}, {"type": "Feature", "geometry": {"type": "Point", "coordinates": [-84.417322, 33.752027]}, "properties": {"kind": "stop", "name": "JOSEPH E LOWERY BLVD@BECKWITH ST SW", "mode": "bus"}}, {"type": "Feature", "geometry": {"type": "Point", "coordinates": [-84.416015, 33.749264]}, "properties": {"kind": "stop", "name": "ATLANTA STUDENT MOVEMENT BLVD @ EUHRLEE ST SW", "mode": "bus"}}, {"type": "Feature", "geometry": {"type": "Point", "coordinates": [-84.416809, 33.749236]}, "properties": {"kind": "stop", "name": "ATLANTA STUDENT MOVEMENT BLVD @ OGDEN ST SW", "mode": "bus"}}, {"type": "Feature", "geometry": {"type": "Point", "coordinates": [-84.418059, 33.748985]}, "properties": {"kind": "stop", "name": "FAIR ST SW @ JOSEPH E LOWERY BLVD", "mode": "bus"}}, {"type": "Feature", "geometry": {"type": "Point", "coordinates": [-84.419167, 33.748959]}, "properties": {"kind": "stop", "name": "FAIR ST SW @ ABBOTT ST SW", "mode": "bus"}}, {"type": "Feature", "geometry": {"type": "Point", "coordinates": [-84.420273, 33.748981]}, "properties": {"kind": "stop", "name": "FAIR ST SW @ AGNES JONES PL SW", "mode": "bus"}}, {"type": "Feature", "geometry": {"type": "Point", "coordinates": [-84.421694, 33.74892]}, "properties": {"kind": "stop", "name": "FAIR ST SW @ JOSE ST SW", "mode": "bus"}}, {"type": "Feature", "geometry": {"type": "Point", "coordinates": [-84.423135, 33.749088]}, "properties": {"kind": "stop", "name": "FAIR ST SW@LAWTON ST SW", "mode": "bus"}}, {"type": "Feature", "geometry": {"type": "Point", "coordinates": [-84.421726, 33.749272]}, "properties": {"kind": "stop", "name": "FAIR ST SW@SAINT JOSE ST SW", "mode": "bus"}}, {"type": "Feature", "geometry": {"type": "Point", "coordinates": [-84.416048, 33.749192]}, "properties": {"kind": "stop", "name": "ATLANTA STUDENT MOVEMENT BLVD @ EUHARLEE ST SW", "mode": "bus"}}, {"type": "Feature", "geometry": {"type": "Point", "coordinates": [-84.420461, 33.749162]}, "properties": {"kind": "stop", "name": "FAIR ST SW@AGNES JONES PL SW", "mode": "bus"}}, {"type": "Feature", "geometry": {"type": "Point", "coordinates": [-84.417466, 33.753318]}, "properties": {"kind": "stop", "name": "JOSEPH E LOWERY BLVD@MITCHELL ST SW", "mode": "bus"}}, {"type": "Feature", "geometry": {"type": "Point", "coordinates": [-84.417346, 33.754524]}, "properties": {"kind": "stop", "name": "JOSEPH E LOWERY BLVD @ MARTIN L KING JR DR", "mode": "bus"}}, {"type": "Feature", "geometry": {"type": "Point", "coordinates": [-84.432088, 33.75369]}, "properties": {"kind": "stop", "name": "MARTIN LUTHER KING J@CHICAMAUGA AVE", "mode": "bus"}}, {"type": "Feature", "geometry": {"type": "Point", "coordinates": [-84.429794, 33.753549]}, "properties": {"kind": "stop", "name": "MARTIN LUTHER KING J DR SW@CERRO ST", "mode": "bus"}}, {"type": "Feature", "geometry": {"type": "Point", "coordinates": [-84.428174, 33.753443]}, "properties": {"kind": "stop", "name": "MARTIN LUTHER KING J DR SW@BURBANK", "mode": "bus"}}, {"type": "Feature", "geometry": {"type": "Point", "coordinates": [-84.426351, 33.748933]}, "properties": {"kind": "stop", "name": "HOLDERNESS ST SW @ FAIR ST SW", "mode": "bus"}}, {"type": "Feature", "geometry": {"type": "Point", "coordinates": [-84.426353, 33.749076]}, "properties": {"kind": "stop", "name": "FAIR ST SW@HOLDERNESS ST SW", "mode": "bus"}}, {"type": "Feature", "geometry": {"type": "Point", "coordinates": [-84.426611, 33.747532]}, "properties": {"kind": "stop", "name": "HOLDERNESS ST SW@WESTVIEW DR SW", "mode": "bus"}}, {"type": "Feature", "geometry": {"type": "Point", "coordinates": [-84.426987, 33.747425]}, "properties": {"kind": "stop", "name": "HOLDERNESS ST SW@WESTVIEW DR SW", "mode": "bus"}}, {"type": "Feature", "geometry": {"type": "Point", "coordinates": [-84.427994, 33.747154]}, "properties": {"kind": "stop", "name": "WESTVIEW DR SW@LANGHORN ST SW", "mode": "bus"}}, {"type": "Feature", "geometry": {"type": "Point", "coordinates": [-84.429146, 33.747192]}, "properties": {"kind": "stop", "name": "WESTVIEW DR SW@ATWOOD ST SW", "mode": "bus"}}, {"type": "Feature", "geometry": {"type": "Point", "coordinates": [-84.430916, 33.747363]}, "properties": {"kind": "stop", "name": "WESTVIEW DR SW@HOPKINS ST SW", "mode": "bus"}}, {"type": "Feature", "geometry": {"type": "Point", "coordinates": [-84.432101, 33.747379]}, "properties": {"kind": "stop", "name": "WESTVIEW DR SW@CHICAMAUGA AVE SW", "mode": "bus"}}, {"type": "Feature", "geometry": {"type": "Point", "coordinates": [-84.432645, 33.74728]}, "properties": {"kind": "stop", "name": "WESTVIEW DR SW @ CHICAMAUGA AVE SW", "mode": "bus"}}, {"type": "Feature", "geometry": {"type": "Point", "coordinates": [-84.418137, 33.742268]}, "properties": {"kind": "stop", "name": "LUCILE AVE SW @ JOSEPH E LOWERY BLVD", "mode": "bus"}}, {"type": "Feature", "geometry": {"type": "Point", "coordinates": [-84.420334, 33.742294]}, "properties": {"kind": "stop", "name": "LUCILE AVE SW @ PEEPLES ST SW", "mode": "bus"}}, {"type": "Feature", "geometry": {"type": "Point", "coordinates": [-84.422489, 33.742327]}, "properties": {"kind": "stop", "name": "LUCILE AVE SW @ LAWTON ST SW", "mode": "bus"}}, {"type": "Feature", "geometry": {"type": "Point", "coordinates": [-84.423912, 33.742364]}, "properties": {"kind": "stop", "name": "LUCILE AVE SW @ LAWTON ST SW", "mode": "bus"}}, {"type": "Feature", "geometry": {"type": "Point", "coordinates": [-84.425133, 33.742378]}, "properties": {"kind": "stop", "name": "LUCILE AVE SW @ DARGAN PL SW", "mode": "bus"}}, {"type": "Feature", "geometry": {"type": "Point", "coordinates": [-84.43048, 33.74237]}, "properties": {"kind": "stop", "name": "LUCILE AVE SW @ HOPKINS ST SW", "mode": "bus"}}, {"type": "Feature", "geometry": {"type": "Point", "coordinates": [-84.432297, 33.742336]}, "properties": {"kind": "stop", "name": "LUCILE AVE SW @ LANGHORN ST SW", "mode": "bus"}}, {"type": "Feature", "geometry": {"type": "Point", "coordinates": [-84.430404, 33.742174]}, "properties": {"kind": "stop", "name": "LUCILE AVE SW @ HOPKINS ST SW", "mode": "bus"}}, {"type": "Feature", "geometry": {"type": "Point", "coordinates": [-84.428855, 33.742262]}, "properties": {"kind": "stop", "name": "LUCILE AVE SW @ ATWOOD ST SW", "mode": "bus"}}, {"type": "Feature", "geometry": {"type": "Point", "coordinates": [-84.427138, 33.742246]}, "properties": {"kind": "stop", "name": "LUCILE AVE SW @ HOLDERNESS ST SW", "mode": "bus"}}, {"type": "Feature", "geometry": {"type": "Point", "coordinates": [-84.424801, 33.742257]}, "properties": {"kind": "stop", "name": "LUCILE AVE SW @ DARGAN PL SW", "mode": "bus"}}, {"type": "Feature", "geometry": {"type": "Point", "coordinates": [-84.423366, 33.742213]}, "properties": {"kind": "stop", "name": "LUCILE AVE SW @ LAWTON ST SW", "mode": "bus"}}, {"type": "Feature", "geometry": {"type": "Point", "coordinates": [-84.422714, 33.742169]}, "properties": {"kind": "stop", "name": "LUCILE AVE SW @ LAWTON ST SW", "mode": "bus"}}, {"type": "Feature", "geometry": {"type": "Point", "coordinates": [-84.420484, 33.741464]}, "properties": {"kind": "stop", "name": "LUCILE AVE SW @ PEEPLES ST SW", "mode": "bus"}}, {"type": "Feature", "geometry": {"type": "Point", "coordinates": [-84.428771, 33.742346]}, "properties": {"kind": "stop", "name": "LUCILE AVE SW @ ATWOOD ST SW", "mode": "bus"}}, {"type": "Feature", "geometry": {"type": "Point", "coordinates": [-84.41729, 33.745314]}, "properties": {"kind": "stop", "name": "JOSEPH E LOWERY BLVD @ SELLS AVE SW", "mode": "bus"}}, {"type": "Feature", "geometry": {"type": "Point", "coordinates": [-84.417334, 33.74634]}, "properties": {"kind": "stop", "name": "JOSEPH E LOWERY BLVD@WESTVIEW DR SW", "mode": "bus"}}, {"type": "Feature", "geometry": {"type": "Point", "coordinates": [-84.42959, 33.753645]}, "properties": {"kind": "stop", "name": "MARTIN L KING JR DR NW @ CERRO ST SW", "mode": "bus"}}, {"type": "Feature", "geometry": {"type": "Point", "coordinates": [-84.428, 33.753515]}, "properties": {"kind": "stop", "name": "MARTIN L KING JR DR NW @ BURBANK DR NW", "mode": "bus"}}, {"type": "Feature", "geometry": {"type": "Point", "coordinates": [-84.426522, 33.753444]}, "properties": {"kind": "stop", "name": "MARTIN LUTHER KING J@STAFFORD ST", "mode": "bus"}}, {"type": "Feature", "geometry": {"type": "Point", "coordinates": [-84.426489, 33.753516]}, "properties": {"kind": "stop", "name": "MARTIN L KING JR DR NW @ STAFFORD ST SW", "mode": "bus"}}, {"type": "Feature", "geometry": {"type": "Point", "coordinates": [-84.424968, 33.75384]}, "properties": {"kind": "stop", "name": "MARTIN L KING JR DR @ MORRIS BROWN", "mode": "bus"}}, {"type": "Feature", "geometry": {"type": "Point", "coordinates": [-84.425011, 33.753893]}, "properties": {"kind": "stop", "name": "MARTIN L KING JR DR NW @ MORRIS BROWN DR SW", "mode": "bus"}}, {"type": "Feature", "geometry": {"type": "Point", "coordinates": [-84.423827, 33.754395]}, "properties": {"kind": "stop", "name": "MARTIN LUTHER KING J@HUNTER PL N", "mode": "bus"}}, {"type": "Feature", "geometry": {"type": "Point", "coordinates": [-84.41994, 33.754709]}, "properties": {"kind": "stop", "name": "MARTIN LUTHER KING J DR @ WHITEHOUSE DR", "mode": "bus"}}, {"type": "Feature", "geometry": {"type": "Point", "coordinates": [-84.423892, 33.754431]}, "properties": {"kind": "stop", "name": "MARTIN L KING JR DR NW @ HUNTER PL NW", "mode": "bus"}}, {"type": "Feature", "geometry": {"type": "Point", "coordinates": [-84.420311, 33.754772]}, "properties": {"kind": "stop", "name": "MARTIN L KING JR DR NW @ BOOKER ST NW", "mode": "bus"}}, {"type": "Feature", "geometry": {"type": "Point", "coordinates": [-84.431838, 33.753823]}, "properties": {"kind": "stop", "name": "MARTIN L KING JR DR NW @ CHICAMAUGA AVE NW", "mode": "bus"}}, {"type": "Feature", "geometry": {"type": "Point", "coordinates": [-84.433255, 33.753851]}, "properties": {"kind": "stop", "name": "MARTIN L KING JR DR NW @ CHAPPELL RD", "mode": "bus"}}, {"type": "Feature", "geometry": {"type": "Point", "coordinates": [-84.425545, 33.748905]}, "properties": {"kind": "stop", "name": "FAIR ST SW @ 1ST ST SW", "mode": "bus"}}, {"type": "Feature", "geometry": {"type": "Point", "coordinates": [-84.425298, 33.749077]}, "properties": {"kind": "stop", "name": "FAIR ST@FIRST ST", "mode": "bus"}}, {"type": "Feature", "geometry": {"type": "Point", "coordinates": [-84.423424, 33.748913]}, "properties": {"kind": "stop", "name": "FAIR ST SW @ LAWTON ST SW", "mode": "bus"}}, {"type": "Feature", "geometry": {"type": "Point", "coordinates": [-84.419426, 33.749191]}, "properties": {"kind": "stop", "name": "FAIR ST@ABBOTT ST", "mode": "bus"}}, {"type": "Feature", "geometry": {"type": "Point", "coordinates": [-84.421316, 33.754747]}, "properties": {"kind": "stop", "name": "MARTIN LUTHER KING J DR@OLLIE ST", "mode": "bus"}}, {"type": "Feature", "geometry": {"type": "Point", "coordinates": [-84.426658, 33.742389]}, "properties": {"kind": "stop", "name": "LUCILE AVE @ HOLDERNESS ST", "mode": "bus"}}, {"type": "Feature", "geometry": {"type": "Point", "coordinates": [-84.418167, 33.749074]}, "properties": {"kind": "stop", "name": "FAIR ST SW @ JOSEPH E LOWERY BLVD", "mode": "bus"}}, {"type": "Feature", "geometry": {"type": "Point", "coordinates": [-84.434656, 33.74744]}, "properties": {"kind": "stop", "name": "WESTVIEW DR SW @ WESTVIEW PL", "mode": "bus"}}, {"type": "Feature", "geometry": {"type": "Point", "coordinates": [-84.414009, 33.744253]}, "properties": {"kind": "stop", "name": "LEE ST SW @ W END AV SW", "mode": "bus"}}, {"type": "Feature", "geometry": {"type": "Point", "coordinates": [-84.413776, 33.743338]}, "properties": {"kind": "stop", "name": "LEE ST SW@NORCROSS ST SW", "mode": "bus"}}, {"type": "Feature", "geometry": {"type": "Point", "coordinates": [-84.415271, 33.744547]}, "properties": {"kind": "stop", "name": "W END AVE SW @ WELLBORN ST SW", "mode": "bus"}}, {"type": "Feature", "geometry": {"type": "Point", "coordinates": [-84.399785, 33.749241]}, "properties": {"kind": "stop", "name": "PETERS ST SW @ HAYNES ST SW", "mode": "bus"}}, {"type": "Feature", "geometry": {"type": "Point", "coordinates": [-84.406514, 33.749182]}, "properties": {"kind": "stop", "name": "ATLANTA STUDENT MOVEMENT BLVD @ WALNUT ST SW", "mode": "bus"}}, {"type": "Feature", "geometry": {"type": "Point", "coordinates": [-84.411219, 33.749365]}, "properties": {"kind": "stop", "name": "ATLANTA STUDENT MOVEMENT BLVD @ LAWSHE ST SW", "mode": "bus"}}, {"type": "Feature", "geometry": {"type": "Point", "coordinates": [-84.412599, 33.749556]}, "properties": {"kind": "stop", "name": "ATLANTA STUDENT MOVEMENT BLVD @ JAMES P BRAWLEY DR SW", "mode": "bus"}}, {"type": "Feature", "geometry": {"type": "Point", "coordinates": [-84.414271, 33.749457]}, "properties": {"kind": "stop", "name": "ATLANTA STUDENT MOVEMENT BLVD @ MILTON ST SW", "mode": "bus"}}, {"type": "Feature", "geometry": {"type": "Point", "coordinates": [-84.401161, 33.748085]}, "properties": {"kind": "stop", "name": "PETERS ST SW @ FAIR ST SW", "mode": "bus"}}, {"type": "Feature", "geometry": {"type": "Point", "coordinates": [-84.406578, 33.74902]}, "properties": {"kind": "stop", "name": "ATLANTA STUDENT MOVEMENT BLVD @ WALNUT ST SW", "mode": "bus"}}, {"type": "Feature", "geometry": {"type": "Point", "coordinates": [-84.409325, 33.749191]}, "properties": {"kind": "stop", "name": "ATLANTA STUDENT MOVEMENT BLVD @ ELM ST SW", "mode": "bus"}}, {"type": "Feature", "geometry": {"type": "Point", "coordinates": [-84.410651, 33.749192]}, "properties": {"kind": "stop", "name": "ATLANTA STUDENT MOVEMENT BLVD @ JOHN HOPE DR SW", "mode": "bus"}}, {"type": "Feature", "geometry": {"type": "Point", "coordinates": [-84.413086, 33.749168]}, "properties": {"kind": "stop", "name": "ATLANTA STUDENT MOVEMENT BLVD @ JAMES P BRAWLEY DR SW", "mode": "bus"}}, {"type": "Feature", "geometry": {"type": "Point", "coordinates": [-84.414597, 33.749146]}, "properties": {"kind": "stop", "name": "ATLANTA STUDENT MOVEMENT BLVD @ MILTON ST SW", "mode": "bus"}}, {"type": "Feature", "geometry": {"type": "Point", "coordinates": [-84.417739, 33.754678]}, "properties": {"kind": "stop", "name": "MARTIN L KING JR DR @ JOSEPH E LOWERY BLVD", "mode": "bus"}}, {"type": "Feature", "geometry": {"type": "Point", "coordinates": [-84.399046, 33.74608]}, "properties": {"kind": "stop", "name": "WHITEHALL ST SW @ SPRING ST SW", "mode": "bus"}}, {"type": "Feature", "geometry": {"type": "Point", "coordinates": [-84.399003, 33.745868]}, "properties": {"kind": "stop", "name": "WHITEHALL ST SW @ TED TURNER DR SW", "mode": "bus"}}, {"type": "Feature", "geometry": {"type": "Point", "coordinates": [-84.400559, 33.745305]}, "properties": {"kind": "stop", "name": "WHITEHALL ST SW @ 385", "mode": "bus"}}, {"type": "Feature", "geometry": {"type": "Point", "coordinates": [-84.400643, 33.745123]}, "properties": {"kind": "stop", "name": "WHITEHALL ST SW@400", "mode": "bus"}}, {"type": "Feature", "geometry": {"type": "Point", "coordinates": [-84.40299, 33.744147]}, "properties": {"kind": "stop", "name": "WHITEHALL ST SW @ WHITEHALL TERR SW", "mode": "bus"}}, {"type": "Feature", "geometry": {"type": "Point", "coordinates": [-84.402942, 33.741302]}, "properties": {"kind": "stop", "name": "MCDANIEL ST SW @ FULTON ST SW", "mode": "bus"}}, {"type": "Feature", "geometry": {"type": "Point", "coordinates": [-84.402927, 33.744002]}, "properties": {"kind": "stop", "name": "WHITEHALL ST SW@WHITEHALL TER SW", "mode": "bus"}}, {"type": "Feature", "geometry": {"type": "Point", "coordinates": [-84.401219, 33.747851]}, "properties": {"kind": "stop", "name": "PETERS ST SW @ FAIR ST SW", "mode": "bus"}}, {"type": "Feature", "geometry": {"type": "Point", "coordinates": [-84.39975, 33.749075]}, "properties": {"kind": "stop", "name": "PETERS ST SW @ HAYNES ST SW", "mode": "bus"}}, {"type": "Feature", "geometry": {"type": "Point", "coordinates": [-84.414293, 33.754779]}, "properties": {"kind": "stop", "name": "MARTIN L KING JR DR NW @ PASCHAL BLVD SW", "mode": "bus"}}, {"type": "Feature", "geometry": {"type": "Point", "coordinates": [-84.405154, 33.748055]}, "properties": {"kind": "stop", "name": "NORTHSIDE DR @ LARKIN ST", "mode": "bus"}}, {"type": "Feature", "geometry": {"type": "Point", "coordinates": [-84.406794, 33.746084]}, "properties": {"kind": "stop", "name": "NORTHSIDE DR SW @ GREENSFERRY AVE SW", "mode": "bus"}}, {"type": "Feature", "geometry": {"type": "Point", "coordinates": [-84.414402, 33.754609]}, "properties": {"kind": "stop", "name": "MARTIN L KING JR DR @ PASCHAL BLVD SW", "mode": "bus"}}, {"type": "Feature", "geometry": {"type": "Point", "coordinates": [-84.410251, 33.754506]}, "properties": {"kind": "stop", "name": "MARTIN L KING JR DR @ SUNSET AVE", "mode": "bus"}}, {"type": "Feature", "geometry": {"type": "Point", "coordinates": [-84.402845, 33.753928]}, "properties": {"kind": "stop", "name": "NORTHSIDE DR SW @ MITCHELL ST SW", "mode": "bus"}}, {"type": "Feature", "geometry": {"type": "Point", "coordinates": [-84.403255, 33.750867]}, "properties": {"kind": "stop", "name": "NORTHSIDE DR SW @ CHAPEL ST SW", "mode": "bus"}}, {"type": "Feature", "geometry": {"type": "Point", "coordinates": [-84.404349, 33.749396]}, "properties": {"kind": "stop", "name": "NORTHSIDE DR SW @ ATLANTA STUDENT MOVEMENT BLVD SW", "mode": "bus"}}, {"type": "Feature", "geometry": {"type": "Point", "coordinates": [-84.403211, 33.750679]}, "properties": {"kind": "stop", "name": "NORTHSIDE DR SW @ NELSON ST SW", "mode": "bus"}}, {"type": "Feature", "geometry": {"type": "Point", "coordinates": [-84.412825, 33.754673]}, "properties": {"kind": "stop", "name": "MARTIN L KING JR DR @ JAMES P BRAWLEY  DR SW", "mode": "bus"}}, {"type": "Feature", "geometry": {"type": "Point", "coordinates": [-84.411523, 33.754536]}, "properties": {"kind": "stop", "name": "MARTIN L KING JR DR @ GRIFFIN ST", "mode": "bus"}}, {"type": "Feature", "geometry": {"type": "Point", "coordinates": [-84.409923, 33.754738]}, "properties": {"kind": "stop", "name": "MARTIN L KING JR DR NW @ SUNSET AVE NW", "mode": "bus"}}, {"type": "Feature", "geometry": {"type": "Point", "coordinates": [-84.40377, 33.743458]}, "properties": {"kind": "stop", "name": "MCDANIEL ST SW @ WHITEHALL ST SW", "mode": "bus"}}, {"type": "Feature", "geometry": {"type": "Point", "coordinates": [-84.41263, 33.754736]}, "properties": {"kind": "stop", "name": "MARTIN L KING JR DR NW @ JAMES P BRAWLEY DR NW", "mode": "bus"}}, {"type": "Feature", "geometry": {"type": "Point", "coordinates": [-84.417391, 33.754759]}, "properties": {"kind": "stop", "name": "MARTIN L KING JR DR NW @ JOSEPH E LOWERY BLVD NW", "mode": "bus"}}, {"type": "Feature", "geometry": {"type": "Point", "coordinates": [-84.414342, 33.744607]}, "properties": {"kind": "stop", "name": "W END AVE @ LEE ST", "mode": "bus"}}, {"type": "Feature", "geometry": {"type": "Point", "coordinates": [-84.395177, 33.750585]}, "properties": {"kind": "stop", "name": "FORSYTH ST SW @ TRINITY AVE SW", "mode": "bus"}}, {"type": "Feature", "geometry": {"type": "Point", "coordinates": [-84.396264, 33.750513]}, "properties": {"kind": "stop", "name": "TRINITY AVE SW @ TED TURNER DR SW", "mode": "bus"}}, {"type": "Feature", "geometry": {"type": "Point", "coordinates": [-84.398382, 33.743068]}, "properties": {"kind": "stop", "name": "WINDSOR ST SW@EUGENIA ST SW", "mode": "bus"}}, {"type": "Feature", "geometry": {"type": "Point", "coordinates": [-84.39838, 33.74199]}, "properties": {"kind": "stop", "name": "WINDSOR ST SW@FULTON ST SW", "mode": "bus"}}, {"type": "Feature", "geometry": {"type": "Point", "coordinates": [-84.398064, 33.743098]}, "properties": {"kind": "stop", "name": "WINDSOR ST SW @ EUGENIA ST SW", "mode": "bus"}}, {"type": "Feature", "geometry": {"type": "Point", "coordinates": [-84.39812, 33.74169]}, "properties": {"kind": "stop", "name": "WINDSOR ST SW@FULTON ST SW", "mode": "bus"}}, {"type": "Feature", "geometry": {"type": "Point", "coordinates": [-84.394319, 33.751571]}, "properties": {"kind": "stop", "name": "FORSYTH ST SW @ MITCHELL ST SW", "mode": "bus"}}, {"type": "Feature", "geometry": {"type": "Point", "coordinates": [-84.398123, 33.749164]}, "properties": {"kind": "stop", "name": "TED TURNER DR SW @ BROTHERTON ST SW", "mode": "bus"}}, {"type": "Feature", "geometry": {"type": "Point", "coordinates": [-84.417712, 33.740652]}, "properties": {"kind": "stop", "name": "OAK ST SW @ JOSEPH E LOWERY BLVD", "mode": "bus"}}, {"type": "Feature", "geometry": {"type": "Point", "coordinates": [-84.419238, 33.735853]}, "properties": {"kind": "stop", "name": "OGLETHORPE AVE SW@GORDON PL SW", "mode": "bus"}}, {"type": "Feature", "geometry": {"type": "Point", "coordinates": [-84.420325, 33.735852]}, "properties": {"kind": "stop", "name": "OGLETHORPE AVE SW@PEEPLES ST SW", "mode": "bus"}}, {"type": "Feature", "geometry": {"type": "Point", "coordinates": [-84.423225, 33.735836]}, "properties": {"kind": "stop", "name": "OGLETHORPE AVE SW@LAWTON ST SW", "mode": "bus"}}, {"type": "Feature", "geometry": {"type": "Point", "coordinates": [-84.4234, 33.734668]}, "properties": {"kind": "stop", "name": "LAWTON ST SW@MATHEWS ST SW", "mode": "bus"}}, {"type": "Feature", "geometry": {"type": "Point", "coordinates": [-84.424516, 33.73208]}, "properties": {"kind": "stop", "name": "LAWTON ST SW@DONNELLY AVE SW", "mode": "bus"}}, {"type": "Feature", "geometry": {"type": "Point", "coordinates": [-84.42681, 33.733018]}, "properties": {"kind": "stop", "name": "DONNELLY AVE SW@OAKLAND DR SW", "mode": "bus"}}, {"type": "Feature", "geometry": {"type": "Point", "coordinates": [-84.432456, 33.736468]}, "properties": {"kind": "stop", "name": "DONNELLY AVE SW @ BERNICE ST SW", "mode": "bus"}}, {"type": "Feature", "geometry": {"type": "Point", "coordinates": [-84.430084, 33.73502]}, "properties": {"kind": "stop", "name": "DONNELLY AVE SW @ ALLEGHENY ST SW", "mode": "bus"}}, {"type": "Feature", "geometry": {"type": "Point", "coordinates": [-84.432875, 33.736541]}, "properties": {"kind": "stop", "name": "DONNELLY AVE@BERNICE ST", "mode": "bus"}}, {"type": "Feature", "geometry": {"type": "Point", "coordinates": [-84.429954, 33.734823]}, "properties": {"kind": "stop", "name": "DONNELLY AVE SW @ ALLEGHENY ST SW", "mode": "bus"}}, {"type": "Feature", "geometry": {"type": "Point", "coordinates": [-84.427354, 33.733259]}, "properties": {"kind": "stop", "name": "DONNELLY AVE SW @ BEECHER ST SW", "mode": "bus"}}, {"type": "Feature", "geometry": {"type": "Point", "coordinates": [-84.424288, 33.732205]}, "properties": {"kind": "stop", "name": "LAWTON ST SW@DONNELLY AVE SW", "mode": "bus"}}, {"type": "Feature", "geometry": {"type": "Point", "coordinates": [-84.423302, 33.734623]}, "properties": {"kind": "stop", "name": "LAWTON ST SW@MATHEWS ST SW", "mode": "bus"}}, {"type": "Feature", "geometry": {"type": "Point", "coordinates": [-84.423314, 33.735733]}, "properties": {"kind": "stop", "name": "LAWTON ST SW@OGLETHORPE AVE SW", "mode": "bus"}}, {"type": "Feature", "geometry": {"type": "Point", "coordinates": [-84.420543, 33.735771]}, "properties": {"kind": "stop", "name": "OGLETHORPE AVE SW@PEEPLES ST SW", "mode": "bus"}}, {"type": "Feature", "geometry": {"type": "Point", "coordinates": [-84.419201, 33.735746]}, "properties": {"kind": "stop", "name": "OGLETHORPE AVE SW@AZALIA ST SW", "mode": "bus"}}, {"type": "Feature", "geometry": {"type": "Point", "coordinates": [-84.417804, 33.735791]}, "properties": {"kind": "stop", "name": "OGLETHORPE AVE SW@ JOSEPH E LOWERY BLVD", "mode": "bus"}}, {"type": "Feature", "geometry": {"type": "Point", "coordinates": [-84.418446, 33.738073]}, "properties": {"kind": "stop", "name": "RALPH D ABERNATHY BLVD SW @ JOSEPH E LOWERY BLVD", "mode": "bus"}}, {"type": "Feature", "geometry": {"type": "Point", "coordinates": [-84.420235, 33.73811]}, "properties": {"kind": "stop", "name": "RALPH DAVID ABERNATH BLVD@PEEPLES S", "mode": "bus"}}, {"type": "Feature", "geometry": {"type": "Point", "coordinates": [-84.423296, 33.7384]}, "properties": {"kind": "stop", "name": "RALPH D ABERNATHY BLVD SW @ LAWTON ST SW", "mode": "bus"}}, {"type": "Feature", "geometry": {"type": "Point", "coordinates": [-84.426826, 33.738594]}, "properties": {"kind": "stop", "name": "RALPH D ABERNATHY BLVD SW @ HOLDERNES ST", "mode": "bus"}}, {"type": "Feature", "geometry": {"type": "Point", "coordinates": [-84.422216, 33.735711]}, "properties": {"kind": "stop", "name": "OGLETHORPE AVE SW@LAWTON ST SW", "mode": "bus"}}, {"type": "Feature", "geometry": {"type": "Point", "coordinates": [-84.429698, 33.738905]}, "properties": {"kind": "stop", "name": "RALPH DAVID ABERNATH BLVD@ATWOOD S", "mode": "bus"}}, {"type": "Feature", "geometry": {"type": "Point", "coordinates": [-84.432259, 33.739109]}, "properties": {"kind": "stop", "name": "RALPH D ABERNATHY BLVD @ LANGHORN ST", "mode": "bus"}}, {"type": "Feature", "geometry": {"type": "Point", "coordinates": [-84.417404, 33.735917]}, "properties": {"kind": "stop", "name": "OGLETHORPE AVE @ JOSEPH E LOWERY BLVD", "mode": "bus"}}, {"type": "Feature", "geometry": {"type": "Point", "coordinates": [-84.417665, 33.737859]}, "properties": {"kind": "stop", "name": "JOSEPH E LOWERY BLVD @ RALPH D ABERNATHY BLVD", "mode": "bus"}}, {"type": "Feature", "geometry": {"type": "Point", "coordinates": [-84.417629, 33.73929]}, "properties": {"kind": "stop", "name": "JOSEPH E LOWERY BLVD @ 577", "mode": "bus"}}, {"type": "Feature", "geometry": {"type": "Point", "coordinates": [-84.417656, 33.74017]}, "properties": {"kind": "stop", "name": "JOSEPH E LOWERY BLVD @ OAK ST SW", "mode": "bus"}}, {"type": "Feature", "geometry": {"type": "Point", "coordinates": [-84.417743, 33.739363]}, "properties": {"kind": "stop", "name": "JOSEPH E LOWERY BLVD @ 577", "mode": "bus"}}, {"type": "Feature", "geometry": {"type": "Point", "coordinates": [-84.4311, 33.738886]}, "properties": {"kind": "stop", "name": "RALPH D ABERNATHY BLVD SW @ HOPKINS ST SW", "mode": "bus"}}, {"type": "Feature", "geometry": {"type": "Point", "coordinates": [-84.429155, 33.738744]}, "properties": {"kind": "stop", "name": "RALPH D ABERNATHY BLVD SW @ ATWOOD ST SW", "mode": "bus"}}, {"type": "Feature", "geometry": {"type": "Point", "coordinates": [-84.425574, 33.738439]}, "properties": {"kind": "stop", "name": "RALPH D ABERNATHY BLVD @ QUEEN ST SW", "mode": "bus"}}, {"type": "Feature", "geometry": {"type": "Point", "coordinates": [-84.423013, 33.738248]}, "properties": {"kind": "stop", "name": "RALPH DAVID ABERNATH BLVD@LAWTON S", "mode": "bus"}}, {"type": "Feature", "geometry": {"type": "Point", "coordinates": [-84.420632, 33.738]}, "properties": {"kind": "stop", "name": "RALPH DAVID ABERNATH BLVD@PEEPLES", "mode": "bus"}}, {"type": "Feature", "geometry": {"type": "Point", "coordinates": [-84.418205, 33.737913]}, "properties": {"kind": "stop", "name": "RALPH DAVID ABERNATH BLVD SW @ JOSEPH E LOWERY BLVD", "mode": "bus"}}, {"type": "Feature", "geometry": {"type": "Point", "coordinates": [-84.415785, 33.738201]}, "properties": {"kind": "stop", "name": "RALPH DAVID ABERNATH BLVD SW@EVANS", "mode": "bus"}}, {"type": "Feature", "geometry": {"type": "Point", "coordinates": [-84.423405, 33.730568]}, "properties": {"kind": "stop", "name": "LAWTON ST SW@RICHLAND RD SW", "mode": "bus"}}, {"type": "Feature", "geometry": {"type": "Point", "coordinates": [-84.423383, 33.729646]}, "properties": {"kind": "stop", "name": "LAWTON ST SW@MONTREAT AVE SW", "mode": "bus"}}, {"type": "Feature", "geometry": {"type": "Point", "coordinates": [-84.423381, 33.728679]}, "properties": {"kind": "stop", "name": "LAWTON ST SW@MERRILL AVE SW", "mode": "bus"}}, {"type": "Feature", "geometry": {"type": "Point", "coordinates": [-84.425438, 33.728714]}, "properties": {"kind": "stop", "name": "MERRILL AVE SW@HALL ST SW", "mode": "bus"}}, {"type": "Feature", "geometry": {"type": "Point", "coordinates": [-84.427017, 33.728752]}, "properties": {"kind": "stop", "name": "MERRILL AVE SW@OAKLAND DR SW", "mode": "bus"}}, {"type": "Feature", "geometry": {"type": "Point", "coordinates": [-84.427152, 33.728551]}, "properties": {"kind": "stop", "name": "OAKLAND DR SW@MERRILL AVE SW", "mode": "bus"}}, {"type": "Feature", "geometry": {"type": "Point", "coordinates": [-84.425631, 33.728641]}, "properties": {"kind": "stop", "name": "MERRILL AVE SW@HALL ST SW", "mode": "bus"}}, {"type": "Feature", "geometry": {"type": "Point", "coordinates": [-84.423381, 33.728608]}, "properties": {"kind": "stop", "name": "MERRILL AVE SW@LAWTON ST SW", "mode": "bus"}}, {"type": "Feature", "geometry": {"type": "Point", "coordinates": [-84.423279, 33.729511]}, "properties": {"kind": "stop", "name": "LAWTON ST SW@MONTREAT AVE SW", "mode": "bus"}}, {"type": "Feature", "geometry": {"type": "Point", "coordinates": [-84.423294, 33.730488]}, "properties": {"kind": "stop", "name": "LAWTON ST SW@RICHLAND RD SW", "mode": "bus"}}, {"type": "Feature", "geometry": {"type": "Point", "coordinates": [-84.416122, 33.738338]}, "properties": {"kind": "stop", "name": "RALPH D ABERNATHY BLVD SW @ DUNN ST SW", "mode": "bus"}}, {"type": "Feature", "geometry": {"type": "Point", "coordinates": [-84.422032, 33.735841]}, "properties": {"kind": "stop", "name": "OGLETHORPE AVE SW@LAWTON ST SW", "mode": "bus"}}, {"type": "Feature", "geometry": {"type": "Point", "coordinates": [-84.415588, 33.737091]}, "properties": {"kind": "stop", "name": "YORK AVE SW @ EVANS ST SW", "mode": "bus"}}, {"type": "Feature", "geometry": {"type": "Point", "coordinates": [-84.411737, 33.738353]}, "properties": {"kind": "stop", "name": "RALPH D ABERNATHY BLVD @ MURPHY AVE", "mode": "bus"}}, {"type": "Feature", "geometry": {"type": "Point", "coordinates": [-84.411731, 33.738204]}, "properties": {"kind": "stop", "name": "RALPH D ABERNATHY BLVD @ MURPHY AVE", "mode": "bus"}}, {"type": "Feature", "geometry": {"type": "Point", "coordinates": [-84.414238, 33.741009]}, "properties": {"kind": "stop", "name": "LEE ST SW@OAK ST SW", "mode": "bus"}}, {"type": "Feature", "geometry": {"type": "Point", "coordinates": [-84.414362, 33.73949]}, "properties": {"kind": "stop", "name": "LEE ST SW@RALPH DAVID ABERNATH BLVD", "mode": "bus"}}, {"type": "Feature", "geometry": {"type": "Point", "coordinates": [-84.414299, 33.738354]}, "properties": {"kind": "stop", "name": "LEE ST@RALPH DAVID ABERNATH BLVD", "mode": "bus"}}, {"type": "Feature", "geometry": {"type": "Point", "coordinates": [-84.408112, 33.727154]}, "properties": {"kind": "stop", "name": "METROPOLITAN PKY SW@BROOKLINE ST SW", "mode": "bus"}}, {"type": "Feature", "geometry": {"type": "Point", "coordinates": [-84.40811, 33.728942]}, "properties": {"kind": "stop", "name": "METROPOLITAN PKY SW @ MARY ST", "mode": "bus"}}, {"type": "Feature", "geometry": {"type": "Point", "coordinates": [-84.408166, 33.7313]}, "properties": {"kind": "stop", "name": "METROPOLITAN PKY SW @ ROCKWELL ST SW", "mode": "bus"}}, {"type": "Feature", "geometry": {"type": "Point", "coordinates": [-84.408287, 33.736042]}, "properties": {"kind": "stop", "name": "METROPOLITAN PKY SW@CHRISTMAN ST SW", "mode": "bus"}}, {"type": "Feature", "geometry": {"type": "Point", "coordinates": [-84.408351, 33.734742]}, "properties": {"kind": "stop", "name": "METROPOLITAN PKY SW@SHELTON AVE SW", "mode": "bus"}}, {"type": "Feature", "geometry": {"type": "Point", "coordinates": [-84.413155, 33.738185]}, "properties": {"kind": "stop", "name": "RALPH D ABERNATHY BLVD @ W WHITEHALL ST", "mode": "bus"}}, {"type": "Feature", "geometry": {"type": "Point", "coordinates": [-84.407664, 33.727286]}, "properties": {"kind": "stop", "name": "METROPOLITAN PKWY SW @ BROOKLINE ST SW", "mode": "bus"}}, {"type": "Feature", "geometry": {"type": "Point", "coordinates": [-84.407812, 33.727967]}, "properties": {"kind": "stop", "name": "METROPOLITAN PKY SW@ARTHUR ST SW", "mode": "bus"}}, {"type": "Feature", "geometry": {"type": "Point", "coordinates": [-84.407906, 33.729164]}, "properties": {"kind": "stop", "name": "METROPOLITAN PKY SW@MARY ST SW", "mode": "bus"}}, {"type": "Feature", "geometry": {"type": "Point", "coordinates": [-84.408033, 33.7309]}, "properties": {"kind": "stop", "name": "METROPOLITAN PKY SW @ LILLIAN AVE", "mode": "bus"}}, {"type": "Feature", "geometry": {"type": "Point", "coordinates": [-84.407982, 33.734077]}, "properties": {"kind": "stop", "name": "METROPOLITAN PKY SW@SHELTON AVE SW", "mode": "bus"}}, {"type": "Feature", "geometry": {"type": "Point", "coordinates": [-84.408012, 33.735695]}, "properties": {"kind": "stop", "name": "METROPOLITAN PKY SW@CHRISTMAN ST SW", "mode": "bus"}}, {"type": "Feature", "geometry": {"type": "Point", "coordinates": [-84.407921, 33.737442]}, "properties": {"kind": "stop", "name": "METROPOLITAN PKWY SW @ BRONNER BROS WAY", "mode": "bus"}}, {"type": "Feature", "geometry": {"type": "Point", "coordinates": [-84.402763, 33.741373]}, "properties": {"kind": "stop", "name": "MCDANIEL ST SW @ FULTON ST SW", "mode": "bus"}}, {"type": "Feature", "geometry": {"type": "Point", "coordinates": [-84.40258, 33.740325]}, "properties": {"kind": "stop", "name": "MCDANIEL ST SW @ 565", "mode": "bus"}}, {"type": "Feature", "geometry": {"type": "Point", "coordinates": [-84.402298, 33.740148]}, "properties": {"kind": "stop", "name": "MCDANIEL ST SW @ 565", "mode": "bus"}}, {"type": "Feature", "geometry": {"type": "Point", "coordinates": [-84.401808, 33.738252]}, "properties": {"kind": "stop", "name": "MCDANIEL ST SW@GLENN ST SW", "mode": "bus"}}, {"type": "Feature", "geometry": {"type": "Point", "coordinates": [-84.401675, 33.738536]}, "properties": {"kind": "stop", "name": "MCDANIEL ST SW @ GLENN ST SW", "mode": "bus"}}, {"type": "Feature", "geometry": {"type": "Point", "coordinates": [-84.415206, 33.735793]}, "properties": {"kind": "stop", "name": "OGLETHORPE AVE SW @ EVANS ST SW", "mode": "bus"}}, {"type": "Feature", "geometry": {"type": "Point", "coordinates": [-84.413981, 33.738927]}, "properties": {"kind": "stop", "name": "LEE ST SW @ POOLE PL SW", "mode": "bus"}}, {"type": "Feature", "geometry": {"type": "Point", "coordinates": [-84.413837, 33.740429]}, "properties": {"kind": "stop", "name": "LEE ST SW @ OAK ST SW", "mode": "bus"}}, {"type": "Feature", "geometry": {"type": "Point", "coordinates": [-84.404912, 33.736513]}, "properties": {"kind": "stop", "name": "RALPH D ABERNATHY BLVD @ HUMPHRIES ST SW", "mode": "bus"}}, {"type": "Feature", "geometry": {"type": "Point", "coordinates": [-84.40843, 33.738157]}, "properties": {"kind": "stop", "name": "RALPH D ABERNATHY BLVD @ METROPOLITAN PKWY SW", "mode": "bus"}}, {"type": "Feature", "geometry": {"type": "Point", "coordinates": [-84.413542, 33.735899]}, "properties": {"kind": "stop", "name": "WEST END STATION", "mode": "bus"}}, {"type": "Feature", "geometry": {"type": "Point", "coordinates": [-84.398288, 33.740773]}, "properties": {"kind": "stop", "name": "WINDSOR ST SW@RICHARDSON ST SW", "mode": "bus"}}, {"type": "Feature", "geometry": {"type": "Point", "coordinates": [-84.398117, 33.740486]}, "properties": {"kind": "stop", "name": "WINDSOR ST SW @ RICHARDSON ST SW", "mode": "bus"}}, {"type": "Feature", "geometry": {"type": "Point", "coordinates": [-84.445179, 33.726555]}, "properties": {"kind": "stop", "name": "CASCADE AVE SW @ CASCADE CIR SW", "mode": "bus"}}, {"type": "Feature", "geometry": {"type": "Point", "coordinates": [-84.427323, 33.725954]}, "properties": {"kind": "stop", "name": "OAKLAND DR SW@ALMONT DR SW", "mode": "bus"}}, {"type": "Feature", "geometry": {"type": "Point", "coordinates": [-84.427355, 33.725838]}, "properties": {"kind": "stop", "name": "ALMONT DR@OAKLAND DR", "mode": "bus"}}, {"type": "Feature", "geometry": {"type": "Point", "coordinates": [-84.407878, 33.726148]}, "properties": {"kind": "stop", "name": "METROPOLITAN PKY SW @ FLETCHER ST SW", "mode": "bus"}}, {"type": "Feature", "geometry": {"type": "Point", "coordinates": [-84.4222, 33.722327]}, "properties": {"kind": "stop", "name": "AVON AVE SW @ MURPHY AVE SW", "mode": "bus"}}, {"type": "Feature", "geometry": {"type": "Point", "coordinates": [-84.396743, 33.750593]}, "properties": {"kind": "stop", "name": "TRINITY AVE SW @ TED TURNER DR SW", "mode": "bus"}}, {"type": "Feature", "geometry": {"type": "Point", "coordinates": [-84.408346, 33.744454]}, "properties": {"kind": "stop", "name": "NORTHSIDE DR SW @ SPELMAN LN SW", "mode": "bus"}}, {"type": "Feature", "geometry": {"type": "Point", "coordinates": [-84.40991, 33.742699]}, "properties": {"kind": "stop", "name": "CHAPEL ST SW @ W WHITEHALL ST SW", "mode": "bus"}}, {"type": "Feature", "geometry": {"type": "Point", "coordinates": [-84.409877, 33.742967]}, "properties": {"kind": "stop", "name": "CHAPEL ST SW @ WESTVIEW DR SW", "mode": "bus"}}, {"type": "Feature", "geometry": {"type": "Point", "coordinates": [-84.407999, 33.744687]}, "properties": {"kind": "stop", "name": "NORTHSIDE DR SW @ SPELMAN LN SW", "mode": "bus"}}, {"type": "Feature", "geometry": {"type": "Point", "coordinates": [-84.406587, 33.746147]}, "properties": {"kind": "stop", "name": "NORTHSIDE DR SW @ MCDANIEL ST SW", "mode": "bus"}}, {"type": "Feature", "geometry": {"type": "Point", "coordinates": [-84.404372, 33.74904]}, "properties": {"kind": "stop", "name": "NORTHSIDE DR SW @ FAIR ST SW", "mode": "bus"}}, {"type": "Feature", "geometry": {"type": "Point", "coordinates": [-84.404538, 33.736708]}, "properties": {"kind": "stop", "name": "RALPH D ABERNATHY BLVD @ HUMPHRIE ST", "mode": "bus"}}, {"type": "Feature", "geometry": {"type": "Point", "coordinates": [-84.417896, 33.722051]}, "properties": {"kind": "stop", "name": "SYLVAN RD@AVON AVE", "mode": "bus"}}, {"type": "Feature", "geometry": {"type": "Point", "coordinates": [-84.418113, 33.722051]}, "properties": {"kind": "stop", "name": "SYLVAN RD@AVON AVE", "mode": "bus"}}, {"type": "Feature", "geometry": {"type": "Point", "coordinates": [-84.39799, 33.74884]}, "properties": {"kind": "stop", "name": "TED TURNER DR @ BROTHERTON ST", "mode": "bus"}}, {"type": "Feature", "geometry": {"type": "Point", "coordinates": [-84.394341, 33.751696]}, "properties": {"kind": "stop", "name": "FORSYTH ST SW @ MITCHELL ST SW", "mode": "bus"}}, {"type": "Feature", "geometry": {"type": "Point", "coordinates": [-84.414967, 33.73591]}, "properties": {"kind": "stop", "name": "OGLETHROPE AVE SW @ EVANS ST SW", "mode": "bus"}}, {"type": "Feature", "geometry": {"type": "Point", "coordinates": [-84.406087, 33.745825]}, "properties": {"kind": "stop", "name": "MCDANIEL ST SW @ NORTHSIDE DR SW", "mode": "bus"}}, {"type": "Feature", "geometry": {"type": "Point", "coordinates": [-84.406402, 33.746228]}, "properties": {"kind": "stop", "name": "MCDANIEL ST @ NORTHSIDE DR", "mode": "bus"}}, {"type": "Feature", "geometry": {"type": "Point", "coordinates": [-84.403954, 33.745557]}, "properties": {"kind": "stop", "name": "PETERS ST SW @ TRENHOLM ST", "mode": "bus"}}, {"type": "Feature", "geometry": {"type": "Point", "coordinates": [-84.403521, 33.745729]}, "properties": {"kind": "stop", "name": "PETERS ST SW@ WALKER ST SW", "mode": "bus"}}, {"type": "Feature", "geometry": {"type": "Point", "coordinates": [-84.405195, 33.734565]}, "properties": {"kind": "stop", "name": "STEPHENS ST SW @ HUMPHRIES ST SW", "mode": "bus"}}, {"type": "Feature", "geometry": {"type": "Point", "coordinates": [-84.405282, 33.734565]}, "properties": {"kind": "stop", "name": "HUMPHRIES ST SW @ STEPHENS ST SW", "mode": "bus"}}, {"type": "Feature", "geometry": {"type": "Point", "coordinates": [-84.404675, 33.736436]}, "properties": {"kind": "stop", "name": "HUMPHRIES ST @ RALPH D ABERNATHY BLVD", "mode": "bus"}}, {"type": "Feature", "geometry": {"type": "Point", "coordinates": [-84.437084, 33.742854]}, "properties": {"kind": "stop", "name": "LUCILE AVE SW @ RALPH D ABERNATHY BLVD", "mode": "bus"}}, {"type": "Feature", "geometry": {"type": "Point", "coordinates": [-84.395613, 33.747512]}, "properties": {"kind": "stop", "name": "PEACHTREE ST SW @ BROTHERTON TRANSPORTATION MALL", "mode": "bus"}}, {"type": "Feature", "geometry": {"type": "Point", "coordinates": [-84.403127, 33.753901]}, "properties": {"kind": "stop", "name": "MITCHELL ST SW @ NORTHSIDE DR SW", "mode": "bus"}}, {"type": "Feature", "geometry": {"type": "Point", "coordinates": [-84.395891, 33.747644]}, "properties": {"kind": "stop", "name": "PEACHTREE ST SW @ BROTHERTON TRANSPORTATION MALL", "mode": "bus"}}, {"type": "Feature", "geometry": {"type": "Point", "coordinates": [-84.434614, 33.748872]}, "properties": {"kind": "stop", "name": "WESTVIEW PL SW @ MIMS ST SW", "mode": "bus"}}, {"type": "Feature", "geometry": {"type": "Point", "coordinates": [-84.436366, 33.749667]}, "properties": {"kind": "stop", "name": "MIMS ST SW @ MATHEWSON PL SW", "mode": "bus"}}, {"type": "Feature", "geometry": {"type": "Point", "coordinates": [-84.434691, 33.749176]}, "properties": {"kind": "stop", "name": "WESTVIEW PL SW @ MIMS ST SW", "mode": "bus"}}, {"type": "Feature", "geometry": {"type": "Point", "coordinates": [-84.407248, 33.754507]}, "properties": {"kind": "stop", "name": "TATNALL ST @ MARTIN L KING JR DR", "mode": "bus"}}, {"type": "Feature", "geometry": {"type": "Point", "coordinates": [-84.406976, 33.754069]}, "properties": {"kind": "stop", "name": "TATNALL ST @ WALNUT ST", "mode": "bus"}}, {"type": "Feature", "geometry": {"type": "Point", "coordinates": [-84.403127, 33.753803]}, "properties": {"kind": "stop", "name": "MITCHELL ST @ NORTHSIDE DR", "mode": "bus"}}, {"type": "Feature", "geometry": {"type": "Point", "coordinates": [-84.402736, 33.753767]}, "properties": {"kind": "stop", "name": "NORTHSIDE DR SW @ MITCHELL ST SW", "mode": "bus"}}, {"type": "Feature", "geometry": {"type": "Point", "coordinates": [-84.412342, 33.740244]}, "properties": {"kind": "stop", "name": "W WHITEHALL ST SW @ OAK ST SW", "mode": "bus"}}, {"type": "Feature", "geometry": {"type": "Point", "coordinates": [-84.412883, 33.738274]}, "properties": {"kind": "stop", "name": "W WHITEHALL ST SW @ RALPH D ABERNATHY BLVD SW", "mode": "bus"}}, {"type": "Feature", "geometry": {"type": "Point", "coordinates": [-84.44757, 33.733651]}, "properties": {"kind": "stop", "name": "BEECHER ST @ S GORDON ST", "mode": "bus"}}, {"type": "Feature", "geometry": {"type": "Point", "coordinates": [-84.417606, 33.743024]}, "properties": {"kind": "stop", "name": "JOSEPH E LOWERY BLVD @ CUNNINGHAM PL", "mode": "bus"}}, {"type": "Feature", "geometry": {"type": "Point", "coordinates": [-84.417498, 33.743427]}, "properties": {"kind": "stop", "name": "JOSEPH E LOWERY BLVD @ CUNNINGHAM PL", "mode": "bus"}}, {"type": "Feature", "geometry": {"type": "Point", "coordinates": [-84.395701, 33.752357]}, "properties": {"kind": "stop", "name": "MITCHELL ST @ TED TURNER DR", "mode": "bus"}}, {"type": "Feature", "geometry": {"type": "Point", "coordinates": [-84.399148, 33.753787]}, "properties": {"kind": "stop", "name": "MITCHELL ST @ MANGUM ST", "mode": "bus"}}, {"type": "Feature", "geometry": {"type": "Point", "coordinates": [-84.445329, 33.753328]}, "properties": {"kind": "stop", "name": "WEST LAKE STATION", "mode": "bus"}}, {"type": "Feature", "geometry": {"type": "Point", "coordinates": [-84.445568, 33.753247]}, "properties": {"kind": "stop", "name": "WEST LAKE STATION", "mode": "bus"}}, {"type": "Feature", "geometry": {"type": "Point", "coordinates": [-84.413653, 33.736564]}, "properties": {"kind": "stop", "name": "WEST END STATION", "mode": "bus"}}, {"type": "Feature", "geometry": {"type": "Point", "coordinates": [-84.413663, 33.735705]}, "properties": {"kind": "stop", "name": "WEST END STATION", "mode": "bus"}}, {"type": "Feature", "geometry": {"type": "Point", "coordinates": [-84.403902, 33.756613]}, "properties": {"kind": "stop", "name": "VINE CITY STATION", "mode": "bus"}}, {"type": "Feature", "geometry": {"type": "Point", "coordinates": [-84.404021, 33.756613]}, "properties": {"kind": "stop", "name": "VINE CITY STATION", "mode": "bus"}}, {"type": "Feature", "geometry": {"type": "Point", "coordinates": [-84.41723, 33.756478]}, "properties": {"kind": "stop", "name": "ASHBY STATION", "mode": "bus"}}, {"type": "Feature", "geometry": {"type": "Point", "coordinates": [-84.417328, 33.756477]}, "properties": {"kind": "stop", "name": "ASHBY STATION", "mode": "bus"}}, {"type": "Feature", "geometry": {"type": "Point", "coordinates": [-84.397215, 33.756179]}, "properties": {"kind": "stop", "name": "GWCC-CNN CENTER STATION", "mode": "bus"}}, {"type": "Feature", "geometry": {"type": "Point", "coordinates": [-84.397291, 33.756187]}, "properties": {"kind": "stop", "name": "GWCC-CNN CENTER STATION", "mode": "bus"}}, {"type": "Feature", "geometry": {"type": "Point", "coordinates": [-84.395545, 33.748938]}, "properties": {"kind": "stop", "name": "GARNETT STATION", "mode": "bus"}}, {"type": "Feature", "geometry": {"type": "Point", "coordinates": [-84.395741, 33.748696]}, "properties": {"kind": "stop", "name": "GARNETT STATION", "mode": "bus"}}], "properties": {"coverage_pct": 100.0, "rail_coverage_pct": 30.6, "stop_count": 382, "rail_stop_count": 6, "bus_stop_count": 376, "transit_index": 54, "weights": {"rail": 2.0, "bus": 1.0}}}