{"type": "FeatureCollection", "features": [{"type": "Feature", "geometry": {"type": "Point", "coordinates": [-84.446179, 33.640689]}, "properties": {"stop_name": "Airport", "mode": "rail"}}, {"type": "Feature", "geometry": {"type": "Point", "coordinates": [-84.386807, 33.789084]}, "properties": {"stop_name": "Arts Center", "mode": "rail"}}, {"type": "Feature", "geometry": {"type": "Point", "coordinates": [-84.41679, 33.756282]}, "properties": {"stop_name": "Ashby", "mode": "rail"}}, {"type": "Feature", "geometry": {"type": "Point", "coordinates": [-84.282338, 33.775031]}, "properties": {"stop_name": "Avondale", "mode": "rail"}}, {"type": "Feature", "geometry": {"type": "Point", "coordinates": [-84.428936, 33.772147]}, "properties": {"stop_name": "Bankhead", "mode": "rail"}}, {"type": "Feature", "geometry": {"type": "Point", "coordinates": [-84.339268, 33.859977]}, "properties": {"stop_name": "Brookhaven/ Oglethorpe", "mode": "rail"}}, {"type": "Feature", "geometry": {"type": "Point", "coordinates": [-84.367657, 33.847773]}, "properties": {"stop_name": "Buckhead", "mode": "rail"}}, {"type": "Feature", "geometry": {"type": "Point", "coordinates": [-84.306324, 33.887431]}, "properties": {"stop_name": "Chamblee", "mode": "rail"}}, {"type": "Feature", "geometry": {"type": "Point", "coordinates": [-84.387486, 33.766387]}, "properties": {"stop_name": "Civic Center", "mode": "rail"}}, {"type": "Feature", "geometry": {"type": "Point", "coordinates": [-84.448803, 33.651534]}, "properties": {"stop_name": "College Park", "mode": "rail"}}, {"type": "Feature", "geometry": {"type": "Point", "coordinates": [-84.295376, 33.774524]}, "properties": {"stop_name": "Decatur", "mode": "rail"}}, {"type": "Feature", "geometry": {"type": "Point", "coordinates": [-84.397404, 33.756179]}, "properties": {"stop_name": "Dome/GWCC/ Philips Arena", "mode": "rail"}}, {"type": "Feature", "geometry": {"type": "Point", "coordinates": [-84.28101, 33.902392]}, "properties": {"stop_name": "Doraville", "mode": "rail"}}, {"type": "Feature", "geometry": {"type": "Point", "coordinates": [-84.344418, 33.921073]}, "properties": {"stop_name": "Dunwoody", "mode": "rail"}}, {"type": "Feature", "geometry": {"type": "Point", "coordinates": [-84.313053, 33.765113]}, "properties": {"stop_name": "East Lake", "mode": "rail"}}, {"type": "Feature", "geometry": {"type": "Point", "coordinates": [-84.4408, 33.676875]}, "properties": {"stop_name": "East Point", "mode": "rail"}}, {"type": "Feature", "geometry": {"type": "Point", "coordinates": [-84.339886, 33.761805]}, "properties": {"stop_name": "Edgewood/ Candler Park", "mode": "rail"}}, {"type": "Feature", "geometry": {"type": "Point", "coordinates": [-84.391713, 33.753836]}, "properties": {"stop_name": "Five Points", "mode": "rail"}}, {"type": "Feature", "geometry": {"type": "Point", "coordinates": [-84.395588, 33.748801]}, "properties": {"stop_name": "Garnett", "mode": "rail"}}, {"type": "Feature", "geometry": {"type": "Point", "coordinates": [-84.385846, 33.74998]}, "properties": {"stop_name": "Georgia State", "mode": "rail"}}, {"type": "Feature", "geometry": {"type": "Point", "coordinates": [-84.47044, 33.754412]}, "properties": {"stop_name": "Hamilton E. Holmes", "mode": "rail"}}, {"type": "Feature", "geometry": {"type": "Point", "coordinates": [-84.229664, 33.76974]}, "properties": {"stop_name": "Indian Creek", "mode": "rail"}}, {"type": "Feature", "geometry": {"type": "Point", "coordinates": [-84.352757, 33.757411]}, "properties": {"stop_name": "Inman Park/ Reynoldstown", "mode": "rail"}}, {"type": "Feature", "geometry": {"type": "Point", "coordinates": [-84.251919, 33.772597]}, "properties": {"stop_name": "Kensington", "mode": "rail"}}, {"type": "Feature", "geometry": {"type": "Point", "coordinates": [-84.375546, 33.749808]}, "properties": {"stop_name": "King Memorial", "mode": "rail"}}, {"type": "Feature", "geometry": {"type": "Point", "coordinates": [-84.428944, 33.700331]}, "properties": {"stop_name": "Lakewood/ Ft. McPherson", "mode": "rail"}}, {"type": "Feature", "geometry": {"type": "Point", "coordinates": [-84.356915, 33.845961]}, "properties": {"stop_name": "Lenox", "mode": "rail"}}, {"type": "Feature", "geometry": {"type": "Point", "coordinates": [-84.369534, 33.822486]}, "properties": {"stop_name": "Lindbergh Center", "mode": "rail"}}, {"type": "Feature", "geometry": {"type": "Point", "coordinates": [-84.35146, 33.910559]}, "properties": {"stop_name": "Medical Center", "mode": "rail"}}, {"type": "Feature", "geometry": {"type": "Point", "coordinates": [-84.386456, 33.780764]}, "properties": {"stop_name": "Midtown", "mode": "rail"}}, {"type": "Feature", "geometry": {"type": "Point", "coordinates": [-84.386776, 33.771575]}, "properties": {"stop_name": "North Avenue", "mode": "rail"}}, {"type": "Feature", "geometry": {"type": "Point", "coordinates": [-84.357319, 33.943824]}, "properties": {"stop_name": "North Springs", "mode": "rail"}}, {"type": "Feature", "geometry": {"type": "Point", "coordinates": [-84.42516, 33.717032]}, "properties": {"stop_name": "Oakland City", "mode": "rail"}}, {"type": "Feature", "geometry": {"type": "Point", "coordinates": [-84.38757, 33.759684]}, "properties": {"stop_name": "Peachtree Center", "mode": "rail"}}, {"type": "Feature", "geometry": {"type": "Point", "coordinates": [-84.353154, 33.932612]}, "properties": {"stop_name": "Sandy Springs", "mode": "rail"}}, {"type": "Feature", "geometry": {"type": "Point", "coordinates": [-84.404736, 33.756465]}, "properties": {"stop_name": "Vine City", "mode": "rail"}}, {"type": "Feature", "geometry": {"type": "Point", "coordinates": [-84.41367, 33.735823]}, "properties": {"stop_name": "West End", "mode": "rail"}}, {"type": "Feature", "geometry": {"type": "Point", "coordinates": [-84.445385, 33.753249]}, "properties": {"stop_name": "West Lake", "mode": "rail"}}]}