{"type": "FeatureCollection", "features": [{"type": "Feature", "geometry": {"type": "LineString", "coordinates": [[-84.5086613, 33.7958933], [-84.5069369, 33.7950843]]}, "properties": {"surface": "", "highway": "primary"}}, {"type": "Feature", "geometry": {"type": "LineString", "coordinates": [[-84.5069369, 33.7950843], [-84.5066622, 33.7949569], [-84.506551, 33.794906], [-84.5061352, 33.7947296], [-84.5058562, 33.7946349], [-84.505756, 33.7946052]]}, "properties": {"surface": "", "highway": "primary"}}, {"type": "Feature", "geometry": {"type": "LineString", "coordinates": [[-84.4934378, 33.7870057], [-84.4927489, 33.7866099]]}, "properties": {"surface": "", "highway": "primary"}}, {"type": "Feature", "geometry": {"type": "LineString", "coordinates": [[-84.5109182, 33.7794926], [-84.5110284, 33.7793443], [-84.5112891, 33.7789769], [-84.511546, 33.7785698], [-84.5118219, 33.7780784], [-84.5120995, 33.777546], [-84.5125779, 33.7766687]]}, "properties": {"surface": "", "highway": "primary"}}, {"type": "Feature", "geometry": {"type": "LineString", "coordinates": [[-84.5002583, 33.7886309], [-84.5007903, 33.7885004], [-84.5010552, 33.7884355], [-84.5012346, 33.7883851], [-84.5014301, 33.7883225], [-84.5015654, 33.788269], [-84.5017083, 33.7882106], [-84.5018644, 33.7881395], [-84.5020142, 33.7880638], [-84.5021067, 33.7880133], [-84.502193, 33.7879627]]}, "properties": {"surface": "", "highway": "primary"}}, {"type": "Feature", "geometry": {"type": "LineString", "coordinates": [[-84.5028621, 33.787291], [-84.5028088, 33.7873407], [-84.5026942, 33.7874478], [-84.5026007, 33.7875266], [-84.5025072, 33.7876003], [-84.5024223, 33.7876628], [-84.5023375, 33.7877217], [-84.5022265, 33.787793], [-84.5021173, 33.7878584], [-84.5019447, 33.7879555], [-84.5017794, 33.7880362], [-84.5016332, 33.7881026], [-84.5014917, 33.7881614], [-84.5013503, 33.7882158], [-84.5011583, 33.7882798], [-84.5009859, 33.7883316], [-84.5007192, 33.7883936], [-84.5005468, 33.7884363]]}, "properties": {"surface": "", "highway": "primary"}}, {"type": "Feature", "geometry": {"type": "LineString", "coordinates": [[-84.5147025, 33.7734461], [-84.5145471, 33.7735944], [-84.5142399, 33.7739204], [-84.5139234, 33.7742915], [-84.5136259, 33.774671], [-84.5131034, 33.7754219]]}, "properties": {"surface": "asphalt", "highway": "primary"}}, {"type": "Feature", "geometry": {"type": "LineString", "coordinates": [[-84.4961802, 33.7899164], [-84.4964104, 33.7898683], [-84.4981746, 33.7891848], [-84.4986675, 33.7890233]]}, "properties": {"surface": "", "highway": "primary"}}, {"type": "Feature", "geometry": {"type": "LineString", "coordinates": [[-84.5129935, 33.7758813], [-84.5132368, 33.775475], [-84.5134886, 33.7751026], [-84.5137593, 33.7747242], [-84.5140568, 33.7743447], [-84.5143732, 33.7739736], [-84.5146147, 33.7737174], [-84.5146805, 33.7736476], [-84.5148928, 33.7734468], [-84.5151516, 33.773202]]}, "properties": {"surface": "asphalt", "highway": "primary"}}, {"type": "Feature", "geometry": {"type": "LineString", "coordinates": [[-84.5151516, 33.773202], [-84.5151921, 33.7731697], [-84.5154239, 33.7729846], [-84.5155715, 33.7728667], [-84.5168093, 33.772007]]}, "properties": {"surface": "asphalt", "highway": "primary"}}, {"type": "Feature", "geometry": {"type": "LineString", "coordinates": [[-84.5070267, 33.7610132], [-84.5073836, 33.7613334], [-84.5075402, 33.7614738], [-84.507585, 33.761514], [-84.5077429, 33.7616654], [-84.507972, 33.761885], [-84.5081285, 33.7620515], [-84.5082044, 33.7621323], [-84.5082754, 33.7622079], [-84.508315, 33.76225], [-84.5083524, 33.7622944], [-84.5084479, 33.7624079], [-84.508509, 33.7624804], [-84.50864, 33.762636], [-84.5086599, 33.7626622], [-84.5090443, 33.7631672], [-84.50919, 33.7633512]]}, "properties": {"surface": "asphalt", "highway": "secondary"}}, {"type": "Feature", "geometry": {"type": "LineString", "coordinates": [[-84.4966888, 33.7540299], [-84.4963986, 33.7539113], [-84.4962984, 33.7538694], [-84.4962616, 33.753854], [-84.4960835, 33.7537794]]}, "properties": {"surface": "asphalt", "highway": "secondary"}}, {"type": "Feature", "geometry": {"type": "LineString", "coordinates": [[-84.495831, 33.7536744], [-84.4951422, 33.7533837]]}, "properties": {"surface": "", "highway": "secondary"}}, {"type": "Feature", "geometry": {"type": "LineString", "coordinates": [[-84.4960835, 33.7537794], [-84.495831, 33.7536744]]}, "properties": {"surface": "asphalt", "highway": "secondary"}}, {"type": "Feature", "geometry": {"type": "LineString", "coordinates": [[-84.4970619, 33.7542418], [-84.4968527, 33.7540978], [-84.4966888, 33.7540299]]}, "properties": {"surface": "asphalt", "highway": "secondary"}}, {"type": "Feature", "geometry": {"type": "LineString", "coordinates": [[-84.4968695, 33.7908477], [-84.4965637, 33.7904431]]}, "properties": {"surface": "", "highway": "primary"}}, {"type": "Feature", "geometry": {"type": "LineString", "coordinates": [[-84.4964912, 33.7903408], [-84.4964539, 33.7902882], [-84.496329, 33.7901121], [-84.4961802, 33.7899164]]}, "properties": {"surface": "", "highway": "primary"}}, {"type": "Feature", "geometry": {"type": "LineString", "coordinates": [[-84.4944219, 33.7878335], [-84.4943532, 33.7876931], [-84.4942683, 33.7876123]]}, "properties": {"surface": "asphalt", "highway": "primary"}}, {"type": "Feature", "geometry": {"type": "LineString", "coordinates": [[-84.505756, 33.7946052], [-84.505533, 33.794539], [-84.5052742, 33.7944762]]}, "properties": {"surface": "", "highway": "primary"}}, {"type": "Feature", "geometry": {"type": "LineString", "coordinates": [[-84.5052742, 33.7944762], [-84.5052299, 33.7944655], [-84.5048786, 33.7944064], [-84.504566, 33.7943648], [-84.504381, 33.7943501], [-84.5041937, 33.7943392], [-84.5040392, 33.7943302], [-84.5037561, 33.7943172], [-84.5032604, 33.7942966], [-84.5028771, 33.7942741], [-84.5026316, 33.7942571], [-84.5024288, 33.7942378], [-84.5022721, 33.7942182], [-84.5021153, 33.7941928], [-84.5019628, 33.7941659], [-84.501822, 33.794137], [-84.5016652, 33.7941007], [-84.5014697, 33.7940511], [-84.5012636, 33.7939918], [-84.5010718, 33.7939328], [-84.5008963, 33.7938711], [-84.5007261, 33.7938079], [-84.500567, 33.793745], [-84.5004096, 33.7936776], [-84.5002653, 33.7936118]]}, "properties": {"surface": "", "highway": "primary"}}, {"type": "Feature", "geometry": {"type": "LineString", "coordinates": [[-84.5065036, 33.7838916], [-84.506978, 33.78344]]}, "properties": {"surface": "asphalt", "highway": "primary"}}, {"type": "Feature", "geometry": {"type": "LineString", "coordinates": [[-84.5039353, 33.7864162], [-84.5040922, 33.78626], [-84.5044301, 33.7859235]]}, "properties": {"surface": "", "highway": "primary"}}, {"type": "Feature", "geometry": {"type": "LineString", "coordinates": [[-84.5034968, 33.7868525], [-84.5039353, 33.7864162]]}, "properties": {"surface": "asphalt", "highway": "primary"}}, {"type": "Feature", "geometry": {"type": "LineString", "coordinates": [[-84.5060286, 33.7843432], [-84.5062051, 33.7841754], [-84.5065036, 33.7838916]]}, "properties": {"surface": "asphalt", "highway": "primary"}}, {"type": "Feature", "geometry": {"type": "LineString", "coordinates": [[-84.505624, 33.784741], [-84.5060286, 33.7843432]]}, "properties": {"surface": "asphalt", "highway": "primary"}}, {"type": "Feature", "geometry": {"type": "LineString", "coordinates": [[-84.5050934, 33.7852628], [-84.5051556, 33.7852008], [-84.505624, 33.784741]]}, "properties": {"surface": "", "highway": "primary"}}, {"type": "Feature", "geometry": {"type": "LineString", "coordinates": [[-84.5044301, 33.7859235], [-84.50456, 33.7857941]]}, "properties": {"surface": "asphalt", "highway": "primary"}}, {"type": "Feature", "geometry": {"type": "LineString", "coordinates": [[-84.5049973, 33.7853586], [-84.5050934, 33.7852628]]}, "properties": {"surface": "asphalt", "highway": "primary"}}, {"type": "Feature", "geometry": {"type": "LineString", "coordinates": [[-84.50456, 33.7857941], [-84.5049973, 33.7853586]]}, "properties": {"surface": "asphalt", "highway": "primary"}}, {"type": "Feature", "geometry": {"type": "LineString", "coordinates": [[-84.502193, 33.7879627], [-84.5023041, 33.7878951]]}, "properties": {"surface": "asphalt", "highway": "primary"}}, {"type": "Feature", "geometry": {"type": "LineString", "coordinates": [[-84.5029765, 33.7873686], [-84.5030429, 33.7873031], [-84.5031442, 33.7872033], [-84.5034968, 33.7868525]]}, "properties": {"surface": "asphalt", "highway": "primary"}}, {"type": "Feature", "geometry": {"type": "LineString", "coordinates": [[-84.5028157, 33.7875159], [-84.5028538, 33.7874811], [-84.5029239, 33.7874168], [-84.5029765, 33.7873686]]}, "properties": {"surface": "asphalt", "highway": "primary"}}, {"type": "Feature", "geometry": {"type": "LineString", "coordinates": [[-84.5023041, 33.7878951], [-84.5024172, 33.7878241], [-84.5025086, 33.7877615], [-84.502592, 33.7877014], [-84.5026863, 33.7876266], [-84.5027766, 33.7875518], [-84.5028157, 33.7875159]]}, "properties": {"surface": "asphalt", "highway": "primary"}}, {"type": "Feature", "geometry": {"type": "LineString", "coordinates": [[-84.4961802, 33.7899164], [-84.495912, 33.7895637], [-84.495741, 33.7893508]]}, "properties": {"surface": "asphalt", "highway": "primary"}}, {"type": "Feature", "geometry": {"type": "LineString", "coordinates": [[-84.495741, 33.7893508], [-84.4955589, 33.789131], [-84.4953231, 33.7888464], [-84.4952267, 33.78873], [-84.4949625, 33.7884168], [-84.4948357, 33.788268], [-84.4947077, 33.7881203]]}, "properties": {"surface": "asphalt", "highway": "primary"}}, {"type": "Feature", "geometry": {"type": "LineString", "coordinates": [[-84.4947077, 33.7881203], [-84.4945237, 33.7879296], [-84.4944219, 33.7878335]]}, "properties": {"surface": "asphalt", "highway": "primary"}}, {"type": "Feature", "geometry": {"type": "LineString", "coordinates": [[-84.4937607, 33.7872021], [-84.4936727, 33.7871444], [-84.4934378, 33.7870057]]}, "properties": {"surface": "asphalt", "highway": "primary"}}, {"type": "Feature", "geometry": {"type": "LineString", "coordinates": [[-84.4942683, 33.7876123], [-84.4940687, 33.7874347], [-84.493919, 33.7873125]]}, "properties": {"surface": "asphalt", "highway": "primary"}}, {"type": "Feature", "geometry": {"type": "LineString", "coordinates": [[-84.5128889, 33.7760611], [-84.5129935, 33.7758813]]}, "properties": {"surface": "asphalt", "highway": "primary"}}, {"type": "Feature", "geometry": {"type": "LineString", "coordinates": [[-84.5125779, 33.7766687], [-84.5126885, 33.7764274]]}, "properties": {"surface": "", "highway": "primary"}}, {"type": "Feature", "geometry": {"type": "LineString", "coordinates": [[-84.5126885, 33.7764274], [-84.5128889, 33.7760611]]}, "properties": {"surface": "", "highway": "primary"}}, {"type": "Feature", "geometry": {"type": "LineString", "coordinates": [[-84.5129849, 33.7756259], [-84.5127554, 33.7760092]]}, "properties": {"surface": "asphalt", "highway": "primary"}}, {"type": "Feature", "geometry": {"type": "LineString", "coordinates": [[-84.5131034, 33.7754219], [-84.5129849, 33.7756259]]}, "properties": {"surface": "asphalt", "highway": "primary"}}, {"type": "Feature", "geometry": {"type": "LineString", "coordinates": [[-84.4997511, 33.7886287], [-84.4994612, 33.7886966]]}, "properties": {"surface": "", "highway": "primary"}}, {"type": "Feature", "geometry": {"type": "LineString", "coordinates": [[-84.4994612, 33.7886966], [-84.4990918, 33.7887874], [-84.4987937, 33.7888648]]}, "properties": {"surface": "", "highway": "primary"}}, {"type": "Feature", "geometry": {"type": "LineString", "coordinates": [[-84.4986675, 33.7890233], [-84.4989539, 33.7889345]]}, "properties": {"surface": "", "highway": "primary"}}, {"type": "Feature", "geometry": {"type": "LineString", "coordinates": [[-84.4997979, 33.7887383], [-84.5002583, 33.7886309]]}, "properties": {"surface": "", "highway": "primary"}}, {"type": "Feature", "geometry": {"type": "LineString", "coordinates": [[-84.4989539, 33.7889345], [-84.4995375, 33.7888005], [-84.4997979, 33.7887383]]}, "properties": {"surface": "", "highway": "primary"}}, {"type": "Feature", "geometry": {"type": "LineString", "coordinates": [[-84.5005468, 33.7884363], [-84.5003115, 33.7884925]]}, "properties": {"surface": "", "highway": "primary"}}, {"type": "Feature", "geometry": {"type": "LineString", "coordinates": [[-84.5003115, 33.7884925], [-84.4999883, 33.788573], [-84.4997511, 33.7886287]]}, "properties": {"surface": "", "highway": "primary"}}, {"type": "Feature", "geometry": {"type": "LineString", "coordinates": [[-84.4987937, 33.7888648], [-84.4985998, 33.7889151], [-84.4983579, 33.788996], [-84.4981821, 33.7890548], [-84.4981001, 33.7890823], [-84.4977921, 33.7892051], [-84.4963462, 33.7897816], [-84.4961802, 33.7899164]]}, "properties": {"surface": "", "highway": "primary"}}, {"type": "Feature", "geometry": {"type": "LineString", "coordinates": [[-84.5032205, 33.736746], [-84.5031561, 33.7366746], [-84.5030647, 33.7365616], [-84.5028325, 33.7362862], [-84.5027561, 33.7361966]]}, "properties": {"surface": "", "highway": "footway"}}, {"type": "Feature", "geometry": {"type": "LineString", "coordinates": [[-84.5027561, 33.7361966], [-84.5026538, 33.7360729], [-84.5025381, 33.7359305], [-84.5024319, 33.7358013], [-84.5023907, 33.7357538], [-84.502435, 33.7357222], [-84.50237, 33.7356391], [-84.5022908, 33.7356246], [-84.5021972, 33.7356326], [-84.5021576, 33.7357051], [-84.5020625, 33.7358989], [-84.5019642, 33.7360927], [-84.5019245, 33.7362193], [-84.5019737, 33.7362322], [-84.5019816, 33.7362519], [-84.5018488, 33.7367206], [-84.5018199, 33.7368228], [-84.501739, 33.7371471], [-84.5017121, 33.7372528], [-84.5016949, 33.7373295], [-84.5016778, 33.7373908], [-84.5016642, 33.7374271], [-84.5016119, 33.7374182], [-84.5015969, 33.7374194], [-84.5015933, 33.7374325], [-84.5015853, 33.7375462], [-84.5015901, 33.7376993], [-84.5016126, 33.7378417], [-84.5016366, 33.7379655], [-84.5016862, 33.7380706], [-84.5017342, 33.7381132], [-84.5017694, 33.7381358], [-84.5018622, 33.7381651], [-84.5019918, 33.738197], [-84.5021167, 33.7382316], [-84.502182, 33.7382584]]}, "properties": {"surface": "", "highway": "footway"}}, {"type": "Feature", "geometry": {"type": "LineString", "coordinates": [[-84.515044, 33.77312], [-84.5147025, 33.7734461]]}, "properties": {"surface": "asphalt", "highway": "primary"}}, {"type": "Feature", "geometry": {"type": "LineString", "coordinates": [[-84.493919, 33.7873125], [-84.4937607, 33.7872021]]}, "properties": {"surface": "asphalt", "highway": "primary"}}, {"type": "Feature", "geometry": {"type": "LineString", "coordinates": [[-84.4965637, 33.7904431], [-84.4964912, 33.7903408]]}, "properties": {"surface": "", "highway": "primary"}}, {"type": "Feature", "geometry": {"type": "LineString", "coordinates": [[-84.4971565, 33.7912054], [-84.4968695, 33.7908477]]}, "properties": {"surface": "", "highway": "primary"}}, {"type": "Feature", "geometry": {"type": "LineString", "coordinates": [[-84.4974904, 33.7915705], [-84.4973925, 33.7914685], [-84.4971565, 33.7912054]]}, "properties": {"surface": "", "highway": "primary"}}, {"type": "Feature", "geometry": {"type": "LineString", "coordinates": [[-84.499889, 33.7934255], [-84.4998052, 33.7933836], [-84.4995993, 33.7932769], [-84.4993952, 33.7931614], [-84.4991925, 33.7930362], [-84.4989952, 33.7929066], [-84.4988558, 33.7928028], [-84.4986357, 33.7926388], [-84.4983152, 33.7923746], [-84.4980761, 33.7921486], [-84.4980322, 33.7921071], [-84.4979701, 33.7920465], [-84.4976457, 33.7917299], [-84.4976085, 33.7916936], [-84.4974904, 33.7915705]]}, "properties": {"surface": "", "highway": "primary"}}, {"type": "Feature", "geometry": {"type": "LineString", "coordinates": [[-84.5002653, 33.7936118], [-84.5001058, 33.7935338], [-84.499889, 33.7934255]]}, "properties": {"surface": "", "highway": "primary"}}, {"type": "Feature", "geometry": {"type": "LineString", "coordinates": [[-84.5152659, 33.7729425], [-84.515044, 33.77312]]}, "properties": {"surface": "asphalt", "highway": "primary"}}, {"type": "Feature", "geometry": {"type": "LineString", "coordinates": [[-84.49387, 33.7869372], [-84.4937889, 33.7870385], [-84.4937176, 33.7870806], [-84.493695, 33.7870828], [-84.4936782, 33.7870845], [-84.4935079, 33.7869933]]}, "properties": {"surface": "", "highway": "footway"}}, {"type": "Feature", "geometry": {"type": "LineString", "coordinates": [[-84.4939314, 33.7870938], [-84.4939203, 33.7871339], [-84.493923, 33.7871933], [-84.493931, 33.7872168], [-84.4939405, 33.7872446], [-84.4939713, 33.7872861], [-84.4940442, 33.7873413]]}, "properties": {"surface": "", "highway": "footway"}}, {"type": "Feature", "geometry": {"type": "LineString", "coordinates": [[-84.493695, 33.7870828], [-84.4937083, 33.7870904]]}, "properties": {"surface": "", "highway": "footway"}}, {"type": "Feature", "geometry": {"type": "LineString", "coordinates": [[-84.4939177, 33.7872092], [-84.493931, 33.7872168]]}, "properties": {"surface": "", "highway": "footway"}}, {"type": "Feature", "geometry": {"type": "LineString", "coordinates": [[-84.50919, 33.7633512], [-84.5094353, 33.7636609], [-84.5095349, 33.7637822]]}, "properties": {"surface": "asphalt", "highway": "secondary"}}, {"type": "Feature", "geometry": {"type": "LineString", "coordinates": [[-84.5068955, 33.7610221], [-84.5061283, 33.7603472], [-84.5059118, 33.7601465], [-84.5057799, 33.7600242], [-84.5057428, 33.7599979], [-84.5056629, 33.7599413], [-84.5056402, 33.7599242], [-84.5056248, 33.7599147], [-84.5056067, 33.7599093], [-84.5055576, 33.7599042], [-84.5055216, 33.7599093], [-84.5054563, 33.7599354], [-84.5054416, 33.7599443], [-84.5054331, 33.7599545], [-84.5053791, 33.7600604], [-84.5053235, 33.7601755], [-84.5052834, 33.7602586], [-84.5052297, 33.7603525], [-84.5052001, 33.7604042], [-84.5050323, 33.7606578], [-84.5049958, 33.7607128]]}, "properties": {"surface": "", "highway": "footway"}}, {"type": "Feature", "geometry": {"type": "LineString", "coordinates": [[-84.5070859, 33.7608835], [-84.5070511, 33.7608772], [-84.5070075, 33.7608628], [-84.5069785, 33.7608396], [-84.5069119, 33.7607805], [-84.5067756, 33.7606596], [-84.5065879, 33.760493], [-84.5059587, 33.7599272], [-84.5058733, 33.7598484], [-84.5057403, 33.7597255], [-84.5056724, 33.7596628], [-84.5055782, 33.7595759], [-84.5055578, 33.7595389], [-84.5055548, 33.7595215], [-84.5055536, 33.7595142], [-84.5055569, 33.7594828], [-84.5055673, 33.7594537], [-84.5055956, 33.7594121], [-84.5056188, 33.759394], [-84.5056495, 33.7593826], [-84.505709, 33.7593771], [-84.5057563, 33.7593791], [-84.505866, 33.759411], [-84.5059936, 33.7594481], [-84.5066685, 33.7596443], [-84.5070206, 33.7597467], [-84.5073338, 33.7598377], [-84.5082946, 33.7600719], [-84.508328, 33.7600835], [-84.5083539, 33.760096], [-84.508371, 33.7601116], [-84.5083803, 33.7601289], [-84.5083884, 33.7601517], [-84.5083932, 33.7601748], [-84.5083937, 33.7602029], [-84.5083915, 33.7602281], [-84.5083885, 33.760237], [-84.5083823, 33.7602453], [-84.5083747, 33.760252], [-84.5083623, 33.7602579], [-84.5082007, 33.7603219], [-84.5079716, 33.7604093], [-84.507769, 33.7604866], [-84.5076741, 33.7605215], [-84.5075745, 33.7605785], [-84.5074328, 33.7606669], [-84.5073402, 33.7607247], [-84.5070859, 33.7608835]]}, "properties": {"surface": "", "highway": "footway"}}, {"type": "Feature", "geometry": {"type": "LineString", "coordinates": [[-84.5053469, 33.7593373], [-84.5053532, 33.7591445], [-84.5053514, 33.7591385], [-84.5053467, 33.7591352], [-84.5053412, 33.7591347], [-84.5053239, 33.7591382], [-84.5052631, 33.759152], [-84.5052255, 33.7591582], [-84.5051819, 33.759159], [-84.5051578, 33.7591585], [-84.505142, 33.7591554]]}, "properties": {"surface": "", "highway": "footway"}}, {"type": "Feature", "geometry": {"type": "LineString", "coordinates": [[-84.5053469, 33.7593373], [-84.5053297, 33.7593542], [-84.5051215, 33.7591746], [-84.5051183, 33.7591673], [-84.5051191, 33.7591613], [-84.5051243, 33.7591575], [-84.505142, 33.7591554]]}, "properties": {"surface": "", "highway": "footway"}}, {"type": "Feature", "geometry": {"type": "LineString", "coordinates": [[-84.5047633, 33.7607487], [-84.5045997, 33.7610005], [-84.5045142, 33.7611321], [-84.5044311, 33.7612468], [-84.5043753, 33.7613238], [-84.5042578, 33.7614373], [-84.5040918, 33.7615795]]}, "properties": {"surface": "", "highway": "footway"}}, {"type": "Feature", "geometry": {"type": "LineString", "coordinates": [[-84.5014109, 33.7639055], [-84.500973, 33.7643411], [-84.5006918, 33.7646147], [-84.5004599, 33.7648403], [-84.5003536, 33.7649678], [-84.500226, 33.7651539], [-84.5001278, 33.7653316], [-84.5001019, 33.7653862], [-84.5000851, 33.7654367], [-84.5000759, 33.7655107], [-84.5000616, 33.7656839], [-84.5000729, 33.7659305]]}, "properties": {"surface": "", "highway": "footway"}}, {"type": "Feature", "geometry": {"type": "LineString", "coordinates": [[-84.5031648, 33.762223], [-84.5029876, 33.7623739], [-84.5027954, 33.7625426], [-84.5027537, 33.7625822], [-84.5026004, 33.7627276], [-84.5019102, 33.7634088], [-84.5014827, 33.7638341]]}, "properties": {"surface": "", "highway": "footway"}}, {"type": "Feature", "geometry": {"type": "LineString", "coordinates": [[-84.5039786, 33.7616658], [-84.5032764, 33.7621471]]}, "properties": {"surface": "", "highway": "footway"}}, {"type": "Feature", "geometry": {"type": "LineString", "coordinates": [[-84.5052556, 33.7597578], [-84.5051691, 33.7599867], [-84.5051173, 33.7600877], [-84.5050849, 33.7601508], [-84.5048381, 33.7605471]]}, "properties": {"surface": "", "highway": "footway"}}, {"type": "Feature", "geometry": {"type": "LineString", "coordinates": [[-84.5052556, 33.7597578], [-84.5052647, 33.7597015], [-84.5052581, 33.7596675], [-84.5052364, 33.7596226], [-84.5051508, 33.7595071], [-84.5047637, 33.7591756], [-84.5045563, 33.7589979], [-84.5044084, 33.7588636], [-84.5043865, 33.7588437], [-84.5041833, 33.7587082], [-84.5041202, 33.7586662], [-84.5038619, 33.7585202], [-84.5036529, 33.7584022], [-84.5036151, 33.7583808], [-84.5035975, 33.7583735], [-84.5035771, 33.7583715], [-84.5035627, 33.7583738], [-84.5035478, 33.7583875], [-84.5035258, 33.7583756]]}, "properties": {"surface": "", "highway": "footway"}}, {"type": "Feature", "geometry": {"type": "LineString", "coordinates": [[-84.4964912, 33.7538653], [-84.4966831, 33.7539583], [-84.4971087, 33.7541536], [-84.4972323, 33.7542102], [-84.4974534, 33.7543034], [-84.4975056, 33.7543254], [-84.4976945, 33.754405], [-84.4977964, 33.7544479], [-84.4979723, 33.754522], [-84.498812, 33.7548756], [-84.4988727, 33.7549011], [-84.4992533, 33.7550799], [-84.4994138, 33.7551553], [-84.5001295, 33.7555637], [-84.5002456, 33.7556299]]}, "properties": {"surface": "", "highway": "footway"}}, {"type": "Feature", "geometry": {"type": "LineString", "coordinates": [[-84.4962954, 33.7537895], [-84.4963035, 33.7537742], [-84.4963683, 33.7538057]]}, "properties": {"surface": "", "highway": "footway"}}, {"type": "Feature", "geometry": {"type": "LineString", "coordinates": [[-84.4999901, 33.7557233], [-84.4999372, 33.7556891], [-84.4998704, 33.755646], [-84.49903, 33.7551688], [-84.4983682, 33.754893], [-84.4981487, 33.7548015], [-84.4972376, 33.7544151], [-84.4969635, 33.7542989], [-84.4965032, 33.7541317], [-84.4963819, 33.7540857], [-84.4963345, 33.7540786], [-84.4963094, 33.754078]]}, "properties": {"surface": "", "highway": "footway"}}, {"type": "Feature", "geometry": {"type": "LineString", "coordinates": [[-84.5004176, 33.7557647], [-84.5004826, 33.755815], [-84.5006904, 33.7559757], [-84.5016188, 33.7568158], [-84.5022651, 33.7573892], [-84.5024673, 33.7575135], [-84.5026075, 33.7575997], [-84.5030374, 33.7578436], [-84.5031682, 33.7579178], [-84.5032257, 33.7579504], [-84.5035682, 33.7581358]]}, "properties": {"surface": "", "highway": "footway"}}, {"type": "Feature", "geometry": {"type": "LineString", "coordinates": [[-84.5019338, 33.7573657], [-84.5006903, 33.7562434], [-84.5005706, 33.7561355], [-84.5004263, 33.7560052], [-84.5002691, 33.7558942], [-84.5002485, 33.7558859], [-84.5001924, 33.7558632]]}, "properties": {"surface": "", "highway": "footway"}}, {"type": "Feature", "geometry": {"type": "LineString", "coordinates": [[-84.503426, 33.7583178], [-84.503393, 33.7582973], [-84.5031167, 33.7581456], [-84.5031018, 33.7581346], [-84.5030893, 33.7581188], [-84.5030737, 33.7580974], [-84.5030544, 33.758076], [-84.5030427, 33.7580671], [-84.5030303, 33.7580576], [-84.5027627, 33.757909], [-84.5024695, 33.7577462], [-84.502381, 33.7576925], [-84.5022061, 33.7575862], [-84.5020822, 33.7574889]]}, "properties": {"surface": "", "highway": "footway"}}, {"type": "Feature", "geometry": {"type": "LineString", "coordinates": [[-84.5036948, 33.7582081], [-84.5039428, 33.7583499], [-84.5041092, 33.7584529], [-84.504203, 33.758511], [-84.5044045, 33.7586358], [-84.5045682, 33.7587372], [-84.5047477, 33.7588484], [-84.5048045, 33.7588866], [-84.5050311, 33.7590388], [-84.5050824, 33.7590642], [-84.5051218, 33.7590779], [-84.5051625, 33.7590869], [-84.5051874, 33.7590892], [-84.5052194, 33.7590889], [-84.5052667, 33.7590771], [-84.5053112, 33.7590636], [-84.5053473, 33.7590413], [-84.5053593, 33.7590143], [-84.5053614, 33.7587541], [-84.5053623, 33.758651]]}, "properties": {"surface": "", "highway": "footway"}}, {"type": "Feature", "geometry": {"type": "LineString", "coordinates": [[-84.5060964, 33.7593678], [-84.5057814, 33.7592856], [-84.5056644, 33.759255], [-84.5056231, 33.7592323], [-84.5055975, 33.7592063], [-84.5055913, 33.759171], [-84.5055977, 33.7589123], [-84.5056047, 33.7586294], [-84.5055785, 33.7585875], [-84.5055428, 33.7585303], [-84.5055444, 33.7582567], [-84.5055461, 33.7579685], [-84.5055472, 33.7577733]]}, "properties": {"surface": "", "highway": "footway"}}, {"type": "Feature", "geometry": {"type": "LineString", "coordinates": [[-84.5071867, 33.7834614], [-84.507182, 33.7834307]]}, "properties": {"surface": "", "highway": "footway"}}, {"type": "Feature", "geometry": {"type": "LineString", "coordinates": [[-84.508734, 33.7815062], [-84.5093842, 33.7808733], [-84.51001, 33.7802615], [-84.5102945, 33.7799452], [-84.5104935, 33.7796803], [-84.5106134, 33.7795142], [-84.5106429, 33.7794782], [-84.5106736, 33.7794559], [-84.5107101, 33.7794311], [-84.5107432, 33.7794052], [-84.5113971, 33.7784244], [-84.5120065, 33.7772956], [-84.512586, 33.7761189], [-84.5125933, 33.7760786], [-84.5125748, 33.7760426], [-84.5125525, 33.7760103], [-84.5125248, 33.7759857], [-84.512489, 33.7759618], [-84.512081, 33.7758072], [-84.5120632, 33.7758047], [-84.5120353, 33.7758109], [-84.5120061, 33.7758206], [-84.511989, 33.7758417], [-84.5119782, 33.7758689]]}, "properties": {"surface": "", "highway": "footway"}}, {"type": "Feature", "geometry": {"type": "LineString", "coordinates": [[-84.5071001, 33.7830525], [-84.507764, 33.7824224], [-84.5083711, 33.7818516]]}, "properties": {"surface": "", "highway": "footway"}}, {"type": "Feature", "geometry": {"type": "LineString", "coordinates": [[-84.5083711, 33.7818516], [-84.508734, 33.7815062]]}, "properties": {"surface": "", "highway": "footway"}}, {"type": "Feature", "geometry": {"type": "LineString", "coordinates": [[-84.5069226, 33.7831761], [-84.5068792, 33.7832247], [-84.5068219, 33.7832873], [-84.5067622, 33.7833579], [-84.5066671, 33.7834651], [-84.5066013, 33.7835309], [-84.5063798, 33.7837439], [-84.5060313, 33.7840754], [-84.5056998, 33.7843974], [-84.5054589, 33.7845846], [-84.5053838, 33.7846567], [-84.5051772, 33.7848607], [-84.5051111, 33.7849265], [-84.5050884, 33.7849434], [-84.5050549, 33.7849594], [-84.5050112, 33.7849769], [-84.5049657, 33.7849832], [-84.5049504, 33.7849836], [-84.5049513, 33.7849988]]}, "properties": {"surface": "", "highway": "footway"}}, {"type": "Feature", "geometry": {"type": "LineString", "coordinates": [[-84.5047925, 33.7852205], [-84.5047807, 33.7852274], [-84.5047744, 33.7852896], [-84.504766, 33.7853097], [-84.5047569, 33.785327], [-84.5047479, 33.7853398], [-84.5046768, 33.7854087], [-84.5039644, 33.7861229], [-84.5035059, 33.7865753], [-84.5034077, 33.7866474], [-84.5033149, 33.786722], [-84.5032662, 33.7867586], [-84.5031267, 33.7869033], [-84.5030826, 33.7869253], [-84.5030719, 33.7869328], [-84.5030603, 33.7869425], [-84.5029601, 33.7870422], [-84.502936, 33.7870965], [-84.50292, 33.7871162], [-84.5029089, 33.7871262], [-84.5028974, 33.7871373]]}, "properties": {"surface": "", "highway": "footway"}}, {"type": "Feature", "geometry": {"type": "LineString", "coordinates": [[-84.5027545, 33.7872547], [-84.502759, 33.7873078]]}, "properties": {"surface": "", "highway": "footway"}}]}