{"type": "FeatureCollection", "features": [{"type": "Feature", "geometry": {"type": "Polygon", "coordinates": [[[-84.52175168989974, 33.73183648030315], [-84.52252329154437, 33.732138682020256], [-84.52258931513788, 33.73217148792965], [-84.52299161006016, 33.73229044821402], [-84.52376322005753, 33.73259264210657], [-84.52449566916647, 33.7329565672692], [-84.52518190450095, 33.73337871964375], [-84.52581531786761, 33.73385503447942], [-84.5263579917632, 33.73435179975985], [-84.5271714983024, 33.73445019784576], [-84.5279988715175, 33.73462078342277], [-84.52880225236463, 33.73485829823427], [-84.52957390546128, 33.73516045540662], [-84.53030640069889, 33.735524345645366], [-84.53060002530736, 33.73570494924611], [-84.53100983097451, 33.7358654093271], [-84.5317423382125, 33.7362292909261], [-84.53242863486363, 33.73665140239612], [-84.53306211214472, 33.73712767938029], [-84.53363666955666, 33.737653535914546], [-84.53414677362643, 33.73822390856055], [-84.53458751120417, 33.73883330513688], [-84.5349546368011, 33.73947585758016], [-84.53499306206372, 33.7395645774723], [-84.53515557261706, 33.7397892700879], [-84.53552270657426, 33.74043182068686], [-84.53581269097438, 33.74110134004631], [-84.53602273153399, 33.74179138088345], [-84.53615080364254, 33.74249529814607], [-84.53618814453783, 33.74308702946457], [-84.53618885665811, 33.74308936890252], [-84.53631693215364, 33.74379328582276], [-84.53633329501052, 33.74405257228184], [-84.53647599290336, 33.74452134853482], [-84.53660407298328, 33.745225264963835], [-84.53664894664851, 33.74593627929596], [-84.53661017969002, 33.746647544177776], [-84.53648814339729, 33.74735220967626], [-84.53644765153183, 33.74748933338608], [-84.53643416386662, 33.74756721321958], [-84.53623003060441, 33.748258492686126], [-84.53594576518152, 33.748929728411284], [-84.53558410361333, 33.74957445550411], [-84.53514852756413, 33.750186464245594], [-84.53464323086824, 33.750759859916435], [-84.53407307917946, 33.751289119594844], [-84.53344356313654, 33.751769145376336], [-84.53276074549424, 33.75219531350195], [-84.5320312027292, 33.75256351891995], [-84.53126196168297, 33.75287021485144], [-84.53049236589409, 33.753102796244406], [-84.53049267554556, 33.75310770766707], [-84.53045385507745, 33.75381897014994], [-84.53045147944279, 33.753832680847886], [-84.53046276673004, 33.75401170918116], [-84.53042394567835, 33.75472297155485], [-84.53030184791213, 33.75542763042985], [-84.53009764731428, 33.75611889932795], [-84.52981330861202, 33.75679012056819], [-84.52945156852616, 33.757434829398704], [-84.52929113270565, 33.7576602009015], [-84.52910560482869, 33.757990850368046], [-84.52866994053416, 33.75860283600396], [-84.52844371559738, 33.75885949174315], [-84.52836620245941, 33.75930676094225], [-84.52816197739082, 33.759998026367235], [-84.52807213512652, 33.76021009067526], [-84.52805329794494, 33.76031878170917], [-84.52784906803616, 33.761010046535475], [-84.527564695969, 33.7616812622863], [-84.5272029187853, 33.76232596426245], [-84.52676721926254, 33.76293794298618], [-84.5262617924241, 33.763511304026714], [-84.52569150517746, 33.764040524795234], [-84.52506184946742, 33.764520507761546], [-84.52437888939463, 33.76494662957861], [-84.52364920280846, 33.765314785640435], [-84.5228798179368, 33.76562142964328], [-84.52207814566394, 33.765863607767706], [-84.52158480145813, 33.765968327073125], [-84.52179143150757, 33.76664735061793], [-84.52180694987109, 33.766732697196815], [-84.52183544841975, 33.76682634751532], [-84.52196344386931, 33.76753027715852], [-84.52200821006744, 33.76824129496004], [-84.52196931383763, 33.768952553532316], [-84.52184712771219, 33.76965720300222], [-84.52164282642379, 33.770348456981516], [-84.52135837566838, 33.77101965793235], [-84.52099651324525, 33.771664341297566], [-84.52056072275253, 33.772276297778255], [-84.52005520008974, 33.77284963315739], [-84.51948481308742, 33.77337882509293], [-84.51885505465144, 33.773858776332006], [-84.51817198987243, 33.77428486383285], [-84.5177955988811, 33.774474722708206], [-84.51783720145362, 33.77470356220097], [-84.51788193785704, 33.775414580867654], [-84.51784564142478, 33.77607767053523], [-84.51786034725536, 33.77615855983726], [-84.51790508471645, 33.77686957832189], [-84.5178661513245, 33.77758083484928], [-84.5177439199689, 33.778285479565774], [-84.51764653179312, 33.77861490536989], [-84.51768332015462, 33.7791995924678], [-84.5176443840513, 33.77991084867517], [-84.51752214774271, 33.78061549293873], [-84.51731778644384, 33.78130673892005], [-84.51703326642776, 33.78197792915793], [-84.51667132616011, 33.78262259919798], [-84.5162354499883, 33.783234539869184], [-84.51572983463677, 33.783807857106375], [-84.51551293589829, 33.78400904927114], [-84.51541784250433, 33.78411687385741], [-84.51484735273239, 33.78464604404903], [-84.51421748632386, 33.785125971433644], [-84.51353430940962, 33.785552033198854], [-84.51280440192886, 33.78592012531653], [-84.51246860264916, 33.78605389337052], [-84.51253962230993, 33.78621788986344], [-84.51274959013324, 33.78690796575312], [-84.5128775427144, 33.787611902811975], [-84.51292224582942, 33.78832292200639], [-84.51288326690712, 33.78903417593495], [-84.51276097927429, 33.789738814768725], [-84.51255655863935, 33.79043005222127], [-84.51227197184622, 33.79110123091311], [-84.51190995800313, 33.79174588650069], [-84.51147400216583, 33.79235780995182], [-84.51096830182583, 33.79293110736672], [-84.51039772652493, 33.79346025676821], [-84.50976777098299, 33.793940161312385], [-84.5090845021898, 33.79436619840653], [-84.50835450096994, 33.794734264259944], [-84.50758479858396, 33.79504081343719], [-84.50678280897688, 33.7952828930318], [-84.50595625732832, 33.795458171130235], [-84.50511310559403, 33.795564959290736], [-84.50464879020933, 33.7955852796682], [-84.50470773661308, 33.795721413671515], [-84.50491766559666, 33.796411502071784], [-84.50504556897961, 33.79711544647794], [-84.50509021301059, 33.79782646778529], [-84.50505116568642, 33.798537718571716], [-84.50493162252307, 33.79922610153148], [-84.50501296879561, 33.79949349437726], [-84.50514087776487, 33.80019743829996], [-84.50518552440872, 33.80090845920296], [-84.50514647669857, 33.80161970966799], [-84.50502410862241, 33.80232433989903], [-84.50501236985492, 33.802364015711625], [-84.5048367761064, 33.80230815291405], [-84.50417591462863, 33.802639939077096], [-84.50342294819534, 33.80294001590538], [-84.50263897780741, 33.80317842576962], [-84.50183123088757, 33.803352970695606], [-84.50100715422272, 33.80346204148461], [-84.50017434526391, 33.803504632560276], [-84.49934048203203, 33.80348035124652], [-84.4985132522778, 33.803389421390975], [-84.49770028255168, 33.80323268130012], [-84.49690906783994, 33.80301157600534], [-84.49614690241819, 33.80272814393136], [-84.49542081256185, 33.8023849980905], [-84.49473749173609, 33.80198530197672], [-84.49410323886426, 33.80153274038229], [-84.49352390024502, 33.80103148540722], [-84.49225392044598, 33.799821418933675], [-84.49173010475309, 33.799270570136116], [-84.49127264438937, 33.79867996428999], [-84.49088583754408, 33.798055152382595], [-84.49057331810158, 33.797402006776544], [-84.49033802153463, 33.79672666599857], [-84.49018215737206, 33.79603547703115], [-84.49012221758281, 33.795475374840464], [-84.48962857731439, 33.79488151174918], [-84.48960391878295, 33.794848042808056], [-84.48953793882374, 33.79477316258376], [-84.48936794955698, 33.79455315259837], [-84.48926662710656, 33.794418810300265], [-84.4887366651342, 33.79369877871391], [-84.48867668834086, 33.793616059741545], [-84.48858828222751, 33.79349227669477], [-84.48798807566004, 33.79277568531666], [-84.4873494998854, 33.79235583213023], [-84.48674104279145, 33.79186902360256], [-84.48619193119046, 33.79133529245135], [-84.48570732914185, 33.790759659186456], [-84.48529179362252, 33.790147538366384], [-84.48494923169392, 33.789504687645774], [-84.48468286379449, 33.78883715359841], [-84.48449519350163, 33.788151214826435], [-84.48438798404538, 33.787453322892006], [-84.48436224179284, 33.78675004162692], [-84.48441820685562, 33.786047985392315], [-84.48455535090649, 33.78535375686876], [-84.48477238222256, 33.784673884962416], [-84.48506725790486, 33.78401476341065], [-84.48543720315689, 33.78338259066455], [-84.48587873743826, 33.78278331161289], [-84.48719255646513, 33.78117984408649], [-84.48737176659712, 33.78095201743216], [-84.48744392052717, 33.78064644063036], [-84.48748159196741, 33.77946354577202], [-84.48748184578366, 33.77694969337711], [-84.48748193958411, 33.77691658649024], [-84.48749212433115, 33.77508658609773], [-84.48749219403601, 33.77507578983396], [-84.48749963361877, 33.77406323473024], [-84.48746718917019, 33.77377909630445], [-84.48738829441554, 33.773463392079655], [-84.48714968154312, 33.77272943906759], [-84.48688739796133, 33.772124448960206], [-84.48685397531895, 33.77206177054895], [-84.48684434250455, 33.77204363919094], [-84.48682411187798, 33.772005419229565], [-84.48653012226384, 33.77150476481224], [-84.48646301247948, 33.77138784696925], [-84.48623304147878, 33.77097783234184], [-84.48618923151272, 33.77089848276101], [-84.48568929810179, 33.769978450767496], [-84.48527858689944, 33.76906331337747], [-84.48485868935263, 33.76789328485464], [-84.48477686270083, 33.76764993857265], [-84.48450694056275, 33.766789919990984], [-84.48428004666512, 33.765780018070664], [-84.48424315400067, 33.7655123520072], [-84.48416645258735, 33.764984666674884], [-84.48413890857624, 33.76476802925894], [-84.48408291355861, 33.76425426899394], [-84.48400736444015, 33.763630472366444], [-84.48396326163021, 33.76289969442721], [-84.48396329492226, 33.76256969423334], [-84.48396337159276, 33.761809694113296], [-84.4840333340501, 33.760891329777316], [-84.48413891647596, 33.76020069769044], [-84.48427481178432, 33.7592500971385], [-84.4844354945894, 33.758480668996164], [-84.48459554875394, 33.757900679499734], [-84.48468657254041, 33.757600291457095], [-84.48504667086193, 33.756510314964544], [-84.48509336305504, 33.75637417656288], [-84.48525340290519, 33.75592418697298], [-84.48538819122669, 33.755577370380166], [-84.48603832021584, 33.75403741216124], [-84.48639367254917, 33.75332044574328], [-84.48646658890256, 33.75320882850693], [-84.48655950856936, 33.75297658264827], [-84.48723231604623, 33.75128507734915], [-84.48733744948238, 33.75101753024154], [-84.48736756185848, 33.750942289689206], [-84.4874775847695, 33.75067229677932], [-84.48755999141757, 33.750479070364385], [-84.487959756533, 33.74958201148331], [-84.4879736970002, 33.74954760915873], [-84.48824926353721, 33.74887607290389], [-84.4882789041243, 33.74879564083461], [-84.48834892407858, 33.74860563642117], [-84.48837395654286, 33.74853885574853], [-84.48977529484954, 33.74486251376734], [-84.48978229894202, 33.74484369522516], [-84.48986076530554, 33.74450228142112], [-84.48995497039668, 33.74414207077735], [-84.49049514031721, 33.742302106148315], [-84.49050109543536, 33.74228194571377], [-84.49091063489512, 33.74090395000206], [-84.49252822113428, 33.73544764215649], [-84.49317977831116, 33.73313278674324], [-84.49367864557973, 33.73044034339418], [-84.49385683447039, 33.729721413941085], [-84.49405955929969, 33.729184200817635], [-84.4946383463197, 33.72911089452702], [-84.49548932376854, 33.72907369493261], [-84.49634056761198, 33.729106362067554], [-84.49718388196162, 33.72920858139501], [-84.49801114722098, 33.72937936871645], [-84.49832141066123, 33.72947118763145], [-84.49842164488922, 33.72935750140455], [-84.49899187312357, 33.72882840401277], [-84.49962141622557, 33.72834855194722], [-84.5003042115251, 33.72792256559848], [-84.5010336839019, 33.727554546629904], [-84.50180280908538, 33.727248038507746], [-84.50260418126588, 33.727005992404706], [-84.50343008436728, 33.72683073880425], [-84.50422993404855, 33.72672936831015], [-84.5044642203081, 33.72655076844286], [-84.50514697728686, 33.726124755429346], [-84.50587641359877, 33.72575670796925], [-84.50664550532018, 33.725450169803175], [-84.50744684696323, 33.725208092393046], [-84.50827272274549, 33.72503280652363], [-84.50911518083647, 33.72492599987706], [-84.50996610986897, 33.724888700795496], [-84.51081731698031, 33.72492126838778], [-84.51166060663554, 33.72502338907494], [-84.51248785947594, 33.7251940796076], [-84.51329111043675, 33.72543169652648], [-84.51406262538477, 33.72573395197506], [-84.51479497554024, 33.726097935712744], [-84.51548110896908, 33.7265201431173], [-84.51611441845837, 33.72699650890794], [-84.51668880512332, 33.72752244626509], [-84.51719873713404, 33.72809289097167], [-84.51763930299651, 33.72870235015168], [-84.5177022989067, 33.72881266796096], [-84.5178683237496, 33.729042336031654], [-84.51823528279917, 33.729684940282], [-84.51852509636363, 33.73035450251328], [-84.51873497180466, 33.731044575028854], [-84.5187827161818, 33.73130732309541], [-84.51927766378496, 33.73132622367271], [-84.52012102564939, 33.731428286016126], [-84.52094835629202, 33.73159891919535], [-84.52175168989974, 33.73183648030315]]]}, "properties": {"kind": "walkshed", "buffer_mi": 0.5}}, {"type": "Feature", "geometry": {"type": "Point", "coordinates": [-84.4964, 33.79785]}, "properties": {"kind": "stop", "name": "ATLANTA INDUSTRIAL PKWY @ 3600", "mode": "bus"}}, {"type": "Feature", "geometry": {"type": "Point", "coordinates": [-84.49614, 33.797633]}, "properties": {"kind": "stop", "name": "ATLANTA INDUSTRIAL PKWY@3555", "mode": "bus"}}, {"type": "Feature", "geometry": {"type": "Point", "coordinates": [-84.488571, 33.784344]}, "properties": {"kind": "stop", "name": "DONALD L HOLLOWELL PKY @ WATTS RD NW", "mode": "bus"}}, {"type": "Feature", "geometry": {"type": "Point", "coordinates": [-84.491199, 33.786094]}, "properties": {"kind": "stop", "name": "DONALD L HOLLOWELL PKY @ HARWELL RD", "mode": "bus"}}, {"type": "Feature", "geometry": {"type": "Point", "coordinates": [-84.491481, 33.786017]}, "properties": {"kind": "stop", "name": "DONALD L HOLLOWELL PKY @ HARWELL RD NW", "mode": "bus"}}, {"type": "Feature", "geometry": {"type": "Point", "coordinates": [-84.494542, 33.787924]}, "properties": {"kind": "stop", "name": "DONALD L HOLLOWELL PKWY @ BOLTON RD NW", "mode": "bus"}}, {"type": "Feature", "geometry": {"type": "Point", "coordinates": [-84.495357, 33.792711]}, "properties": {"kind": "stop", "name": "ATLANTA INDUSTRIAL PKWY NW @ 3201", "mode": "bus"}}, {"type": "Feature", "geometry": {"type": "Point", "coordinates": [-84.497262, 33.78414]}, "properties": {"kind": "stop", "name": "BOLTON RD@1051", "mode": "bus"}}, {"type": "Feature", "geometry": {"type": "Point", "coordinates": [-84.494642, 33.788087]}, "properties": {"kind": "stop", "name": "DONALD L HOLLOWELL PKWY @ BOLTON RD", "mode": "bus"}}, {"type": "Feature", "geometry": {"type": "Point", "coordinates": [-84.496365, 33.790946]}, "properties": {"kind": "stop", "name": "ATLANTA INDUSTRIAL PKWY @ DONALD L HOLLOWELL PKWY", "mode": "bus"}}, {"type": "Feature", "geometry": {"type": "Point", "coordinates": [-84.495921, 33.796792]}, "properties": {"kind": "stop", "name": "ATLANTA IND PKWY @ATLANTA IND DRNW", "mode": "bus"}}, {"type": "Feature", "geometry": {"type": "Point", "coordinates": [-84.496495, 33.800932]}, "properties": {"kind": "stop", "name": "ATLANTA INDUSTRIAL PKY @ 3710", "mode": "bus"}}, {"type": "Feature", "geometry": {"type": "Point", "coordinates": [-84.495963, 33.796147]}, "properties": {"kind": "stop", "name": "ATLANTA INDUSTRIAL PKWY NW @ ATLANTA INDUSTRIAL DR", "mode": "bus"}}, {"type": "Feature", "geometry": {"type": "Point", "coordinates": [-84.487582, 33.755475]}, "properties": {"kind": "stop", "name": "DELMAR LN NW@STRATFORD DR", "mode": "bus"}}, {"type": "Feature", "geometry": {"type": "Point", "coordinates": [-84.494621, 33.779573]}, "properties": {"kind": "stop", "name": "KINGSTON RD @ HARWELL RD", "mode": "bus"}}, {"type": "Feature", "geometry": {"type": "Point", "coordinates": [-84.489656, 33.755699]}, "properties": {"kind": "stop", "name": "DELMAR LN NW@DELMOOR DR NW", "mode": "bus"}}, {"type": "Feature", "geometry": {"type": "Point", "coordinates": [-84.491028, 33.755711]}, "properties": {"kind": "stop", "name": "DELMAR LN NW@ALLEN TEMPLE CT NW", "mode": "bus"}}, {"type": "Feature", "geometry": {"type": "Point", "coordinates": [-84.493038, 33.756061]}, "properties": {"kind": "stop", "name": "DELMAR LN NW@HARWELL RD NW", "mode": "bus"}}, {"type": "Feature", "geometry": {"type": "Point", "coordinates": [-84.496017, 33.756271]}, "properties": {"kind": "stop", "name": "DELMAR LN NW@HARWELL RD NW", "mode": "bus"}}, {"type": "Feature", "geometry": {"type": "Point", "coordinates": [-84.49794, 33.756409]}, "properties": {"kind": "stop", "name": "DELMAR LN @ 3362", "mode": "bus"}}, {"type": "Feature", "geometry": {"type": "Point", "coordinates": [-84.488199, 33.75571]}, "properties": {"kind": "stop", "name": "DELMAR LN NW@STRATFORD DR NW", "mode": "bus"}}, {"type": "Feature", "geometry": {"type": "Point", "coordinates": [-84.4895, 33.755937]}, "properties": {"kind": "stop", "name": "DELMAR LN NW@DELMOOR DR NW", "mode": "bus"}}, {"type": "Feature", "geometry": {"type": "Point", "coordinates": [-84.503055, 33.758078]}, "properties": {"kind": "stop", "name": "MARTIN L KING JR DR SW @ HOWELL DR SW", "mode": "bus"}}, {"type": "Feature", "geometry": {"type": "Point", "coordinates": [-84.490514, 33.756084]}, "properties": {"kind": "stop", "name": "DELMAR LN NW@ALLEN TEMPLE CT NW", "mode": "bus"}}, {"type": "Feature", "geometry": {"type": "Point", "coordinates": [-84.492809, 33.75628]}, "properties": {"kind": "stop", "name": "DELMAR LN NW@ARLINGTON DR NW", "mode": "bus"}}, {"type": "Feature", "geometry": {"type": "Point", "coordinates": [-84.495661, 33.756555]}, "properties": {"kind": "stop", "name": "DELMAR LN NW@HARWELL RD NW", "mode": "bus"}}, {"type": "Feature", "geometry": {"type": "Point", "coordinates": [-84.497343, 33.756735]}, "properties": {"kind": "stop", "name": "DELMAR LN NW@3345", "mode": "bus"}}, {"type": "Feature", "geometry": {"type": "Point", "coordinates": [-84.49926, 33.756854]}, "properties": {"kind": "stop", "name": "DELMAR LN NW@BROWNLEE RD NW", "mode": "bus"}}, {"type": "Feature", "geometry": {"type": "Point", "coordinates": [-84.488214, 33.784335]}, "properties": {"kind": "stop", "name": "DONALD L HOLLOWELL PKY @ WATTS RD NW", "mode": "bus"}}, {"type": "Feature", "geometry": {"type": "Point", "coordinates": [-84.486809, 33.78277]}, "properties": {"kind": "stop", "name": "DONALD L HOLLOWELL PKY @ AZLEE PL NW", "mode": "bus"}}, {"type": "Feature", "geometry": {"type": "Point", "coordinates": [-84.486896, 33.782761]}, "properties": {"kind": "stop", "name": "DONALD L HOLLOWELL PKY @ AZLEE PL NW", "mode": "bus"}}, {"type": "Feature", "geometry": {"type": "Point", "coordinates": [-84.514485, 33.759581]}, "properties": {"kind": "stop", "name": "BAKERS FERRY RD@CORNELL BLVD", "mode": "bus"}}, {"type": "Feature", "geometry": {"type": "Point", "coordinates": [-84.513428, 33.760204]}, "properties": {"kind": "stop", "name": "BAKERS FERRY RD SW@3796", "mode": "bus"}}, {"type": "Feature", "geometry": {"type": "Point", "coordinates": [-84.511878, 33.760436]}, "properties": {"kind": "stop", "name": "BAKERS FERRY RD SW@OAKSIDE DR SW", "mode": "bus"}}, {"type": "Feature", "geometry": {"type": "Point", "coordinates": [-84.511147, 33.760258]}, "properties": {"kind": "stop", "name": "BAKERS FERRY RD SW@CHARTER OAK DR S", "mode": "bus"}}, {"type": "Feature", "geometry": {"type": "Point", "coordinates": [-84.509735, 33.760216]}, "properties": {"kind": "stop", "name": "BAKERS FERRY RD SW@WISTERIA LN SW", "mode": "bus"}}, {"type": "Feature", "geometry": {"type": "Point", "coordinates": [-84.508279, 33.760281]}, "properties": {"kind": "stop", "name": "BAKERS FERRY RD SW @ KENNER DR", "mode": "bus"}}, {"type": "Feature", "geometry": {"type": "Point", "coordinates": [-84.494013, 33.767944]}, "properties": {"kind": "stop", "name": "COLLIER DR NW@HARWELL RD NW", "mode": "bus"}}, {"type": "Feature", "geometry": {"type": "Point", "coordinates": [-84.496999, 33.767978]}, "properties": {"kind": "stop", "name": "COLLIER DR NW@COLLIER CT", "mode": "bus"}}, {"type": "Feature", "geometry": {"type": "Point", "coordinates": [-84.498033, 33.768361]}, "properties": {"kind": "stop", "name": "COLLIER DR NW@3368", "mode": "bus"}}, {"type": "Feature", "geometry": {"type": "Point", "coordinates": [-84.500124, 33.767042]}, "properties": {"kind": "stop", "name": "FAIRBURN RD NW@FAIRLANE DR NW", "mode": "bus"}}, {"type": "Feature", "geometry": {"type": "Point", "coordinates": [-84.51125, 33.766148]}, "properties": {"kind": "stop", "name": "MARTIN L KING JR DR SW @ BOLTON RD NW", "mode": "bus"}}, {"type": "Feature", "geometry": {"type": "Point", "coordinates": [-84.505736, 33.774973]}, "properties": {"kind": "stop", "name": "CROFT PL NW@BOLTON RD NW", "mode": "bus"}}, {"type": "Feature", "geometry": {"type": "Point", "coordinates": [-84.508927, 33.77691]}, "properties": {"kind": "stop", "name": "MERCURY DR NW@SATURN DR NW", "mode": "bus"}}, {"type": "Feature", "geometry": {"type": "Point", "coordinates": [-84.508683, 33.779533]}, "properties": {"kind": "stop", "name": "MERCURY DR NW@BOLFAIR DR NW", "mode": "bus"}}, {"type": "Feature", "geometry": {"type": "Point", "coordinates": [-84.507405, 33.779392]}, "properties": {"kind": "stop", "name": "FAIRBURN RD NW@1076", "mode": "bus"}}, {"type": "Feature", "geometry": {"type": "Point", "coordinates": [-84.505096, 33.779413]}, "properties": {"kind": "stop", "name": "FAIRBURN RD NW@992", "mode": "bus"}}, {"type": "Feature", "geometry": {"type": "Point", "coordinates": [-84.502604, 33.779686]}, "properties": {"kind": "stop", "name": "FAIRBURN RD NW @ SANDY CREEK DR NW", "mode": "bus"}}, {"type": "Feature", "geometry": {"type": "Point", "coordinates": [-84.49898, 33.779617]}, "properties": {"kind": "stop", "name": "BOLTON RD NW@901", "mode": "bus"}}, {"type": "Feature", "geometry": {"type": "Point", "coordinates": [-84.497502, 33.78342]}, "properties": {"kind": "stop", "name": "BOLTON RD NW@1020", "mode": "bus"}}, {"type": "Feature", "geometry": {"type": "Point", "coordinates": [-84.497841, 33.783386]}, "properties": {"kind": "stop", "name": "BOLTON RD NW@1020", "mode": "bus"}}, {"type": "Feature", "geometry": {"type": "Point", "coordinates": [-84.498332, 33.780623]}, "properties": {"kind": "stop", "name": "BOLTON RD NW@BOLTON PKY", "mode": "bus"}}, {"type": "Feature", "geometry": {"type": "Point", "coordinates": [-84.49933, 33.779351]}, "properties": {"kind": "stop", "name": "BOLTON RD NW @ 902", "mode": "bus"}}, {"type": "Feature", "geometry": {"type": "Point", "coordinates": [-84.499753, 33.778956]}, "properties": {"kind": "stop", "name": "BOLTON RD NW@FAIRBURN RD NW", "mode": "bus"}}, {"type": "Feature", "geometry": {"type": "Point", "coordinates": [-84.50655, 33.778973]}, "properties": {"kind": "stop", "name": "FAIRBURN RD NW @ NEPTUNE PL NW", "mode": "bus"}}, {"type": "Feature", "geometry": {"type": "Point", "coordinates": [-84.508995, 33.779224]}, "properties": {"kind": "stop", "name": "MERCURY DR NW@BOLFAIR DR NW", "mode": "bus"}}, {"type": "Feature", "geometry": {"type": "Point", "coordinates": [-84.509217, 33.776894]}, "properties": {"kind": "stop", "name": "MERCURY DR NW@SATURN DR NW", "mode": "bus"}}, {"type": "Feature", "geometry": {"type": "Point", "coordinates": [-84.508074, 33.775139]}, "properties": {"kind": "stop", "name": "CROFT PL NW@CLOVIS CT NW", "mode": "bus"}}, {"type": "Feature", "geometry": {"type": "Point", "coordinates": [-84.505616, 33.774785]}, "properties": {"kind": "stop", "name": "CROFT PL NW @ BOLTON RD NW", "mode": "bus"}}, {"type": "Feature", "geometry": {"type": "Point", "coordinates": [-84.506234, 33.774265]}, "properties": {"kind": "stop", "name": "BOLTON RD NW@CLOVIS CT NW", "mode": "bus"}}, {"type": "Feature", "geometry": {"type": "Point", "coordinates": [-84.507124, 33.773306]}, "properties": {"kind": "stop", "name": "BOLTON RD NW@FAIRBURN CIR NW", "mode": "bus"}}, {"type": "Feature", "geometry": {"type": "Point", "coordinates": [-84.507676, 33.772374]}, "properties": {"kind": "stop", "name": "BOLTON RD NW@ADKINS RD NW", "mode": "bus"}}, {"type": "Feature", "geometry": {"type": "Point", "coordinates": [-84.510619, 33.76588]}, "properties": {"kind": "stop", "name": "BOLTON RD NW @ MARTIN L KING JR DR", "mode": "bus"}}, {"type": "Feature", "geometry": {"type": "Point", "coordinates": [-84.509228, 33.766392]}, "properties": {"kind": "stop", "name": "BOLTON RD NW @ FAIRLANE DR NW", "mode": "bus"}}, {"type": "Feature", "geometry": {"type": "Point", "coordinates": [-84.50779, 33.766525]}, "properties": {"kind": "stop", "name": "FAIRLANE DR NW@FAIRLOCK LN NW", "mode": "bus"}}, {"type": "Feature", "geometry": {"type": "Point", "coordinates": [-84.506443, 33.766554]}, "properties": {"kind": "stop", "name": "FAIRLANE DR NW@CAMROSE WAY NW", "mode": "bus"}}, {"type": "Feature", "geometry": {"type": "Point", "coordinates": [-84.504542, 33.766642]}, "properties": {"kind": "stop", "name": "FAIRLANE DR NW@3572", "mode": "bus"}}, {"type": "Feature", "geometry": {"type": "Point", "coordinates": [-84.502847, 33.76685]}, "properties": {"kind": "stop", "name": "FAIRLANE DR NW@3524", "mode": "bus"}}, {"type": "Feature", "geometry": {"type": "Point", "coordinates": [-84.501205, 33.766897]}, "properties": {"kind": "stop", "name": "FAIRLANE DR NW@FAIRLANE CIR NW", "mode": "bus"}}, {"type": "Feature", "geometry": {"type": "Point", "coordinates": [-84.500107, 33.766899]}, "properties": {"kind": "stop", "name": "FAIRLANE DR NW@FAIRBURN RD NW", "mode": "bus"}}, {"type": "Feature", "geometry": {"type": "Point", "coordinates": [-84.500057, 33.768904]}, "properties": {"kind": "stop", "name": "FAIRBURN RD NW@COLLIER DR NW", "mode": "bus"}}, {"type": "Feature", "geometry": {"type": "Point", "coordinates": [-84.497032, 33.767933]}, "properties": {"kind": "stop", "name": "COLLIER DR NW@COLLIER CT NW", "mode": "bus"}}, {"type": "Feature", "geometry": {"type": "Point", "coordinates": [-84.493781, 33.767893]}, "properties": {"kind": "stop", "name": "COLLIER DR NW @ HARWELL RD NW", "mode": "bus"}}, {"type": "Feature", "geometry": {"type": "Point", "coordinates": [-84.488316, 33.764929]}, "properties": {"kind": "stop", "name": "COLLIER DR NW@3075", "mode": "bus"}}, {"type": "Feature", "geometry": {"type": "Point", "coordinates": [-84.492355, 33.782709]}, "properties": {"kind": "stop", "name": "HARWELL RD NW @ SKIPPER DR NW", "mode": "bus"}}, {"type": "Feature", "geometry": {"type": "Point", "coordinates": [-84.494863, 33.780673]}, "properties": {"kind": "stop", "name": "HARWELL RD NW @ DOGWOOD DR NW", "mode": "bus"}}, {"type": "Feature", "geometry": {"type": "Point", "coordinates": [-84.491088, 33.77981]}, "properties": {"kind": "stop", "name": "KINGSTON RD NW @ SKIPPER DR NW", "mode": "bus"}}, {"type": "Feature", "geometry": {"type": "Point", "coordinates": [-84.500419, 33.755978]}, "properties": {"kind": "stop", "name": "MARTIN L KING JR DR SW @ BROWNLEE RD SW", "mode": "bus"}}, {"type": "Feature", "geometry": {"type": "Point", "coordinates": [-84.506115, 33.76032]}, "properties": {"kind": "stop", "name": "MARTIN L KING JR DR SW @ FAIRBURN RD NW", "mode": "bus"}}, {"type": "Feature", "geometry": {"type": "Point", "coordinates": [-84.508022, 33.762008]}, "properties": {"kind": "stop", "name": "MARTIN L KING JR DR SW @ ADAMSVILLE DR SW", "mode": "bus"}}, {"type": "Feature", "geometry": {"type": "Point", "coordinates": [-84.509592, 33.76402]}, "properties": {"kind": "stop", "name": "MARTIN L KING JR DR SW @ ADAMSVILLE PLACE PKY", "mode": "bus"}}, {"type": "Feature", "geometry": {"type": "Point", "coordinates": [-84.513321, 33.768266]}, "properties": {"kind": "stop", "name": "MARTIN L KING JR DR SW @ OLD GORDON RD", "mode": "bus"}}, {"type": "Feature", "geometry": {"type": "Point", "coordinates": [-84.513277, 33.768087]}, "properties": {"kind": "stop", "name": "MARTIN L KING JR DR SW @ OLD GORDON RD SW", "mode": "bus"}}, {"type": "Feature", "geometry": {"type": "Point", "coordinates": [-84.511217, 33.765933]}, "properties": {"kind": "stop", "name": "MARTIN L KING JR DR SW @ BOLTON RD NW", "mode": "bus"}}, {"type": "Feature", "geometry": {"type": "Point", "coordinates": [-84.509755, 33.764011]}, "properties": {"kind": "stop", "name": "MARTIN L KING JR DR SW @ 3724", "mode": "bus"}}, {"type": "Feature", "geometry": {"type": "Point", "coordinates": [-84.507803, 33.76166]}, "properties": {"kind": "stop", "name": "MARTIN L KING JR DR SW @ ADAMSVILLE DR SW", "mode": "bus"}}, {"type": "Feature", "geometry": {"type": "Point", "coordinates": [-84.505951, 33.75998]}, "properties": {"kind": "stop", "name": "MARTIN L KING JR DR SW @ FAIRBURN RD SW", "mode": "bus"}}, {"type": "Feature", "geometry": {"type": "Point", "coordinates": [-84.503261, 33.758042]}, "properties": {"kind": "stop", "name": "MARTIN L KING JR DR SW @ HOWELL DR SW", "mode": "bus"}}, {"type": "Feature", "geometry": {"type": "Point", "coordinates": [-84.499831, 33.755451]}, "properties": {"kind": "stop", "name": "MARTIN L KING JR DR SW @ BROWNLEE RD SW", "mode": "bus"}}, {"type": "Feature", "geometry": {"type": "Point", "coordinates": [-84.514604, 33.759474]}, "properties": {"kind": "stop", "name": "BAKERS FERRY RD@CORNELL BLVD", "mode": "bus"}}, {"type": "Feature", "geometry": {"type": "Point", "coordinates": [-84.50379, 33.779858]}, "properties": {"kind": "stop", "name": "FAIRBURN RD @ BONNEVILLE TER", "mode": "bus"}}, {"type": "Feature", "geometry": {"type": "Point", "coordinates": [-84.500188, 33.77397]}, "properties": {"kind": "stop", "name": "FAIRBURN RD@MARK PL", "mode": "bus"}}, {"type": "Feature", "geometry": {"type": "Point", "coordinates": [-84.500089, 33.773523]}, "properties": {"kind": "stop", "name": "FAIRBURN RD @ MARK PL", "mode": "bus"}}, {"type": "Feature", "geometry": {"type": "Point", "coordinates": [-84.490255, 33.766493]}, "properties": {"kind": "stop", "name": "COLLIER DR@3114", "mode": "bus"}}, {"type": "Feature", "geometry": {"type": "Point", "coordinates": [-84.500003, 33.768976]}, "properties": {"kind": "stop", "name": "COLLIER DR@FAIRBURN RD", "mode": "bus"}}, {"type": "Feature", "geometry": {"type": "Point", "coordinates": [-84.501194, 33.766969]}, "properties": {"kind": "stop", "name": "FAIRLANE DR@FAIRLANE CIR", "mode": "bus"}}, {"type": "Feature", "geometry": {"type": "Point", "coordinates": [-84.502781, 33.766922]}, "properties": {"kind": "stop", "name": "FAIRLANE DR@3523", "mode": "bus"}}, {"type": "Feature", "geometry": {"type": "Point", "coordinates": [-84.506902, 33.766611]}, "properties": {"kind": "stop", "name": "FAIRLANE DR@FEDORA WAY", "mode": "bus"}}, {"type": "Feature", "geometry": {"type": "Point", "coordinates": [-84.507815, 33.766592]}, "properties": {"kind": "stop", "name": "FAIRLANE DR@FAIRLOCK LN", "mode": "bus"}}, {"type": "Feature", "geometry": {"type": "Point", "coordinates": [-84.509174, 33.766536]}, "properties": {"kind": "stop", "name": "FAIRLANE DR@BOLTON RD", "mode": "bus"}}, {"type": "Feature", "geometry": {"type": "Point", "coordinates": [-84.511064, 33.765942]}, "properties": {"kind": "stop", "name": "BOLTON RD@MARTIN LUTHER KING J DR", "mode": "bus"}}, {"type": "Feature", "geometry": {"type": "Point", "coordinates": [-84.506857, 33.773524]}, "properties": {"kind": "stop", "name": "BOLTON RD NW @ FAIRBURN CIR", "mode": "bus"}}, {"type": "Feature", "geometry": {"type": "Point", "coordinates": [-84.506074, 33.774229]}, "properties": {"kind": "stop", "name": "BOLTON RD@CLOVIS CT", "mode": "bus"}}, {"type": "Feature", "geometry": {"type": "Point", "coordinates": [-84.498014, 33.780871]}, "properties": {"kind": "stop", "name": "BOLTON RD@BOLTON PKY", "mode": "bus"}}, {"type": "Feature", "geometry": {"type": "Point", "coordinates": [-84.500864, 33.779554]}, "properties": {"kind": "stop", "name": "FAIRBURN RD @ BOLTON PL", "mode": "bus"}}, {"type": "Feature", "geometry": {"type": "Point", "coordinates": [-84.5053, 33.779386]}, "properties": {"kind": "stop", "name": "FAIRBURN RD@1001", "mode": "bus"}}, {"type": "Feature", "geometry": {"type": "Point", "coordinates": [-84.509194, 33.775439]}, "properties": {"kind": "stop", "name": "MERCURY DR@CLOVIS CT", "mode": "bus"}}, {"type": "Feature", "geometry": {"type": "Point", "coordinates": [-84.509735, 33.760287]}, "properties": {"kind": "stop", "name": "BAKERS FERRY RD@WISTERIA LN", "mode": "bus"}}, {"type": "Feature", "geometry": {"type": "Point", "coordinates": [-84.511791, 33.760499]}, "properties": {"kind": "stop", "name": "BAKERS FERRY RD@OAKSIDE DR", "mode": "bus"}}, {"type": "Feature", "geometry": {"type": "Point", "coordinates": [-84.513486, 33.760326]}, "properties": {"kind": "stop", "name": "BAKERS FERRY RD@3783", "mode": "bus"}}, {"type": "Feature", "geometry": {"type": "Point", "coordinates": [-84.519528, 33.758928]}, "properties": {"kind": "stop", "name": "CORNELL BLVD@CANDLELIGHT LN", "mode": "bus"}}, {"type": "Feature", "geometry": {"type": "Point", "coordinates": [-84.519841, 33.757916]}, "properties": {"kind": "stop", "name": "CANDLELIGHT LN@KENORA DR", "mode": "bus"}}, {"type": "Feature", "geometry": {"type": "Point", "coordinates": [-84.520044, 33.756761]}, "properties": {"kind": "stop", "name": "CANDLELIGHT LN @ SARNIA LN", "mode": "bus"}}, {"type": "Feature", "geometry": {"type": "Point", "coordinates": [-84.521431, 33.754593]}, "properties": {"kind": "stop", "name": "CANDLELIGHT LN@BAKERS FERRY RD", "mode": "bus"}}, {"type": "Feature", "geometry": {"type": "Point", "coordinates": [-84.517683, 33.746138]}, "properties": {"kind": "stop", "name": "WILSON MILL RD@606", "mode": "bus"}}, {"type": "Feature", "geometry": {"type": "Point", "coordinates": [-84.500185, 33.776174]}, "properties": {"kind": "stop", "name": "FAIRBURN RD@762", "mode": "bus"}}, {"type": "Feature", "geometry": {"type": "Point", "coordinates": [-84.500013, 33.775933]}, "properties": {"kind": "stop", "name": "FAIRBURN RD@795", "mode": "bus"}}, {"type": "Feature", "geometry": {"type": "Point", "coordinates": [-84.485355, 33.763027]}, "properties": {"kind": "stop", "name": "COLLIER DR NW@LARCHMONT DR NW", "mode": "bus"}}, {"type": "Feature", "geometry": {"type": "Point", "coordinates": [-84.485483, 33.763412]}, "properties": {"kind": "stop", "name": "COLLIER DR@LARCHMONT DR", "mode": "bus"}}, {"type": "Feature", "geometry": {"type": "Point", "coordinates": [-84.488237, 33.765163]}, "properties": {"kind": "stop", "name": "COLLIER DR@3075", "mode": "bus"}}, {"type": "Feature", "geometry": {"type": "Point", "coordinates": [-84.484435, 33.762871]}, "properties": {"kind": "stop", "name": "COLLIER DR@LINKWOOD RD", "mode": "bus"}}, {"type": "Feature", "geometry": {"type": "Point", "coordinates": [-84.506032, 33.752801]}, "properties": {"kind": "stop", "name": "FAIRBURN RD SW @ HOWELL DR SW", "mode": "bus"}}, {"type": "Feature", "geometry": {"type": "Point", "coordinates": [-84.507461, 33.750087]}, "properties": {"kind": "stop", "name": "FAIRBURN RD SW @ WISTERIA LN SW", "mode": "bus"}}, {"type": "Feature", "geometry": {"type": "Point", "coordinates": [-84.508311, 33.748466]}, "properties": {"kind": "stop", "name": "FAIRBURN RD SW @ BOULDER PARK DR SW", "mode": "bus"}}, {"type": "Feature", "geometry": {"type": "Point", "coordinates": [-84.509375, 33.743745]}, "properties": {"kind": "stop", "name": "FAIRBURN RD SW @ 405", "mode": "bus"}}, {"type": "Feature", "geometry": {"type": "Point", "coordinates": [-84.509865, 33.74284]}, "properties": {"kind": "stop", "name": "FAIRBURN RD SW @ 400", "mode": "bus"}}, {"type": "Feature", "geometry": {"type": "Point", "coordinates": [-84.510267, 33.740601]}, "properties": {"kind": "stop", "name": "FAIRBURN RD SW @ BENJAMIN E MAYS DR SW", "mode": "bus"}}, {"type": "Feature", "geometry": {"type": "Point", "coordinates": [-84.506076, 33.752962]}, "properties": {"kind": "stop", "name": "FAIRBURN RD SW @ HOWELL DR SW", "mode": "bus"}}, {"type": "Feature", "geometry": {"type": "Point", "coordinates": [-84.507624, 33.750024]}, "properties": {"kind": "stop", "name": "FAIRBURN RD SW @ WISTERIA LN SW", "mode": "bus"}}, {"type": "Feature", "geometry": {"type": "Point", "coordinates": [-84.508277, 33.748865]}, "properties": {"kind": "stop", "name": "FAIRBURN RD SW @ BOULDER PARK DR SW", "mode": "bus"}}, {"type": "Feature", "geometry": {"type": "Point", "coordinates": [-84.508646, 33.745529]}, "properties": {"kind": "stop", "name": "FAIRBURN RD SW @ 320", "mode": "bus"}}, {"type": "Feature", "geometry": {"type": "Point", "coordinates": [-84.509823, 33.743179]}, "properties": {"kind": "stop", "name": "FAIRBURN RD SW @ 405", "mode": "bus"}}, {"type": "Feature", "geometry": {"type": "Point", "coordinates": [-84.510465, 33.740937]}, "properties": {"kind": "stop", "name": "FAIRBURN RD SW @ BENJAMIN E MAYS DR SW", "mode": "bus"}}, {"type": "Feature", "geometry": {"type": "Point", "coordinates": [-84.51725, 33.744362]}, "properties": {"kind": "stop", "name": "WILSON MILL RD SW@WILDWOOD LAKE DR", "mode": "bus"}}, {"type": "Feature", "geometry": {"type": "Point", "coordinates": [-84.518793, 33.743265]}, "properties": {"kind": "stop", "name": "WILDWOOD LAKE DR SW@PLAINVILLE DR S", "mode": "bus"}}, {"type": "Feature", "geometry": {"type": "Point", "coordinates": [-84.517977, 33.747223]}, "properties": {"kind": "stop", "name": "WILSON MILL RD@BOULDER PARK DR", "mode": "bus"}}, {"type": "Feature", "geometry": {"type": "Point", "coordinates": [-84.508534, 33.745696]}, "properties": {"kind": "stop", "name": "FAIRBURN RD SW @ 320", "mode": "bus"}}, {"type": "Feature", "geometry": {"type": "Point", "coordinates": [-84.504578, 33.75013]}, "properties": {"kind": "stop", "name": "BOULDER PARK DR SW@HOWELL TER SW", "mode": "bus"}}, {"type": "Feature", "geometry": {"type": "Point", "coordinates": [-84.505676, 33.749817]}, "properties": {"kind": "stop", "name": "BOULDER PARK DR SW@HOWELL TER", "mode": "bus"}}, {"type": "Feature", "geometry": {"type": "Point", "coordinates": [-84.506767, 33.749397]}, "properties": {"kind": "stop", "name": "BOULDER PARK DR SW@3631", "mode": "bus"}}, {"type": "Feature", "geometry": {"type": "Point", "coordinates": [-84.508099, 33.74877]}, "properties": {"kind": "stop", "name": "BOULDER PARK DR SW @ FAIRBURN RD SW", "mode": "bus"}}, {"type": "Feature", "geometry": {"type": "Point", "coordinates": [-84.511588, 33.748558]}, "properties": {"kind": "stop", "name": "BOULDER PARK DR SW @ BRANCH DR SW", "mode": "bus"}}, {"type": "Feature", "geometry": {"type": "Point", "coordinates": [-84.515682, 33.74669]}, "properties": {"kind": "stop", "name": "BOULDER PARK DR SW @ LINE RD SW", "mode": "bus"}}, {"type": "Feature", "geometry": {"type": "Point", "coordinates": [-84.517945, 33.747268]}, "properties": {"kind": "stop", "name": "BOULDER PARK DR SW @ WILSON MILL RD SW", "mode": "bus"}}, {"type": "Feature", "geometry": {"type": "Point", "coordinates": [-84.522491, 33.747841]}, "properties": {"kind": "stop", "name": "BOULDER PARK DR SW@4098", "mode": "bus"}}, {"type": "Feature", "geometry": {"type": "Point", "coordinates": [-84.526051, 33.746234]}, "properties": {"kind": "stop", "name": "BOULDER PARK DR@4230", "mode": "bus"}}, {"type": "Feature", "geometry": {"type": "Point", "coordinates": [-84.52728, 33.746258]}, "properties": {"kind": "stop", "name": "BOULDER PARK DR SW@DOLLAR MILL RD S", "mode": "bus"}}, {"type": "Feature", "geometry": {"type": "Point", "coordinates": [-84.527677, 33.74453]}, "properties": {"kind": "stop", "name": "UTOY CIR SW@DOLLAR MILL RD", "mode": "bus"}}, {"type": "Feature", "geometry": {"type": "Point", "coordinates": [-84.527511, 33.743232]}, "properties": {"kind": "stop", "name": "UTOY CIR SW@DOLLAR MILL WAY", "mode": "bus"}}, {"type": "Feature", "geometry": {"type": "Point", "coordinates": [-84.526943, 33.742276]}, "properties": {"kind": "stop", "name": "UTOY CIR SW@DOLLAR MILL WAY SW", "mode": "bus"}}, {"type": "Feature", "geometry": {"type": "Point", "coordinates": [-84.525507, 33.741571]}, "properties": {"kind": "stop", "name": "UTOY CIR SW@DOLLAR MILL RD SW", "mode": "bus"}}, {"type": "Feature", "geometry": {"type": "Point", "coordinates": [-84.5271, 33.745045]}, "properties": {"kind": "stop", "name": "DOLLAR MILL RD SW@UTOY CT SW", "mode": "bus"}}, {"type": "Feature", "geometry": {"type": "Point", "coordinates": [-84.52791, 33.746177]}, "properties": {"kind": "stop", "name": "DOLLAR MILL RD SW @ BOULDER PARK DR SW", "mode": "bus"}}, {"type": "Feature", "geometry": {"type": "Point", "coordinates": [-84.50531, 33.749405]}, "properties": {"kind": "stop", "name": "BOULDER PARK DR SW @ HOWELL TER SW", "mode": "bus"}}, {"type": "Feature", "geometry": {"type": "Point", "coordinates": [-84.506416, 33.74934]}, "properties": {"kind": "stop", "name": "BOULDER PARK DR SW @ 3630", "mode": "bus"}}, {"type": "Feature", "geometry": {"type": "Point", "coordinates": [-84.508078, 33.74868]}, "properties": {"kind": "stop", "name": "BOULDER PARK DR SW @ FAIRBURN RD SW", "mode": "bus"}}, {"type": "Feature", "geometry": {"type": "Point", "coordinates": [-84.51149, 33.74837]}, "properties": {"kind": "stop", "name": "BOULDER PARK DR SW @ BRANCH DR SW", "mode": "bus"}}, {"type": "Feature", "geometry": {"type": "Point", "coordinates": [-84.515334, 33.746493]}, "properties": {"kind": "stop", "name": "BOULDER PARK DR SW @ LINE RD SW", "mode": "bus"}}, {"type": "Feature", "geometry": {"type": "Point", "coordinates": [-84.518075, 33.747214]}, "properties": {"kind": "stop", "name": "BOULDER PARK DR SW @ WILSON MILL RD SW", "mode": "bus"}}, {"type": "Feature", "geometry": {"type": "Point", "coordinates": [-84.525421, 33.746163]}, "properties": {"kind": "stop", "name": "BOULDER PARK DR@4230", "mode": "bus"}}, {"type": "Feature", "geometry": {"type": "Point", "coordinates": [-84.522033, 33.74778]}, "properties": {"kind": "stop", "name": "BOULDER PARK DR@4104", "mode": "bus"}}, {"type": "Feature", "geometry": {"type": "Point", "coordinates": [-84.520955, 33.742653]}, "properties": {"kind": "stop", "name": "PLAINVILLE DR@658", "mode": "bus"}}, {"type": "Feature", "geometry": {"type": "Point", "coordinates": [-84.520889, 33.742438]}, "properties": {"kind": "stop", "name": "PLAINVILLE DR@658", "mode": "bus"}}, {"type": "Feature", "geometry": {"type": "Point", "coordinates": [-84.520855, 33.741839]}, "properties": {"kind": "stop", "name": "PLAINVILLE DR@PLAINVILLE TRL", "mode": "bus"}}, {"type": "Feature", "geometry": {"type": "Point", "coordinates": [-84.520267, 33.741302]}, "properties": {"kind": "stop", "name": "PLAINVILLE DR@PLAINVILLE WAY", "mode": "bus"}}, {"type": "Feature", "geometry": {"type": "Point", "coordinates": [-84.520244, 33.741363]}, "properties": {"kind": "stop", "name": "PLAINVILLE DR SW@PLAINVILLE WAY SW", "mode": "bus"}}, {"type": "Feature", "geometry": {"type": "Point", "coordinates": [-84.519256, 33.74035]}, "properties": {"kind": "stop", "name": "PLAINVILLE DR SW@PLAINVILLE CIR", "mode": "bus"}}, {"type": "Feature", "geometry": {"type": "Point", "coordinates": [-84.519557, 33.740104]}, "properties": {"kind": "stop", "name": "PLAINVILLE CIR @ PLAINVILLE DR", "mode": "bus"}}, {"type": "Feature", "geometry": {"type": "Point", "coordinates": [-84.519696, 33.739003]}, "properties": {"kind": "stop", "name": "PLAINVILLE CIR@PLAINVILLE TER", "mode": "bus"}}, {"type": "Feature", "geometry": {"type": "Point", "coordinates": [-84.518456, 33.738549]}, "properties": {"kind": "stop", "name": "PLAINVILLE CIR@819", "mode": "bus"}}, {"type": "Feature", "geometry": {"type": "Point", "coordinates": [-84.516282, 33.738436]}, "properties": {"kind": "stop", "name": "PLAINVILLE CIR @ PLAINVILLE DR", "mode": "bus"}}, {"type": "Feature", "geometry": {"type": "Point", "coordinates": [-84.516163, 33.738893]}, "properties": {"kind": "stop", "name": "PLAINVILLE DR@PLAINVILLE PL", "mode": "bus"}}, {"type": "Feature", "geometry": {"type": "Point", "coordinates": [-84.517632, 33.739445]}, "properties": {"kind": "stop", "name": "PLAINVILLE DR@828", "mode": "bus"}}, {"type": "Feature", "geometry": {"type": "Point", "coordinates": [-84.526491, 33.74378]}, "properties": {"kind": "stop", "name": "DOLLAR MILL RD@396", "mode": "bus"}}, {"type": "Feature", "geometry": {"type": "Point", "coordinates": [-84.518848, 33.743382]}, "properties": {"kind": "stop", "name": "WILDWOOD LAKE DR@PLAINVILLE DR", "mode": "bus"}}, {"type": "Feature", "geometry": {"type": "Point", "coordinates": [-84.521777, 33.754037]}, "properties": {"kind": "stop", "name": "WAITS DR@ESTER DR", "mode": "bus"}}, {"type": "Feature", "geometry": {"type": "Point", "coordinates": [-84.521807, 33.753133]}, "properties": {"kind": "stop", "name": "WAITS DR@DOSTER DR", "mode": "bus"}}, {"type": "Feature", "geometry": {"type": "Point", "coordinates": [-84.521804, 33.751961]}, "properties": {"kind": "stop", "name": "WAITS DR@BREWER DR", "mode": "bus"}}, {"type": "Feature", "geometry": {"type": "Point", "coordinates": [-84.520332, 33.751205]}, "properties": {"kind": "stop", "name": "ALEX DR@ALEX WAY", "mode": "bus"}}, {"type": "Feature", "geometry": {"type": "Point", "coordinates": [-84.527345, 33.746187]}, "properties": {"kind": "stop", "name": "BOULDER PARK DR@DOLLAR MILL RD", "mode": "bus"}}, {"type": "Feature", "geometry": {"type": "Point", "coordinates": [-84.495517, 33.736329]}, "properties": {"kind": "stop", "name": "BENJAMIN E MAYS DR SW @ BRAEMAR AVE SW", "mode": "bus"}}, {"type": "Feature", "geometry": {"type": "Point", "coordinates": [-84.487219, 33.755661]}, "properties": {"kind": "stop", "name": "DELMAR LN NW@3060", "mode": "bus"}}, {"type": "Feature", "geometry": {"type": "Point", "coordinates": [-84.487311, 33.751996]}, "properties": {"kind": "stop", "name": "MARTIN L KING JR DR SW @ LYNHURST DR SW", "mode": "bus"}}, {"type": "Feature", "geometry": {"type": "Point", "coordinates": [-84.494794, 33.748683]}, "properties": {"kind": "stop", "name": "WILKINS LN SW @ SCOTT ST SW", "mode": "bus"}}, {"type": "Feature", "geometry": {"type": "Point", "coordinates": [-84.494648, 33.74666]}, "properties": {"kind": "stop", "name": "SCOTT ST SW @ 108", "mode": "bus"}}, {"type": "Feature", "geometry": {"type": "Point", "coordinates": [-84.49655, 33.746577]}, "properties": {"kind": "stop", "name": "SCOTT ST SW @ BROWNLEE RD SW", "mode": "bus"}}, {"type": "Feature", "geometry": {"type": "Point", "coordinates": [-84.491365, 33.751865]}, "properties": {"kind": "stop", "name": "MARTIN L KING JR DR SW @ MIDDLETON RD NW", "mode": "bus"}}, {"type": "Feature", "geometry": {"type": "Point", "coordinates": [-84.496784, 33.754176]}, "properties": {"kind": "stop", "name": "MARTIN L KING JR DR SW @ TREADWELL CIR SW", "mode": "bus"}}, {"type": "Feature", "geometry": {"type": "Point", "coordinates": [-84.497491, 33.754363]}, "properties": {"kind": "stop", "name": "MARTIN L KING JR DR SW @ TREADWELL CIR SW", "mode": "bus"}}, {"type": "Feature", "geometry": {"type": "Point", "coordinates": [-84.491278, 33.751731]}, "properties": {"kind": "stop", "name": "MARTIN L KING JR DR SW @ MIDDLETON RD NW", "mode": "bus"}}, {"type": "Feature", "geometry": {"type": "Point", "coordinates": [-84.496985, 33.746522]}, "properties": {"kind": "stop", "name": "SCOTT ST SW @ BROWNLEE RD SW", "mode": "bus"}}, {"type": "Feature", "geometry": {"type": "Point", "coordinates": [-84.494767, 33.746194]}, "properties": {"kind": "stop", "name": "SCOTT ST SW @ 309", "mode": "bus"}}, {"type": "Feature", "geometry": {"type": "Point", "coordinates": [-84.494707, 33.748647]}, "properties": {"kind": "stop", "name": "SCOTT ST SW @ WILKINS LN SW", "mode": "bus"}}, {"type": "Feature", "geometry": {"type": "Point", "coordinates": [-84.493969, 33.749293]}, "properties": {"kind": "stop", "name": "WILKINS LN SW @ CUSHMAN CIR SW", "mode": "bus"}}, {"type": "Feature", "geometry": {"type": "Point", "coordinates": [-84.493972, 33.750743]}, "properties": {"kind": "stop", "name": "CUSHMAN CIR SW @ BOULDER PARK DR SW", "mode": "bus"}}, {"type": "Feature", "geometry": {"type": "Point", "coordinates": [-84.488603, 33.751207]}, "properties": {"kind": "stop", "name": "MARTIN L KING JR DR SW @ LYNHURST DR SW", "mode": "bus"}}, {"type": "Feature", "geometry": {"type": "Point", "coordinates": [-84.488221, 33.750644]}, "properties": {"kind": "stop", "name": "LYNHURST DR @ MARTIN L KING JR DR", "mode": "bus"}}, {"type": "Feature", "geometry": {"type": "Point", "coordinates": [-84.488707, 33.748888]}, "properties": {"kind": "stop", "name": "LYNHURST DR @ 155", "mode": "bus"}}, {"type": "Feature", "geometry": {"type": "Point", "coordinates": [-84.489192, 33.746892]}, "properties": {"kind": "stop", "name": "LYNHURST DR SW@LYNHURST CIR SW", "mode": "bus"}}, {"type": "Feature", "geometry": {"type": "Point", "coordinates": [-84.489775, 33.74545]}, "properties": {"kind": "stop", "name": "LYNHURST DR SW@REBECCA DR SW", "mode": "bus"}}, {"type": "Feature", "geometry": {"type": "Point", "coordinates": [-84.491085, 33.742924]}, "properties": {"kind": "stop", "name": "LYNHURST DR SW@IVAN HILL DR SW", "mode": "bus"}}, {"type": "Feature", "geometry": {"type": "Point", "coordinates": [-84.491408, 33.74107]}, "properties": {"kind": "stop", "name": "LYNHURST DR SW@RABUN DR SW", "mode": "bus"}}, {"type": "Feature", "geometry": {"type": "Point", "coordinates": [-84.488005, 33.751199]}, "properties": {"kind": "stop", "name": "LYNHURST DR@MARTIN LUTHER KING J DR", "mode": "bus"}}, {"type": "Feature", "geometry": {"type": "Point", "coordinates": [-84.488641, 33.748817]}, "properties": {"kind": "stop", "name": "LYNHURST DR@155", "mode": "bus"}}, {"type": "Feature", "geometry": {"type": "Point", "coordinates": [-84.489094, 33.746883]}, "properties": {"kind": "stop", "name": "LYNHURST DR SW@LYNHURST CIR SW", "mode": "bus"}}, {"type": "Feature", "geometry": {"type": "Point", "coordinates": [-84.489808, 33.745288]}, "properties": {"kind": "stop", "name": "LYNHURST DR SW@REBECCA DR SW", "mode": "bus"}}, {"type": "Feature", "geometry": {"type": "Point", "coordinates": [-84.491009, 33.742906]}, "properties": {"kind": "stop", "name": "LYNHURST DR SW@IVAN HILL DR SW", "mode": "bus"}}, {"type": "Feature", "geometry": {"type": "Point", "coordinates": [-84.491295, 33.740921]}, "properties": {"kind": "stop", "name": "LYNHURST DR SW@RABUN DR SW", "mode": "bus"}}, {"type": "Feature", "geometry": {"type": "Point", "coordinates": [-84.50019, 33.755692]}, "properties": {"kind": "stop", "name": "BROWNLEE RD@MARTIN LUTHER KING J D", "mode": "bus"}}, {"type": "Feature", "geometry": {"type": "Point", "coordinates": [-84.500861, 33.754098]}, "properties": {"kind": "stop", "name": "BROWNLEE PL SW@BROWNLEE RD SW", "mode": "bus"}}, {"type": "Feature", "geometry": {"type": "Point", "coordinates": [-84.501689, 33.750122]}, "properties": {"kind": "stop", "name": "NATHAN RD SW@BOULDER PARK DR SW", "mode": "bus"}}, {"type": "Feature", "geometry": {"type": "Point", "coordinates": [-84.502052, 33.753761]}, "properties": {"kind": "stop", "name": "NATHAN RD SW@BROWNLEE PL SW", "mode": "bus"}}, {"type": "Feature", "geometry": {"type": "Point", "coordinates": [-84.501812, 33.751895]}, "properties": {"kind": "stop", "name": "NATHAN RD SW @ 179", "mode": "bus"}}, {"type": "Feature", "geometry": {"type": "Point", "coordinates": [-84.501841, 33.750006]}, "properties": {"kind": "stop", "name": "NATHAN RD SW @ BOULDER PARK DR SW", "mode": "bus"}}, {"type": "Feature", "geometry": {"type": "Point", "coordinates": [-84.496015, 33.737027]}, "properties": {"kind": "stop", "name": "BROWNLEE RD SW @ BENJAMIN E MAYS DR SW", "mode": "bus"}}, {"type": "Feature", "geometry": {"type": "Point", "coordinates": [-84.496645, 33.740132]}, "properties": {"kind": "stop", "name": "BROWNLEE RD SW @ RABUN DR SW", "mode": "bus"}}, {"type": "Feature", "geometry": {"type": "Point", "coordinates": [-84.496792, 33.742745]}, "properties": {"kind": "stop", "name": "BROWNLEE RD SW @ DAMERON CIR SW", "mode": "bus"}}, {"type": "Feature", "geometry": {"type": "Point", "coordinates": [-84.496718, 33.742538]}, "properties": {"kind": "stop", "name": "BROWNLEE RD SW @ DAMERON CIR SW", "mode": "bus"}}, {"type": "Feature", "geometry": {"type": "Point", "coordinates": [-84.496336, 33.739802]}, "properties": {"kind": "stop", "name": "BROWNLEE RD SW @ RABUN DR SW", "mode": "bus"}}, {"type": "Feature", "geometry": {"type": "Point", "coordinates": [-84.491037, 33.75106]}, "properties": {"kind": "stop", "name": "BOULDER PARK DR SW @ MARTIN L KING JR DR", "mode": "bus"}}, {"type": "Feature", "geometry": {"type": "Point", "coordinates": [-84.490805, 33.744123]}, "properties": {"kind": "stop", "name": "LYNHURST DR@WESTPORT WAY", "mode": "bus"}}, {"type": "Feature", "geometry": {"type": "Point", "coordinates": [-84.490772, 33.743918]}, "properties": {"kind": "stop", "name": "LYNHURST DR@WESTPORT WAY", "mode": "bus"}}, {"type": "Feature", "geometry": {"type": "Point", "coordinates": [-84.496184, 33.738172]}, "properties": {"kind": "stop", "name": "BROWNLEE RD SW @ CEDAR ISLAND DR SW", "mode": "bus"}}, {"type": "Feature", "geometry": {"type": "Point", "coordinates": [-84.491864, 33.751175]}, "properties": {"kind": "stop", "name": "BOULDER PARK DR SW @ MARTIN L KING JR DR", "mode": "bus"}}, {"type": "Feature", "geometry": {"type": "Point", "coordinates": [-84.494132, 33.75055]}, "properties": {"kind": "stop", "name": "CUSHMAN CIR SW @ BOULDER PARK DR SW", "mode": "bus"}}, {"type": "Feature", "geometry": {"type": "Point", "coordinates": [-84.493991, 33.7494]}, "properties": {"kind": "stop", "name": "CUSHMAN CIR SW @ WILKINS LN SW", "mode": "bus"}}, {"type": "Feature", "geometry": {"type": "Point", "coordinates": [-84.509995, 33.732144]}, "properties": {"kind": "stop", "name": "FAIRBURN RD SW @ MAYS XING SW", "mode": "bus"}}, {"type": "Feature", "geometry": {"type": "Point", "coordinates": [-84.510224, 33.732484]}, "properties": {"kind": "stop", "name": "FAIRBURN RD SW @ MAYS XING SW", "mode": "bus"}}, {"type": "Feature", "geometry": {"type": "Point", "coordinates": [-84.502571, 33.779758]}, "properties": {"kind": "stop", "name": "FAIRBURN RD@SANDY CREEK ROAD", "mode": "bus"}}, {"type": "Feature", "geometry": {"type": "Point", "coordinates": [-84.510503, 33.735366]}, "properties": {"kind": "stop", "name": "FAIRBURN RD@680", "mode": "bus"}}, {"type": "Feature", "geometry": {"type": "Point", "coordinates": [-84.51033, 33.7358]}, "properties": {"kind": "stop", "name": "FAIRBURN RD @ 680", "mode": "bus"}}, {"type": "Feature", "geometry": {"type": "Point", "coordinates": [-84.519256, 33.749987]}, "properties": {"kind": "stop", "name": "TARRAGON WAY@ESTER DR", "mode": "bus"}}, {"type": "Feature", "geometry": {"type": "Point", "coordinates": [-84.499948, 33.778616]}, "properties": {"kind": "stop", "name": "FAIRBURN RD@BOLTON RD", "mode": "bus"}}, {"type": "Feature", "geometry": {"type": "Point", "coordinates": [-84.507367, 33.779455]}, "properties": {"kind": "stop", "name": "FAIRBURN RD NW @ 1065", "mode": "bus"}}, {"type": "Feature", "geometry": {"type": "Point", "coordinates": [-84.505152, 33.733942]}, "properties": {"kind": "stop", "name": "BENJAMIN E MAYS HIGH SCHOOL", "mode": "bus"}}, {"type": "Feature", "geometry": {"type": "Point", "coordinates": [-84.495453, 33.792031]}, "properties": {"kind": "stop", "name": "ATLANTA IND PKWY@3201", "mode": "bus"}}, {"type": "Feature", "geometry": {"type": "Point", "coordinates": [-84.518158, 33.75885]}, "properties": {"kind": "stop", "name": "CORNELL BLVD@WHITWORTH DR", "mode": "bus"}}, {"type": "Feature", "geometry": {"type": "Point", "coordinates": [-84.514345, 33.755858]}, "properties": {"kind": "stop", "name": "WILSON MILL RD@BAKERS FERRY RD", "mode": "bus"}}, {"type": "Feature", "geometry": {"type": "Point", "coordinates": [-84.509221, 33.763349]}, "properties": {"kind": "stop", "name": "MARTIN L KING JR DR SW @ ADAMSVILLE PLACE PKWY  SW", "mode": "bus"}}, {"type": "Feature", "geometry": {"type": "Point", "coordinates": [-84.496032, 33.738145]}, "properties": {"kind": "stop", "name": "BROWNLEE RD SW @ CEDAR ISLAND DR SW", "mode": "bus"}}, {"type": "Feature", "geometry": {"type": "Point", "coordinates": [-84.495702, 33.736535]}, "properties": {"kind": "stop", "name": "BENJAMIN E MAYS DR @ BROWNLEE RD", "mode": "bus"}}, {"type": "Feature", "geometry": {"type": "Point", "coordinates": [-84.492157, 33.781456]}, "properties": {"kind": "stop", "name": "SKIPPER DR NW @ SKIPPER PL NW", "mode": "bus"}}, {"type": "Feature", "geometry": {"type": "Point", "coordinates": [-84.508703, 33.769535]}, "properties": {"kind": "stop", "name": "BOLTON RD NW @ COLLIER DR NW", "mode": "bus"}}, {"type": "Feature", "geometry": {"type": "Point", "coordinates": [-84.508453, 33.760298]}, "properties": {"kind": "stop", "name": "BAKERS FERRY RD SW @ BAKERS FERRY DR SW", "mode": "bus"}}, {"type": "Feature", "geometry": {"type": "Point", "coordinates": [-84.520647, 33.74994]}, "properties": {"kind": "stop", "name": "TARRAGON WAY SW @ ALEX WAY SW", "mode": "bus"}}, {"type": "Feature", "geometry": {"type": "Point", "coordinates": [-84.516953, 33.75085]}, "properties": {"kind": "stop", "name": "TARRAGON WAY SW @ 454", "mode": "bus"}}, {"type": "Feature", "geometry": {"type": "Point", "coordinates": [-84.504303, 33.766803]}, "properties": {"kind": "stop", "name": "FAIRLANE DR NW @ 3565", "mode": "bus"}}, {"type": "Feature", "geometry": {"type": "Point", "coordinates": [-84.49967, 33.756499]}, "properties": {"kind": "stop", "name": "BROWNLEE RD NW @ DELMAR LN NW", "mode": "bus"}}, {"type": "Feature", "geometry": {"type": "Point", "coordinates": [-84.501737, 33.75236]}, "properties": {"kind": "stop", "name": "NATHAN RD @ 181", "mode": "bus"}}, {"type": "Feature", "geometry": {"type": "Point", "coordinates": [-84.500906, 33.754948]}, "properties": {"kind": "stop", "name": "BROWNLEE RD SW @ BROWNLEE PL", "mode": "bus"}}, {"type": "Feature", "geometry": {"type": "Point", "coordinates": [-84.517123, 33.744906]}, "properties": {"kind": "stop", "name": "WILSON MILL RD SW @ WILDWOOD LAKE DR SW", "mode": "bus"}}, {"type": "Feature", "geometry": {"type": "Point", "coordinates": [-84.516517, 33.75905]}, "properties": {"kind": "stop", "name": "CORNELL BLVD SW @ DARTMOUTH DR SW", "mode": "bus"}}, {"type": "Feature", "geometry": {"type": "Point", "coordinates": [-84.505611, 33.758676]}, "properties": {"kind": "stop", "name": "FAIRBURN RD SW @ MARTIN L KING JR DR", "mode": "bus"}}, {"type": "Feature", "geometry": {"type": "Point", "coordinates": [-84.505387, 33.758964]}, "properties": {"kind": "stop", "name": "FAIRBURN RD SW @ MARTIN L KING JR DR", "mode": "bus"}}, {"type": "Feature", "geometry": {"type": "Point", "coordinates": [-84.50557, 33.754968]}, "properties": {"kind": "stop", "name": "FAIRBURN RD SW @ KENNER DR SW", "mode": "bus"}}, {"type": "Feature", "geometry": {"type": "Point", "coordinates": [-84.50543, 33.755326]}, "properties": {"kind": "stop", "name": "FAIRBURN RD SW @ KENNER DR SW", "mode": "bus"}}, {"type": "Feature", "geometry": {"type": "Point", "coordinates": [-84.505438, 33.757224]}, "properties": {"kind": "stop", "name": "FAIRBURN RD @ 38", "mode": "bus"}}, {"type": "Feature", "geometry": {"type": "Point", "coordinates": [-84.493193, 33.752632]}, "properties": {"kind": "stop", "name": "MARTIN L KING JR DR @ HARWELL RD", "mode": "bus"}}, {"type": "Feature", "geometry": {"type": "Point", "coordinates": [-84.493041, 33.752525]}, "properties": {"kind": "stop", "name": "MARTIN L KING JR DR @ HARWELL RD", "mode": "bus"}}, {"type": "Feature", "geometry": {"type": "Point", "coordinates": [-84.527964, 33.745962]}, "properties": {"kind": "stop", "name": "DOLLAR MILL RD @ BOULDER PARK DR", "mode": "bus"}}, {"type": "Feature", "geometry": {"type": "Point", "coordinates": [-84.491534, 33.785279]}, "properties": {"kind": "stop", "name": "HARWELL RD @ DONALD L HOLLOWELL PKWY", "mode": "bus"}}, {"type": "Feature", "geometry": {"type": "Point", "coordinates": [-84.492857, 33.782504]}, "properties": {"kind": "stop", "name": "HARWELL RD @ SKIPPER DR", "mode": "bus"}}, {"type": "Feature", "geometry": {"type": "Point", "coordinates": [-84.508444, 33.775157]}, "properties": {"kind": "stop", "name": "CLOVIS CT @ CROFT PL", "mode": "bus"}}, {"type": "Feature", "geometry": {"type": "Point", "coordinates": [-84.484572, 33.762983]}, "properties": {"kind": "stop", "name": "COLLIER DR @ LINKWOOD RD", "mode": "bus"}}, {"type": "Feature", "geometry": {"type": "Point", "coordinates": [-84.500101, 33.769038]}, "properties": {"kind": "stop", "name": "FAIRBURN RD @ COLLIER DR", "mode": "bus"}}, {"type": "Feature", "geometry": {"type": "Point", "coordinates": [-84.500133, 33.768922]}, "properties": {"kind": "stop", "name": "COLLIER DR @ FAIRBURN RD", "mode": "bus"}}, {"type": "Feature", "geometry": {"type": "Point", "coordinates": [-84.506732, 33.76867]}, "properties": {"kind": "stop", "name": "COLLIER DR @ FEDORA WAY", "mode": "bus"}}, {"type": "Feature", "geometry": {"type": "Point", "coordinates": [-84.505536, 33.768278]}, "properties": {"kind": "stop", "name": "COLLIER DR @ CAMROSE WAY", "mode": "bus"}}, {"type": "Feature", "geometry": {"type": "Point", "coordinates": [-84.508615, 33.769482]}, "properties": {"kind": "stop", "name": "COLLIER DR @ BOLTON RD", "mode": "bus"}}, {"type": "Feature", "geometry": {"type": "Point", "coordinates": [-84.500122, 33.778598]}, "properties": {"kind": "stop", "name": "FAIRBURN RD @ BOLTON RD", "mode": "bus"}}, {"type": "Feature", "geometry": {"type": "Point", "coordinates": [-84.500063, 33.771876]}, "properties": {"kind": "stop", "name": "FAIRBURN RD @ FAIRBURN PL", "mode": "bus"}}, {"type": "Feature", "geometry": {"type": "Point", "coordinates": [-84.500203, 33.770846]}, "properties": {"kind": "stop", "name": "FAIRBURN RD @ 574", "mode": "bus"}}, {"type": "Feature", "geometry": {"type": "Point", "coordinates": [-84.507687, 33.772186]}, "properties": {"kind": "stop", "name": "BOLTON RD @ ADKINS RD", "mode": "bus"}}, {"type": "Feature", "geometry": {"type": "Point", "coordinates": [-84.504233, 33.788347]}, "properties": {"kind": "stop", "name": "UPS DISTRIBUTION CENTER", "mode": "bus"}}, {"type": "Feature", "geometry": {"type": "Point", "coordinates": [-84.495044, 33.793987]}, "properties": {"kind": "stop", "name": "ATLANTA IND PKWY @ 3401", "mode": "bus"}}, {"type": "Feature", "geometry": {"type": "Point", "coordinates": [-84.495362, 33.79423]}, "properties": {"kind": "stop", "name": "ATLANTA INDUSTRIAL PKWY @ 3400", "mode": "bus"}}, {"type": "Feature", "geometry": {"type": "Point", "coordinates": [-84.491622, 33.785493]}, "properties": {"kind": "stop", "name": "HARWELL RD @ DONALD L HOLLOWELL PKY", "mode": "bus"}}, {"type": "Feature", "geometry": {"type": "Point", "coordinates": [-84.516338, 33.752605]}, "properties": {"kind": "stop", "name": "TARRAGON WAY SW @ FENNEL CIR SW", "mode": "bus"}}, {"type": "Feature", "geometry": {"type": "Point", "coordinates": [-84.514658, 33.754756]}, "properties": {"kind": "stop", "name": "TARRAGON WAY SW @ WILSON MILL RD SW", "mode": "bus"}}], "properties": {"coverage_pct": 96.0, "rail_coverage_pct": 0.0, "stop_count": 279, "rail_stop_count": 0, "bus_stop_count": 279, "transit_index": 32, "weights": {"rail": 2.0, "bus": 1.0}}}