{"type": "FeatureCollection", "features": [{"type": "Feature", "geometry": {"type": "Polygon", "coordinates": [[[-84.40592935891216, 33.81234590836715], [-84.40541965773524, 33.811775010549056], [-84.40497945404896, 33.81116515717559], [-84.40461298629685, 33.81052222222596], [-84.40432378246537, 33.80985239818231], [-84.40411462615731, 33.809162136367014], [-84.40398752984532, 33.808458084791816], [-84.40394371556054, 33.80774702411799], [-84.4039836031997, 33.80703580234482], [-84.40405044935403, 33.80665354671835], [-84.40397397526094, 33.80662353272702], [-84.40324140134481, 33.8062588972401], [-84.40255517547222, 33.805836071760986], [-84.40252378616802, 33.805812431284544], [-84.4025813988685, 33.80613162011931], [-84.4026252009816, 33.8068426815153], [-84.40258530218036, 33.807553902919366], [-84.40255051026296, 33.807752836945], [-84.40256331405672, 33.8079606854071], [-84.40252341428122, 33.80867190666655], [-84.40240019469628, 33.80937643837637], [-84.4021948399863, 33.81006749527587], [-84.40190932599339, 33.810738421718824], [-84.40154640075961, 33.81138275578593], [-84.4013727099245, 33.81162590671337], [-84.40133342348855, 33.811850510621106], [-84.40116301688617, 33.812423919627236], [-84.40113882492845, 33.81285500160482], [-84.40113043684138, 33.812902955680364], [-84.40115710730514, 33.813050717844476], [-84.40120090151511, 33.813761778983185], [-84.40116098806362, 33.81447299919202], [-84.4010377492757, 33.81517752896074], [-84.40083237002014, 33.815868583047155], [-84.40054682637499, 33.816539505832004], [-84.40032216397337, 33.81693832997586], [-84.40030739555678, 33.816946637401024], [-84.40004332152213, 33.81707388307093], [-84.3999030291116, 33.817375570816296], [-84.39989051434266, 33.81740232561534], [-84.39981052794205, 33.81757233073305], [-84.39980540459462, 33.81757065135833], [-84.39951155962478, 33.81815496380534], [-84.39905776907314, 33.81883961384766], [-84.39896777539462, 33.81895961912279], [-84.39876329642416, 33.81921971670971], [-84.39862330399745, 33.81938972469612], [-84.39844087396935, 33.819602917138646], [-84.39836087731047, 33.819692921589784], [-84.39790216895571, 33.82016615252643], [-84.39771217213297, 33.820346162421], [-84.39747975034871, 33.820557774096955], [-84.39739975085884, 33.820627778117895], [-84.39695731978897, 33.820975279206735], [-84.39694898794787, 33.82098621933991], [-84.39666415079084, 33.82133755484391], [-84.39659916186545, 33.821418799510965], [-84.39647091954053, 33.82157430650748], [-84.39625877326849, 33.82185076441451], [-84.39572551694195, 33.82241410528083], [-84.39512815605583, 33.82293069706774], [-84.39447253990136, 33.82339548041802], [-84.39376508862667, 33.82380390329359], [-84.39301273035736, 33.824151965582885], [-84.39222283332734, 33.82443625830239], [-84.39140313368503, 33.824653997006564], [-84.39056165968417, 33.824803049078284], [-84.38970665300326, 33.82488195463174], [-84.38884648796711, 33.82488994082165], [-84.38798958946414, 33.82482692941899], [-84.38714435036655, 33.824693537577915], [-84.38631904926524, 33.82449107178714], [-84.38576901058754, 33.82433105936042], [-84.38500194475994, 33.8240731387813], [-84.38426772031403, 33.823755546241195], [-84.38357298307211, 33.82338115658118], [-84.3829240211867, 33.822953358730445], [-84.38232670820449, 33.82247602501091], [-84.38178644989462, 33.82195347606561], [-84.38152347313188, 33.82164392163386], [-84.38139948491555, 33.821695038904956], [-84.38119339079519, 33.821777212651156], [-84.3801033253951, 33.82219724465516], [-84.37932475426544, 33.822459950477764], [-84.3788511924529, 33.82257683746126], [-84.3788342282157, 33.82230026077903], [-84.37887432977605, 33.82158904795193], [-84.3789977593096, 33.82088454030521], [-84.37920332613446, 33.82019352239616], [-84.37940041567666, 33.81973075933368], [-84.37915826993378, 33.8198035461888], [-84.37833121704124, 33.81997797064629], [-84.37797900747742, 33.820022194916184], [-84.37805905774096, 33.82046633467286], [-84.3781026649887, 33.82117740389819], [-84.37806255721229, 33.821888616545685], [-84.37793911860763, 33.82259312317662], [-84.37788093813163, 33.82278868372847], [-84.37738935301336, 33.8228887399897], [-84.37674514670208, 33.82299849608126], [-84.37609284260876, 33.82306729670122], [-84.37541278589777, 33.82311730106349], [-84.3745904085748, 33.82314511907709], [-84.37376856555171, 33.82310789288059], [-84.37295462612072, 33.8230059562655], [-84.37215588865254, 33.82284022326436], [-84.37171587115915, 33.82273021836222], [-84.37147586826606, 33.822670217350336], [-84.37068295352901, 33.82243654815811], [-84.36992080425553, 33.822140024844394], [-84.3691965534865, 33.82178342272606], [-84.36851697931492, 33.82137007939372], [-84.36788844142407, 33.820903863453786], [-84.3673168215544, 33.820389138299284], [-84.3668074684564, 33.8198307212495], [-84.36636514784553, 33.81923383844175], [-84.36599399782672, 33.81860407589867], [-84.36569749020532, 33.81794732723004], [-84.36547839804483, 33.81726973845942], [-84.36533876977374, 33.81657765049284], [-84.36527991008144, 33.81587753976862], [-84.36530236777956, 33.815175957644406], [-84.36540593073991, 33.81447946908877], [-84.36558962795338, 33.81379459125134], [-84.36585173868808, 33.81312773248628], [-84.366189808658, 33.81248513239937], [-84.36660067304877, 33.81187280347911], [-84.36872900774922, 33.80903231428682], [-84.36884287951573, 33.80884582817037], [-84.36881012131101, 33.80876585904736], [-84.36856962840706, 33.80813671998778], [-84.36839960718397, 33.80771354618699], [-84.36838850845439, 33.807696445691846], [-84.36817986477944, 33.80735357869215], [-84.36497642114453, 33.801724201179546], [-84.36335282209902, 33.79889490666731], [-84.36321718051906, 33.79864665118217], [-84.36281723821239, 33.79787662548448], [-84.36254724695642, 33.79728796143175], [-84.36224731061836, 33.79653794143857], [-84.36204368186013, 33.795946269112385], [-84.36184374551611, 33.795256255382476], [-84.36169500341605, 33.79461959284572], [-84.36159505806461, 33.79405958578029], [-84.36151854543361, 33.79346194700236], [-84.3614686096486, 33.79282194330691], [-84.36145813471985, 33.7920409065395], [-84.36150823349492, 33.79106090965454], [-84.36155086415968, 33.79058897042862], [-84.36189908549628, 33.787904772288606], [-84.36201494989751, 33.786973581756484], [-84.36131466991445, 33.78607388456465], [-84.36130017162246, 33.7860551946729], [-84.36055395921413, 33.785089988478454], [-84.35920779321815, 33.78335474227284], [-84.35885143743766, 33.78285212985836], [-84.35854465852113, 33.78232720932342], [-84.35783475879582, 33.78097716383657], [-84.35752593283668, 33.780299791155684], [-84.35729958721535, 33.77960006783999], [-84.35665981801785, 33.77714002361274], [-84.35664836138211, 33.77709528960219], [-84.35608857055688, 33.774875250831286], [-84.35608536890129, 33.7748624964484], [-84.35607537267458, 33.774822495755714], [-84.35594186807182, 33.77411541153518], [-84.35589244928921, 33.77340078223566], [-84.35592759528319, 33.772685564160284], [-84.35604696184882, 33.771976719172834], [-84.35624938505157, 33.77128114693362], [-84.35653289263561, 33.77060561774727], [-84.35689472329429, 33.76995670667577], [-84.35733135361257, 33.76934072955758], [-84.3578385324166, 33.7687636815549], [-84.35841132219413, 33.76823117882614], [-84.35904414718094, 33.767748403890124], [-84.3597308476442, 33.76732005521287], [-84.36046473983436, 33.766950301506256], [-84.36123868102169, 33.76664274118203], [-84.36204513898599, 33.766400367354656], [-84.36287626528392, 33.76622553873266], [-84.36372397158308, 33.76611995668055], [-84.36431842780856, 33.7660954384307], [-84.3646600073318, 33.76606957215818], [-84.36559039702686, 33.76608257978274], [-84.36576038279703, 33.76609257900522], [-84.36634803457412, 33.766143969046], [-84.36643904428027, 33.766154551723204], [-84.3667210999604, 33.76616979797394], [-84.36675306343732, 33.766171575120666], [-84.36745300481982, 33.76621157201775], [-84.36745296528116, 33.766212054680324], [-84.36762129816447, 33.766217656592744], [-84.36777128563416, 33.766227655810106], [-84.36782034092577, 33.766231042978276], [-84.3682403058887, 33.766261040622354], [-84.36878597735102, 33.766314578906936], [-84.36894596429605, 33.76633457731102], [-84.36925367107624, 33.76637777226179], [-84.36953219755146, 33.76642117959188], [-84.36958570208598, 33.76640691174753], [-84.36979663791018, 33.76634200891806], [-84.36987831309725, 33.76631726486596], [-84.37030378825963, 33.766190370363354], [-84.37098870451572, 33.765965195113274], [-84.37153963394755, 33.765781554190234], [-84.37162987428775, 33.76575196059598], [-84.37193985363717, 33.76565196842589], [-84.37246938812869, 33.7655046253334], [-84.37310909249017, 33.76512729117132], [-84.37384300648473, 33.7647782373683], [-84.37461403055404, 33.764490351542584], [-84.37541487821291, 33.76426635420644], [-84.37623798134503, 33.76410836210716], [-84.37707556167764, 33.76401786823832], [-84.37791970423467, 33.76399572774164], [-84.37923482566083, 33.764014651200036], [-84.3803799502944, 33.76401465122764], [-84.38048999707057, 33.76401465126361], [-84.38056435657782, 33.76401491704747], [-84.38196423859985, 33.76402491667736], [-84.38197895067985, 33.76402503209069], [-84.38310443207205, 33.76403465217637], [-84.38324999372175, 33.76403465219854], [-84.38344999330144, 33.764034652265025], [-84.38371952419868, 33.76403465240985], [-84.38469897678205, 33.764025143277124], [-84.38480000974732, 33.76402465270372], [-84.38498999373554, 33.76402465276734], [-84.38526008033305, 33.76402815995009], [-84.38603001551805, 33.76404815854715], [-84.38613580590011, 33.76405598342453], [-84.38645398117832, 33.7640490661257], [-84.38650873980069, 33.76404089887531], [-84.38722612795956, 33.76398456244965], [-84.3879466380274, 33.7639780719508], [-84.38906995400899, 33.764006875551054], [-84.38962191060712, 33.764016074925586], [-84.39023046454159, 33.764026051436], [-84.39032660543845, 33.764028071982246], [-84.39058332195539, 33.76403465469128], [-84.39068999588869, 33.76403465471355], [-84.39084999504679, 33.764034654768565], [-84.39093999799621, 33.76403465479952], [-84.39103999757624, 33.76403465483394], [-84.39198237524234, 33.76403465545538], [-84.3925747476231, 33.76402581408528], [-84.39273000896715, 33.76402465540622], [-84.39289999464081, 33.76402465546519], [-84.3936675039878, 33.764053026501976], [-84.39377944019648, 33.764061318189164], [-84.39389293142838, 33.76406465624619], [-84.39451996894869, 33.76406465607668], [-84.39465999592018, 33.764064656125605], [-84.39489999170722, 33.7640646562096], [-84.39528036740278, 33.7640746565395], [-84.3955199837059, 33.7640746564388], [-84.39565999592735, 33.76407465648796], [-84.39596576220275, 33.76407915189428], [-84.3963057335932, 33.76408915118325], [-84.39652563871698, 33.76409925328139], [-84.3966090826502, 33.76410156873405], [-84.39706582664483, 33.76392959804128], [-84.39785951583892, 33.76370475077967], [-84.39867545080958, 33.76354482586322], [-84.39950603838867, 33.76345131154512], [-84.4003435491547, 33.763425078057466], [-84.40118018930984, 33.76346636951909], [-84.40200817315393, 33.76357480166587], [-84.40281979548324, 33.76374936542428], [-84.40360750324285, 33.763988436295264], [-84.40436396576828, 33.764289789461195], [-84.4048446138712, 33.76453128044581], [-84.40551300943497, 33.764589313078126], [-84.40619593720761, 33.76469520236561], [-84.40698587548887, 33.76484519047886], [-84.40782178432781, 33.76504105920844], [-84.40863011462201, 33.76530563059366], [-84.40948006227634, 33.765625606578766], [-84.41033834387636, 33.765998038774555], [-84.41114174180186, 33.76644784417493], [-84.41214171226801, 33.76707780250606], [-84.41278654482205, 33.767526432536584], [-84.41337654026245, 33.76802493359452], [-84.41390619199929, 33.768568653854324], [-84.41509624139472, 33.769918587113466], [-84.41559128123083, 33.770545698710656], [-84.41600603990508, 33.77121219205756], [-84.41607609297965, 33.77134060153305], [-84.41609161635309, 33.77136499195134], [-84.41645600027859, 33.772012707621734], [-84.41655699685089, 33.7722507403216], [-84.41746268473631, 33.77311640358708], [-84.41748318219032, 33.77313606611027], [-84.41962918162642, 33.775202065680965], [-84.4198293886905, 33.775394250798634], [-84.42233283085585, 33.7777208186168], [-84.42234847667855, 33.77773539798025], [-84.42294813845129, 33.77829569912834], [-84.42376776108948, 33.7790560199543], [-84.42377363516574, 33.77906147450023], [-84.42402481788713, 33.779294953962626], [-84.42414146139105, 33.7793739087868], [-84.42472923185493, 33.77981000278463], [-84.42504923061543, 33.78006998729576], [-84.42562130313374, 33.78058190308013], [-84.42613162482256, 33.781137480840655], [-84.42657544228192, 33.78173154696643], [-84.42694862114575, 33.78235856933054], [-84.4272476846193, 33.78301270878664], [-84.42746984590403, 33.78368787352776], [-84.42761303420691, 33.78437777580237], [-84.4276759140893, 33.78507599045983], [-84.42765789797346, 33.78577601478082], [-84.42755915168702, 33.78647132903587], [-84.42738059299175, 33.787155457207966], [-84.42712388310713, 33.78782202731393], [-84.4267914113052, 33.788464830762294], [-84.42638627271772, 33.78907788019452], [-84.42591223955998, 33.7896554652702], [-84.42537372603758, 33.7901922058758], [-84.42477574726135, 33.79068310226053], [-84.42412387255226, 33.79112358163132], [-84.42342417357038, 33.79150954077183], [-84.4226831677516, 33.791837384287476], [-84.4219077575788, 33.79210405811915], [-84.42110516625455, 33.79230707801236], [-84.420282870376, 33.79244455267605], [-84.41944853024052, 33.79251520141412], [-84.41860991843384, 33.79251836606518], [-84.4177748473682, 33.7924540171388], [-84.41727728658618, 33.79237473253815], [-84.41676385990293, 33.79256299155371], [-84.41668738634556, 33.792590667484205], [-84.41658226932017, 33.79262821048643], [-84.4165824046979, 33.792648581209846], [-84.41654727627784, 33.79336138990482], [-84.41653989698035, 33.79379191185308], [-84.416539908091, 33.793901874646636], [-84.41656844102916, 33.795697471850794], [-84.41657651402319, 33.79593090484167], [-84.41657642938041, 33.79635214004963], [-84.4165384338809, 33.79743813926572], [-84.41653031330966, 33.79791190926907], [-84.4165303298785, 33.79807587374605], [-84.4165558434021, 33.798335909736274], [-84.41654115692637, 33.79905260778314], [-84.41653043635796, 33.79912945574387], [-84.41653044851182, 33.79924969379375], [-84.41653054149549, 33.80016969369681], [-84.4165106818052, 33.8005285902537], [-84.41651460169868, 33.80052871140133], [-84.41650743549084, 33.80069031891785], [-84.41652280500779, 33.80099198603394], [-84.41653065570951, 33.801299693958384], [-84.41653068805444, 33.80161969381299], [-84.41652808745287, 33.8017977862483], [-84.41651812179819, 33.8021377867884], [-84.4165096569487, 33.80232631260005], [-84.416507489278, 33.80236213897421], [-84.41651077701472, 33.80249969390918], [-84.41651079318808, 33.80265969383648], [-84.41651079398126, 33.802667540860185], [-84.41652081036794, 33.8028296938899], [-84.4165208194656, 33.80291969384901], [-84.41647847713533, 33.80363561877432], [-84.41635171729685, 33.804344561551055], [-84.41614177519517, 33.805039602134215], [-84.41585069815338, 33.80571395601533], [-84.41548132566187, 33.806361040459876], [-84.41503726172662, 33.80697453878085], [-84.41452283974358, 33.807548462020335], [-84.41394308024041, 33.808077207435986], [-84.41330364189606, 33.80855561322021], [-84.41261076631567, 33.80897900891694], [-84.41187121709949, 33.809343261042464], [-84.41109221380073, 33.80964481346361], [-84.41028136141806, 33.80988072213811], [-84.40944657611237, 33.81004868387672], [-84.40859600787506, 33.81014705884537], [-84.40797360848474, 33.81016724478108], [-84.40605970254529, 33.81246539319451], [-84.40592935891216, 33.81234590836715]]]}, "properties": {"kind": "walkshed", "buffer_mi": 0.5}}, {"type": "Feature", "geometry": {"type": "Point", "coordinates": [-84.386807, 33.789084]}, "properties": {"kind": "stop", "name": "Arts Center", "mode": "rail"}}, {"type": "Feature", "geometry": {"type": "Point", "coordinates": [-84.387486, 33.766387]}, "properties": {"kind": "stop", "name": "Civic Center", "mode": "rail"}}, {"type": "Feature", "geometry": {"type": "Point", "coordinates": [-84.386456, 33.780764]}, "properties": {"kind": "stop", "name": "Midtown", "mode": "rail"}}, {"type": "Feature", "geometry": {"type": "Point", "coordinates": [-84.386776, 33.771575]}, "properties": {"kind": "stop", "name": "North Avenue", "mode": "rail"}}, {"type": "Feature", "geometry": {"type": "Point", "coordinates": [-84.387414, 33.789669]}, "properties": {"kind": "stop", "name": "ARTS CENTER STATION", "mode": "bus"}}, {"type": "Feature", "geometry": {"type": "Point", "coordinates": [-84.387272, 33.788828]}, "properties": {"kind": "stop", "name": "ARTS CENTER STATION", "mode": "bus"}}, {"type": "Feature", "geometry": {"type": "Point", "coordinates": [-84.386342, 33.781247]}, "properties": {"kind": "stop", "name": "MIDTOWN  STATION", "mode": "bus"}}, {"type": "Feature", "geometry": {"type": "Point", "coordinates": [-84.386353, 33.781355]}, "properties": {"kind": "stop", "name": "MIDTOWN STATION", "mode": "bus"}}, {"type": "Feature", "geometry": {"type": "Point", "coordinates": [-84.387258, 33.771472]}, "properties": {"kind": "stop", "name": "NORTH AVENUE STATION", "mode": "bus"}}, {"type": "Feature", "geometry": {"type": "Point", "coordinates": [-84.387204, 33.771741]}, "properties": {"kind": "stop", "name": "NORTH AVENUE STATION", "mode": "bus"}}, {"type": "Feature", "geometry": {"type": "Point", "coordinates": [-84.387504, 33.766111]}, "properties": {"kind": "stop", "name": "CIVIC CENTER STATION", "mode": "bus"}}, {"type": "Feature", "geometry": {"type": "Point", "coordinates": [-84.387504, 33.766236]}, "properties": {"kind": "stop", "name": "CIVIC CENTER STATION", "mode": "bus"}}, {"type": "Feature", "geometry": {"type": "Point", "coordinates": [-84.387741, 33.823036]}, "properties": {"kind": "stop", "name": "PEACHTREE RD@LINDBERGH DR", "mode": "bus"}}, {"type": "Feature", "geometry": {"type": "Point", "coordinates": [-84.38805, 33.821506]}, "properties": {"kind": "stop", "name": "PEACHTREE RD NW @ TERRACE DR NE", "mode": "bus"}}, {"type": "Feature", "geometry": {"type": "Point", "coordinates": [-84.388664, 33.819984]}, "properties": {"kind": "stop", "name": "PEACHTREE RD@PEACHTREE BATTLE AVE", "mode": "bus"}}, {"type": "Feature", "geometry": {"type": "Point", "coordinates": [-84.38902, 33.818177]}, "properties": {"kind": "stop", "name": "PEACHTREE RD NW @ PEACHTREE HILLS AVE", "mode": "bus"}}, {"type": "Feature", "geometry": {"type": "Point", "coordinates": [-84.390526, 33.816357]}, "properties": {"kind": "stop", "name": "PEACHTREE RD @ PEACHTREE MEMORIAL DR", "mode": "bus"}}, {"type": "Feature", "geometry": {"type": "Point", "coordinates": [-84.390892, 33.816032]}, "properties": {"kind": "stop", "name": "PEACHTREE RD @ PEACHTREE MEMORIAL DR", "mode": "bus"}}, {"type": "Feature", "geometry": {"type": "Point", "coordinates": [-84.391896, 33.815001]}, "properties": {"kind": "stop", "name": "PEACHTREE RD NW @ BISCAYNE DR NW", "mode": "bus"}}, {"type": "Feature", "geometry": {"type": "Point", "coordinates": [-84.392509, 33.813778]}, "properties": {"kind": "stop", "name": "PEACHTREE RD NW @ COLONIAL HOMES DR NW", "mode": "bus"}}, {"type": "Feature", "geometry": {"type": "Point", "coordinates": [-84.391815, 33.814449]}, "properties": {"kind": "stop", "name": "PEACHTREE RD NW@BISCAYNE DR NW", "mode": "bus"}}, {"type": "Feature", "geometry": {"type": "Point", "coordinates": [-84.389916, 33.816537]}, "properties": {"kind": "stop", "name": "PEACHTREE RD @ PEACHTREE MEMORIAL DR", "mode": "bus"}}, {"type": "Feature", "geometry": {"type": "Point", "coordinates": [-84.388868, 33.817801]}, "properties": {"kind": "stop", "name": "PEACHTREE RD NW @ PEACHTREE HILLS AVE", "mode": "bus"}}, {"type": "Feature", "geometry": {"type": "Point", "coordinates": [-84.388374, 33.819576]}, "properties": {"kind": "stop", "name": "PEACHTREE RD NE @ PEACHTREE BATTLE AVE", "mode": "bus"}}, {"type": "Feature", "geometry": {"type": "Point", "coordinates": [-84.387527, 33.822285]}, "properties": {"kind": "stop", "name": "PEACHTREE RD NW@LINDBERGH DR NE", "mode": "bus"}}, {"type": "Feature", "geometry": {"type": "Point", "coordinates": [-84.387985, 33.821087]}, "properties": {"kind": "stop", "name": "PEACHTREE RD NW@TERRACE DR NE", "mode": "bus"}}, {"type": "Feature", "geometry": {"type": "Point", "coordinates": [-84.366927, 33.817962]}, "properties": {"kind": "stop", "name": "PIEDMONT RD NE @ GARSON DR NE", "mode": "bus"}}, {"type": "Feature", "geometry": {"type": "Point", "coordinates": [-84.36941, 33.821192]}, "properties": {"kind": "stop", "name": "LINDBERGH STATION - SOUTH LOOP/LINDBERGH DR", "mode": "bus"}}, {"type": "Feature", "geometry": {"type": "Point", "coordinates": [-84.41332, 33.80037]}, "properties": {"kind": "stop", "name": "BELLEMEADE AVE NW@BUCHANAN ST NW", "mode": "bus"}}, {"type": "Feature", "geometry": {"type": "Point", "coordinates": [-84.426788, 33.785946]}, "properties": {"kind": "stop", "name": "W MARIETTA ST NW @ RICE ST NW", "mode": "bus"}}, {"type": "Feature", "geometry": {"type": "Point", "coordinates": [-84.424187, 33.785328]}, "properties": {"kind": "stop", "name": "W MARIETTA ST NW @ LONGLEY AVE NW", "mode": "bus"}}, {"type": "Feature", "geometry": {"type": "Point", "coordinates": [-84.421493, 33.785076]}, "properties": {"kind": "stop", "name": "W MARIETTA ST NW @ HERNDON ST NW", "mode": "bus"}}, {"type": "Feature", "geometry": {"type": "Point", "coordinates": [-84.419086, 33.789554]}, "properties": {"kind": "stop", "name": "HUFF RD NW@BOYD AVE NW", "mode": "bus"}}, {"type": "Feature", "geometry": {"type": "Point", "coordinates": [-84.420521, 33.789629]}, "properties": {"kind": "stop", "name": "HUFF RD NW@ENGLISH ST NW", "mode": "bus"}}, {"type": "Feature", "geometry": {"type": "Point", "coordinates": [-84.422022, 33.789627]}, "properties": {"kind": "stop", "name": "HUFF RD NW@FAIRMONT AVE NW", "mode": "bus"}}, {"type": "Feature", "geometry": {"type": "Point", "coordinates": [-84.423925, 33.789259]}, "properties": {"kind": "stop", "name": "HUFF RD NW@MENLO DR NW", "mode": "bus"}}, {"type": "Feature", "geometry": {"type": "Point", "coordinates": [-84.426328, 33.788908]}, "properties": {"kind": "stop", "name": "HUFF RD NW@ELLSWORTH IND BLVD", "mode": "bus"}}, {"type": "Feature", "geometry": {"type": "Point", "coordinates": [-84.419208, 33.789292]}, "properties": {"kind": "stop", "name": "HUFF RD NW@BOYD AVE NW", "mode": "bus"}}, {"type": "Feature", "geometry": {"type": "Point", "coordinates": [-84.420391, 33.789557]}, "properties": {"kind": "stop", "name": "HUFF RD NW@ENGLISH ST NW", "mode": "bus"}}, {"type": "Feature", "geometry": {"type": "Point", "coordinates": [-84.425991, 33.788863]}, "properties": {"kind": "stop", "name": "HUFF RD NW @ ELLSWORTH INDUSTRIAL BLVD NW", "mode": "bus"}}, {"type": "Feature", "geometry": {"type": "Point", "coordinates": [-84.422297, 33.789456]}, "properties": {"kind": "stop", "name": "HUFF RD NW@FAIRMONT AVE NW", "mode": "bus"}}, {"type": "Feature", "geometry": {"type": "Point", "coordinates": [-84.416203, 33.797961]}, "properties": {"kind": "stop", "name": "HOWELL MILL RD NW@GARRAUX ST NW", "mode": "bus"}}, {"type": "Feature", "geometry": {"type": "Point", "coordinates": [-84.423791, 33.785523]}, "properties": {"kind": "stop", "name": "W MARIETTA ST NW @ LONGLEY AVE NW", "mode": "bus"}}, {"type": "Feature", "geometry": {"type": "Point", "coordinates": [-84.421812, 33.785249]}, "properties": {"kind": "stop", "name": "W MARIETTA ST NW @ HERNDON ST", "mode": "bus"}}, {"type": "Feature", "geometry": {"type": "Point", "coordinates": [-84.416249, 33.800328]}, "properties": {"kind": "stop", "name": "DEFOOR AVE@HOWELL MILL RD", "mode": "bus"}}, {"type": "Feature", "geometry": {"type": "Point", "coordinates": [-84.416702, 33.788352]}, "properties": {"kind": "stop", "name": "HUFF RD@BOOTH ST", "mode": "bus"}}, {"type": "Feature", "geometry": {"type": "Point", "coordinates": [-84.416485, 33.7882]}, "properties": {"kind": "stop", "name": "HUFF RD @ N ASHBY ST", "mode": "bus"}}, {"type": "Feature", "geometry": {"type": "Point", "coordinates": [-84.413418, 33.78761]}, "properties": {"kind": "stop", "name": "HUFF RD@FOSTER ST", "mode": "bus"}}, {"type": "Feature", "geometry": {"type": "Point", "coordinates": [-84.423675, 33.789129]}, "properties": {"kind": "stop", "name": "HUFF RD@1088", "mode": "bus"}}, {"type": "Feature", "geometry": {"type": "Point", "coordinates": [-84.392487, 33.81216]}, "properties": {"kind": "stop", "name": "PEACHTREE RD NW @ BENNETT ST NW", "mode": "bus"}}, {"type": "Feature", "geometry": {"type": "Point", "coordinates": [-84.392805, 33.810451]}, "properties": {"kind": "stop", "name": "PEACHTREE RD NW @ PEACHTREE VALLEY RD", "mode": "bus"}}, {"type": "Feature", "geometry": {"type": "Point", "coordinates": [-84.393872, 33.807977]}, "properties": {"kind": "stop", "name": "PEACHTREE RD NW @ BRIGHTON RD", "mode": "bus"}}, {"type": "Feature", "geometry": {"type": "Point", "coordinates": [-84.393934, 33.806859]}, "properties": {"kind": "stop", "name": "PEACHTREE RD NW @ COLLIER RD NW", "mode": "bus"}}, {"type": "Feature", "geometry": {"type": "Point", "coordinates": [-84.393725, 33.804908]}, "properties": {"kind": "stop", "name": "PEACHTREE RD NW @ PALISADES RD NE", "mode": "bus"}}, {"type": "Feature", "geometry": {"type": "Point", "coordinates": [-84.393143, 33.802605]}, "properties": {"kind": "stop", "name": "PEACHTREE ST NE @ 26TH ST NW", "mode": "bus"}}, {"type": "Feature", "geometry": {"type": "Point", "coordinates": [-84.39299, 33.801495]}, "properties": {"kind": "stop", "name": "PEACHTREE ST NE @ 25TH ST NW", "mode": "bus"}}, {"type": "Feature", "geometry": {"type": "Point", "coordinates": [-84.390793, 33.798102]}, "properties": {"kind": "stop", "name": "PEACHTREE ST @ BUFORD SPRING CONN", "mode": "bus"}}, {"type": "Feature", "geometry": {"type": "Point", "coordinates": [-84.387745, 33.795818]}, "properties": {"kind": "stop", "name": "PEACHTREE ST NE @ PEACHTREE CIR NE", "mode": "bus"}}, {"type": "Feature", "geometry": {"type": "Point", "coordinates": [-84.387924, 33.795055]}, "properties": {"kind": "stop", "name": "PEACHTREE ST NE @ PEACHTREE ST NW", "mode": "bus"}}, {"type": "Feature", "geometry": {"type": "Point", "coordinates": [-84.386405, 33.792489]}, "properties": {"kind": "stop", "name": "PEACHTREE ST NE @ 17TH ST NE", "mode": "bus"}}, {"type": "Feature", "geometry": {"type": "Point", "coordinates": [-84.385229, 33.790691]}, "properties": {"kind": "stop", "name": "PEACHTREE ST NE @ 16TH ST NE", "mode": "bus"}}, {"type": "Feature", "geometry": {"type": "Point", "coordinates": [-84.384803, 33.788435]}, "properties": {"kind": "stop", "name": "15TH ST NE @ PEACHTREE ST NE", "mode": "bus"}}, {"type": "Feature", "geometry": {"type": "Point", "coordinates": [-84.384848, 33.788309]}, "properties": {"kind": "stop", "name": "15TH ST NE @ ARTS CENTER WAY NE", "mode": "bus"}}, {"type": "Feature", "geometry": {"type": "Point", "coordinates": [-84.383976, 33.78831]}, "properties": {"kind": "stop", "name": "15TH ST NE @ PEACHTREE ST NE", "mode": "bus"}}, {"type": "Feature", "geometry": {"type": "Point", "coordinates": [-84.384343, 33.78955]}, "properties": {"kind": "stop", "name": "PEACHTREE ST NE @ 15TH ST NE", "mode": "bus"}}, {"type": "Feature", "geometry": {"type": "Point", "coordinates": [-84.384773, 33.790215]}, "properties": {"kind": "stop", "name": "PEACHTREE ST NE @ 16TH ST NE", "mode": "bus"}}, {"type": "Feature", "geometry": {"type": "Point", "coordinates": [-84.386177, 33.792347]}, "properties": {"kind": "stop", "name": "PEACHTREE ST NE@17TH ST NE", "mode": "bus"}}, {"type": "Feature", "geometry": {"type": "Point", "coordinates": [-84.387505, 33.794458]}, "properties": {"kind": "stop", "name": "PEACHTREE ST NE@W PEACHTREE ST NW", "mode": "bus"}}, {"type": "Feature", "geometry": {"type": "Point", "coordinates": [-84.387627, 33.795544]}, "properties": {"kind": "stop", "name": "PEACHTREE ST NW @ PEACHTREE CIR NE", "mode": "bus"}}, {"type": "Feature", "geometry": {"type": "Point", "coordinates": [-84.388911, 33.797304]}, "properties": {"kind": "stop", "name": "PEACHTREE ST NE@SPRING ST NW", "mode": "bus"}}, {"type": "Feature", "geometry": {"type": "Point", "coordinates": [-84.392317, 33.799852]}, "properties": {"kind": "stop", "name": "PEACHTREE ST NE @ DEERING RD", "mode": "bus"}}, {"type": "Feature", "geometry": {"type": "Point", "coordinates": [-84.392715, 33.801308]}, "properties": {"kind": "stop", "name": "PEACHTREE ST NE @ 25TH ST NW", "mode": "bus"}}, {"type": "Feature", "geometry": {"type": "Point", "coordinates": [-84.392693, 33.802181]}, "properties": {"kind": "stop", "name": "PEACHTREE ST NE @ HUNTINGTON RD NE", "mode": "bus"}}, {"type": "Feature", "geometry": {"type": "Point", "coordinates": [-84.393291, 33.804575]}, "properties": {"kind": "stop", "name": "PEACHTREE RD @ PALISADES RD", "mode": "bus"}}, {"type": "Feature", "geometry": {"type": "Point", "coordinates": [-84.393818, 33.806571]}, "properties": {"kind": "stop", "name": "PEACHTREE RD NW@COLLIER RD NW", "mode": "bus"}}, {"type": "Feature", "geometry": {"type": "Point", "coordinates": [-84.393374, 33.808643]}, "properties": {"kind": "stop", "name": "PEACHTREE RD NW @ BRIGHTON RD NE", "mode": "bus"}}, {"type": "Feature", "geometry": {"type": "Point", "coordinates": [-84.392823, 33.809901]}, "properties": {"kind": "stop", "name": "PEACHTREE RD NW @ BROOKWOOD VALLEY CIR NE", "mode": "bus"}}, {"type": "Feature", "geometry": {"type": "Point", "coordinates": [-84.392485, 33.810714]}, "properties": {"kind": "stop", "name": "PEACHTREE RD NW @ PEACHTREE VALLEY RD", "mode": "bus"}}, {"type": "Feature", "geometry": {"type": "Point", "coordinates": [-84.392128, 33.81205]}, "properties": {"kind": "stop", "name": "PEACHTREE RD NW@PEACHTREE PARK DR N", "mode": "bus"}}, {"type": "Feature", "geometry": {"type": "Point", "coordinates": [-84.411267, 33.800296]}, "properties": {"kind": "stop", "name": "BELLEMEADE AVE NW@TALLULAH ST NW", "mode": "bus"}}, {"type": "Feature", "geometry": {"type": "Point", "coordinates": [-84.4131, 33.80045]}, "properties": {"kind": "stop", "name": "BELLEMEADE AVE NW@BUCHANAN ST NW", "mode": "bus"}}, {"type": "Feature", "geometry": {"type": "Point", "coordinates": [-84.412134, 33.787729]}, "properties": {"kind": "stop", "name": "HUFF RD NW @ HOWELL MILL RD NW", "mode": "bus"}}, {"type": "Feature", "geometry": {"type": "Point", "coordinates": [-84.407928, 33.790614]}, "properties": {"kind": "stop", "name": "NORTHSIDE DR NW @ 17TH ST NW", "mode": "bus"}}, {"type": "Feature", "geometry": {"type": "Point", "coordinates": [-84.416088, 33.796501]}, "properties": {"kind": "stop", "name": "HOWELL MILL RD NW @ MORRIS ST NW", "mode": "bus"}}, {"type": "Feature", "geometry": {"type": "Point", "coordinates": [-84.411858, 33.788155]}, "properties": {"kind": "stop", "name": "HOWELL MILL RD NW @ HUFF RD NW", "mode": "bus"}}, {"type": "Feature", "geometry": {"type": "Point", "coordinates": [-84.4122, 33.790556]}, "properties": {"kind": "stop", "name": "HOWELL MILL RD NW @ 17TH ST", "mode": "bus"}}, {"type": "Feature", "geometry": {"type": "Point", "coordinates": [-84.41417, 33.793335]}, "properties": {"kind": "stop", "name": "HOWELL MILL RD NW@TRABERT AVE NW", "mode": "bus"}}, {"type": "Feature", "geometry": {"type": "Point", "coordinates": [-84.414374, 33.793488]}, "properties": {"kind": "stop", "name": "HOWELL MILL RD NW @ TRABERT AVE NW", "mode": "bus"}}, {"type": "Feature", "geometry": {"type": "Point", "coordinates": [-84.4158, 33.796032]}, "properties": {"kind": "stop", "name": "HOWELL MILL RD NW @ FORREST ST NW", "mode": "bus"}}, {"type": "Feature", "geometry": {"type": "Point", "coordinates": [-84.4161, 33.79781]}, "properties": {"kind": "stop", "name": "HOWELL MILL RD NW @ ANTONE ST NW", "mode": "bus"}}, {"type": "Feature", "geometry": {"type": "Point", "coordinates": [-84.415734, 33.801059]}, "properties": {"kind": "stop", "name": "HOWELL MILL RD NW @ BELLEMEADE AVE NW", "mode": "bus"}}, {"type": "Feature", "geometry": {"type": "Point", "coordinates": [-84.415643, 33.801454]}, "properties": {"kind": "stop", "name": "HOWELL MILL RD NW @ WHITE ST NW", "mode": "bus"}}, {"type": "Feature", "geometry": {"type": "Point", "coordinates": [-84.41613, 33.798867]}, "properties": {"kind": "stop", "name": "HOWELL MILL RD NW @ VERNER ST NW", "mode": "bus"}}, {"type": "Feature", "geometry": {"type": "Point", "coordinates": [-84.414422, 33.803003]}, "properties": {"kind": "stop", "name": "HOWELL MILL RD NW @ 1775", "mode": "bus"}}, {"type": "Feature", "geometry": {"type": "Point", "coordinates": [-84.412635, 33.80773]}, "properties": {"kind": "stop", "name": "HOWELL MILL RD NW@ CHANNING DR", "mode": "bus"}}, {"type": "Feature", "geometry": {"type": "Point", "coordinates": [-84.411605, 33.786304]}, "properties": {"kind": "stop", "name": "HOWELL MILL RD NW@14TH ST NW", "mode": "bus"}}, {"type": "Feature", "geometry": {"type": "Point", "coordinates": [-84.411742, 33.787646]}, "properties": {"kind": "stop", "name": "HOWELL MILL RD NW@HUFF RD NW", "mode": "bus"}}, {"type": "Feature", "geometry": {"type": "Point", "coordinates": [-84.407811, 33.797148]}, "properties": {"kind": "stop", "name": "NORTHSIDE DR NW@NORTHSIDE CIR NW", "mode": "bus"}}, {"type": "Feature", "geometry": {"type": "Point", "coordinates": [-84.40851, 33.80035]}, "properties": {"kind": "stop", "name": "BELLEMEADE AVE @ NORTHSIDE DR NW", "mode": "bus"}}, {"type": "Feature", "geometry": {"type": "Point", "coordinates": [-84.41111, 33.800419]}, "properties": {"kind": "stop", "name": "BELLEMEADE AVE NW@COMMERCE DR NW", "mode": "bus"}}, {"type": "Feature", "geometry": {"type": "Point", "coordinates": [-84.415857, 33.800498]}, "properties": {"kind": "stop", "name": "BELLEMEADE AVE NW@HOWELL MILL RD NW", "mode": "bus"}}, {"type": "Feature", "geometry": {"type": "Point", "coordinates": [-84.411749, 33.785957]}, "properties": {"kind": "stop", "name": "HOWELL MILL RD NW @ 14TH ST NW", "mode": "bus"}}, {"type": "Feature", "geometry": {"type": "Point", "coordinates": [-84.412767, 33.807095]}, "properties": {"kind": "stop", "name": "HOWELL MILL RD NW@BECK ST NW", "mode": "bus"}}, {"type": "Feature", "geometry": {"type": "Point", "coordinates": [-84.414102, 33.803863]}, "properties": {"kind": "stop", "name": "HOWELL MILL RD NW @ SPRING GROVE AVE", "mode": "bus"}}, {"type": "Feature", "geometry": {"type": "Point", "coordinates": [-84.415081, 33.802241]}, "properties": {"kind": "stop", "name": "HOWELL MILL RD NW @ RIDGEWAY AVE NW", "mode": "bus"}}, {"type": "Feature", "geometry": {"type": "Point", "coordinates": [-84.41333, 33.787799]}, "properties": {"kind": "stop", "name": "HUFF RD NW@FOSTER ST NW", "mode": "bus"}}, {"type": "Feature", "geometry": {"type": "Point", "coordinates": [-84.408053, 33.800217]}, "properties": {"kind": "stop", "name": "BELLEMEADE AVE @ NORTHSIDE DR", "mode": "bus"}}, {"type": "Feature", "geometry": {"type": "Point", "coordinates": [-84.387125, 33.789283]}, "properties": {"kind": "stop", "name": "ARTS CENTER STATION", "mode": "bus"}}, {"type": "Feature", "geometry": {"type": "Point", "coordinates": [-84.367123, 33.818159]}, "properties": {"kind": "stop", "name": "PIEDMONT RD NE @ GARSON DR NE", "mode": "bus"}}, {"type": "Feature", "geometry": {"type": "Point", "coordinates": [-84.367897, 33.799479]}, "properties": {"kind": "stop", "name": "PIEDMONT AVE NE @ MORNINGSIDE DR NE", "mode": "bus"}}, {"type": "Feature", "geometry": {"type": "Point", "coordinates": [-84.369266, 33.796811]}, "properties": {"kind": "stop", "name": "PIEDMONT AVE NE@MONROE DR NE", "mode": "bus"}}, {"type": "Feature", "geometry": {"type": "Point", "coordinates": [-84.370614, 33.795468]}, "properties": {"kind": "stop", "name": "PIEDMONT AVE NE@1502", "mode": "bus"}}, {"type": "Feature", "geometry": {"type": "Point", "coordinates": [-84.3717, 33.79446]}, "properties": {"kind": "stop", "name": "PIEDMONT AVE NE@AVERY DR NE", "mode": "bus"}}, {"type": "Feature", "geometry": {"type": "Point", "coordinates": [-84.372777, 33.793247]}, "properties": {"kind": "stop", "name": "PIEDMONT AVE NE@WESTMINSTER DR NE", "mode": "bus"}}, {"type": "Feature", "geometry": {"type": "Point", "coordinates": [-84.373774, 33.792357]}, "properties": {"kind": "stop", "name": "PIEDMONT AVE NE@THE PRADO  NE", "mode": "bus"}}, {"type": "Feature", "geometry": {"type": "Point", "coordinates": [-84.377483, 33.78826]}, "properties": {"kind": "stop", "name": "PIEDMONT AVE NE @ 15TH ST NE", "mode": "bus"}}, {"type": "Feature", "geometry": {"type": "Point", "coordinates": [-84.368044, 33.810461]}, "properties": {"kind": "stop", "name": "MONROE DR NE @ PIEDMONT CIR", "mode": "bus"}}, {"type": "Feature", "geometry": {"type": "Point", "coordinates": [-84.370383, 33.810693]}, "properties": {"kind": "stop", "name": "MONROE DR NE@MONROE PL NE", "mode": "bus"}}, {"type": "Feature", "geometry": {"type": "Point", "coordinates": [-84.375201, 33.808561]}, "properties": {"kind": "stop", "name": "MONROE DR NE@1942", "mode": "bus"}}, {"type": "Feature", "geometry": {"type": "Point", "coordinates": [-84.374732, 33.805554]}, "properties": {"kind": "stop", "name": "MONROE DR NE@ROCK SPRINGS RD NE", "mode": "bus"}}, {"type": "Feature", "geometry": {"type": "Point", "coordinates": [-84.373588, 33.803657]}, "properties": {"kind": "stop", "name": "MONROE DR NE@PIEDMONT WAY NE", "mode": "bus"}}, {"type": "Feature", "geometry": {"type": "Point", "coordinates": [-84.372401, 33.801894]}, "properties": {"kind": "stop", "name": "MONROE DR NE@MONTGOMERY FERRY DR NE", "mode": "bus"}}, {"type": "Feature", "geometry": {"type": "Point", "coordinates": [-84.371791, 33.800677]}, "properties": {"kind": "stop", "name": "MONROE DR NE@1705", "mode": "bus"}}, {"type": "Feature", "geometry": {"type": "Point", "coordinates": [-84.370757, 33.799299]}, "properties": {"kind": "stop", "name": "MONROE DR @ 1544", "mode": "bus"}}, {"type": "Feature", "geometry": {"type": "Point", "coordinates": [-84.369222, 33.79733]}, "properties": {"kind": "stop", "name": "MONROE DR NE@PIEDMONT AVE NE", "mode": "bus"}}, {"type": "Feature", "geometry": {"type": "Point", "coordinates": [-84.367775, 33.795621]}, "properties": {"kind": "stop", "name": "MONROE DR NE@YORKSHIRE RD NE", "mode": "bus"}}, {"type": "Feature", "geometry": {"type": "Point", "coordinates": [-84.367485, 33.785946]}, "properties": {"kind": "stop", "name": "MONROE DR NE@PARK DR NE", "mode": "bus"}}, {"type": "Feature", "geometry": {"type": "Point", "coordinates": [-84.36741, 33.78829]}, "properties": {"kind": "stop", "name": "MONROE DR NE@AMSTERDAM AVE NE", "mode": "bus"}}, {"type": "Feature", "geometry": {"type": "Point", "coordinates": [-84.367134, 33.794891]}, "properties": {"kind": "stop", "name": "MONROE DR NE@YORKSHIRE RD NE", "mode": "bus"}}, {"type": "Feature", "geometry": {"type": "Point", "coordinates": [-84.366737, 33.791763]}, "properties": {"kind": "stop", "name": "MONROE DR NE@DUTCH VALLEY RD NE", "mode": "bus"}}, {"type": "Feature", "geometry": {"type": "Point", "coordinates": [-84.366997, 33.787933]}, "properties": {"kind": "stop", "name": "MONROE DR NE@AMSTERDAM AVE NE", "mode": "bus"}}, {"type": "Feature", "geometry": {"type": "Point", "coordinates": [-84.370289, 33.798869]}, "properties": {"kind": "stop", "name": "MONROE DR NE @ 1605 (ANSLEY MALL)", "mode": "bus"}}, {"type": "Feature", "geometry": {"type": "Point", "coordinates": [-84.372075, 33.801536]}, "properties": {"kind": "stop", "name": "MONROE DR NE @ 1705", "mode": "bus"}}, {"type": "Feature", "geometry": {"type": "Point", "coordinates": [-84.37263, 33.802386]}, "properties": {"kind": "stop", "name": "MONROE DR NE@ALLEN RD NE", "mode": "bus"}}, {"type": "Feature", "geometry": {"type": "Point", "coordinates": [-84.373501, 33.803665]}, "properties": {"kind": "stop", "name": "MONROE DR NE@PIEDMONT WAY NE", "mode": "bus"}}, {"type": "Feature", "geometry": {"type": "Point", "coordinates": [-84.374382, 33.805183]}, "properties": {"kind": "stop", "name": "MONROE DR NE@ROCK SPRINGS RD NE", "mode": "bus"}}, {"type": "Feature", "geometry": {"type": "Point", "coordinates": [-84.375222, 33.806708]}, "properties": {"kind": "stop", "name": "MONROE DR NE@WIMBLEDON RD NE", "mode": "bus"}}, {"type": "Feature", "geometry": {"type": "Point", "coordinates": [-84.375277, 33.808149]}, "properties": {"kind": "stop", "name": "MONROE DR NE@1925", "mode": "bus"}}, {"type": "Feature", "geometry": {"type": "Point", "coordinates": [-84.373527, 33.810002]}, "properties": {"kind": "stop", "name": "MONROE DR NE@2075", "mode": "bus"}}, {"type": "Feature", "geometry": {"type": "Point", "coordinates": [-84.371427, 33.810549]}, "properties": {"kind": "stop", "name": "MONROE DR NE@ARMOUR DR NE", "mode": "bus"}}, {"type": "Feature", "geometry": {"type": "Point", "coordinates": [-84.370709, 33.810603]}, "properties": {"kind": "stop", "name": "MONROE DR NE@MONROE PL NE", "mode": "bus"}}, {"type": "Feature", "geometry": {"type": "Point", "coordinates": [-84.37807, 33.78709]}, "properties": {"kind": "stop", "name": "PIEDMONT AVE NE @ 14TH ST NE", "mode": "bus"}}, {"type": "Feature", "geometry": {"type": "Point", "coordinates": [-84.377418, 33.788224]}, "properties": {"kind": "stop", "name": "PIEDMONT AVE NE @ 15TH ST NE", "mode": "bus"}}, {"type": "Feature", "geometry": {"type": "Point", "coordinates": [-84.376309, 33.7892]}, "properties": {"kind": "stop", "name": "PIEDMONT AVE NE@PRADO", "mode": "bus"}}, {"type": "Feature", "geometry": {"type": "Point", "coordinates": [-84.374179, 33.791636]}, "properties": {"kind": "stop", "name": "PIEDMONT AVE NE@THE PRADO", "mode": "bus"}}, {"type": "Feature", "geometry": {"type": "Point", "coordinates": [-84.37282, 33.793095]}, "properties": {"kind": "stop", "name": "PIEDMONT AVE NE@WESTMINSTER DR NE", "mode": "bus"}}, {"type": "Feature", "geometry": {"type": "Point", "coordinates": [-84.371451, 33.79451]}, "properties": {"kind": "stop", "name": "PIEDMONT AVE NE@AVERY DR NE", "mode": "bus"}}, {"type": "Feature", "geometry": {"type": "Point", "coordinates": [-84.367744, 33.799792]}, "properties": {"kind": "stop", "name": "PIEDMONT AVE NE@MORNINGSIDE DR NE", "mode": "bus"}}, {"type": "Feature", "geometry": {"type": "Point", "coordinates": [-84.381713, 33.78645]}, "properties": {"kind": "stop", "name": "14TH ST@JUNIPER ST", "mode": "bus"}}, {"type": "Feature", "geometry": {"type": "Point", "coordinates": [-84.374821, 33.809127]}, "properties": {"kind": "stop", "name": "MONROE DR@2025", "mode": "bus"}}, {"type": "Feature", "geometry": {"type": "Point", "coordinates": [-84.368633, 33.796915]}, "properties": {"kind": "stop", "name": "MONROE DR@PIEDMONT AVE", "mode": "bus"}}, {"type": "Feature", "geometry": {"type": "Point", "coordinates": [-84.374181, 33.812795]}, "properties": {"kind": "stop", "name": "ARMOUR DR @ ARMOUR CIR", "mode": "bus"}}, {"type": "Feature", "geometry": {"type": "Point", "coordinates": [-84.376988, 33.812408]}, "properties": {"kind": "stop", "name": "ARMOUR DR @ OTTLEY DR", "mode": "bus"}}, {"type": "Feature", "geometry": {"type": "Point", "coordinates": [-84.383438, 33.807061]}, "properties": {"kind": "stop", "name": "OTTLEY DR@125", "mode": "bus"}}, {"type": "Feature", "geometry": {"type": "Point", "coordinates": [-84.374127, 33.812705]}, "properties": {"kind": "stop", "name": "ARMOUR DR @ ARMOUR CIR", "mode": "bus"}}, {"type": "Feature", "geometry": {"type": "Point", "coordinates": [-84.375298, 33.806672]}, "properties": {"kind": "stop", "name": "MONROE DR@WIMBLEDON RD", "mode": "bus"}}, {"type": "Feature", "geometry": {"type": "Point", "coordinates": [-84.367139, 33.792141]}, "properties": {"kind": "stop", "name": "MONROE DR NE@DUTCH VALLEY RD NE", "mode": "bus"}}, {"type": "Feature", "geometry": {"type": "Point", "coordinates": [-84.376277, 33.789335]}, "properties": {"kind": "stop", "name": "PIEDMONT AVE@PRADO  NE", "mode": "bus"}}, {"type": "Feature", "geometry": {"type": "Point", "coordinates": [-84.367281, 33.785406]}, "properties": {"kind": "stop", "name": "MONROE DR@PARK DR", "mode": "bus"}}, {"type": "Feature", "geometry": {"type": "Point", "coordinates": [-84.417408, 33.774334]}, "properties": {"kind": "stop", "name": "JOSEPH E LOWERY BLVD @ WHEELER ST", "mode": "bus"}}, {"type": "Feature", "geometry": {"type": "Point", "coordinates": [-84.414227, 33.772985]}, "properties": {"kind": "stop", "name": "DONALD L HOLLOWELL PKWY @ PAINES AVE", "mode": "bus"}}, {"type": "Feature", "geometry": {"type": "Point", "coordinates": [-84.417305, 33.774039]}, "properties": {"kind": "stop", "name": "JOSEPH E LOWERY BLVD NW @ WHEELER ST NW", "mode": "bus"}}, {"type": "Feature", "geometry": {"type": "Point", "coordinates": [-84.411986, 33.790316]}, "properties": {"kind": "stop", "name": "HOWELL MILL RD NW @ 17TH ST", "mode": "bus"}}, {"type": "Feature", "geometry": {"type": "Point", "coordinates": [-84.398489, 33.769058]}, "properties": {"kind": "stop", "name": "MARIETTA ST@615", "mode": "bus"}}, {"type": "Feature", "geometry": {"type": "Point", "coordinates": [-84.409557, 33.778529]}, "properties": {"kind": "stop", "name": "MARIETTA ST@HOWELL MILL RD", "mode": "bus"}}, {"type": "Feature", "geometry": {"type": "Point", "coordinates": [-84.410063, 33.773196]}, "properties": {"kind": "stop", "name": "DONALD L HOLLOWELL PKWY @ ECHO ST NW", "mode": "bus"}}, {"type": "Feature", "geometry": {"type": "Point", "coordinates": [-84.412786, 33.773131]}, "properties": {"kind": "stop", "name": "DONALD L HOLLOWELL PKWY @ JAMES P BRAWLEY DR", "mode": "bus"}}, {"type": "Feature", "geometry": {"type": "Point", "coordinates": [-84.414368, 33.773057]}, "properties": {"kind": "stop", "name": "DONALD L HOLLOWELL PKWY @ PAINES AVE", "mode": "bus"}}, {"type": "Feature", "geometry": {"type": "Point", "coordinates": [-84.415401, 33.773065]}, "properties": {"kind": "stop", "name": "DONALD L HOLLOWELL PKWY @ OLIVER ST", "mode": "bus"}}, {"type": "Feature", "geometry": {"type": "Point", "coordinates": [-84.417304, 33.773081]}, "properties": {"kind": "stop", "name": "DONALD L HOLLOWELL PKWY @ JOSEPH E LOWERY BLVD", "mode": "bus"}}, {"type": "Feature", "geometry": {"type": "Point", "coordinates": [-84.416565, 33.77301]}, "properties": {"kind": "stop", "name": "DONALD L HOLLOWELL PKWY @ LINDSAY ST", "mode": "bus"}}, {"type": "Feature", "geometry": {"type": "Point", "coordinates": [-84.415488, 33.772993]}, "properties": {"kind": "stop", "name": "DONALD L HOLLOWELL PKWY @ OLIVER ST", "mode": "bus"}}, {"type": "Feature", "geometry": {"type": "Point", "coordinates": [-84.411816, 33.773017]}, "properties": {"kind": "stop", "name": "DONALD L HOLLOWELL PKWY @ JAMES P BRAWLEY DR", "mode": "bus"}}, {"type": "Feature", "geometry": {"type": "Point", "coordinates": [-84.401956, 33.781538]}, "properties": {"kind": "stop", "name": "10TH ST NW @ HIRSCH ST NW", "mode": "bus"}}, {"type": "Feature", "geometry": {"type": "Point", "coordinates": [-84.413398, 33.771223]}, "properties": {"kind": "stop", "name": "ENGLISH AVE NW @ PELHAM ST NW", "mode": "bus"}}, {"type": "Feature", "geometry": {"type": "Point", "coordinates": [-84.39863, 33.78146]}, "properties": {"kind": "stop", "name": "10TH ST NW @ STATE ST NW", "mode": "bus"}}, {"type": "Feature", "geometry": {"type": "Point", "coordinates": [-84.39975, 33.781554]}, "properties": {"kind": "stop", "name": "10TH ST NW @ STATE ST NW", "mode": "bus"}}, {"type": "Feature", "geometry": {"type": "Point", "coordinates": [-84.400936, 33.78148]}, "properties": {"kind": "stop", "name": "10TH ST NW @ GREENFIELD ST NW", "mode": "bus"}}, {"type": "Feature", "geometry": {"type": "Point", "coordinates": [-84.404656, 33.781558]}, "properties": {"kind": "stop", "name": "10TH ST NW@HEMPHILL AVE NW", "mode": "bus"}}, {"type": "Feature", "geometry": {"type": "Point", "coordinates": [-84.408516, 33.777245]}, "properties": {"kind": "stop", "name": "MARIETTA ST NW@HAMPTON ST NW", "mode": "bus"}}, {"type": "Feature", "geometry": {"type": "Point", "coordinates": [-84.406688, 33.775141]}, "properties": {"kind": "stop", "name": "MARIETTA ST NW@NORTHSIDE DR NW", "mode": "bus"}}, {"type": "Feature", "geometry": {"type": "Point", "coordinates": [-84.406029, 33.774307]}, "properties": {"kind": "stop", "name": "MARIETTA ST NW @ BOSS ST NW", "mode": "bus"}}, {"type": "Feature", "geometry": {"type": "Point", "coordinates": [-84.405052, 33.773623]}, "properties": {"kind": "stop", "name": "MARIETTA ST NW@BANKHEAD AVE NW", "mode": "bus"}}, {"type": "Feature", "geometry": {"type": "Point", "coordinates": [-84.403484, 33.773163]}, "properties": {"kind": "stop", "name": "MARIETTA ST NW@MEANS ST NW", "mode": "bus"}}, {"type": "Feature", "geometry": {"type": "Point", "coordinates": [-84.401766, 33.772287]}, "properties": {"kind": "stop", "name": "MARIETTA ST NW@WALLACE ST NW", "mode": "bus"}}, {"type": "Feature", "geometry": {"type": "Point", "coordinates": [-84.401482, 33.772252]}, "properties": {"kind": "stop", "name": "MARIETTA ST NW@WALLACE ST NW", "mode": "bus"}}, {"type": "Feature", "geometry": {"type": "Point", "coordinates": [-84.403081, 33.773172]}, "properties": {"kind": "stop", "name": "MARIETTA ST NW@MEANS ST NW", "mode": "bus"}}, {"type": "Feature", "geometry": {"type": "Point", "coordinates": [-84.404716, 33.773712]}, "properties": {"kind": "stop", "name": "MARIETTA ST NW @ BANKHEAD AVE", "mode": "bus"}}, {"type": "Feature", "geometry": {"type": "Point", "coordinates": [-84.406193, 33.774585]}, "properties": {"kind": "stop", "name": "MARIETTA ST NW@MCMILLAN ST NW", "mode": "bus"}}, {"type": "Feature", "geometry": {"type": "Point", "coordinates": [-84.406901, 33.775792]}, "properties": {"kind": "stop", "name": "MARIETTA ST NW @ NORTHSIDE DR NW", "mode": "bus"}}, {"type": "Feature", "geometry": {"type": "Point", "coordinates": [-84.408066, 33.777161]}, "properties": {"kind": "stop", "name": "MARIETTA ST NW @ HAMPTON ST", "mode": "bus"}}, {"type": "Feature", "geometry": {"type": "Point", "coordinates": [-84.412597, 33.783683]}, "properties": {"kind": "stop", "name": "BRADY AVE@HOWELL MILL RD", "mode": "bus"}}, {"type": "Feature", "geometry": {"type": "Point", "coordinates": [-84.404319, 33.781498]}, "properties": {"kind": "stop", "name": "10TH ST@HEMPHILL AVE", "mode": "bus"}}, {"type": "Feature", "geometry": {"type": "Point", "coordinates": [-84.407777, 33.781501]}, "properties": {"kind": "stop", "name": "10TH ST NW @ NORTHSIDE DR NW", "mode": "bus"}}, {"type": "Feature", "geometry": {"type": "Point", "coordinates": [-84.407092, 33.781565]}, "properties": {"kind": "stop", "name": "10TH ST@NORTHSIDE DR", "mode": "bus"}}, {"type": "Feature", "geometry": {"type": "Point", "coordinates": [-84.40937, 33.778554]}, "properties": {"kind": "stop", "name": "MARIETTA ST @ HOWELL MILL RD", "mode": "bus"}}, {"type": "Feature", "geometry": {"type": "Point", "coordinates": [-84.41254, 33.78367]}, "properties": {"kind": "stop", "name": "BRADY AVE @ HOWELL MILL RD", "mode": "bus"}}, {"type": "Feature", "geometry": {"type": "Point", "coordinates": [-84.410169, 33.781581]}, "properties": {"kind": "stop", "name": "10TH ST @ IMAGE AVE", "mode": "bus"}}, {"type": "Feature", "geometry": {"type": "Point", "coordinates": [-84.410336, 33.781514]}, "properties": {"kind": "stop", "name": "10TH ST NW @ IMAGE AVE", "mode": "bus"}}, {"type": "Feature", "geometry": {"type": "Point", "coordinates": [-84.413197, 33.781625]}, "properties": {"kind": "stop", "name": "10TH ST@BRADY AVE", "mode": "bus"}}, {"type": "Feature", "geometry": {"type": "Point", "coordinates": [-84.412936, 33.781531]}, "properties": {"kind": "stop", "name": "10TH ST@BRADY AVE", "mode": "bus"}}, {"type": "Feature", "geometry": {"type": "Point", "coordinates": [-84.390228, 33.781629]}, "properties": {"kind": "stop", "name": "10TH ST NE @ WILLIAMS ST", "mode": "bus"}}, {"type": "Feature", "geometry": {"type": "Point", "coordinates": [-84.385088, 33.770967]}, "properties": {"kind": "stop", "name": "PEACHTREE ST NE @ NORTH AVE NE", "mode": "bus"}}, {"type": "Feature", "geometry": {"type": "Point", "coordinates": [-84.381521, 33.771266]}, "properties": {"kind": "stop", "name": "NORTH AVE @ PIEDMONT AVE", "mode": "bus"}}, {"type": "Feature", "geometry": {"type": "Point", "coordinates": [-84.382238, 33.77144]}, "properties": {"kind": "stop", "name": "NORTH AVE @ PIEDMONT AVE", "mode": "bus"}}, {"type": "Feature", "geometry": {"type": "Point", "coordinates": [-84.381855, 33.772451]}, "properties": {"kind": "stop", "name": "PONCE DE LEON AVE NE @ PIEDMONT AVE", "mode": "bus"}}, {"type": "Feature", "geometry": {"type": "Point", "coordinates": [-84.388609, 33.771331]}, "properties": {"kind": "stop", "name": "NORTH AVE NW @ SPRING ST NW", "mode": "bus"}}, {"type": "Feature", "geometry": {"type": "Point", "coordinates": [-84.392043, 33.771318]}, "properties": {"kind": "stop", "name": "NORTH AVE NW @ TECHWOOD DR NW", "mode": "bus"}}, {"type": "Feature", "geometry": {"type": "Point", "coordinates": [-84.394047, 33.771275]}, "properties": {"kind": "stop", "name": "NORTH AVE NW @ FOWLER ST", "mode": "bus"}}, {"type": "Feature", "geometry": {"type": "Point", "coordinates": [-84.395848, 33.771351]}, "properties": {"kind": "stop", "name": "NORTH AVE NW @ TECH PKWY NW", "mode": "bus"}}, {"type": "Feature", "geometry": {"type": "Point", "coordinates": [-84.402763, 33.770103]}, "properties": {"kind": "stop", "name": "NORTH AVE NW@STRONG ST NW", "mode": "bus"}}, {"type": "Feature", "geometry": {"type": "Point", "coordinates": [-84.39643, 33.771311]}, "properties": {"kind": "stop", "name": "NORTH AVE NW @ LUCKIE ST NW", "mode": "bus"}}, {"type": "Feature", "geometry": {"type": "Point", "coordinates": [-84.391944, 33.770915]}, "properties": {"kind": "stop", "name": "CENTENNIAL OLYMPIC PARK DR @ NORTH AVE NW", "mode": "bus"}}, {"type": "Feature", "geometry": {"type": "Point", "coordinates": [-84.39214, 33.7707]}, "properties": {"kind": "stop", "name": "CENTENNIAL OLYMPIC PARK DR@NORTH AVE", "mode": "bus"}}, {"type": "Feature", "geometry": {"type": "Point", "coordinates": [-84.392554, 33.771246]}, "properties": {"kind": "stop", "name": "NORTH AVE @ CENTENNIAL OLYMPIC PARK DR", "mode": "bus"}}, {"type": "Feature", "geometry": {"type": "Point", "coordinates": [-84.38998, 33.781431]}, "properties": {"kind": "stop", "name": "10TH ST NW @ WILLIAMS ST NW", "mode": "bus"}}, {"type": "Feature", "geometry": {"type": "Point", "coordinates": [-84.392606, 33.781557]}, "properties": {"kind": "stop", "name": "10TH ST NW @ TECHWOOD DR NW", "mode": "bus"}}, {"type": "Feature", "geometry": {"type": "Point", "coordinates": [-84.396467, 33.781528]}, "properties": {"kind": "stop", "name": "10TH ST@HOLLY ST", "mode": "bus"}}, {"type": "Feature", "geometry": {"type": "Point", "coordinates": [-84.393324, 33.781467]}, "properties": {"kind": "stop", "name": "10TH ST NW@FOWLER ST NW", "mode": "bus"}}, {"type": "Feature", "geometry": {"type": "Point", "coordinates": [-84.39571, 33.781484]}, "properties": {"kind": "stop", "name": "10TH ST NW@HOLLY ST NW", "mode": "bus"}}, {"type": "Feature", "geometry": {"type": "Point", "coordinates": [-84.384715, 33.773552]}, "properties": {"kind": "stop", "name": "PEACHTREE ST @ 3RD ST", "mode": "bus"}}, {"type": "Feature", "geometry": {"type": "Point", "coordinates": [-84.384873, 33.773846]}, "properties": {"kind": "stop", "name": "PEACHTREE ST @ 3RD ST NE", "mode": "bus"}}, {"type": "Feature", "geometry": {"type": "Point", "coordinates": [-84.384575, 33.77486]}, "properties": {"kind": "stop", "name": "PEACHTREE ST @ 4TH ST", "mode": "bus"}}, {"type": "Feature", "geometry": {"type": "Point", "coordinates": [-84.384538, 33.77621]}, "properties": {"kind": "stop", "name": "PEACHTREE ST @ 5TH ST", "mode": "bus"}}, {"type": "Feature", "geometry": {"type": "Point", "coordinates": [-84.384425, 33.77739]}, "properties": {"kind": "stop", "name": "PEACHTREE ST @ 6TH ST", "mode": "bus"}}, {"type": "Feature", "geometry": {"type": "Point", "coordinates": [-84.384181, 33.780929]}, "properties": {"kind": "stop", "name": "PEACHTREE ST @ PEACHTREE PL", "mode": "bus"}}, {"type": "Feature", "geometry": {"type": "Point", "coordinates": [-84.38412, 33.781895]}, "properties": {"kind": "stop", "name": "PEACHTREE ST NE @ 10TH ST NE", "mode": "bus"}}, {"type": "Feature", "geometry": {"type": "Point", "coordinates": [-84.383842, 33.78283]}, "properties": {"kind": "stop", "name": "PEACHTREE ST @ 11TH ST", "mode": "bus"}}, {"type": "Feature", "geometry": {"type": "Point", "coordinates": [-84.383125, 33.784498]}, "properties": {"kind": "stop", "name": "PEACHTREE ST @ 12TH ST NE", "mode": "bus"}}, {"type": "Feature", "geometry": {"type": "Point", "coordinates": [-84.382998, 33.786098]}, "properties": {"kind": "stop", "name": "PEACHTREE ST@14TH ST", "mode": "bus"}}, {"type": "Feature", "geometry": {"type": "Point", "coordinates": [-84.383073, 33.786153]}, "properties": {"kind": "stop", "name": "PEACHTREE ST @ 14TH ST NE", "mode": "bus"}}, {"type": "Feature", "geometry": {"type": "Point", "coordinates": [-84.39363, 33.771335]}, "properties": {"kind": "stop", "name": "NORTH AVE NW @ FOWLER ST", "mode": "bus"}}, {"type": "Feature", "geometry": {"type": "Point", "coordinates": [-84.395446, 33.771342]}, "properties": {"kind": "stop", "name": "NORTH AVE @ CHERRY ST", "mode": "bus"}}, {"type": "Feature", "geometry": {"type": "Point", "coordinates": [-84.383141, 33.772543]}, "properties": {"kind": "stop", "name": "PONCE DE LEON AVE NE @ JUNIPER ST NE", "mode": "bus"}}, {"type": "Feature", "geometry": {"type": "Point", "coordinates": [-84.38142, 33.772678]}, "properties": {"kind": "stop", "name": "PONCE DE LEON AVE NE @ PIEDMONT AVE NE", "mode": "bus"}}, {"type": "Feature", "geometry": {"type": "Point", "coordinates": [-84.384888, 33.771554]}, "properties": {"kind": "stop", "name": "PEACHTREE ST @ NORTH AVE", "mode": "bus"}}, {"type": "Feature", "geometry": {"type": "Point", "coordinates": [-84.395875, 33.770759]}, "properties": {"kind": "stop", "name": "LUCKIE ST @ NORTH AVE", "mode": "bus"}}, {"type": "Feature", "geometry": {"type": "Point", "coordinates": [-84.396237, 33.77091]}, "properties": {"kind": "stop", "name": "LUCKIE ST @ NORTH AVE", "mode": "bus"}}, {"type": "Feature", "geometry": {"type": "Point", "coordinates": [-84.38717, 33.77191]}, "properties": {"kind": "stop", "name": "NORTH AVE STATION", "mode": "bus"}}, {"type": "Feature", "geometry": {"type": "Point", "coordinates": [-84.386697, 33.78111]}, "properties": {"kind": "stop", "name": "MIDTOWN STATION", "mode": "bus"}}, {"type": "Feature", "geometry": {"type": "Point", "coordinates": [-84.383049, 33.784221]}, "properties": {"kind": "stop", "name": "PEACHTREE ST @ 12TH ST", "mode": "bus"}}, {"type": "Feature", "geometry": {"type": "Point", "coordinates": [-84.383805, 33.78352]}, "properties": {"kind": "stop", "name": "PEACHTREE ST NE @ 11TH ST NE", "mode": "bus"}}, {"type": "Feature", "geometry": {"type": "Point", "coordinates": [-84.383912, 33.781452]}, "properties": {"kind": "stop", "name": "PEACHTREE ST @ 10TH ST", "mode": "bus"}}, {"type": "Feature", "geometry": {"type": "Point", "coordinates": [-84.384154, 33.779431]}, "properties": {"kind": "stop", "name": "PEACHTREE ST NE @ 8TH ST NE", "mode": "bus"}}, {"type": "Feature", "geometry": {"type": "Point", "coordinates": [-84.384339, 33.778581]}, "properties": {"kind": "stop", "name": "PEACHTREE ST @ 7TH ST", "mode": "bus"}}, {"type": "Feature", "geometry": {"type": "Point", "coordinates": [-84.3845, 33.776066]}, "properties": {"kind": "stop", "name": "PEACHTREE ST NE @ 5TH ST NE", "mode": "bus"}}, {"type": "Feature", "geometry": {"type": "Point", "coordinates": [-84.385003, 33.772376]}, "properties": {"kind": "stop", "name": "PEACHTREE ST NE @ PONCE DE LEON AVE", "mode": "bus"}}, {"type": "Feature", "geometry": {"type": "Point", "coordinates": [-84.384737, 33.774978]}, "properties": {"kind": "stop", "name": "PEACHTREE ST @ 4TH ST NE", "mode": "bus"}}, {"type": "Feature", "geometry": {"type": "Point", "coordinates": [-84.384377, 33.777273]}, "properties": {"kind": "stop", "name": "PEACHTREE ST NE @ 6TH ST NE", "mode": "bus"}}, {"type": "Feature", "geometry": {"type": "Point", "coordinates": [-84.384262, 33.778357]}, "properties": {"kind": "stop", "name": "PEACHTREE ST NE @ 7TH ST NE", "mode": "bus"}}, {"type": "Feature", "geometry": {"type": "Point", "coordinates": [-84.384282, 33.779651]}, "properties": {"kind": "stop", "name": "PEACHTREE ST NE @ 8TH ST NE", "mode": "bus"}}, {"type": "Feature", "geometry": {"type": "Point", "coordinates": [-84.374655, 33.771219]}, "properties": {"kind": "stop", "name": "NORTH AVE NE @ HUNT ST NE", "mode": "bus"}}, {"type": "Feature", "geometry": {"type": "Point", "coordinates": [-84.379995, 33.772514]}, "properties": {"kind": "stop", "name": "PONCE DE LEON AVE NE @ MYRTLE ST NE", "mode": "bus"}}, {"type": "Feature", "geometry": {"type": "Point", "coordinates": [-84.377146, 33.772498]}, "properties": {"kind": "stop", "name": "PONCE DE LEON  AVE NE @ ARGONNE AVE NE", "mode": "bus"}}, {"type": "Feature", "geometry": {"type": "Point", "coordinates": [-84.375363, 33.772257]}, "properties": {"kind": "stop", "name": "PONCE DE LEON AVE NE @ DURANT PL NE", "mode": "bus"}}, {"type": "Feature", "geometry": {"type": "Point", "coordinates": [-84.373297, 33.77292]}, "properties": {"kind": "stop", "name": "PONCE DE LEON AVE NE @ PARKWAY DR NE", "mode": "bus"}}, {"type": "Feature", "geometry": {"type": "Point", "coordinates": [-84.371014, 33.773548]}, "properties": {"kind": "stop", "name": "PONCE DE LEON AVE NE @ BOULEVARD  NE", "mode": "bus"}}, {"type": "Feature", "geometry": {"type": "Point", "coordinates": [-84.369666, 33.773781]}, "properties": {"kind": "stop", "name": "PONCE DE LEON AVE NE @ KENNESAW AVE NE", "mode": "bus"}}, {"type": "Feature", "geometry": {"type": "Point", "coordinates": [-84.367828, 33.773273]}, "properties": {"kind": "stop", "name": "PONCE DE LEON AVE NE@GLEN IRIS DR NE", "mode": "bus"}}, {"type": "Feature", "geometry": {"type": "Point", "coordinates": [-84.365808, 33.773308]}, "properties": {"kind": "stop", "name": "PONCE DE LEON AVE NE @ 675", "mode": "bus"}}, {"type": "Feature", "geometry": {"type": "Point", "coordinates": [-84.363402, 33.773649]}, "properties": {"kind": "stop", "name": "PONCE DE LEON AVE NE @ PONCE DE LEON PL", "mode": "bus"}}, {"type": "Feature", "geometry": {"type": "Point", "coordinates": [-84.361183, 33.773579]}, "properties": {"kind": "stop", "name": "PONCE DE LEON AVE NE @ BONAVENTURE AVE", "mode": "bus"}}, {"type": "Feature", "geometry": {"type": "Point", "coordinates": [-84.377446, 33.781753]}, "properties": {"kind": "stop", "name": "10TH ST NE @ ARGONNE AVE NE", "mode": "bus"}}, {"type": "Feature", "geometry": {"type": "Point", "coordinates": [-84.366636, 33.781551]}, "properties": {"kind": "stop", "name": "VIRGINIA AVE NE @ 630", "mode": "bus"}}, {"type": "Feature", "geometry": {"type": "Point", "coordinates": [-84.377579, 33.772633]}, "properties": {"kind": "stop", "name": "PONCE DE LEON AVE NE @ ARGONNE AVE NE", "mode": "bus"}}, {"type": "Feature", "geometry": {"type": "Point", "coordinates": [-84.376255, 33.772436]}, "properties": {"kind": "stop", "name": "PONCE DE LEON AVE NE @ DURANT PL NE", "mode": "bus"}}, {"type": "Feature", "geometry": {"type": "Point", "coordinates": [-84.372429, 33.773373]}, "properties": {"kind": "stop", "name": "PONCE DE LEON AVE NE @ CHARLES ALLEN DR NE", "mode": "bus"}}, {"type": "Feature", "geometry": {"type": "Point", "coordinates": [-84.370636, 33.773743]}, "properties": {"kind": "stop", "name": "PONCE DE LEON AVE NE @ MONROE DR NE", "mode": "bus"}}, {"type": "Feature", "geometry": {"type": "Point", "coordinates": [-84.368042, 33.773666]}, "properties": {"kind": "stop", "name": "PONCE DE LEON AVE NE @ PONCE DE LEON CT", "mode": "bus"}}, {"type": "Feature", "geometry": {"type": "Point", "coordinates": [-84.365329, 33.77344]}, "properties": {"kind": "stop", "name": "PONCE DE LEON AVE NE @ 680", "mode": "bus"}}, {"type": "Feature", "geometry": {"type": "Point", "coordinates": [-84.371986, 33.771286]}, "properties": {"kind": "stop", "name": "BOULEVARD NE @ NORTH AVE NE", "mode": "bus"}}, {"type": "Feature", "geometry": {"type": "Point", "coordinates": [-84.37072, 33.776421]}, "properties": {"kind": "stop", "name": "MONROE DR NE @ SAINT CHARLES AVE NE", "mode": "bus"}}, {"type": "Feature", "geometry": {"type": "Point", "coordinates": [-84.370309, 33.776878]}, "properties": {"kind": "stop", "name": "MONROE DR NE @ GREENWOOD AVE NE", "mode": "bus"}}, {"type": "Feature", "geometry": {"type": "Point", "coordinates": [-84.369853, 33.778149]}, "properties": {"kind": "stop", "name": "MONROE DR NE @ SEAL PL NE", "mode": "bus"}}, {"type": "Feature", "geometry": {"type": "Point", "coordinates": [-84.36866, 33.78231]}, "properties": {"kind": "stop", "name": "MONROE DR NE@COOLEDGE AVE NE", "mode": "bus"}}, {"type": "Feature", "geometry": {"type": "Point", "coordinates": [-84.36835, 33.78223]}, "properties": {"kind": "stop", "name": "MONROE DR NE@COOLEDGE AVE NE", "mode": "bus"}}, {"type": "Feature", "geometry": {"type": "Point", "coordinates": [-84.369736, 33.777752]}, "properties": {"kind": "stop", "name": "MONROE DR NE @ SEAL PL NE", "mode": "bus"}}, {"type": "Feature", "geometry": {"type": "Point", "coordinates": [-84.370079, 33.776447]}, "properties": {"kind": "stop", "name": "MONROE DR NE @ GREENWOOD AVE NE", "mode": "bus"}}, {"type": "Feature", "geometry": {"type": "Point", "coordinates": [-84.370598, 33.775192]}, "properties": {"kind": "stop", "name": "MONROE DR NE @ SAINT CHARLES AVE NE", "mode": "bus"}}, {"type": "Feature", "geometry": {"type": "Point", "coordinates": [-84.37067, 33.77403]}, "properties": {"kind": "stop", "name": "MONROE DR NE @ PONCE DE LEON AVE NE", "mode": "bus"}}, {"type": "Feature", "geometry": {"type": "Point", "coordinates": [-84.371068, 33.773109]}, "properties": {"kind": "stop", "name": "BOULEVARD NE @ PONCE DE LEON AVE NE", "mode": "bus"}}, {"type": "Feature", "geometry": {"type": "Point", "coordinates": [-84.374575, 33.781656]}, "properties": {"kind": "stop", "name": "10TH ST NE @ TAFT AVE NE", "mode": "bus"}}, {"type": "Feature", "geometry": {"type": "Point", "coordinates": [-84.371191, 33.779446]}, "properties": {"kind": "stop", "name": "8TH ST NE @ VEDADO WAY NE", "mode": "bus"}}, {"type": "Feature", "geometry": {"type": "Point", "coordinates": [-84.369115, 33.780163]}, "properties": {"kind": "stop", "name": "MONROE DR NE @ VIRGINIA AVE NE", "mode": "bus"}}, {"type": "Feature", "geometry": {"type": "Point", "coordinates": [-84.368767, 33.780655]}, "properties": {"kind": "stop", "name": "VIRGINIA AVE NE@MONROE DR NE", "mode": "bus"}}, {"type": "Feature", "geometry": {"type": "Point", "coordinates": [-84.365755, 33.781552]}, "properties": {"kind": "stop", "name": "VIRGINIA AVE NE@660", "mode": "bus"}}, {"type": "Feature", "geometry": {"type": "Point", "coordinates": [-84.369321, 33.779841]}, "properties": {"kind": "stop", "name": "MONROE DR NE @ 8TH ST NE", "mode": "bus"}}, {"type": "Feature", "geometry": {"type": "Point", "coordinates": [-84.370595, 33.779536]}, "properties": {"kind": "stop", "name": "8TH ST NE @ VEDADO WAY NE", "mode": "bus"}}, {"type": "Feature", "geometry": {"type": "Point", "coordinates": [-84.372307, 33.779545]}, "properties": {"kind": "stop", "name": "8TH ST NE @ CHARLES ALLEN DR NE", "mode": "bus"}}, {"type": "Feature", "geometry": {"type": "Point", "coordinates": [-84.37483, 33.771074]}, "properties": {"kind": "stop", "name": "NORTH AVE @ HUNT ST", "mode": "bus"}}, {"type": "Feature", "geometry": {"type": "Point", "coordinates": [-84.378808, 33.77119]}, "properties": {"kind": "stop", "name": "NORTH AVE @ PENN AVE", "mode": "bus"}}, {"type": "Feature", "geometry": {"type": "Point", "coordinates": [-84.379114, 33.77128]}, "properties": {"kind": "stop", "name": "NORTH AVE @ PENN AVE", "mode": "bus"}}, {"type": "Feature", "geometry": {"type": "Point", "coordinates": [-84.379539, 33.772595]}, "properties": {"kind": "stop", "name": "PONCE DE LEON AVE NE @ PENN AVE NE", "mode": "bus"}}, {"type": "Feature", "geometry": {"type": "Point", "coordinates": [-84.373315, 33.771041]}, "properties": {"kind": "stop", "name": "NORTH AVE NE @ PARKWAY DR NE", "mode": "bus"}}, {"type": "Feature", "geometry": {"type": "Point", "coordinates": [-84.372206, 33.771048]}, "properties": {"kind": "stop", "name": "NORTH AVE NE @ BOULEVARD NE", "mode": "bus"}}, {"type": "Feature", "geometry": {"type": "Point", "coordinates": [-84.372964, 33.779804]}, "properties": {"kind": "stop", "name": "CHARLES ALLEN DR@8TH ST", "mode": "bus"}}, {"type": "Feature", "geometry": {"type": "Point", "coordinates": [-84.36362, 33.773699]}, "properties": {"kind": "stop", "name": "PONCE DE LEON AVE NE @ PONCE DE LEON PL", "mode": "bus"}}, {"type": "Feature", "geometry": {"type": "Point", "coordinates": [-84.360657, 33.77396]}, "properties": {"kind": "stop", "name": "PONCE DE LEON AVE NE @ BONAVENTURE AVE", "mode": "bus"}}, {"type": "Feature", "geometry": {"type": "Point", "coordinates": [-84.358505, 33.773975]}, "properties": {"kind": "stop", "name": "PONCE DE LEON AVE NE @ BARNETT ST NE", "mode": "bus"}}, {"type": "Feature", "geometry": {"type": "Point", "coordinates": [-84.359401, 33.77374]}, "properties": {"kind": "stop", "name": "PONCE DE LEON AVE NE @ FREEDOM PKY NE", "mode": "bus"}}, {"type": "Feature", "geometry": {"type": "Point", "coordinates": [-84.363613, 33.781669]}, "properties": {"kind": "stop", "name": "VIRGINIA AVE NE @ PONCE DE LEON PL NE", "mode": "bus"}}, {"type": "Feature", "geometry": {"type": "Point", "coordinates": [-84.360307, 33.781929]}, "properties": {"kind": "stop", "name": "VIRGINIA AVE NE@GREENCOVE AVE NE", "mode": "bus"}}, {"type": "Feature", "geometry": {"type": "Point", "coordinates": [-84.358741, 33.782019]}, "properties": {"kind": "stop", "name": "VIRGINIA AVE@BARNETT ST", "mode": "bus"}}, {"type": "Feature", "geometry": {"type": "Point", "coordinates": [-84.358597, 33.782162]}, "properties": {"kind": "stop", "name": "VIRGINIA AVE @ BARNETT ST", "mode": "bus"}}, {"type": "Feature", "geometry": {"type": "Point", "coordinates": [-84.363428, 33.781767]}, "properties": {"kind": "stop", "name": "VIRGINIA AVE NE @ PARK DR NE", "mode": "bus"}}, {"type": "Feature", "geometry": {"type": "Point", "coordinates": [-84.360832, 33.781994]}, "properties": {"kind": "stop", "name": "VIRGINIA AVE NE @ ARCADIA ST NE", "mode": "bus"}}, {"type": "Feature", "geometry": {"type": "Point", "coordinates": [-84.372648, 33.771277]}, "properties": {"kind": "stop", "name": "NORTH AVE NE @ PARKWAY DR NE", "mode": "bus"}}, {"type": "Feature", "geometry": {"type": "Point", "coordinates": [-84.405001, 33.768239]}, "properties": {"kind": "stop", "name": "CAMERON M ALEXANDER BLVD @ NORTHSIDE DR", "mode": "bus"}}, {"type": "Feature", "geometry": {"type": "Point", "coordinates": [-84.407763, 33.768193]}, "properties": {"kind": "stop", "name": "CAMERON M ALEXANDER BLVD @ VINE ST NW", "mode": "bus"}}, {"type": "Feature", "geometry": {"type": "Point", "coordinates": [-84.407654, 33.768255]}, "properties": {"kind": "stop", "name": "CAMERON M ALEXANDER BLVD NW @ VINE ST NW", "mode": "bus"}}, {"type": "Feature", "geometry": {"type": "Point", "coordinates": [-84.410002, 33.768164]}, "properties": {"kind": "stop", "name": "CAMERON M ALEXANDER BLVD @ SUNSET AVE NW", "mode": "bus"}}, {"type": "Feature", "geometry": {"type": "Point", "coordinates": [-84.41009, 33.768236]}, "properties": {"kind": "stop", "name": "CAMERON M ALEXANDER BLVD @ SUNSET AVE NW", "mode": "bus"}}, {"type": "Feature", "geometry": {"type": "Point", "coordinates": [-84.411155, 33.768235]}, "properties": {"kind": "stop", "name": "CAMERON M ALEXANDER BLVD @ GRIFFIN ST NW", "mode": "bus"}}, {"type": "Feature", "geometry": {"type": "Point", "coordinates": [-84.411242, 33.768163]}, "properties": {"kind": "stop", "name": "CAMERON M ALEXANDER BLVD @ GRIFFIN ST NW", "mode": "bus"}}, {"type": "Feature", "geometry": {"type": "Point", "coordinates": [-84.412688, 33.76818]}, "properties": {"kind": "stop", "name": "CAMERON M ALEXANDER BLVD @ JAMES P BRAWLEY DR", "mode": "bus"}}, {"type": "Feature", "geometry": {"type": "Point", "coordinates": [-84.412482, 33.768261]}, "properties": {"kind": "stop", "name": "CAMERON M ALEXANDER BLVD @ J P BRAWLEY DR", "mode": "bus"}}, {"type": "Feature", "geometry": {"type": "Point", "coordinates": [-84.413372, 33.768569]}, "properties": {"kind": "stop", "name": "ENGLISH AVE @ CAMERON M ALEXANDER BLVD NW", "mode": "bus"}}, {"type": "Feature", "geometry": {"type": "Point", "coordinates": [-84.413408, 33.769979]}, "properties": {"kind": "stop", "name": "ENGLISH AVE NW @ NORTH AVE NW", "mode": "bus"}}, {"type": "Feature", "geometry": {"type": "Point", "coordinates": [-84.402861, 33.770031]}, "properties": {"kind": "stop", "name": "NORTH AVE NW @ NORTH YARDS DR NW", "mode": "bus"}}, {"type": "Feature", "geometry": {"type": "Point", "coordinates": [-84.39899, 33.769363]}, "properties": {"kind": "stop", "name": "MARIETTA ST NW@584", "mode": "bus"}}, {"type": "Feature", "geometry": {"type": "Point", "coordinates": [-84.385342, 33.768448]}, "properties": {"kind": "stop", "name": "PEACHTREE ST NE @ RENAISSANCE PKY NE", "mode": "bus"}}, {"type": "Feature", "geometry": {"type": "Point", "coordinates": [-84.385803, 33.76478]}, "properties": {"kind": "stop", "name": "PEACHTREE ST NE @ IVAN ALLEN JR BLVD", "mode": "bus"}}, {"type": "Feature", "geometry": {"type": "Point", "coordinates": [-84.392084, 33.76874]}, "properties": {"kind": "stop", "name": "CENTENNIAL OLYMPIC PARK DR @ MERRITSS AVE", "mode": "bus"}}, {"type": "Feature", "geometry": {"type": "Point", "coordinates": [-84.392052, 33.766803]}, "properties": {"kind": "stop", "name": "CENTENNIAL OLYMPIC PARK DR @ HUNNICUTT ST", "mode": "bus"}}, {"type": "Feature", "geometry": {"type": "Point", "coordinates": [-84.391669, 33.766487]}, "properties": {"kind": "stop", "name": "CENTENNIAL OLYMPIC PARK DR @ HUNNICUTT ST", "mode": "bus"}}, {"type": "Feature", "geometry": {"type": "Point", "coordinates": [-84.391961, 33.765428]}, "properties": {"kind": "stop", "name": "CENTENNIAL OLYMPIC PARK DR @ MILLS ST", "mode": "bus"}}, {"type": "Feature", "geometry": {"type": "Point", "coordinates": [-84.391741, 33.767693]}, "properties": {"kind": "stop", "name": "CENTENNIAL OLYMPIC PARK DR @ PINE ST NW", "mode": "bus"}}, {"type": "Feature", "geometry": {"type": "Point", "coordinates": [-84.391818, 33.765309]}, "properties": {"kind": "stop", "name": "CENTENNIAL OLYMPIC PARK DR @ MILLS ST", "mode": "bus"}}, {"type": "Feature", "geometry": {"type": "Point", "coordinates": [-84.38319, 33.76432]}, "properties": {"kind": "stop", "name": "RALPH MCGILL BLVD NE@COURTLAND ST", "mode": "bus"}}, {"type": "Feature", "geometry": {"type": "Point", "coordinates": [-84.397413, 33.766279]}, "properties": {"kind": "stop", "name": "MARIETTA ST NW@PARKER ST NW", "mode": "bus"}}, {"type": "Feature", "geometry": {"type": "Point", "coordinates": [-84.385443, 33.764878]}, "properties": {"kind": "stop", "name": "PEACHTREE ST @ RALPH MCGILL BLVD", "mode": "bus"}}, {"type": "Feature", "geometry": {"type": "Point", "coordinates": [-84.385325, 33.767243]}, "properties": {"kind": "stop", "name": "PEACHTREE ST @ PINE ST NE", "mode": "bus"}}, {"type": "Feature", "geometry": {"type": "Point", "coordinates": [-84.385218, 33.768487]}, "properties": {"kind": "stop", "name": "PEACHTREE ST @ RENAISSANCE PKWY NE", "mode": "bus"}}, {"type": "Feature", "geometry": {"type": "Point", "coordinates": [-84.371892, 33.769725]}, "properties": {"kind": "stop", "name": "BOULEVARD NE @ BOULEVARD PL NE", "mode": "bus"}}, {"type": "Feature", "geometry": {"type": "Point", "coordinates": [-84.371983, 33.768699]}, "properties": {"kind": "stop", "name": "BOULEVARD NE @ MORGAN ST NE", "mode": "bus"}}, {"type": "Feature", "geometry": {"type": "Point", "coordinates": [-84.37198, 33.76739]}, "properties": {"kind": "stop", "name": "BOULEVARD NE @ RANKIN ST NE", "mode": "bus"}}, {"type": "Feature", "geometry": {"type": "Point", "coordinates": [-84.371945, 33.766422]}, "properties": {"kind": "stop", "name": "BOULEVARD NE @ ANGIER AVE NE", "mode": "bus"}}, {"type": "Feature", "geometry": {"type": "Point", "coordinates": [-84.371727, 33.766117]}, "properties": {"kind": "stop", "name": "BOULEVARD NE @ ANGIER AVE NE", "mode": "bus"}}, {"type": "Feature", "geometry": {"type": "Point", "coordinates": [-84.371653, 33.767119]}, "properties": {"kind": "stop", "name": "BOULEVARD NE @ RANKIN ST NE", "mode": "bus"}}, {"type": "Feature", "geometry": {"type": "Point", "coordinates": [-84.371626, 33.768616]}, "properties": {"kind": "stop", "name": "BOULEVARD NE @ MORGAN ST NE", "mode": "bus"}}, {"type": "Feature", "geometry": {"type": "Point", "coordinates": [-84.381066, 33.764118]}, "properties": {"kind": "stop", "name": "RALPH MCGILL BLVD NE@PIEDMONT AVE N", "mode": "bus"}}, {"type": "Feature", "geometry": {"type": "Point", "coordinates": [-84.378815, 33.764183]}, "properties": {"kind": "stop", "name": "RALPH MCGILL BLVD NE @ PIEDMONT AVE NE", "mode": "bus"}}, {"type": "Feature", "geometry": {"type": "Point", "coordinates": [-84.378054, 33.764057]}, "properties": {"kind": "stop", "name": "RALPH MCGILL BLVD NE@PARK CENTRAL P", "mode": "bus"}}, {"type": "Feature", "geometry": {"type": "Point", "coordinates": [-84.377445, 33.764138]}, "properties": {"kind": "stop", "name": "RALPH MCGILL BLVD NE@CENTRAL PARK PL", "mode": "bus"}}, {"type": "Feature", "geometry": {"type": "Point", "coordinates": [-84.371704, 33.769695]}, "properties": {"kind": "stop", "name": "BOULEVARD NE @ BOULEVARD PL NE", "mode": "bus"}}, {"type": "Feature", "geometry": {"type": "Point", "coordinates": [-84.368175, 33.771177]}, "properties": {"kind": "stop", "name": "NORTH AVE @ GLEN IRIS DR", "mode": "bus"}}, {"type": "Feature", "geometry": {"type": "Point", "coordinates": [-84.362442, 33.766981]}, "properties": {"kind": "stop", "name": "RALPH MCGILL BLVD NE@760", "mode": "bus"}}, {"type": "Feature", "geometry": {"type": "Point", "coordinates": [-84.361138, 33.767339]}, "properties": {"kind": "stop", "name": "RALPH MCGILL BLVD@828", "mode": "bus"}}, {"type": "Feature", "geometry": {"type": "Point", "coordinates": [-84.358681, 33.768128]}, "properties": {"kind": "stop", "name": "RALPH MCGILL BLVD NE @ JOHN LEWIS FREEDOM PKWY NE", "mode": "bus"}}, {"type": "Feature", "geometry": {"type": "Point", "coordinates": [-84.359406, 33.76802]}, "properties": {"kind": "stop", "name": "RALPH MCGILL BLVD NE @ JOHN LEWIS FREEDOM PKWY NE", "mode": "bus"}}, {"type": "Feature", "geometry": {"type": "Point", "coordinates": [-84.382427, 33.781777]}, "properties": {"kind": "stop", "name": "10TH ST NE @ JUNIPER ST NE", "mode": "bus"}}, {"type": "Feature", "geometry": {"type": "Point", "coordinates": [-84.380339, 33.781823]}, "properties": {"kind": "stop", "name": "10TH ST NE @ PIEDMONT AVE NE", "mode": "bus"}}, {"type": "Feature", "geometry": {"type": "Point", "coordinates": [-84.380535, 33.781751]}, "properties": {"kind": "stop", "name": "10TH ST NE @ PIEDMONT AVE NE", "mode": "bus"}}, {"type": "Feature", "geometry": {"type": "Point", "coordinates": [-84.382373, 33.781706]}, "properties": {"kind": "stop", "name": "10TH ST NE @ JUNIPER ST NE", "mode": "bus"}}, {"type": "Feature", "geometry": {"type": "Point", "coordinates": [-84.389047, 33.791843]}, "properties": {"kind": "stop", "name": "17TH ST NW @ SPRING ST NW", "mode": "bus"}}, {"type": "Feature", "geometry": {"type": "Point", "coordinates": [-84.395975, 33.791311]}, "properties": {"kind": "stop", "name": "17TH ST NW @ DISTRICT AVE", "mode": "bus"}}, {"type": "Feature", "geometry": {"type": "Point", "coordinates": [-84.398803, 33.79113]}, "properties": {"kind": "stop", "name": "17TH ST NW @ STATE ST NW", "mode": "bus"}}, {"type": "Feature", "geometry": {"type": "Point", "coordinates": [-84.394768, 33.791061]}, "properties": {"kind": "stop", "name": "17TH ST NW @ MARKET ST NW", "mode": "bus"}}, {"type": "Feature", "geometry": {"type": "Point", "coordinates": [-84.37278, 33.781361]}, "properties": {"kind": "stop", "name": "CHARLES ALLEN DR @ 10TH ST", "mode": "bus"}}, {"type": "Feature", "geometry": {"type": "Point", "coordinates": [-84.384034, 33.7807]}, "properties": {"kind": "stop", "name": "PEACHTREE ST @ PEACHTREE PL", "mode": "bus"}}, {"type": "Feature", "geometry": {"type": "Point", "coordinates": [-84.407801, 33.793899]}, "properties": {"kind": "stop", "name": "NORTHSIDE DR@TRABERT AVE", "mode": "bus"}}, {"type": "Feature", "geometry": {"type": "Point", "coordinates": [-84.407909, 33.793192]}, "properties": {"kind": "stop", "name": "NORTHSIDE DR NW @ GREEN ST NW", "mode": "bus"}}, {"type": "Feature", "geometry": {"type": "Point", "coordinates": [-84.395984, 33.764727]}, "properties": {"kind": "stop", "name": "IVAN ALLEN JR BLVD NW @ LUCKIE ST", "mode": "bus"}}, {"type": "Feature", "geometry": {"type": "Point", "coordinates": [-84.39566, 33.764497]}, "properties": {"kind": "stop", "name": "IVAN ALLEN JR BLVD NW @ LUCKIE ST", "mode": "bus"}}, {"type": "Feature", "geometry": {"type": "Point", "coordinates": [-84.407945, 33.79628]}, "properties": {"kind": "stop", "name": "NORTHSIDE DR NW @ DEERING RD NW", "mode": "bus"}}, {"type": "Feature", "geometry": {"type": "Point", "coordinates": [-84.387818, 33.791754]}, "properties": {"kind": "stop", "name": "17TH ST NW @ W PEACHTREE ST NW", "mode": "bus"}}, {"type": "Feature", "geometry": {"type": "Point", "coordinates": [-84.386383, 33.7924]}, "properties": {"kind": "stop", "name": "17TH ST NE @ PEACHTREE ST NE", "mode": "bus"}}, {"type": "Feature", "geometry": {"type": "Point", "coordinates": [-84.382099, 33.764171]}, "properties": {"kind": "stop", "name": "RALPH MCGILL BLVD @ PIEDMONT AVE", "mode": "bus"}}, {"type": "Feature", "geometry": {"type": "Point", "coordinates": [-84.384154, 33.76434]}, "properties": {"kind": "stop", "name": "RALPH MCGILL BLVD @ COURTLAND ST", "mode": "bus"}}, {"type": "Feature", "geometry": {"type": "Point", "coordinates": [-84.407749, 33.796101]}, "properties": {"kind": "stop", "name": "NORTHSIDE DR@DEERING RD", "mode": "bus"}}, {"type": "Feature", "geometry": {"type": "Point", "coordinates": [-84.393146, 33.764729]}, "properties": {"kind": "stop", "name": "IVAN ALLEN JR BLVD NW @ LOVEJOY ST", "mode": "bus"}}, {"type": "Feature", "geometry": {"type": "Point", "coordinates": [-84.40429, 33.786177]}, "properties": {"kind": "stop", "name": "14TH ST @ MCMILLAN ST", "mode": "bus"}}, {"type": "Feature", "geometry": {"type": "Point", "coordinates": [-84.401267, 33.786143]}, "properties": {"kind": "stop", "name": "14TH ST @ SNYDER ST", "mode": "bus"}}, {"type": "Feature", "geometry": {"type": "Point", "coordinates": [-84.401833, 33.786241]}, "properties": {"kind": "stop", "name": "14TH ST @ SNYDER ST", "mode": "bus"}}, {"type": "Feature", "geometry": {"type": "Point", "coordinates": [-84.404236, 33.786249]}, "properties": {"kind": "stop", "name": "14TH ST @ MCMILLAN ST", "mode": "bus"}}, {"type": "Feature", "geometry": {"type": "Point", "coordinates": [-84.406923, 33.786274]}, "properties": {"kind": "stop", "name": "14TH ST @ HEMPHILL AVE", "mode": "bus"}}, {"type": "Feature", "geometry": {"type": "Point", "coordinates": [-84.405732, 33.791573]}, "properties": {"kind": "stop", "name": "17TH ST NW @ BISHOP ST NW", "mode": "bus"}}, {"type": "Feature", "geometry": {"type": "Point", "coordinates": [-84.402902, 33.789517]}, "properties": {"kind": "stop", "name": "17TH ST NW @ VILLAGE ST", "mode": "bus"}}, {"type": "Feature", "geometry": {"type": "Point", "coordinates": [-84.402684, 33.789758]}, "properties": {"kind": "stop", "name": "17TH ST NW @ VILLAGE ST", "mode": "bus"}}, {"type": "Feature", "geometry": {"type": "Point", "coordinates": [-84.40546, 33.791681]}, "properties": {"kind": "stop", "name": "17TH ST NW @ BISHOP ST NW", "mode": "bus"}}, {"type": "Feature", "geometry": {"type": "Point", "coordinates": [-84.381138, 33.808758]}, "properties": {"kind": "stop", "name": "OTTLEY DR @ 195", "mode": "bus"}}, {"type": "Feature", "geometry": {"type": "Point", "coordinates": [-84.381187, 33.810861]}, "properties": {"kind": "stop", "name": "ARMOUR DR @ 205", "mode": "bus"}}, {"type": "Feature", "geometry": {"type": "Point", "coordinates": [-84.404914, 33.768195]}, "properties": {"kind": "stop", "name": "CAMERON M ALEXANDER BLVD @ NORTHSIDE DR", "mode": "bus"}}, {"type": "Feature", "geometry": {"type": "Point", "coordinates": [-84.3729, 33.781728]}, "properties": {"kind": "stop", "name": "10TH ST NE @ CHARLES ALLEN DR", "mode": "bus"}}, {"type": "Feature", "geometry": {"type": "Point", "coordinates": [-84.404665, 33.769698]}, "properties": {"kind": "stop", "name": "NORTHSIDE DR NW @ NORTH AVE NW", "mode": "bus"}}, {"type": "Feature", "geometry": {"type": "Point", "coordinates": [-84.404774, 33.769725]}, "properties": {"kind": "stop", "name": "NORTHSIDE DR @ NORTH AVE", "mode": "bus"}}, {"type": "Feature", "geometry": {"type": "Point", "coordinates": [-84.371665, 33.771077]}, "properties": {"kind": "stop", "name": "BOULEVARD NE @ NORTH AVE NE", "mode": "bus"}}, {"type": "Feature", "geometry": {"type": "Point", "coordinates": [-84.413507, 33.771393]}, "properties": {"kind": "stop", "name": "ENGLISH AVE NW @ PELHAM ST NW", "mode": "bus"}}, {"type": "Feature", "geometry": {"type": "Point", "coordinates": [-84.413506, 33.77014]}, "properties": {"kind": "stop", "name": "ENGLISH AVE NW @ NORTH AVE NW", "mode": "bus"}}, {"type": "Feature", "geometry": {"type": "Point", "coordinates": [-84.413504, 33.768323]}, "properties": {"kind": "stop", "name": "ENGLISH AVE NW @ CAMERON M ALEXANDER BLVD", "mode": "bus"}}, {"type": "Feature", "geometry": {"type": "Point", "coordinates": [-84.407417, 33.791357]}, "properties": {"kind": "stop", "name": "17TH ST NW @ NORTHSIDE DR NW", "mode": "bus"}}, {"type": "Feature", "geometry": {"type": "Point", "coordinates": [-84.396163, 33.769077]}, "properties": {"kind": "stop", "name": "LUCKIE ST NW @ MERRITTS AVE", "mode": "bus"}}, {"type": "Feature", "geometry": {"type": "Point", "coordinates": [-84.397685, 33.76661]}, "properties": {"kind": "stop", "name": "MARIETTA ST NW @ 491", "mode": "bus"}}, {"type": "Feature", "geometry": {"type": "Point", "coordinates": [-84.396031, 33.768881]}, "properties": {"kind": "stop", "name": "LUCKIE ST NW @ MERRITTS AVE", "mode": "bus"}}, {"type": "Feature", "geometry": {"type": "Point", "coordinates": [-84.407889, 33.794839]}, "properties": {"kind": "stop", "name": "NORTHSIDE DR NW @ TRABERT AVE NW", "mode": "bus"}}, {"type": "Feature", "geometry": {"type": "Point", "coordinates": [-84.379461, 33.786415]}, "properties": {"kind": "stop", "name": "14TH ST NE @ 14TH PL", "mode": "bus"}}, {"type": "Feature", "geometry": {"type": "Point", "coordinates": [-84.379461, 33.786532]}, "properties": {"kind": "stop", "name": "14TH ST NE @ 14TH PL", "mode": "bus"}}, {"type": "Feature", "geometry": {"type": "Point", "coordinates": [-84.361801, 33.767115]}, "properties": {"kind": "stop", "name": "RALPH MCGILL BLVD @ 760", "mode": "bus"}}, {"type": "Feature", "geometry": {"type": "Point", "coordinates": [-84.399477, 33.791354]}, "properties": {"kind": "stop", "name": "17TH ST NW @ STATE ST NW", "mode": "bus"}}, {"type": "Feature", "geometry": {"type": "Point", "coordinates": [-84.39898, 33.77117]}, "properties": {"kind": "stop", "name": "NORTH AVE NW @ STATE ST NW", "mode": "bus"}}, {"type": "Feature", "geometry": {"type": "Point", "coordinates": [-84.383497, 33.772361]}, "properties": {"kind": "stop", "name": "PONCE DE LEON AVE NE @ JUNIPER ST NE", "mode": "bus"}}, {"type": "Feature", "geometry": {"type": "Point", "coordinates": [-84.417833, 33.783371]}, "properties": {"kind": "stop", "name": "W MARIETTA ST NW @ JOSEPH E LOWERY BLVD NW", "mode": "bus"}}, {"type": "Feature", "geometry": {"type": "Point", "coordinates": [-84.407667, 33.781825]}, "properties": {"kind": "stop", "name": "NORTHSIDE DR NW @ 10TH ST NW", "mode": "bus"}}, {"type": "Feature", "geometry": {"type": "Point", "coordinates": [-84.371134, 33.77336]}, "properties": {"kind": "stop", "name": "BOULEVARD NE @ PONCE DE LEON AVE", "mode": "bus"}}, {"type": "Feature", "geometry": {"type": "Point", "coordinates": [-84.403039, 33.763855]}, "properties": {"kind": "stop", "name": "NORTHSIDE DR NW @ IVAN ALLEN JR BLVD NW", "mode": "bus"}}, {"type": "Feature", "geometry": {"type": "Point", "coordinates": [-84.407361, 33.782028]}, "properties": {"kind": "stop", "name": "NORTHSIDE DR NW @ 10TH ST NW", "mode": "bus"}}, {"type": "Feature", "geometry": {"type": "Point", "coordinates": [-84.404708, 33.768053]}, "properties": {"kind": "stop", "name": "NORTHSIDE DR NW @ CAMERON M ALEXANDER BLVD NW", "mode": "bus"}}, {"type": "Feature", "geometry": {"type": "Point", "coordinates": [-84.404903, 33.767953]}, "properties": {"kind": "stop", "name": "NORTHSIDE DR NW @ CAMERON M ALEXANDER BLVD NW", "mode": "bus"}}, {"type": "Feature", "geometry": {"type": "Point", "coordinates": [-84.408659, 33.773115]}, "properties": {"kind": "stop", "name": "NORTHSIDE DR @ DONALD L HOLLOWELL PKWY", "mode": "bus"}}, {"type": "Feature", "geometry": {"type": "Point", "coordinates": [-84.407477, 33.775443]}, "properties": {"kind": "stop", "name": "NORTHSIDE DR NW @ MARIETTA ST NW", "mode": "bus"}}, {"type": "Feature", "geometry": {"type": "Point", "coordinates": [-84.406988, 33.775792]}, "properties": {"kind": "stop", "name": "NORTHSIDE DR NW @ MARIETTA ST NW", "mode": "bus"}}, {"type": "Feature", "geometry": {"type": "Point", "coordinates": [-84.407369, 33.786488]}, "properties": {"kind": "stop", "name": "NORTHSIDE DR NW @ 14TH ST NW", "mode": "bus"}}, {"type": "Feature", "geometry": {"type": "Point", "coordinates": [-84.407509, 33.785674]}, "properties": {"kind": "stop", "name": "NORTHSIDE DR NW @ 14TH ST NW", "mode": "bus"}}, {"type": "Feature", "geometry": {"type": "Point", "coordinates": [-84.407799, 33.792261]}, "properties": {"kind": "stop", "name": "NORTHSIDE DR NW @ HOKE ST", "mode": "bus"}}, {"type": "Feature", "geometry": {"type": "Point", "coordinates": [-84.386402, 33.789213]}, "properties": {"kind": "stop", "name": "ARTS CENTER WAY @ 15TH ST (ARTS CENTER STN - UPPER ENTRANCE)", "mode": "bus"}}, {"type": "Feature", "geometry": {"type": "Point", "coordinates": [-84.407399, 33.784492]}, "properties": {"kind": "stop", "name": "NORTHSIDE DR @ ETHEL ST", "mode": "bus"}}, {"type": "Feature", "geometry": {"type": "Point", "coordinates": [-84.406222, 33.771353]}, "properties": {"kind": "stop", "name": "NORTHSIDE DR @ 610", "mode": "bus"}}, {"type": "Feature", "geometry": {"type": "Point", "coordinates": [-84.370037, 33.795925]}, "properties": {"kind": "stop", "name": "PIEDMONT AVE @ MONROE DR", "mode": "bus"}}, {"type": "Feature", "geometry": {"type": "Point", "coordinates": [-84.411349, 33.78585]}, "properties": {"kind": "stop", "name": "14TH ST NW @ HOWELL MILL RD NW", "mode": "bus"}}, {"type": "Feature", "geometry": {"type": "Point", "coordinates": [-84.409045, 33.786069]}, "properties": {"kind": "stop", "name": "14TH ST NW @ HOWELL MILL RD NW", "mode": "bus"}}, {"type": "Feature", "geometry": {"type": "Point", "coordinates": [-84.417253, 33.782343]}, "properties": {"kind": "stop", "name": "JOSEPH E LOWERY BLVD NW @ W MARIETTA ST NW", "mode": "bus"}}, {"type": "Feature", "geometry": {"type": "Point", "coordinates": [-84.417278, 33.779969]}, "properties": {"kind": "stop", "name": "JOSEPH E LOWERY BLVD @ 841", "mode": "bus"}}, {"type": "Feature", "geometry": {"type": "Point", "coordinates": [-84.417391, 33.779559]}, "properties": {"kind": "stop", "name": "JOSEPH E LOWERY BLVD @ 841", "mode": "bus"}}, {"type": "Feature", "geometry": {"type": "Point", "coordinates": [-84.389402, 33.786562]}, "properties": {"kind": "stop", "name": "14TH ST @ SPRING ST", "mode": "bus"}}, {"type": "Feature", "geometry": {"type": "Point", "coordinates": [-84.389248, 33.784289]}, "properties": {"kind": "stop", "name": "SPRING ST @ 12TH ST", "mode": "bus"}}, {"type": "Feature", "geometry": {"type": "Point", "coordinates": [-84.414033, 33.772231]}, "properties": {"kind": "stop", "name": "FOX ST @ PAINES AVE", "mode": "bus"}}, {"type": "Feature", "geometry": {"type": "Point", "coordinates": [-84.40895, 33.772842]}, "properties": {"kind": "stop", "name": "NORTHSIDE DR @ TRAVIS ST", "mode": "bus"}}, {"type": "Feature", "geometry": {"type": "Point", "coordinates": [-84.396083, 33.766544]}, "properties": {"kind": "stop", "name": "LUCKIE ST @ HUNNICUTT ST", "mode": "bus"}}, {"type": "Feature", "geometry": {"type": "Point", "coordinates": [-84.396159, 33.766705]}, "properties": {"kind": "stop", "name": "LUCKIE ST @ HUNNICUTT ST", "mode": "bus"}}, {"type": "Feature", "geometry": {"type": "Point", "coordinates": [-84.396093, 33.765085]}, "properties": {"kind": "stop", "name": "LUCKIE ST @ MILLS ST", "mode": "bus"}}, {"type": "Feature", "geometry": {"type": "Point", "coordinates": [-84.396179, 33.764826]}, "properties": {"kind": "stop", "name": "LUCKIE ST @ IVAN ALLEN JR BLVD", "mode": "bus"}}, {"type": "Feature", "geometry": {"type": "Point", "coordinates": [-84.407521, 33.786175]}, "properties": {"kind": "stop", "name": "14TH ST @ NORTHSIDE DR", "mode": "bus"}}, {"type": "Feature", "geometry": {"type": "Point", "coordinates": [-84.414644, 33.780107]}, "properties": {"kind": "stop", "name": "W MARIETTA ST @ 800", "mode": "bus"}}, {"type": "Feature", "geometry": {"type": "Point", "coordinates": [-84.411766, 33.779754]}, "properties": {"kind": "stop", "name": "W MARIETTA ST @ 8TH ST", "mode": "bus"}}, {"type": "Feature", "geometry": {"type": "Point", "coordinates": [-84.412298, 33.779786]}, "properties": {"kind": "stop", "name": "W MARIETTA ST @ BRADY AVE", "mode": "bus"}}, {"type": "Feature", "geometry": {"type": "Point", "coordinates": [-84.416724, 33.782203]}, "properties": {"kind": "stop", "name": "W MARIETTA ST @ 887", "mode": "bus"}}, {"type": "Feature", "geometry": {"type": "Point", "coordinates": [-84.416523, 33.781715]}, "properties": {"kind": "stop", "name": "W MARIETTA ST @ 887", "mode": "bus"}}, {"type": "Feature", "geometry": {"type": "Point", "coordinates": [-84.387736, 33.784191]}, "properties": {"kind": "stop", "name": "W PEACHTREE ST @ 12TH ST", "mode": "bus"}}, {"type": "Feature", "geometry": {"type": "Point", "coordinates": [-84.38838, 33.786706]}, "properties": {"kind": "stop", "name": "14TH ST @ W PEACHTREE ST", "mode": "bus"}}, {"type": "Feature", "geometry": {"type": "Point", "coordinates": [-84.393165, 33.786685]}, "properties": {"kind": "stop", "name": "14TH ST @ FOWLER ST", "mode": "bus"}}, {"type": "Feature", "geometry": {"type": "Point", "coordinates": [-84.397537, 33.786208]}, "properties": {"kind": "stop", "name": "14TH ST @ ATLANTIC DR", "mode": "bus"}}, {"type": "Feature", "geometry": {"type": "Point", "coordinates": [-84.397808, 33.786137]}, "properties": {"kind": "stop", "name": "14TH ST @ ATLANTIC DR", "mode": "bus"}}, {"type": "Feature", "geometry": {"type": "Point", "coordinates": [-84.393361, 33.786497]}, "properties": {"kind": "stop", "name": "14TH ST @ FOWLER ST", "mode": "bus"}}, {"type": "Feature", "geometry": {"type": "Point", "coordinates": [-84.376618, 33.812865]}, "properties": {"kind": "stop", "name": "ARMOUR DR @ 340", "mode": "bus"}}, {"type": "Feature", "geometry": {"type": "Point", "coordinates": [-84.385611, 33.80698]}, "properties": {"kind": "stop", "name": "CLAYTON DR NE @ ARMOUR DR NE", "mode": "bus"}}, {"type": "Feature", "geometry": {"type": "Point", "coordinates": [-84.394851, 33.78647]}, "properties": {"kind": "stop", "name": "14TH ST @ BARNES ST", "mode": "bus"}}, {"type": "Feature", "geometry": {"type": "Point", "coordinates": [-84.378741, 33.811252]}, "properties": {"kind": "stop", "name": "OTTLEY DR @ 255", "mode": "bus"}}, {"type": "Feature", "geometry": {"type": "Point", "coordinates": [-84.394731, 33.786407]}, "properties": {"kind": "stop", "name": "14TH ST @ BARNES ST", "mode": "bus"}}, {"type": "Feature", "geometry": {"type": "Point", "coordinates": [-84.367792, 33.767964]}, "properties": {"kind": "stop", "name": "GLEN IRIS DR @ DALLAS ST", "mode": "bus"}}, {"type": "Feature", "geometry": {"type": "Point", "coordinates": [-84.367695, 33.768733]}, "properties": {"kind": "stop", "name": "GLEN IRIS DR @ WINTON TER", "mode": "bus"}}, {"type": "Feature", "geometry": {"type": "Point", "coordinates": [-84.367946, 33.771105]}, "properties": {"kind": "stop", "name": "NORTH AVE @ GLEN IRIS DR", "mode": "bus"}}, {"type": "Feature", "geometry": {"type": "Point", "coordinates": [-84.367323, 33.805368]}, "properties": {"kind": "stop", "name": "PIEDMONT AVE @ ROCK SPRINGS", "mode": "bus"}}, {"type": "Feature", "geometry": {"type": "Point", "coordinates": [-84.367454, 33.805243]}, "properties": {"kind": "stop", "name": "PIEDMONT RD @ N ROCK SPRINGS RD", "mode": "bus"}}, {"type": "Feature", "geometry": {"type": "Point", "coordinates": [-84.397505, 33.764118]}, "properties": {"kind": "stop", "name": "IVAN ALLEN JR BLVD @ MARIETTA ST", "mode": "bus"}}, {"type": "Feature", "geometry": {"type": "Point", "coordinates": [-84.368733, 33.79733]}, "properties": {"kind": "stop", "name": "PIEDMONT AVE @ MONROE DR", "mode": "bus"}}, {"type": "Feature", "geometry": {"type": "Point", "coordinates": [-84.366462, 33.814804]}, "properties": {"kind": "stop", "name": "PIEDMONT RD @ 2135", "mode": "bus"}}, {"type": "Feature", "geometry": {"type": "Point", "coordinates": [-84.372031, 33.812043]}, "properties": {"kind": "stop", "name": "ARMOUR DR NE @ PLASTERS AVE NE", "mode": "bus"}}, {"type": "Feature", "geometry": {"type": "Point", "coordinates": [-84.407785, 33.789683]}, "properties": {"kind": "stop", "name": "NORTHSIDE DR @ 17TH ST", "mode": "bus"}}, {"type": "Feature", "geometry": {"type": "Point", "coordinates": [-84.387414, 33.789669]}, "properties": {"kind": "stop", "name": "ARTS CENTER STATION", "mode": "bus"}}, {"type": "Feature", "geometry": {"type": "Point", "coordinates": [-84.387272, 33.788828]}, "properties": {"kind": "stop", "name": "ARTS CENTER STATION", "mode": "bus"}}, {"type": "Feature", "geometry": {"type": "Point", "coordinates": [-84.386342, 33.781247]}, "properties": {"kind": "stop", "name": "MIDTOWN  STATION", "mode": "bus"}}, {"type": "Feature", "geometry": {"type": "Point", "coordinates": [-84.386353, 33.781355]}, "properties": {"kind": "stop", "name": "MIDTOWN STATION", "mode": "bus"}}, {"type": "Feature", "geometry": {"type": "Point", "coordinates": [-84.387258, 33.771472]}, "properties": {"kind": "stop", "name": "NORTH AVENUE STATION", "mode": "bus"}}, {"type": "Feature", "geometry": {"type": "Point", "coordinates": [-84.387204, 33.771741]}, "properties": {"kind": "stop", "name": "NORTH AVENUE STATION", "mode": "bus"}}, {"type": "Feature", "geometry": {"type": "Point", "coordinates": [-84.387504, 33.766111]}, "properties": {"kind": "stop", "name": "CIVIC CENTER STATION", "mode": "bus"}}, {"type": "Feature", "geometry": {"type": "Point", "coordinates": [-84.387504, 33.766236]}, "properties": {"kind": "stop", "name": "CIVIC CENTER STATION", "mode": "bus"}}], "properties": {"coverage_pct": 100.0, "rail_coverage_pct": 26.1, "stop_count": 466, "rail_stop_count": 4, "bus_stop_count": 462, "transit_index": 51, "weights": {"rail": 2.0, "bus": 1.0}}}