{"type": "FeatureCollection", "features": [{"type": "Feature", "geometry": {"type": "LineString", "coordinates": [[-84.461621, 33.751893], [-84.461665, 33.751786], [-84.4616727, 33.7510242], [-84.461683, 33.749995], [-84.461683, 33.749945], [-84.461694, 33.748743], [-84.461706, 33.74755]]}, "properties": {"surface": "asphalt", "highway": "residential"}}, {"type": "Feature", "geometry": {"type": "LineString", "coordinates": [[-84.4927489, 33.7866099], [-84.4924933, 33.7864633], [-84.4923692, 33.7863953]]}, "properties": {"surface": "asphalt", "highway": "primary"}}, {"type": "Feature", "geometry": {"type": "LineString", "coordinates": [[-84.4934378, 33.7870057], [-84.4927489, 33.7866099]]}, "properties": {"surface": "", "highway": "primary"}}, {"type": "Feature", "geometry": {"type": "LineString", "coordinates": [[-84.4896618, 33.7327719], [-84.489899, 33.7328587], [-84.4902216, 33.7329807]]}, "properties": {"surface": "", "highway": "footway"}}, {"type": "Feature", "geometry": {"type": "LineString", "coordinates": [[-84.480903, 33.719689], [-84.4807567, 33.7194155], [-84.480599, 33.7192945], [-84.4804387, 33.7192719], [-84.4801996, 33.719358], [-84.47999, 33.7194032], [-84.4798372, 33.7193908], [-84.4796227, 33.7192801], [-84.4795537, 33.7191714], [-84.4795241, 33.7190751], [-84.4795068, 33.7190094], [-84.4792899, 33.719112], [-84.4790803, 33.7192719], [-84.4788511, 33.719356], [-84.4785207, 33.7195098], [-84.4782076, 33.7196144], [-84.47786, 33.7197005], [-84.4775617, 33.7197148], [-84.47733, 33.719764], [-84.4775395, 33.7196349], [-84.4776776, 33.71952], [-84.4778748, 33.719399], [-84.4779759, 33.7192863], [-84.4779636, 33.7190382], [-84.4779808, 33.7188639], [-84.4778674, 33.7186219], [-84.4777861, 33.7184312], [-84.4777441, 33.7181462], [-84.4778354, 33.7180006], [-84.4778502, 33.7179554], [-84.4778378, 33.7179247], [-84.4777392, 33.7179308], [-84.4776924, 33.7179739], [-84.4775765, 33.7179842], [-84.4774705, 33.7179575], [-84.4774508, 33.7179267], [-84.4774458, 33.7177791], [-84.4773891, 33.7176786], [-84.4773053, 33.7176581], [-84.4772314, 33.7175781], [-84.4772782, 33.7175166], [-84.477399, 33.7174018], [-84.4773029, 33.7172357], [-84.4770884, 33.7171803], [-84.4769133, 33.7171762], [-84.476726, 33.7170983], [-84.4766076, 33.717006], [-84.4765978, 33.7171209], [-84.4766742, 33.7172644], [-84.4765411, 33.7174407], [-84.4763513, 33.7175576], [-84.4762872, 33.7177627], [-84.4761762, 33.7177976], [-84.4759198, 33.7178017], [-84.4758015, 33.7176725], [-84.4758187, 33.7172808], [-84.475762, 33.717045], [-84.4756363, 33.7168256], [-84.4756462, 33.7165631], [-84.4756782, 33.7164954], [-84.4757966, 33.716438], [-84.4760431, 33.7163375], [-84.4761146, 33.7162801], [-84.4761614, 33.7160914], [-84.4764523, 33.7162391], [-84.4766816, 33.7161899], [-84.4773053, 33.7162924], [-84.4775617, 33.7160935], [-84.4776653, 33.7160484], [-84.4777096, 33.7160586], [-84.4778896, 33.7158454], [-84.4783654, 33.7157162], [-84.4787451, 33.7156465], [-84.4789152, 33.7156116], [-84.4791099, 33.7156362], [-84.479211, 33.7154988], [-84.4793195, 33.7154886], [-84.4794329, 33.7159048], [-84.4795537, 33.7159602], [-84.4798446, 33.7159951], [-84.4801478, 33.7161263], [-84.4805521, 33.716518], [-84.4807592, 33.7167087], [-84.4807814, 33.7168891], [-84.4809762, 33.7170327], [-84.4812547, 33.7171147], [-84.4816664, 33.717088], [-84.4817996, 33.716965], [-84.4818932, 33.7167764], [-84.481876, 33.7164954], [-84.481521, 33.7162637], [-84.4813533, 33.716075], [-84.4816516, 33.7159971], [-84.4818316, 33.7159294], [-84.4820732, 33.7161058], [-84.4823123, 33.7162001], [-84.4832492, 33.7167887], [-84.4832516, 33.7169076], [-84.4832023, 33.7171065], [-84.4831999, 33.717289], [-84.4829533, 33.7176663], [-84.4827906, 33.717898], [-84.4824701, 33.718222], [-84.4818464, 33.7183799], [-84.4815234, 33.7184824], [-84.4808603, 33.7185009], [-84.4805792, 33.7185583], [-84.4800911, 33.7188187], [-84.4795068, 33.7190094], [-84.4795019, 33.7187183], [-84.4792554, 33.7184414], [-84.4788412, 33.7182302], [-84.4782126, 33.7177278], [-84.4784369, 33.7176622], [-84.4783703, 33.7175269], [-84.4784763, 33.7173833], [-84.4786292, 33.7173423], [-84.4790286, 33.7173587], [-84.4794353, 33.7175945], [-84.4799432, 33.7176007], [-84.480064, 33.7175576], [-84.4801059, 33.717287], [-84.4802514, 33.7172562], [-84.480599, 33.7173054], [-84.4806976, 33.7173034], [-84.4807272, 33.7171967], [-84.4806606, 33.7170798], [-84.4807124, 33.7169671], [-84.4807814, 33.7168891]]}, "properties": {"surface": "unpaved", "highway": "path"}}, {"type": "Feature", "geometry": {"type": "LineString", "coordinates": [[-84.495831, 33.7536744], [-84.4951422, 33.7533837]]}, "properties": {"surface": "", "highway": "secondary"}}, {"type": "Feature", "geometry": {"type": "LineString", "coordinates": [[-84.4951422, 33.7533837], [-84.494875, 33.7532664], [-84.4946618, 33.7531672], [-84.4944589, 33.7530782]]}, "properties": {"surface": "asphalt", "highway": "secondary"}}, {"type": "Feature", "geometry": {"type": "LineString", "coordinates": [[-84.4944589, 33.7530782], [-84.4940382, 33.7529029], [-84.4938933, 33.7529014]]}, "properties": {"surface": "asphalt", "highway": "secondary"}}, {"type": "Feature", "geometry": {"type": "LineString", "coordinates": [[-84.469513, 33.760225], [-84.4695216, 33.7602762], [-84.4695461, 33.7604228], [-84.469747, 33.761625], [-84.4697584, 33.7616956], [-84.4697863, 33.7618675]]}, "properties": {"surface": "asphalt", "highway": "secondary"}}, {"type": "Feature", "geometry": {"type": "LineString", "coordinates": [[-84.471944, 33.769137], [-84.4719166, 33.7691084], [-84.471201, 33.76836], [-84.4709496, 33.7680819], [-84.470598, 33.767693], [-84.4704947, 33.7675098], [-84.470425, 33.767386], [-84.470303, 33.767128], [-84.470202, 33.766858], [-84.470118, 33.766561], [-84.470064, 33.766274], [-84.470035, 33.765992], [-84.470016, 33.765201], [-84.4700291, 33.763982]]}, "properties": {"surface": "asphalt", "highway": "secondary"}}, {"type": "Feature", "geometry": {"type": "LineString", "coordinates": [[-84.4923692, 33.7863953], [-84.4922879, 33.7863538], [-84.4922317, 33.7863273], [-84.4921078, 33.7862728], [-84.4918999, 33.786198]]}, "properties": {"surface": "asphalt", "highway": "primary"}}, {"type": "Feature", "geometry": {"type": "LineString", "coordinates": [[-84.4918999, 33.786198], [-84.4916961, 33.7861335], [-84.4915308, 33.7860872], [-84.4914621, 33.7860695], [-84.4912837, 33.7860235]]}, "properties": {"surface": "asphalt", "highway": "primary"}}, {"type": "Feature", "geometry": {"type": "LineString", "coordinates": [[-84.4710589, 33.7548322], [-84.4706152, 33.7548241], [-84.4699916, 33.7548182], [-84.4696733, 33.7548552], [-84.4696724, 33.7549043], [-84.4696705, 33.7550337], [-84.4696534, 33.7550463]]}, "properties": {"surface": "concrete", "highway": "footway"}}, {"type": "Feature", "geometry": {"type": "LineString", "coordinates": [[-84.4465618, 33.749549], [-84.4464818, 33.7492829]]}, "properties": {"surface": "", "highway": "footway"}}, {"type": "Feature", "geometry": {"type": "LineString", "coordinates": [[-84.4465618, 33.749549], [-84.4464798, 33.7496558], [-84.446687, 33.7496228], [-84.4465618, 33.749549]]}, "properties": {"surface": "", "highway": "footway"}}, {"type": "Feature", "geometry": {"type": "LineString", "coordinates": [[-84.4563444, 33.7473994], [-84.4562439, 33.7473492], [-84.4559973, 33.747287], [-84.4559973, 33.7472652], [-84.4559851, 33.7472417], [-84.4559609, 33.7472198], [-84.4559245, 33.7472131], [-84.4558982, 33.7472181], [-84.4558719, 33.7472366], [-84.4558598, 33.7472585], [-84.4558558, 33.747277], [-84.4558598, 33.7473005], [-84.455882, 33.7473223], [-84.4559083, 33.7473324], [-84.4559285, 33.7473341], [-84.4559548, 33.7473291], [-84.455977, 33.7473156], [-84.4559892, 33.7472988]]}, "properties": {"surface": "", "highway": "footway"}}, {"type": "Feature", "geometry": {"type": "LineString", "coordinates": [[-84.4558598, 33.7472585], [-84.4556152, 33.7472064]]}, "properties": {"surface": "", "highway": "footway"}}, {"type": "Feature", "geometry": {"type": "LineString", "coordinates": [[-84.455301, 33.7473965], [-84.455359, 33.7474216], [-84.4554965, 33.7474809]]}, "properties": {"surface": "", "highway": "footway"}}, {"type": "Feature", "geometry": {"type": "LineString", "coordinates": [[-84.4553451, 33.7473301], [-84.4553992, 33.747353], [-84.4555178, 33.7474032]]}, "properties": {"surface": "", "highway": "footway"}}, {"type": "Feature", "geometry": {"type": "LineString", "coordinates": [[-84.4553992, 33.747353], [-84.4553862, 33.7473752], [-84.4553767, 33.747374], [-84.4553687, 33.7473764], [-84.4553614, 33.7473819], [-84.4553614, 33.7473886], [-84.455365, 33.7473965], [-84.4553716, 33.7474001], [-84.4553833, 33.7474001], [-84.4553928, 33.7473952], [-84.455395, 33.7473861], [-84.4553913, 33.7473794], [-84.4553862, 33.7473752]]}, "properties": {"surface": "", "highway": "footway"}}, {"type": "Feature", "geometry": {"type": "LineString", "coordinates": [[-84.4553716, 33.7474001], [-84.455359, 33.7474216]]}, "properties": {"surface": "", "highway": "footway"}}, {"type": "Feature", "geometry": {"type": "LineString", "coordinates": [[-84.4431634, 33.745841], [-84.4431548, 33.7458665], [-84.4431224, 33.7463661], [-84.443113, 33.7464591]]}, "properties": {"surface": "", "highway": "footway"}}, {"type": "Feature", "geometry": {"type": "LineString", "coordinates": [[-84.4780682, 33.7468387], [-84.477924, 33.746754], [-84.4779332, 33.7467837], [-84.477928, 33.7468167], [-84.4779041, 33.7468585], [-84.4778764, 33.746897], [-84.4776198, 33.7471444], [-84.4775576, 33.7471939], [-84.477514, 33.7472137], [-84.4774597, 33.7472313], [-84.4774108, 33.7472478], [-84.477383, 33.7472654], [-84.4772439, 33.7473749], [-84.4772124, 33.7473996], [-84.477018, 33.7475777], [-84.4769915, 33.7475964], [-84.4768884, 33.7476382], [-84.4767402, 33.7476965], [-84.4766, 33.7477471], [-84.4764969, 33.7477867], [-84.4764013, 33.7478043], [-84.4762365, 33.7478346], [-84.4756559, 33.7478599], [-84.4756444, 33.7478604], [-84.475443, 33.7478698], [-84.4752498, 33.7478819], [-84.475066, 33.7479292], [-84.474902, 33.7479897], [-84.4745488, 33.7481326], [-84.4739153, 33.7484138]]}, "properties": {"surface": "", "highway": "footway"}}, {"type": "Feature", "geometry": {"type": "LineString", "coordinates": [[-84.4756444, 33.7478604], [-84.475649, 33.7480323], [-84.4756524, 33.7480829], [-84.4756754, 33.7481287], [-84.4757098, 33.7481793], [-84.4757431, 33.7482127], [-84.4757604, 33.7482213], [-84.4757698, 33.7482203], [-84.4759085, 33.7482051]]}, "properties": {"surface": "", "highway": "footway"}}, {"type": "Feature", "geometry": {"type": "LineString", "coordinates": [[-84.4757698, 33.7482203], [-84.4757822, 33.748313], [-84.4757477, 33.748333], [-84.4757558, 33.7483941], [-84.4757282, 33.7484037], [-84.4757133, 33.748417], [-84.4757098, 33.7484304], [-84.4757328, 33.7485899], [-84.475742, 33.748607], [-84.47575, 33.7486261], [-84.4757477, 33.7486452], [-84.4757374, 33.748671], [-84.4757294, 33.7486901], [-84.4757351, 33.7487932], [-84.4758281, 33.7487837], [-84.4758706, 33.748797], [-84.4757684, 33.7490309], [-84.4757282, 33.7490395], [-84.4757144, 33.749051], [-84.4756685, 33.7490806], [-84.4756972, 33.7491083], [-84.4755801, 33.749198]]}, "properties": {"surface": "", "highway": "footway"}}, {"type": "Feature", "geometry": {"type": "LineString", "coordinates": [[-84.492137, 33.7347369], [-84.4921314, 33.7354757]]}, "properties": {"surface": "", "highway": "footway"}}, {"type": "Feature", "geometry": {"type": "LineString", "coordinates": [[-84.4904001, 33.7354826], [-84.4904941, 33.7354278], [-84.4905965, 33.7353785], [-84.4906799, 33.7353475], [-84.4907895, 33.7353296], [-84.4908697, 33.7353307], [-84.4909584, 33.735334], [-84.4910465, 33.7353296], [-84.4911456, 33.7353237], [-84.4912558, 33.7353242], [-84.4913126, 33.7353269], [-84.4913472, 33.7353372], [-84.4913745, 33.7353573], [-84.4914039, 33.7354034], [-84.4914574, 33.7355341], [-84.491488, 33.7356073]]}, "properties": {"surface": "", "highway": "footway"}}, {"type": "Feature", "geometry": {"type": "LineString", "coordinates": [[-84.4904001, 33.7354826], [-84.4904998, 33.7358332], [-84.4905225, 33.7358615], [-84.4905774, 33.7358921], [-84.4909426, 33.7360522], [-84.491207, 33.7361511], [-84.4913355, 33.7361929]]}, "properties": {"surface": "", "highway": "footway"}}, {"type": "Feature", "geometry": {"type": "LineString", "coordinates": [[-84.45769, 33.7388521], [-84.4576849, 33.7387429], [-84.4576628, 33.7386793], [-84.4575715, 33.7385788], [-84.4574905, 33.7384894], [-84.4574272, 33.738378], [-84.4573919, 33.7382237], [-84.4571725, 33.7377633], [-84.457146, 33.7376592], [-84.4571253, 33.737598], [-84.4570355, 33.737522], [-84.4569192, 33.7374853], [-84.456769, 33.7374694], [-84.4565849, 33.7374694], [-84.4562845, 33.7374755], [-84.4562131, 33.7374681]]}, "properties": {"surface": "", "highway": "path"}}, {"type": "Feature", "geometry": {"type": "LineString", "coordinates": [[-84.4628868, 33.7377258], [-84.4629079, 33.7376616], [-84.4629974, 33.7374148], [-84.4630412, 33.7373161], [-84.4630818, 33.7372694], [-84.4631359, 33.7372235], [-84.463189, 33.7371637], [-84.4632463, 33.7371274], [-84.4634837, 33.7370451], [-84.4636368, 33.7370061], [-84.4637721, 33.7370035], [-84.4639523, 33.7370105], [-84.4640835, 33.7369897], [-84.4642022, 33.7369533], [-84.4643386, 33.736884], [-84.4644448, 33.7367862], [-84.4645427, 33.736665], [-84.4645885, 33.736574], [-84.4645999, 33.7365134], [-84.4645854, 33.7364589], [-84.4645031, 33.7362658], [-84.4644552, 33.7361567], [-84.4644323, 33.7360727], [-84.4644281, 33.7359688], [-84.4644302, 33.7358787], [-84.4644136, 33.735806], [-84.464375, 33.7357021], [-84.4643469, 33.7356259], [-84.4643303, 33.7355514], [-84.464222, 33.7354007], [-84.4640345, 33.7352102], [-84.4639127, 33.7350743], [-84.4638565, 33.7350301], [-84.4637565, 33.7349911], [-84.4636993, 33.7349297], [-84.4636514, 33.7349106], [-84.463618, 33.734876], [-84.4635847, 33.7348015], [-84.4635608, 33.7347565], [-84.463516, 33.73474], [-84.463448, 33.734737]]}, "properties": {"surface": "", "highway": "path"}}, {"type": "Feature", "geometry": {"type": "LineString", "coordinates": [[-84.4571487, 33.7502829], [-84.4569196, 33.750231], [-84.4568309, 33.7502076], [-84.4567259, 33.7501834], [-84.4561678, 33.7500544], [-84.4558867, 33.749979], [-84.4555597, 33.7498777], [-84.4553775, 33.749844], [-84.4550755, 33.7498171], [-84.4548277, 33.7498163], [-84.4545133, 33.749831], [-84.4540447, 33.749863], [-84.4534564, 33.7499055], [-84.4529982, 33.7499332], [-84.4525661, 33.7499661], [-84.4520434, 33.7499981], [-84.4519724, 33.7500069], [-84.4506158, 33.7501063], [-84.4492059, 33.7502052], [-84.4485845, 33.7502542], [-84.448044, 33.7503154], [-84.4473313, 33.7504134], [-84.4468131, 33.7504821], [-84.4464789, 33.7505184], [-84.4462321, 33.7505331]]}, "properties": {"surface": "", "highway": "footway"}}, {"type": "Feature", "geometry": {"type": "LineString", "coordinates": [[-84.4703176, 33.7636222], [-84.4709038, 33.7636267]]}, "properties": {"surface": "", "highway": "secondary"}}, {"type": "Feature", "geometry": {"type": "LineString", "coordinates": [[-84.4626986, 33.7381734], [-84.4627507, 33.7380348], [-84.4628093, 33.7378973]]}, "properties": {"surface": "", "highway": "path"}}, {"type": "Feature", "geometry": {"type": "LineString", "coordinates": [[-84.4628093, 33.7378973], [-84.4628868, 33.7377258]]}, "properties": {"surface": "concrete", "highway": "path"}}, {"type": "Feature", "geometry": {"type": "LineString", "coordinates": [[-84.4457275, 33.7505762], [-84.4455992, 33.7505965]]}, "properties": {"surface": "", "highway": "footway"}}, {"type": "Feature", "geometry": {"type": "LineString", "coordinates": [[-84.4457481, 33.7505026], [-84.4459967, 33.7505342], [-84.4462321, 33.7505331]]}, "properties": {"surface": "", "highway": "footway"}}, {"type": "Feature", "geometry": {"type": "LineString", "coordinates": [[-84.4457481, 33.7505026], [-84.4455278, 33.7504489]]}, "properties": {"surface": "", "highway": "footway"}}, {"type": "Feature", "geometry": {"type": "LineString", "coordinates": [[-84.4451137, 33.7506482], [-84.4451411, 33.7505923], [-84.4451341, 33.7505438], [-84.445096, 33.7504937], [-84.444735, 33.7503025], [-84.4445519, 33.7501833], [-84.4441544, 33.7498639], [-84.4440767, 33.7498015], [-84.4429899, 33.7487004], [-84.442789, 33.748494]]}, "properties": {"surface": "", "highway": "footway"}}, {"type": "Feature", "geometry": {"type": "LineString", "coordinates": [[-84.442789, 33.748494], [-84.4427485, 33.748453], [-84.4424365, 33.7481367], [-84.442316, 33.7480145], [-84.441778, 33.7477489], [-84.4413631, 33.7476378], [-84.4413144, 33.7476335], [-84.4406641, 33.7475767], [-84.4397338, 33.7475592]]}, "properties": {"surface": "", "highway": "footway"}}, {"type": "Feature", "geometry": {"type": "LineString", "coordinates": [[-84.4459546, 33.7509285], [-84.4458753, 33.750871], [-84.4457976, 33.7508545], [-84.4457084, 33.7508521], [-84.4456192, 33.7508629], [-84.4455258, 33.7508742], [-84.4450464, 33.7509495], [-84.4443932, 33.7511277], [-84.4442593, 33.751155], [-84.4442146, 33.7511753], [-84.4442004, 33.7512192], [-84.4442055, 33.7514626]]}, "properties": {"surface": "", "highway": "footway"}}, {"type": "Feature", "geometry": {"type": "LineString", "coordinates": [[-84.4462097, 33.7510299], [-84.4462189, 33.750811], [-84.4462341, 33.7507646], [-84.4462358, 33.7507488], [-84.4463104, 33.7507249], [-84.4463617, 33.7507164], [-84.446668, 33.750666], [-84.4472352, 33.7505727]]}, "properties": {"surface": "", "highway": "footway"}}, {"type": "Feature", "geometry": {"type": "LineString", "coordinates": [[-84.4473704, 33.750555], [-84.4475144, 33.750536], [-84.4478256, 33.7504949], [-84.4480032, 33.7504714], [-84.448278, 33.7504351], [-84.4488736, 33.7503564], [-84.4494738, 33.750318], [-84.4501347, 33.7502757], [-84.45026, 33.7502677], [-84.4507858, 33.7502296], [-84.4514501, 33.7501815], [-84.4519908, 33.7501448], [-84.4527816, 33.750091]]}, "properties": {"surface": "", "highway": "footway"}}, {"type": "Feature", "geometry": {"type": "LineString", "coordinates": [[-84.4462097, 33.7510299], [-84.4461808, 33.7518672], [-84.4462085, 33.751898], [-84.4462932, 33.75193]]}, "properties": {"surface": "", "highway": "footway"}}, {"type": "Feature", "geometry": {"type": "LineString", "coordinates": [[-84.4459546, 33.7509285], [-84.4460036, 33.7509796], [-84.4460267, 33.7510603], [-84.4460019, 33.7519794], [-84.4459898, 33.7524283], [-84.4459728, 33.7524859], [-84.4459427, 33.7525249]]}, "properties": {"surface": "", "highway": "footway"}}, {"type": "Feature", "geometry": {"type": "LineString", "coordinates": [[-84.4451137, 33.7506482], [-84.4450674, 33.7506953], [-84.4444246, 33.7508405], [-84.4443275, 33.7508651], [-84.4443185, 33.7508631], [-84.4443047, 33.75086], [-84.4442828, 33.7508435]]}, "properties": {"surface": "", "highway": "footway"}}, {"type": "Feature", "geometry": {"type": "LineString", "coordinates": [[-84.4737793, 33.7758775], [-84.4737878, 33.7759974], [-84.4738023, 33.7762003], [-84.4738047, 33.7762341], [-84.4738067, 33.7762543], [-84.4738098, 33.7762847], [-84.4738438, 33.7763022], [-84.4740425, 33.7764039], [-84.4740945, 33.7764269], [-84.4742136, 33.7764798], [-84.4743638, 33.7765464], [-84.4747641, 33.7767241], [-84.4750853, 33.7768575]]}, "properties": {"surface": "", "highway": "footway"}}, {"type": "Feature", "geometry": {"type": "LineString", "coordinates": [[-84.4698376, 33.7621839], [-84.4698834, 33.7624661]]}, "properties": {"surface": "asphalt", "highway": "secondary"}}, {"type": "Feature", "geometry": {"type": "LineString", "coordinates": [[-84.4698959, 33.7625432], [-84.4699205, 33.7626948], [-84.4699629, 33.7629562], [-84.469983, 33.76308], [-84.470002, 33.7632488]]}, "properties": {"surface": "asphalt", "highway": "secondary"}}, {"type": "Feature", "geometry": {"type": "LineString", "coordinates": [[-84.4698834, 33.7624661], [-84.4698959, 33.7625432]]}, "properties": {"surface": "asphalt", "highway": "secondary"}}, {"type": "Feature", "geometry": {"type": "LineString", "coordinates": [[-84.4701926, 33.7637372], [-84.470234, 33.7637118], [-84.470297, 33.7636915], [-84.4711843, 33.7636833]]}, "properties": {"surface": "", "highway": "footway"}}, {"type": "Feature", "geometry": {"type": "LineString", "coordinates": [[-84.4675899, 33.7517619], [-84.4675907, 33.7517888], [-84.4676038, 33.7518099], [-84.4676284, 33.7518234]]}, "properties": {"surface": "", "highway": "footway"}}, {"type": "Feature", "geometry": {"type": "LineString", "coordinates": [[-84.4673342, 33.7520117], [-84.4673226, 33.7519931], [-84.4673042, 33.751979]]}, "properties": {"surface": "", "highway": "footway"}}, {"type": "Feature", "geometry": {"type": "LineString", "coordinates": [[-84.4701926, 33.7637372], [-84.4701816, 33.7637295]]}, "properties": {"surface": "", "highway": "footway"}}, {"type": "Feature", "geometry": {"type": "LineString", "coordinates": [[-84.470002, 33.7632488], [-84.4700199, 33.7634006]]}, "properties": {"surface": "asphalt", "highway": "secondary"}}, {"type": "Feature", "geometry": {"type": "LineString", "coordinates": [[-84.4711769, 33.7635864], [-84.4710231, 33.7635821], [-84.4702719, 33.763561], [-84.4702079, 33.7635379], [-84.4701741, 33.7635159], [-84.4701434, 33.7634807], [-84.4701227, 33.7634392], [-84.4701107, 33.7633932], [-84.4700547, 33.7630655], [-84.4700322, 33.7629562], [-84.4699475, 33.7624613], [-84.469825, 33.7616832]]}, "properties": {"surface": "", "highway": "footway"}}, {"type": "Feature", "geometry": {"type": "LineString", "coordinates": [[-84.4695764, 33.7601587], [-84.4694652, 33.759545], [-84.4694696, 33.7595095]]}, "properties": {"surface": "", "highway": "footway"}}, {"type": "Feature", "geometry": {"type": "LineString", "coordinates": [[-84.4698071, 33.7615708], [-84.4695946, 33.7602694]]}, "properties": {"surface": "", "highway": "footway"}}, {"type": "Feature", "geometry": {"type": "LineString", "coordinates": [[-84.4712323, 33.7682908], [-84.4707265, 33.7677395], [-84.4705543, 33.7675028], [-84.4703144, 33.7669755], [-84.4701947, 33.7665854], [-84.4701169, 33.7661214], [-84.4701031, 33.7652392]]}, "properties": {"surface": "", "highway": "footway"}}, {"type": "Feature", "geometry": {"type": "LineString", "coordinates": [[-84.4719752, 33.7690715], [-84.4713041, 33.7683673]]}, "properties": {"surface": "", "highway": "footway"}}, {"type": "Feature", "geometry": {"type": "LineString", "coordinates": [[-84.4701042, 33.7651207], [-84.470112, 33.7641064], [-84.4701148, 33.7639421], [-84.4701179, 33.7638512], [-84.4701356, 33.7638038], [-84.4701634, 33.7637641], [-84.4701926, 33.7637372]]}, "properties": {"surface": "", "highway": "footway"}}, {"type": "Feature", "geometry": {"type": "LineString", "coordinates": [[-84.4403316, 33.746004], [-84.4405644, 33.746237], [-84.4407712, 33.7464493], [-84.4413252, 33.747012], [-84.4416928, 33.74738], [-84.4417266, 33.7474128]]}, "properties": {"surface": "", "highway": "footway"}}, {"type": "Feature", "geometry": {"type": "LineString", "coordinates": [[-84.4467336, 33.7387284], [-84.4468203, 33.738189], [-84.4468539, 33.7379686], [-84.446918, 33.7375594], [-84.4469405, 33.7373902]]}, "properties": {"surface": "", "highway": "footway"}}, {"type": "Feature", "geometry": {"type": "LineString", "coordinates": [[-84.4694401, 33.7593697], [-84.4693986, 33.7590874], [-84.4693933, 33.7590252], [-84.4693951, 33.75895], [-84.4693986, 33.7589326], [-84.4694142, 33.7589182], [-84.4694573, 33.7588963], [-84.469495, 33.7588824]]}, "properties": {"surface": "", "highway": "footway"}}, {"type": "Feature", "geometry": {"type": "LineString", "coordinates": [[-84.4693986, 33.7589326], [-84.4693927, 33.758927]]}, "properties": {"surface": "", "highway": "footway"}}, {"type": "Feature", "geometry": {"type": "LineString", "coordinates": [[-84.4693841, 33.7587903], [-84.4693296, 33.7585604], [-84.4693283, 33.758558], [-84.4693167, 33.7585367], [-84.4692834, 33.758479]]}, "properties": {"surface": "", "highway": "footway"}}, {"type": "Feature", "geometry": {"type": "LineString", "coordinates": [[-84.4693283, 33.758558], [-84.4693398, 33.758552]]}, "properties": {"surface": "", "highway": "footway"}}, {"type": "Feature", "geometry": {"type": "LineString", "coordinates": [[-84.4693792, 33.7585225], [-84.469386, 33.7585169], [-84.4693678, 33.7584953], [-84.4693506, 33.7584668], [-84.4693381, 33.7584435], [-84.4693262, 33.7584188], [-84.4693179, 33.7583955], [-84.4693091, 33.7583571], [-84.4693028, 33.7583195], [-84.4692571, 33.7580521], [-84.4690233, 33.7567203], [-84.4689339, 33.7562248], [-84.4689105, 33.7561587], [-84.468884, 33.7560896], [-84.4688778, 33.7560408], [-84.4688835, 33.7559959], [-84.4688909, 33.7559769], [-84.4688929, 33.7559717], [-84.4689105, 33.7559475], [-84.4689324, 33.7559298], [-84.4689651, 33.7559095]]}, "properties": {"surface": "", "highway": "footway"}}, {"type": "Feature", "geometry": {"type": "LineString", "coordinates": [[-84.4688909, 33.7559769], [-84.4688853, 33.7559687]]}, "properties": {"surface": "", "highway": "footway"}}, {"type": "Feature", "geometry": {"type": "LineString", "coordinates": [[-84.4456141, 33.750849], [-84.4456192, 33.7508629]]}, "properties": {"surface": "", "highway": "footway"}}]}