{"type": "FeatureCollection", "features": [{"type": "Feature", "geometry": {"type": "LineString", "coordinates": [[-84.515123, 33.6630337], [-84.5151439, 33.6630098]]}, "properties": {"surface": "", "highway": "footway"}}, {"type": "Feature", "geometry": {"type": "LineString", "coordinates": [[-84.5152025, 33.6629389], [-84.5152354, 33.6629068], [-84.5152057, 33.6628853], [-84.5152038, 33.662879], [-84.5152012, 33.6628187], [-84.5151977, 33.6628055], [-84.51517, 33.6627414], [-84.5151688, 33.6627335], [-84.5151817, 33.6627086]]}, "properties": {"surface": "", "highway": "footway"}}, {"type": "Feature", "geometry": {"type": "LineString", "coordinates": [[-84.5151817, 33.6627086], [-84.5151635, 33.6626936]]}, "properties": {"surface": "", "highway": "footway"}}, {"type": "Feature", "geometry": {"type": "LineString", "coordinates": [[-84.5150861, 33.6626478], [-84.515053, 33.6626432], [-84.5149861, 33.6626441], [-84.5149245, 33.6626479], [-84.5148717, 33.6626606], [-84.5148626, 33.6626618], [-84.5148251, 33.6626413], [-84.5140057, 33.6621093]]}, "properties": {"surface": "", "highway": "footway"}}, {"type": "Feature", "geometry": {"type": "LineString", "coordinates": [[-84.5148251, 33.6626413], [-84.5147989, 33.6626734]]}, "properties": {"surface": "", "highway": "footway"}}, {"type": "Feature", "geometry": {"type": "LineString", "coordinates": [[-84.5147336, 33.6627443], [-84.5147071, 33.6627764]]}, "properties": {"surface": "", "highway": "footway"}}, {"type": "Feature", "geometry": {"type": "LineString", "coordinates": [[-84.5146737, 33.6676395], [-84.5147047, 33.6676541]]}, "properties": {"surface": "", "highway": "footway"}}, {"type": "Feature", "geometry": {"type": "LineString", "coordinates": [[-84.5148066, 33.6676987], [-84.5148554, 33.6677176], [-84.5149011, 33.6676303], [-84.5150401, 33.6674419], [-84.5152162, 33.667272], [-84.5152912, 33.6671631], [-84.5153135, 33.6670616], [-84.5153151, 33.6670511]]}, "properties": {"surface": "", "highway": "footway"}}, {"type": "Feature", "geometry": {"type": "LineString", "coordinates": [[-84.5153418, 33.6669472], [-84.5153508, 33.6669289], [-84.5153258, 33.6669083], [-84.515311, 33.6668833], [-84.5152913, 33.6668186], [-84.51527, 33.6667624], [-84.5151393, 33.6665171], [-84.5151231, 33.6664537], [-84.5151171, 33.6663543], [-84.5151259, 33.666296], [-84.515161, 33.6662114], [-84.5152636, 33.6660299], [-84.5153867, 33.665859], [-84.5155764, 33.6655891], [-84.5157653, 33.6653125], [-84.5159643, 33.664983], [-84.5160506, 33.6647973], [-84.5160924, 33.6646579], [-84.5161217, 33.6644877], [-84.5161269, 33.66431], [-84.5161192, 33.6641625], [-84.5160934, 33.6640096], [-84.5160565, 33.6638716], [-84.5160167, 33.6637537], [-84.5159488, 33.6636173], [-84.5157829, 33.6633726], [-84.5156545, 33.6632263], [-84.5154715, 33.663066], [-84.5152354, 33.6629068]]}, "properties": {"surface": "", "highway": "footway"}}, {"type": "Feature", "geometry": {"type": "LineString", "coordinates": [[-84.5140057, 33.6621093], [-84.5133528, 33.6616967], [-84.5130174, 33.6615023]]}, "properties": {"surface": "", "highway": "footway"}}, {"type": "Feature", "geometry": {"type": "LineString", "coordinates": [[-84.5114296, 33.6606031], [-84.5113572, 33.6605305], [-84.5113042, 33.6604772], [-84.5111603, 33.6603962], [-84.5107912, 33.6601744], [-84.5104757, 33.6599961], [-84.510341, 33.6599439], [-84.5101132, 33.6598761], [-84.5097557, 33.6598274], [-84.5094646, 33.6597908], [-84.509147, 33.6597931], [-84.5090632, 33.6597952], [-84.5090547, 33.6597939], [-84.5090224, 33.6597773], [-84.5090171, 33.6597769], [-84.5089945, 33.6597931]]}, "properties": {"surface": "", "highway": "footway"}}, {"type": "Feature", "geometry": {"type": "LineString", "coordinates": [[-84.5086737, 33.6598238], [-84.5086545, 33.6598104], [-84.5086469, 33.6598092], [-84.5086186, 33.6598211], [-84.5085976, 33.6598278], [-84.5085734, 33.6598309], [-84.5081058, 33.6598315], [-84.5071229, 33.6598254], [-84.506756, 33.6598332]]}, "properties": {"surface": "", "highway": "footway"}}, {"type": "Feature", "geometry": {"type": "LineString", "coordinates": [[-84.5066636, 33.6598351], [-84.5065878, 33.6598299], [-84.5065727, 33.6598268], [-84.5065431, 33.6598236], [-84.5065307, 33.6598248], [-84.5065224, 33.6598345], [-84.5065024, 33.6598649], [-84.5064962, 33.6598692], [-84.5064828, 33.65987], [-84.5055835, 33.6598664], [-84.5053144, 33.6598644], [-84.5050993, 33.6598591], [-84.5048897, 33.6598538], [-84.5046141, 33.6598547], [-84.5044123, 33.6598742], [-84.5043631, 33.6598846], [-84.5043521, 33.6598846], [-84.5043012, 33.6598629], [-84.5042581, 33.6598349], [-84.5042269, 33.659826], [-84.5041725, 33.6598269], [-84.5041606, 33.6598236], [-84.5041399, 33.6597529]]}, "properties": {"surface": "", "highway": "footway"}}, {"type": "Feature", "geometry": {"type": "LineString", "coordinates": [[-84.5128964, 33.6614352], [-84.5127483, 33.6613463], [-84.5123332, 33.6610967], [-84.5119929, 33.6609129], [-84.5118695, 33.660862]]}, "properties": {"surface": "", "highway": "footway"}}, {"type": "Feature", "geometry": {"type": "LineString", "coordinates": [[-84.5116845, 33.6607446], [-84.5114296, 33.6606031]]}, "properties": {"surface": "", "highway": "footway"}}, {"type": "Feature", "geometry": {"type": "LineString", "coordinates": [[-84.5118695, 33.660862], [-84.5116845, 33.6607446]]}, "properties": {"surface": "", "highway": "footway"}}, {"type": "Feature", "geometry": {"type": "LineString", "coordinates": [[-84.5090171, 33.6597769], [-84.5089962, 33.6597412], [-84.5089867, 33.6596952], [-84.508987, 33.6593729], [-84.5089835, 33.6589756], [-84.5089842, 33.6589623]]}, "properties": {"surface": "", "highway": "footway"}}, {"type": "Feature", "geometry": {"type": "LineString", "coordinates": [[-84.5086545, 33.6598104], [-84.5086657, 33.6597765], [-84.5086774, 33.6597089], [-84.5086778, 33.6596921], [-84.5086775, 33.6595718], [-84.5086758, 33.6592693], [-84.5086687, 33.6590029], [-84.5086685, 33.6589952]]}, "properties": {"surface": "", "highway": "footway"}}, {"type": "Feature", "geometry": {"type": "LineString", "coordinates": [[-84.5102455, 33.6573832], [-84.5102526, 33.657397], [-84.5101172, 33.6574333], [-84.5098812, 33.657502], [-84.5095219, 33.6576083], [-84.5093685, 33.6576636], [-84.5092267, 33.6577464], [-84.5091128, 33.6578538], [-84.5090205, 33.6580061], [-84.5089954, 33.658097], [-84.5089785, 33.6582094], [-84.5089843, 33.6585394], [-84.5089864, 33.6587719], [-84.5089887, 33.658796], [-84.50899, 33.6588101]]}, "properties": {"surface": "", "highway": "footway"}}, {"type": "Feature", "geometry": {"type": "LineString", "coordinates": [[-84.5086687, 33.6587781], [-84.5086689, 33.6587702], [-84.5086736, 33.6585697], [-84.50867, 33.6583023], [-84.5086741, 33.6581507], [-84.5086777, 33.6581057], [-84.508696, 33.6580178], [-84.5087145, 33.6579568], [-84.5087489, 33.6578751], [-84.5087618, 33.6578469], [-84.5088191, 33.6577586], [-84.5089275, 33.6576354], [-84.5089546, 33.6576104], [-84.5089918, 33.657579], [-84.5090539, 33.657535], [-84.5091541, 33.6574695], [-84.5091774, 33.6574577], [-84.5091965, 33.657449], [-84.5093538, 33.6573892], [-84.5094608, 33.6573518], [-84.5099276, 33.6572164], [-84.5101264, 33.6571541], [-84.5101296, 33.6571605]]}, "properties": {"surface": "", "highway": "footway"}}, {"type": "Feature", "geometry": {"type": "LineString", "coordinates": [[-84.5086822, 33.6590025], [-84.5086687, 33.6590029]]}, "properties": {"surface": "", "highway": "footway"}}, {"type": "Feature", "geometry": {"type": "LineString", "coordinates": [[-84.5089714, 33.6587955], [-84.5089887, 33.658796]]}, "properties": {"surface": "", "highway": "footway"}}, {"type": "Feature", "geometry": {"type": "LineString", "coordinates": [[-84.5148554, 33.6677176], [-84.5148421, 33.6677499], [-84.5148485, 33.6677817], [-84.5148811, 33.6678218], [-84.5149235, 33.6678489], [-84.5149689, 33.6678536], [-84.5151515, 33.6678394], [-84.5153079, 33.6678176], [-84.5156427, 33.6677894], [-84.5157347, 33.6677894], [-84.5158154, 33.6677988], [-84.515889, 33.6678029], [-84.5159273, 33.6678012], [-84.5159492, 33.6677858], [-84.5159697, 33.667754], [-84.5160157, 33.6675319], [-84.5160653, 33.6672992], [-84.516124, 33.6670589], [-84.5162281, 33.6667172], [-84.5163088, 33.6664645], [-84.5164079, 33.6662571], [-84.5165919, 33.6660208], [-84.5166995, 33.665903], [-84.5168864, 33.665754], [-84.5171532, 33.6656143], [-84.5174951, 33.6654523], [-84.5178484, 33.6653033], [-84.5180592, 33.6652244]]}, "properties": {"surface": "", "highway": "footway"}}, {"type": "Feature", "geometry": {"type": "LineString", "coordinates": [[-84.5102526, 33.657397], [-84.5102703, 33.6573916]]}, "properties": {"surface": "", "highway": "footway"}}, {"type": "Feature", "geometry": {"type": "LineString", "coordinates": [[-84.5104405, 33.6573412], [-84.5104571, 33.6573361], [-84.5109439, 33.6571876]]}, "properties": {"surface": "", "highway": "footway"}}, {"type": "Feature", "geometry": {"type": "LineString", "coordinates": [[-84.5104571, 33.6573361], [-84.5104543, 33.6573218]]}, "properties": {"surface": "", "highway": "footway"}}, {"type": "Feature", "geometry": {"type": "LineString", "coordinates": [[-84.5104094, 33.6570818], [-84.5104072, 33.657072], [-84.5103918, 33.6570782]]}, "properties": {"surface": "", "highway": "footway"}}, {"type": "Feature", "geometry": {"type": "LineString", "coordinates": [[-84.5101423, 33.6571495], [-84.5101264, 33.6571541]]}, "properties": {"surface": "", "highway": "footway"}}, {"type": "Feature", "geometry": {"type": "LineString", "coordinates": [[-84.5104072, 33.657072], [-84.5104302, 33.6570637], [-84.5106815, 33.6569869], [-84.5113802, 33.6567816], [-84.5117436, 33.6566703], [-84.5118552, 33.6566333], [-84.5119515, 33.6565977], [-84.5120515, 33.6565404], [-84.5121708, 33.6564617], [-84.5121775, 33.6564568], [-84.5122046, 33.6564352], [-84.5122099, 33.6564298]]}, "properties": {"surface": "", "highway": "footway"}}, {"type": "Feature", "geometry": {"type": "LineString", "coordinates": [[-84.511055, 33.6571576], [-84.511576, 33.6570017]]}, "properties": {"surface": "", "highway": "footway"}}, {"type": "Feature", "geometry": {"type": "LineString", "coordinates": [[-84.5116838, 33.6569711], [-84.5117874, 33.6569402], [-84.5119915, 33.6568708], [-84.5120527, 33.6568468], [-84.5121435, 33.6568038], [-84.5122639, 33.6567353], [-84.5124314, 33.6566156], [-84.5124464, 33.6566062]]}, "properties": {"surface": "", "highway": "footway"}}, {"type": "Feature", "geometry": {"type": "LineString", "coordinates": [[-84.5124314, 33.6566156], [-84.5124165, 33.6566057]]}, "properties": {"surface": "", "highway": "footway"}}, {"type": "Feature", "geometry": {"type": "LineString", "coordinates": [[-84.5122046, 33.6564352], [-84.5122105, 33.6564401]]}, "properties": {"surface": "", "highway": "footway"}}, {"type": "Feature", "geometry": {"type": "LineString", "coordinates": [[-84.5122798, 33.6563292], [-84.512363, 33.6562285], [-84.5125173, 33.6559994], [-84.5126201, 33.6558101], [-84.5126493, 33.6557344], [-84.5126449, 33.6556668], [-84.5126193, 33.6555899], [-84.5126076, 33.655568], [-84.5125686, 33.6555291], [-84.5125126, 33.6554971], [-84.5124386, 33.6554747], [-84.5120932, 33.6553926], [-84.5118272, 33.6553308], [-84.5116983, 33.6552826], [-84.5115501, 33.6552311], [-84.5108769, 33.6550672], [-84.5103949, 33.6549586]]}, "properties": {"surface": "", "highway": "footway"}}, {"type": "Feature", "geometry": {"type": "LineString", "coordinates": [[-84.5125628, 33.6564993], [-84.5126783, 33.6563647], [-84.512781, 33.6562377], [-84.5128476, 33.6561491], [-84.5128757, 33.6560963], [-84.51292, 33.6559692], [-84.5129325, 33.6559151], [-84.5129495, 33.6558385], [-84.5129635, 33.6557974], [-84.5130004, 33.6557353], [-84.5130425, 33.6556954], [-84.5130808, 33.6556733]]}, "properties": {"surface": "", "highway": "footway"}}, {"type": "Feature", "geometry": {"type": "LineString", "coordinates": [[-84.5164144, 33.6563818], [-84.5155509, 33.6561805], [-84.5145062, 33.6559311], [-84.5133677, 33.6556595], [-84.5132393, 33.6556303], [-84.5131588, 33.6556383], [-84.5130808, 33.6556733]]}, "properties": {"surface": "", "highway": "footway"}}, {"type": "Feature", "geometry": {"type": "LineString", "coordinates": [[-84.5126176, 33.6555631], [-84.5126076, 33.655568]]}, "properties": {"surface": "", "highway": "footway"}}, {"type": "Feature", "geometry": {"type": "LineString", "coordinates": [[-84.5103949, 33.6549586], [-84.510345, 33.654956], [-84.5103028, 33.6549626], [-84.5102805, 33.6549701], [-84.5102707, 33.6549667]]}, "properties": {"surface": "", "highway": "footway"}}, {"type": "Feature", "geometry": {"type": "LineString", "coordinates": [[-84.5100735, 33.6549243], [-84.5100559, 33.654926], [-84.510009, 33.654902], [-84.5099348, 33.6548775], [-84.5094657, 33.6547715], [-84.5093474, 33.6547375], [-84.5092253, 33.6546924], [-84.5091377, 33.6546585], [-84.5090771, 33.6546425], [-84.5085232, 33.6545073], [-84.5076695, 33.6543109], [-84.5073024, 33.6542576], [-84.5071006, 33.6542364], [-84.5067657, 33.6542226], [-84.5064462, 33.6542206], [-84.5060656, 33.6542461], [-84.5057745, 33.6542929], [-84.5054604, 33.6543645], [-84.5050269, 33.6544814], [-84.5048074, 33.6545622], [-84.5042903, 33.6547732], [-84.5042293, 33.6548168], [-84.504186, 33.6548623], [-84.5041596, 33.6549062], [-84.504147, 33.6549036]]}, "properties": {"surface": "", "highway": "footway"}}]}