{"type": "FeatureCollection", "features": [{"type": "Feature", "geometry": {"type": "Polygon", "coordinates": [[[-84.53274165507666, 33.657822350037875], [-84.53337455164674, 33.65829863535472], [-84.53394858185743, 33.65882450065002], [-84.5344582173137, 33.659394882398544], [-84.5348985493809, 33.66000428832876], [-84.53526533647936, 33.660646850285005], [-84.53555504496916, 33.66131638071199], [-84.53576488323019, 33.662006432218625], [-84.53589282860727, 33.662710359648756], [-84.53593764695843, 33.66342138406149], [-84.5358989046156, 33.664132658006004], [-84.53577697263967, 33.664837331462174], [-84.53557302332551, 33.665528617812484], [-84.53528901898835, 33.66619985920951], [-84.53492769313576, 33.66684459070933], [-84.53449252420438, 33.667456602552534], [-84.53398770211182, 33.66802999999224], [-84.53341808794382, 33.66855926009221], [-84.53278916716343, 33.66903928494651], [-84.53210699679207, 33.66946545080775], [-84.53137814707047, 33.669833652648606], [-84.53060963816202, 33.67014034372697], [-84.5298088725084, 33.67038256977219], [-84.52959822394686, 33.67042734582253], [-84.52935003258708, 33.67055272022496], [-84.528581509989, 33.670859398747346], [-84.52778073188048, 33.671101611706156], [-84.52695541176293, 33.671277025905184], [-84.52611349971978, 33.67138395159282], [-84.52526310578375, 33.671421358751495], [-84.52441242175735, 33.67138888702737], [-84.52398588286066, 33.671337245443816], [-84.52369655465927, 33.67134996809463], [-84.52331938396753, 33.67188025435486], [-84.52311071751575, 33.67211720159442], [-84.52302654214677, 33.672603204582096], [-84.5229548425469, 33.67284608145255], [-84.52307402340423, 33.67350224846879], [-84.52310630203208, 33.67401547324718], [-84.52322613913341, 33.67467523723915], [-84.52327086043618, 33.67538626551577], [-84.52323200935311, 33.67609753483658], [-84.52310995799114, 33.67680219522533], [-84.5229058797941, 33.67749346018951], [-84.5226217383178, 33.67816467208695], [-84.5222602683903, 33.678809366256985], [-84.52182494983577, 33.679421333299025], [-84.52131997401317, 33.67999467889697], [-84.52075020348936, 33.68052388061323], [-84.52012112523414, 33.68100384110376], [-84.51943879778669, 33.681429937240615], [-84.51870979290183, 33.68179806466785], [-84.51794113223875, 33.68210467735996], [-84.51714021970223, 33.682346821801296], [-84.51631477008975, 33.6825221654557], [-84.51547273473331, 33.6826290192513], [-84.51475147624897, 33.68266068052744], [-84.51476662331315, 33.68290185794266], [-84.51476545649957, 33.682923179552574], [-84.51484832777842, 33.683195860844975], [-84.51493565329832, 33.68367683765218], [-84.51503856062402, 33.68368930270017], [-84.51547658510108, 33.683779715502745], [-84.51567950981976, 33.68380429452051], [-84.5165063745763, 33.68397496174494], [-84.5173092517405, 33.684212556498], [-84.51808041077597, 33.684514791135626], [-84.51831082141399, 33.68462935410678], [-84.51880446323096, 33.684380089690336], [-84.51957314095664, 33.68407347163008], [-84.52037406249386, 33.68383131142865], [-84.52062977553544, 33.6837769848848], [-84.52103933779983, 33.683570164151824], [-84.52107036121355, 33.68355778854462], [-84.52116205026753, 33.68345369103984], [-84.52173183741141, 33.682924487566396], [-84.52236092052964, 33.68244451899274], [-84.52244264265133, 33.68239348361368], [-84.5229238376844, 33.68194654616676], [-84.5232526234737, 33.681695686442666], [-84.52351408776305, 33.68139881734273], [-84.5240838469554, 33.68086960303097], [-84.5247129020313, 33.68038962250779], [-84.52533735633482, 33.67999962077795], [-84.52575283920483, 33.6796136852258], [-84.52638187584547, 33.679133696230494], [-84.52676711342926, 33.67889308603344], [-84.52707012433493, 33.678549008612684], [-84.52763984295235, 33.67801977792928], [-84.52826885749336, 33.67753977935121], [-84.52895111037532, 33.67711363468155], [-84.52968003169791, 33.676745447109504], [-84.53007644668669, 33.67658726517404], [-84.53021980065479, 33.67647786607097], [-84.53090203547335, 33.67605171067774], [-84.53159991557516, 33.67569918322446], [-84.53221475302144, 33.67522995453198], [-84.53289696809756, 33.67480378817178], [-84.53362585298501, 33.674435577432284], [-84.53439438906612, 33.674128867627296], [-84.53519517619908, 33.673886611872035], [-84.53602050393613, 33.673711142668786], [-84.53686242571911, 33.673604149464744], [-84.53771283534002, 33.673566662397754], [-84.53856354493298, 33.673599042385746], [-84.53940636374946, 33.673700977654846], [-84.54023317696078, 33.67387148673945], [-84.54103602373254, 33.67410892792562], [-84.5418071738215, 33.67441101504702], [-84.54253920196014, 33.6747748394819], [-84.54322505931515, 33.675196898140065], [-84.54385814133302, 33.67567312717117], [-84.54443235132142, 33.67619894107093], [-84.54494215915474, 33.6767692768097], [-84.54538265453859, 33.677378642559745], [-84.54574959432044, 33.67802117055312], [-84.54603944338952, 33.678690673562386], [-84.54624940877112, 33.679380704461316], [-84.54637746658469, 33.68008461829298], [-84.54642238160399, 33.68079563624814], [-84.54638371922837, 33.6815069109388], [-84.54626184974671, 33.68221159233816], [-84.54605794485015, 33.68290289375257], [-84.54585381482921, 33.68338541398393], [-84.54580898432188, 33.68364462231618], [-84.54560507252341, 33.684335922871725], [-84.54532108596536, 33.68500718516971], [-84.54495975798206, 33.68565194406496], [-84.54492231911156, 33.685704597883195], [-84.54486020867272, 33.68606368565168], [-84.54465628374346, 33.68675498446321], [-84.54437228201944, 33.68742624442408], [-84.54401093698087, 33.68807100041151], [-84.5435757272472, 33.688683042430064], [-84.5430708431273, 33.689256475441915], [-84.54299708710735, 33.68932500207854], [-84.54302543612167, 33.689480847037956], [-84.54307032920607, 33.69019186528776], [-84.54303163576824, 33.6909031380683], [-84.54296436738592, 33.69129197341742], [-84.54296561833434, 33.69129885020055], [-84.54301051201915, 33.69200986825986], [-84.54297181742113, 33.69272114082148], [-84.54293951620433, 33.6929078493373], [-84.54297806774393, 33.69297534685844], [-84.54326794673268, 33.693644854551195], [-84.5433760593225, 33.69400013294705], [-84.54340415292954, 33.69404931914976], [-84.54369403890122, 33.69471882567889], [-84.54390402582362, 33.69540885863438], [-84.54403208960721, 33.69611277303961], [-84.54407080751201, 33.696725820666096], [-84.54427840504881, 33.69708926214354], [-84.5445683082226, 33.69775876617486], [-84.54477830975459, 33.69844879720569], [-84.54490638541434, 33.69915271027806], [-84.54495129980185, 33.69986372659015], [-84.54493273273738, 33.70020513772236], [-84.54497949421501, 33.700358782539254], [-84.54510757450197, 33.701062695154576], [-84.54515249169597, 33.7017737111555], [-84.54514902290768, 33.70183749697948], [-84.54526567249144, 33.702220762048896], [-84.54539375802337, 33.70292467412021], [-84.54543867869523, 33.70363568977986], [-84.54539999984968, 33.70434696166191], [-84.54536718033575, 33.70453667312338], [-84.5454099425544, 33.704771671951626], [-84.54545486447185, 33.70548268738534], [-84.54541618508273, 33.706193959064734], [-84.54529427483726, 33.706898636991916], [-84.54509030581679, 33.70758993450639], [-84.54495135209717, 33.70791828981271], [-84.54495611758159, 33.707993720725206], [-84.54491743315894, 33.70870499199567], [-84.54479551549038, 33.70940966919703], [-84.54459153672852, 33.710100965675714], [-84.54430745946777, 33.71077222348657], [-84.54394601791397, 33.711416977527065], [-84.54351069161454, 33.712029017819916], [-84.54335057154174, 33.71221082942408], [-84.5433257190381, 33.712295048933754], [-84.54304162484308, 33.712966303712705], [-84.5426801647612, 33.71361105394856], [-84.5422448185182, 33.714223089700575], [-84.54173977773648, 33.714796515990514], [-84.5411699056058, 33.71532580960295], [-84.54054069007236, 33.71580587230778], [-84.53985819099597, 33.71623207999155], [-84.53912898178369, 33.7166003272226], [-84.53836008606255, 33.716907066820184], [-84.53755891000196, 33.71714934404489], [-84.53673317093887, 33.717324825080226], [-84.5358908229951, 33.717431819529814], [-84.53503998040553, 33.71746929671282], [-84.53418883929801, 33.71743689560043], [-84.53334559868141, 33.71733492829648], [-84.53251838140571, 33.717164377029434], [-84.53171515585827, 33.71692688468418], [-84.53094365915345, 33.7166247389654], [-84.53021132255796, 33.716260850345634], [-84.52952519987251, 33.715838724011036], [-84.5288918994614, 33.71536242607607], [-84.52831752058637, 33.71483654439352], [-84.52800356047193, 33.714485351665985], [-84.52782125667854, 33.71439475976476], [-84.5276515353916, 33.71429033472985], [-84.52734191660392, 33.71419877260154], [-84.52657045944933, 33.71389659917133], [-84.52583816432721, 33.713532684187825], [-84.52515208463842, 33.71311053309111], [-84.5246947192674, 33.71276651421873], [-84.52439111277212, 33.7126156292135], [-84.52370504742447, 33.71219346992274], [-84.523071805818, 33.71171714148051], [-84.52249748664758, 33.71119123203333], [-84.5219876207487, 33.71062080722366], [-84.52154711783922, 33.71001136137245], [-84.52118021925789, 33.709368764534325], [-84.5208904571545, 33.708699205936625], [-84.5206806205226, 33.70800913434813], [-84.52055272840052, 33.70730519595255], [-84.52050801049627, 33.70659417032625], [-84.52054689542024, 33.70588290513694], [-84.52064679968755, 33.70530639845135], [-84.52064414442114, 33.70526417901711], [-84.52068302772484, 33.70455291364299], [-84.52070858990594, 33.704405401919665], [-84.52066204500257, 33.70414920188549], [-84.52063361552499, 33.70369715762544], [-84.52049008814755, 33.703225119257546], [-84.52037719817841, 33.70260371124447], [-84.52017602941405, 33.70194208247415], [-84.5197225117399, 33.701764385979565], [-84.51899034855616, 33.70140042883232], [-84.51897240064204, 33.70138938228453], [-84.5184476918936, 33.701281115614684], [-84.5176446524853, 33.70104352995441], [-84.51687334676598, 33.700741294342336], [-84.51671279178763, 33.70066147736928], [-84.51665756517447, 33.700650081038084], [-84.51585453647479, 33.7004124836484], [-84.51583342072136, 33.700404209112044], [-84.51582917935086, 33.7004286777759], [-84.51562498864487, 33.70111992880568], [-84.51534071434092, 33.701791122256495], [-84.51497909254475, 33.702435793644575], [-84.51488228227363, 33.70257183063008], [-84.51483936571596, 33.70281939557432], [-84.51486967413136, 33.703301837958136], [-84.51486611288182, 33.70336690233674], [-84.51489460352093, 33.70343275291372], [-84.51510438250766, 33.70412283520881], [-84.51523222528026, 33.704826779922065], [-84.51525599441713, 33.705205094374186], [-84.51527827496136, 33.70532777645107], [-84.51529656225237, 33.70561883660128], [-84.51551284561191, 33.706118710785326], [-84.51572263625884, 33.70680879165741], [-84.51585048824867, 33.70751273536728], [-84.51589516833397, 33.70822376281669], [-84.51585624417353, 33.70893502652462], [-84.51573408857482, 33.709639676568315], [-84.5155298759825, 33.7103309265543], [-84.51524557124402, 33.71100211898373], [-84.51488391075749, 33.711646789382506], [-84.514715447493, 33.711883486551855], [-84.51473094422424, 33.711968811324176], [-84.51477561772921, 33.71267983870974], [-84.51473668266006, 33.713391101623415], [-84.5146560188672, 33.71385635036592], [-84.51474686242416, 33.71393954731967], [-84.51508109772628, 33.714313522144124], [-84.51530832463548, 33.71414024224269], [-84.51599092981938, 33.71371416938584], [-84.51672021479781, 33.71334605810002], [-84.5174891571031, 33.71303945274059], [-84.51829035268487, 33.71279730541651], [-84.51911608716574, 33.71262194758569], [-84.51995841007457, 33.712515067622945], [-84.52080921134443, 33.71247769457608], [-84.52166029934182, 33.7125101882657], [-84.5225034796777, 33.712612235823954], [-84.5233306340452, 33.71278285470507], [-84.5241337983272, 33.713020402139094], [-84.52490523922489, 33.71332259093797], [-84.52563752867155, 33.713686511502296], [-84.52632361531795, 33.71410865981761], [-84.52695689240218, 33.714584971171604], [-84.52753126135237, 33.715110859268535], [-84.52804119051018, 33.715681260365365], [-84.52848176841039, 33.716290682005834], [-84.52884875110263, 33.716933255884456], [-84.52913860305932, 33.7176027943323], [-84.52934853127398, 33.71829284988193], [-84.52947651221983, 33.718996777338795], [-84.52952131140674, 33.71970779776198], [-84.52948249534549, 33.72041906373891], [-84.52936043580118, 33.7211237253257], [-84.529156306292, 33.72181499601824], [-84.52887207086368, 33.72248621811883], [-84.52851046524522, 33.723130926867924], [-84.5280749705643, 33.72374291272362], [-84.5275697798734, 33.72431628118752], [-84.52699975780686, 33.72484550960063], [-84.52637039375594, 33.72532550036035], [-84.52568774901205, 33.725751630045835], [-84.52495839838649, 33.72611979397653], [-84.52418936686976, 33.72642644577399], [-84.52338806194057, 33.72666863154464], [-84.52256220217842, 33.72684401835311], [-84.52171974286902, 33.72695091671098], [-84.52086879932104, 33.72698829686353], [-84.52001756863565, 33.72695579871709], [-84.51917425068532, 33.72685373531078], [-84.51834696906538, 33.726683089799415], [-84.51754369278315, 33.72644550597633], [-84.51677215944162, 33.72614327242798], [-84.51603980066001, 33.725779300473484], [-84.51535367045207, 33.72535709610218], [-84.51472037725374, 33.724880726180594], [-84.51414602025619, 33.72435477925517], [-84.51381174967466, 33.72398080272935], [-84.51358449398587, 33.72415407978498], [-84.51290179462946, 33.72458013922112], [-84.51217239858525, 33.72494822799568], [-84.51140333128204, 33.725254800454394], [-84.51060200054395, 33.725496903468205], [-84.50977612519968, 33.72567220489932], [-84.50893366068539, 33.72577901608212], [-84.50808272236004, 33.725816308102154], [-84.50762579884848, 33.72579881679719], [-84.507417917193, 33.7261692388728], [-84.50698225698821, 33.72678115109205], [-84.50647690764053, 33.72735443398805], [-84.50590673531387, 33.72788356572536], [-84.50527723084834, 33.72836344963224], [-84.5045944568894, 33.72878946331688], [-84.50386498949462, 33.72915750321612], [-84.50309585478072, 33.72946402414643], [-84.50229446122188, 33.729706073475235], [-84.50146852825256, 33.72988131958194], [-84.50066358141808, 33.72998331404627], [-84.5003080833036, 33.729903303707914], [-84.49950165395279, 33.72964776302083], [-84.49872954779131, 33.72932663479656], [-84.49799938326916, 33.72894308779376], [-84.49731836470391, 33.72850090665158], [-84.49669321117, 33.72800445452148], [-84.49613009019093, 33.72745862998948], [-84.4956345568893, 33.726868818714884], [-84.495211499195, 33.72624084026417], [-84.49486508965185, 33.72558089066572], [-84.49459874429695, 33.724895481253576], [-84.49441508901664, 33.72419137440448], [-84.49431593370886, 33.72347551680354], [-84.4941891134408, 33.721861029792684], [-84.49393130034227, 33.720261604003554], [-84.49379372624603, 33.71968210266018], [-84.49378470436803, 33.71964355322639], [-84.49368761912106, 33.7192226717371], [-84.49354111197135, 33.71875248057568], [-84.49342407176772, 33.718524210140295], [-84.49325115463505, 33.718209763078605], [-84.49316240931701, 33.71803095178936], [-84.49292876594544, 33.71760531617704], [-84.4926713094875, 33.71708366550413], [-84.49259277466666, 33.71690513985563], [-84.492299871464, 33.71639403483576], [-84.49219132637072, 33.71619712696508], [-84.4916089678249, 33.71509774132903], [-84.49161398196237, 33.715095211827396], [-84.49175918867344, 33.71503735054247], [-84.4918129713924, 33.715010218436404], [-84.49258201835629, 33.714703767587196], [-84.49338330067872, 33.71446178136653], [-84.49420910314844, 33.714286589681834], [-84.49505147464066, 33.71417987930898], [-84.49590230462144, 33.7141426776638], [-84.49675340118114, 33.714175342917564], [-84.49749296355635, 33.71426500064795], [-84.49736788880023, 33.71357557941849], [-84.49732335818636, 33.71286454496362], [-84.4973624366728, 33.71215328659962], [-84.49744733409435, 33.711664187302794], [-84.49737012261407, 33.7112385784123], [-84.49732559335469, 33.710527543682055], [-84.4973646709308, 33.70981628505475], [-84.49748697695054, 33.709111652274395], [-84.49769133156018, 33.708420431110525], [-84.49797576488277, 33.70774927801641], [-84.49812875972371, 33.70747666545814], [-84.4981160116763, 33.707406394855575], [-84.49804002014697, 33.707230674056525], [-84.49783036959509, 33.706540562339185], [-84.49770266596018, 33.70583659895638], [-84.497685710251, 33.70556585208273], [-84.49730879475295, 33.705582339934566], [-84.49645778280639, 33.7055496779524], [-84.49587175651509, 33.70547862124644], [-84.49578119579654, 33.705475144730194], [-84.49555232054186, 33.70550414311015], [-84.49470157554211, 33.70554134188651], [-84.49385056483266, 33.705508661934935], [-84.49300748616504, 33.705406418046785], [-84.49271534614815, 33.70534607693848], [-84.49256145078527, 33.70532741233198], [-84.49212662673416, 33.70523759800349], [-84.49137996997756, 33.70533217505978], [-84.49052922462944, 33.70536934510398], [-84.4896782169529, 33.705336636389276], [-84.48889229962634, 33.70524129759467], [-84.48888794686744, 33.704962244867176], [-84.48896809538626, 33.7034822495237], [-84.48901557858115, 33.702984871097954], [-84.48924574454158, 33.70130488594608], [-84.48945369786806, 33.700353535511994], [-84.4900338738272, 33.69843357342877], [-84.49011956581832, 33.69817085516457], [-84.49064440335815, 33.696673096920804], [-84.49071637059939, 33.69645071944042], [-84.49103345199114, 33.69541850187987], [-84.49108703488695, 33.69519354646743], [-84.49112720762403, 33.69503424388906], [-84.49133046143267, 33.694270788424426], [-84.4914118904374, 33.693468146724285], [-84.49141070024451, 33.693402325586895], [-84.49139087599394, 33.69173298887171], [-84.49138153778905, 33.690960892766185], [-84.49137288111886, 33.690648121041335], [-84.49137055912438, 33.690479695205056], [-84.49137057420305, 33.69032969511483], [-84.49137058301964, 33.69024198371742], [-84.49136475570079, 33.690084217989615], [-84.4913619738599, 33.68998838282688], [-84.49128235621197, 33.68621854992002], [-84.49127240711749, 33.685748723852086], [-84.49127185247968, 33.68571911864398], [-84.49126210190093, 33.68512066536165], [-84.49124323347237, 33.68418201040817], [-84.49122461602268, 33.68362179873765], [-84.49122762169101, 33.683556078920745], [-84.49097193293841, 33.68056100723067], [-84.49056110123252, 33.677942524864115], [-84.49049984224807, 33.67762074747264], [-84.49046971509114, 33.67744933672941], [-84.49011992677514, 33.675279311447774], [-84.49010609470106, 33.675189242412785], [-84.48999253623435, 33.67441127428192], [-84.489980861025, 33.67435451966141], [-84.4896253853849, 33.672161076043324], [-84.48944003612729, 33.67107761738997], [-84.48939827996847, 33.67079370255444], [-84.48934893503495, 33.67039314829121], [-84.48935515867339, 33.67038205642432], [-84.48979066323454, 33.66977020173494], [-84.49029579025247, 33.66919698310618], [-84.49086567445487, 33.66866792014079], [-84.49149482731659, 33.66818810716263], [-84.4916979929053, 33.668061288392224], [-84.49178082116788, 33.667998119816254], [-84.49246318086189, 33.667572175266805], [-84.49319217943656, 33.66720420186169], [-84.49396079718204, 33.66689774263029], [-84.49476163317227, 33.666655748276256], [-84.4950683753492, 33.66659063540409], [-84.49515669907643, 33.666523270175176], [-84.49583903038814, 33.66609730705721], [-84.4965680020298, 33.66572931381542], [-84.49680348458456, 33.66563541469694], [-84.4972215464734, 33.66524723464827], [-84.49785063902823, 33.664767389415566], [-84.49853294314526, 33.664341411469955], [-84.49926188843288, 33.66397340239587], [-84.50003045569379, 33.6636669055661], [-84.5008312444875, 33.6634248720463], [-84.50104177988567, 33.66338016865413], [-84.50102439888772, 33.663356097246755], [-84.50065785374319, 33.66271343243969], [-84.50036841005102, 33.662043818703104], [-84.50015885374079, 33.66135370533497], [-84.50003120115453, 33.660649738919695], [-84.49998667969739, 33.65993869930193], [-84.5000257160924, 33.65922743428292], [-84.50011175790725, 33.65873135942572], [-84.50010239836635, 33.65867974289706], [-84.50005787747999, 33.65796870307574], [-84.50009691254104, 33.6572574378166], [-84.50021912557237, 33.65655279692779], [-84.50042333762079, 33.65586156625761], [-84.50070758018701, 33.65519040235178], [-84.50106911425333, 33.65454576836213], [-84.50150445672367, 33.653933871823], [-84.50200941401859, 33.653360604894026], [-84.5025791224998, 33.65283148764377], [-84.50320809533366, 33.652351614919475], [-84.50389027534115, 33.65192560731308], [-84.50461909332506, 33.651557566694954], [-84.50494432559948, 33.651427832371475], [-84.50548421222175, 33.6510906693543], [-84.50621301633214, 33.650722619375905], [-84.50698144118819, 33.65041607955575], [-84.50778208771955, 33.650174001373536], [-84.50786787724554, 33.650155777684944], [-84.50788392113655, 33.65014767500453], [-84.50865233488558, 33.64984112483956], [-84.50945297133337, 33.649599035876875], [-84.51027812148288, 33.64942373901397], [-84.51035402891766, 33.649414106350754], [-84.51086407579906, 33.649305747324895], [-84.51170579289428, 33.64919892637137], [-84.51255597504347, 33.64916161370728], [-84.51340643656927, 33.64919416857237], [-84.51424898910942, 33.6492962775099], [-84.5150755203967, 33.649466957382785], [-84.51587807230862, 33.64970456483321], [-84.5166489174383, 33.65000681209413], [-84.51672616624654, 33.650045238258045], [-84.51747265789463, 33.64974736787782], [-84.51827326826151, 33.649505221955586], [-84.51909839909794, 33.649329866342505], [-84.51994010574055, 33.649222989392975], [-84.52045299292465, 33.64920044633373], [-84.52061404999311, 33.649179994502205], [-84.52146422754706, 33.649142620605595], [-84.52231469167255, 33.64917511417178], [-84.52315725398236, 33.64927716233384], [-84.52398380211541, 33.64944778253958], [-84.52478637778731, 33.64968533200532], [-84.52555725336282, 33.64998752352212], [-84.52628900621556, 33.65035144746284], [-84.52697459016092, 33.650773599778645], [-84.52760740327643, 33.6512499157168], [-84.52818135145782, 33.65177580893535], [-84.5286909070996, 33.65234621563989], [-84.52913116233556, 33.652955643318265], [-84.52949787632579, 33.653598223604995], [-84.52978751613455, 33.65426776876791], [-84.52999729080341, 33.65495783127361], [-84.53012517828995, 33.655661765859655], [-84.53016994501031, 33.65637279351584], [-84.53015663644894, 33.65661684482176], [-84.53055319184084, 33.65673418725351], [-84.5313241503121, 33.65703634191464], [-84.53205598705462, 33.6574002307463], [-84.53274165507666, 33.657822350037875]]]}, "properties": {"kind": "walkshed", "buffer_mi": 0.5}}, {"type": "Feature", "geometry": {"type": "Point", "coordinates": [-84.508054, 33.718561]}, "properties": {"kind": "stop", "name": "FAIRBURN RD @ NEWHALEM ST", "mode": "bus"}}, {"type": "Feature", "geometry": {"type": "Point", "coordinates": [-84.506113, 33.710416]}, "properties": {"kind": "stop", "name": "FAIRBURN RD @ 1581", "mode": "bus"}}, {"type": "Feature", "geometry": {"type": "Point", "coordinates": [-84.507214, 33.708248]}, "properties": {"kind": "stop", "name": "FAIRBURN RD @ MELVIN DR SW", "mode": "bus"}}, {"type": "Feature", "geometry": {"type": "Point", "coordinates": [-84.506596, 33.705562]}, "properties": {"kind": "stop", "name": "FAIRBURN RD SW @ HERITAGE VALLEY RD SW", "mode": "bus"}}, {"type": "Feature", "geometry": {"type": "Point", "coordinates": [-84.506189, 33.703326]}, "properties": {"kind": "stop", "name": "FAIRBURN RD SW @ GLENVIEW CIR SW", "mode": "bus"}}, {"type": "Feature", "geometry": {"type": "Point", "coordinates": [-84.506284, 33.701635]}, "properties": {"kind": "stop", "name": "FAIRBURN RD SW @ MT GILEAD RD SW", "mode": "bus"}}, {"type": "Feature", "geometry": {"type": "Point", "coordinates": [-84.50733, 33.698909]}, "properties": {"kind": "stop", "name": "BARGE RD SW @ FAIRBURN RD SW", "mode": "bus"}}, {"type": "Feature", "geometry": {"type": "Point", "coordinates": [-84.506653, 33.700061]}, "properties": {"kind": "stop", "name": "FAIRBURN RD SW @ HILL ACRES RD SW", "mode": "bus"}}, {"type": "Feature", "geometry": {"type": "Point", "coordinates": [-84.506177, 33.701514]}, "properties": {"kind": "stop", "name": "FAIRBURN RD SW @ MT GILEAD RD SW", "mode": "bus"}}, {"type": "Feature", "geometry": {"type": "Point", "coordinates": [-84.506642, 33.706063]}, "properties": {"kind": "stop", "name": "FAIRBURN RD SW @ HERITAGE VALLEY RD SW", "mode": "bus"}}, {"type": "Feature", "geometry": {"type": "Point", "coordinates": [-84.507105, 33.70833]}, "properties": {"kind": "stop", "name": "FAIRBURN RD SW @ MELVIN DR SW", "mode": "bus"}}, {"type": "Feature", "geometry": {"type": "Point", "coordinates": [-84.506005, 33.712841]}, "properties": {"kind": "stop", "name": "FAIRBURN RD SW @ LANDAU LN SW", "mode": "bus"}}, {"type": "Feature", "geometry": {"type": "Point", "coordinates": [-84.535397, 33.69685]}, "properties": {"kind": "stop", "name": "COUNTY LINE RD SW @ WILSON JAMES RD SW", "mode": "bus"}}, {"type": "Feature", "geometry": {"type": "Point", "coordinates": [-84.536271, 33.69989]}, "properties": {"kind": "stop", "name": "COUNTY LINE RD SW@2056", "mode": "bus"}}, {"type": "Feature", "geometry": {"type": "Point", "coordinates": [-84.536472, 33.7018]}, "properties": {"kind": "stop", "name": "COUNTY LINE RD SW@2000", "mode": "bus"}}, {"type": "Feature", "geometry": {"type": "Point", "coordinates": [-84.536758, 33.703662]}, "properties": {"kind": "stop", "name": "COUNTY LINE RD SW @ 1947", "mode": "bus"}}, {"type": "Feature", "geometry": {"type": "Point", "coordinates": [-84.536774, 33.705509]}, "properties": {"kind": "stop", "name": "COUNTY LINE RD SW @ GREENBRIAR TRL SW", "mode": "bus"}}, {"type": "Feature", "geometry": {"type": "Point", "coordinates": [-84.536275, 33.70802]}, "properties": {"kind": "stop", "name": "COUNTY LINE RD SW @ REGENCY TRCE SW", "mode": "bus"}}, {"type": "Feature", "geometry": {"type": "Point", "coordinates": [-84.532619, 33.708348]}, "properties": {"kind": "stop", "name": "NISKEY LAKE RD @ LAKE COVE WAY SW", "mode": "bus"}}, {"type": "Feature", "geometry": {"type": "Point", "coordinates": [-84.530636, 33.707486]}, "properties": {"kind": "stop", "name": "NISKEY LAKE RD @ NISKEY OVERLOOK", "mode": "bus"}}, {"type": "Feature", "geometry": {"type": "Point", "coordinates": [-84.529189, 33.706569]}, "properties": {"kind": "stop", "name": "NISKEY LAKE RD SW@1760", "mode": "bus"}}, {"type": "Feature", "geometry": {"type": "Point", "coordinates": [-84.529325, 33.705239]}, "properties": {"kind": "stop", "name": "NISKEY LAKE RD SW@LYON BLVD", "mode": "bus"}}, {"type": "Feature", "geometry": {"type": "Point", "coordinates": [-84.529298, 33.703413]}, "properties": {"kind": "stop", "name": "NISKEY LAKE RD SW@1883", "mode": "bus"}}, {"type": "Feature", "geometry": {"type": "Point", "coordinates": [-84.528682, 33.700496]}, "properties": {"kind": "stop", "name": "NISKEY LAKE RD SW@BROOKS RD SW", "mode": "bus"}}, {"type": "Feature", "geometry": {"type": "Point", "coordinates": [-84.506053, 33.703473]}, "properties": {"kind": "stop", "name": "FAIRBURN RD @ GLENVIEW CIR", "mode": "bus"}}, {"type": "Feature", "geometry": {"type": "Point", "coordinates": [-84.506094, 33.712704]}, "properties": {"kind": "stop", "name": "FAIRBURN RD @ GARRISON DR", "mode": "bus"}}, {"type": "Feature", "geometry": {"type": "Point", "coordinates": [-84.506339, 33.705102]}, "properties": {"kind": "stop", "name": "FAIRBURN RD @ INGLEDALE DR", "mode": "bus"}}, {"type": "Feature", "geometry": {"type": "Point", "coordinates": [-84.506007, 33.710504]}, "properties": {"kind": "stop", "name": "FAIRBURN RD @ 1624", "mode": "bus"}}, {"type": "Feature", "geometry": {"type": "Point", "coordinates": [-84.535009, 33.710214]}, "properties": {"kind": "stop", "name": "NISKEY LAKE RD @ COUNTY LINE RD", "mode": "bus"}}, {"type": "Feature", "geometry": {"type": "Point", "coordinates": [-84.495731, 33.721483]}, "properties": {"kind": "stop", "name": "CASCADE RD SW@KINGSDALE DR SW", "mode": "bus"}}, {"type": "Feature", "geometry": {"type": "Point", "coordinates": [-84.49593, 33.721398]}, "properties": {"kind": "stop", "name": "CASCADE RD SW@KINGSDALE DR SW", "mode": "bus"}}, {"type": "Feature", "geometry": {"type": "Point", "coordinates": [-84.494674, 33.698286]}, "properties": {"kind": "stop", "name": "MT GILEAD RD SW@IMPERIAL CIR SW", "mode": "bus"}}, {"type": "Feature", "geometry": {"type": "Point", "coordinates": [-84.497281, 33.698327]}, "properties": {"kind": "stop", "name": "MT GILEAD RD SW @ MEADOWLANE DR SW", "mode": "bus"}}, {"type": "Feature", "geometry": {"type": "Point", "coordinates": [-84.494228, 33.698207]}, "properties": {"kind": "stop", "name": "MT GILEAD RD@PANTHER TRL", "mode": "bus"}}, {"type": "Feature", "geometry": {"type": "Point", "coordinates": [-84.490502, 33.698114]}, "properties": {"kind": "stop", "name": "PANTHER TRL SW @ STAR MIST DR SW", "mode": "bus"}}, {"type": "Feature", "geometry": {"type": "Point", "coordinates": [-84.496488, 33.698248]}, "properties": {"kind": "stop", "name": "MT GILEAD RD SW @ CASCADE PARC BLVD", "mode": "bus"}}, {"type": "Feature", "geometry": {"type": "Point", "coordinates": [-84.499747, 33.72277]}, "properties": {"kind": "stop", "name": "CASCADE RD @ SHANTER TRL", "mode": "bus"}}, {"type": "Feature", "geometry": {"type": "Point", "coordinates": [-84.506289, 33.690096]}, "properties": {"kind": "stop", "name": "CAMPBELLTON RD SW @ BARGE RD SW", "mode": "bus"}}, {"type": "Feature", "geometry": {"type": "Point", "coordinates": [-84.506364, 33.689084]}, "properties": {"kind": "stop", "name": "BARGE RD SW @ CAMPBELLTON RD SW", "mode": "bus"}}, {"type": "Feature", "geometry": {"type": "Point", "coordinates": [-84.506209, 33.688216]}, "properties": {"kind": "stop", "name": "BARGE RD SW @ 2440", "mode": "bus"}}, {"type": "Feature", "geometry": {"type": "Point", "coordinates": [-84.506303, 33.686631]}, "properties": {"kind": "stop", "name": "BARGE RD SW @ MELLWOOD PL SW", "mode": "bus"}}, {"type": "Feature", "geometry": {"type": "Point", "coordinates": [-84.506216, 33.686605]}, "properties": {"kind": "stop", "name": "BARGE RD SW @ MELLWOOD PL SW", "mode": "bus"}}, {"type": "Feature", "geometry": {"type": "Point", "coordinates": [-84.506342, 33.684635]}, "properties": {"kind": "stop", "name": "BARGE RD SW @ BUNKER HILL DR SW", "mode": "bus"}}, {"type": "Feature", "geometry": {"type": "Point", "coordinates": [-84.506238, 33.684403]}, "properties": {"kind": "stop", "name": "BARGE RD SW @ BUNKER HILL DR SW", "mode": "bus"}}, {"type": "Feature", "geometry": {"type": "Point", "coordinates": [-84.505914, 33.682854]}, "properties": {"kind": "stop", "name": "GREENBRIAR PKWY SW @ BARGE RD SW", "mode": "bus"}}, {"type": "Feature", "geometry": {"type": "Point", "coordinates": [-84.503503, 33.682966]}, "properties": {"kind": "stop", "name": "GREENBRIAR PKWY SW @ 3480", "mode": "bus"}}, {"type": "Feature", "geometry": {"type": "Point", "coordinates": [-84.504494, 33.682972]}, "properties": {"kind": "stop", "name": "GREENBRIAR PKWY SW @ 3480", "mode": "bus"}}, {"type": "Feature", "geometry": {"type": "Point", "coordinates": [-84.506088, 33.682926]}, "properties": {"kind": "stop", "name": "GREENBRIAR PKWY SW @ BARGE RD SW", "mode": "bus"}}, {"type": "Feature", "geometry": {"type": "Point", "coordinates": [-84.506295, 33.697457]}, "properties": {"kind": "stop", "name": "BARGE RD SW @ BEN HILL CT", "mode": "bus"}}, {"type": "Feature", "geometry": {"type": "Point", "coordinates": [-84.506303, 33.694445]}, "properties": {"kind": "stop", "name": "BARGE RD @ PINE KNOLL AVE", "mode": "bus"}}, {"type": "Feature", "geometry": {"type": "Point", "coordinates": [-84.506259, 33.693077]}, "properties": {"kind": "stop", "name": "BARGE RD SW @ PACIFIC DR SW", "mode": "bus"}}, {"type": "Feature", "geometry": {"type": "Point", "coordinates": [-84.506289, 33.690332]}, "properties": {"kind": "stop", "name": "BARGE RD SW @ CAMPBELLTON RD SW", "mode": "bus"}}, {"type": "Feature", "geometry": {"type": "Point", "coordinates": [-84.507713, 33.690083]}, "properties": {"kind": "stop", "name": "CAMPBELLTON RD SW@3667", "mode": "bus"}}, {"type": "Feature", "geometry": {"type": "Point", "coordinates": [-84.509864, 33.690395]}, "properties": {"kind": "stop", "name": "CAMPBELLTON RD SW@3709", "mode": "bus"}}, {"type": "Feature", "geometry": {"type": "Point", "coordinates": [-84.511353, 33.69067]}, "properties": {"kind": "stop", "name": "CAMPBELLTON RD SW@FAIRBURN RD SW", "mode": "bus"}}, {"type": "Feature", "geometry": {"type": "Point", "coordinates": [-84.51295, 33.690819]}, "properties": {"kind": "stop", "name": "CAMPBELLTON RD SW@CAMP GROUND RD", "mode": "bus"}}, {"type": "Feature", "geometry": {"type": "Point", "coordinates": [-84.534971, 33.695776]}, "properties": {"kind": "stop", "name": "COUNTY LINE RD SW @ CAMPBELLTON RD SW", "mode": "bus"}}, {"type": "Feature", "geometry": {"type": "Point", "coordinates": [-84.534331, 33.692036]}, "properties": {"kind": "stop", "name": "COUNTY LINE RD@RIO GRANDE RD", "mode": "bus"}}, {"type": "Feature", "geometry": {"type": "Point", "coordinates": [-84.534391, 33.690218]}, "properties": {"kind": "stop", "name": "COUNTY LINE RD SW@CREEK VALLEY CT S", "mode": "bus"}}, {"type": "Feature", "geometry": {"type": "Point", "coordinates": [-84.534227, 33.6892]}, "properties": {"kind": "stop", "name": "COUNTY LINE RD SW@KIMBALL RD SW", "mode": "bus"}}, {"type": "Feature", "geometry": {"type": "Point", "coordinates": [-84.5339, 33.688102]}, "properties": {"kind": "stop", "name": "COUNTY LINE RD SW@ROLLING HILL RD S", "mode": "bus"}}, {"type": "Feature", "geometry": {"type": "Point", "coordinates": [-84.534218, 33.687002]}, "properties": {"kind": "stop", "name": "COUNTY LINE RD SW@SAHARA DR", "mode": "bus"}}, {"type": "Feature", "geometry": {"type": "Point", "coordinates": [-84.536342, 33.684674]}, "properties": {"kind": "stop", "name": "COUNTY LINE RD SW@FERNBANK DR SW", "mode": "bus"}}, {"type": "Feature", "geometry": {"type": "Point", "coordinates": [-84.537744, 33.680822]}, "properties": {"kind": "stop", "name": "COUNTY LINE RD SW@BUTNER RD SW", "mode": "bus"}}, {"type": "Feature", "geometry": {"type": "Point", "coordinates": [-84.535749, 33.68207]}, "properties": {"kind": "stop", "name": "BUTNER RD SW@2656", "mode": "bus"}}, {"type": "Feature", "geometry": {"type": "Point", "coordinates": [-84.533798, 33.683132]}, "properties": {"kind": "stop", "name": "BUTNER RD SW @ 2636", "mode": "bus"}}, {"type": "Feature", "geometry": {"type": "Point", "coordinates": [-84.531911, 33.684726]}, "properties": {"kind": "stop", "name": "BUTNER RD SW @ 2616", "mode": "bus"}}, {"type": "Feature", "geometry": {"type": "Point", "coordinates": [-84.530242, 33.685982]}, "properties": {"kind": "stop", "name": "BUTNER RD SW @ 2598", "mode": "bus"}}, {"type": "Feature", "geometry": {"type": "Point", "coordinates": [-84.529082, 33.687059]}, "properties": {"kind": "stop", "name": "BUTNER RD SW @ 2578", "mode": "bus"}}, {"type": "Feature", "geometry": {"type": "Point", "coordinates": [-84.52789, 33.688037]}, "properties": {"kind": "stop", "name": "BUTNER RD SW @ 2511", "mode": "bus"}}, {"type": "Feature", "geometry": {"type": "Point", "coordinates": [-84.525157, 33.689957]}, "properties": {"kind": "stop", "name": "BUTNER RD@PALMETTO AVE", "mode": "bus"}}, {"type": "Feature", "geometry": {"type": "Point", "coordinates": [-84.522922, 33.690767]}, "properties": {"kind": "stop", "name": "BUTNER RD SW@BLANTON AVE SW", "mode": "bus"}}, {"type": "Feature", "geometry": {"type": "Point", "coordinates": [-84.521208, 33.69188]}, "properties": {"kind": "stop", "name": "BUTNER RD SW@FAIRBURN AVE SW", "mode": "bus"}}, {"type": "Feature", "geometry": {"type": "Point", "coordinates": [-84.51995, 33.692625]}, "properties": {"kind": "stop", "name": "BUTNER RD SW@WAITS AVE SW", "mode": "bus"}}, {"type": "Feature", "geometry": {"type": "Point", "coordinates": [-84.518984, 33.693146]}, "properties": {"kind": "stop", "name": "BUTNER RD SW@DANIEL RD SW", "mode": "bus"}}, {"type": "Feature", "geometry": {"type": "Point", "coordinates": [-84.516179, 33.692148]}, "properties": {"kind": "stop", "name": "CAMPBELLTON@3911", "mode": "bus"}}, {"type": "Feature", "geometry": {"type": "Point", "coordinates": [-84.514015, 33.690925]}, "properties": {"kind": "stop", "name": "CAMPBELLTON RD SW@CAMP GROUND RD", "mode": "bus"}}, {"type": "Feature", "geometry": {"type": "Point", "coordinates": [-84.513374, 33.69081]}, "properties": {"kind": "stop", "name": "CAMPBELLTON RD SW@CAMP GROUND RD SW", "mode": "bus"}}, {"type": "Feature", "geometry": {"type": "Point", "coordinates": [-84.511581, 33.690607]}, "properties": {"kind": "stop", "name": "CAMPBELLTON RD SW@FAIRBURN RD SW", "mode": "bus"}}, {"type": "Feature", "geometry": {"type": "Point", "coordinates": [-84.514341, 33.691202]}, "properties": {"kind": "stop", "name": "CAMPBELLTON RD SW@3901", "mode": "bus"}}, {"type": "Feature", "geometry": {"type": "Point", "coordinates": [-84.516651, 33.692537]}, "properties": {"kind": "stop", "name": "CAMPBELLTON RD SW@3911", "mode": "bus"}}, {"type": "Feature", "geometry": {"type": "Point", "coordinates": [-84.519149, 33.6937]}, "properties": {"kind": "stop", "name": "CAMPBELLTON RD SW@BUTNER RD SW", "mode": "bus"}}, {"type": "Feature", "geometry": {"type": "Point", "coordinates": [-84.520939, 33.694331]}, "properties": {"kind": "stop", "name": "CAMPBELLTON RD SW@KIMBERLY RD", "mode": "bus"}}, {"type": "Feature", "geometry": {"type": "Point", "coordinates": [-84.523788, 33.695354]}, "properties": {"kind": "stop", "name": "CAMPBELLTON RD SW @ KIMBERLY RD SW", "mode": "bus"}}, {"type": "Feature", "geometry": {"type": "Point", "coordinates": [-84.527493, 33.695702]}, "properties": {"kind": "stop", "name": "CAMPBELLTON RD SW@NISKEY LAKE RD SW", "mode": "bus"}}, {"type": "Feature", "geometry": {"type": "Point", "coordinates": [-84.527846, 33.697663]}, "properties": {"kind": "stop", "name": "NISKEY LAKE RD SW@CAMPBELLTON RD", "mode": "bus"}}, {"type": "Feature", "geometry": {"type": "Point", "coordinates": [-84.528339, 33.699437]}, "properties": {"kind": "stop", "name": "NISKEY LAKE RD SW@2057", "mode": "bus"}}, {"type": "Feature", "geometry": {"type": "Point", "coordinates": [-84.511794, 33.675406]}, "properties": {"kind": "stop", "name": "N CAMP CREEK PKY @ NARRON DR", "mode": "bus"}}, {"type": "Feature", "geometry": {"type": "Point", "coordinates": [-84.510004, 33.674649]}, "properties": {"kind": "stop", "name": "N CAMP CREEK PKY @ DARRAH DR", "mode": "bus"}}, {"type": "Feature", "geometry": {"type": "Point", "coordinates": [-84.506859, 33.674229]}, "properties": {"kind": "stop", "name": "HOGAN RD SW @ CAMBRIDGE DR SW", "mode": "bus"}}, {"type": "Feature", "geometry": {"type": "Point", "coordinates": [-84.514441, 33.674238]}, "properties": {"kind": "stop", "name": "FAIRBURN RD SW@STEPHANIE DR SW", "mode": "bus"}}, {"type": "Feature", "geometry": {"type": "Point", "coordinates": [-84.514593, 33.675411]}, "properties": {"kind": "stop", "name": "N CAMP CREEK PKWY SW @ ALEXANDRIA DR SW", "mode": "bus"}}, {"type": "Feature", "geometry": {"type": "Point", "coordinates": [-84.511425, 33.675398]}, "properties": {"kind": "stop", "name": "N CAMP CREEK PKWY SW @ NARRON DR SW", "mode": "bus"}}, {"type": "Feature", "geometry": {"type": "Point", "coordinates": [-84.509598, 33.674452]}, "properties": {"kind": "stop", "name": "N CAMP CREEK PKWY SW @ DARRAH DR SW", "mode": "bus"}}, {"type": "Feature", "geometry": {"type": "Point", "coordinates": [-84.509809, 33.690278]}, "properties": {"kind": "stop", "name": "CAMPBELLTON RD SW@3700", "mode": "bus"}}, {"type": "Feature", "geometry": {"type": "Point", "coordinates": [-84.507864, 33.689986]}, "properties": {"kind": "stop", "name": "CAMPBELLTON RD SW@3660", "mode": "bus"}}, {"type": "Feature", "geometry": {"type": "Point", "coordinates": [-84.506527, 33.674775]}, "properties": {"kind": "stop", "name": "HOGAN RD@CAMBRIDGE DR", "mode": "bus"}}, {"type": "Feature", "geometry": {"type": "Point", "coordinates": [-84.509529, 33.67395]}, "properties": {"kind": "stop", "name": "N CAMP CREEK PKY @ HOGAN RD", "mode": "bus"}}, {"type": "Feature", "geometry": {"type": "Point", "coordinates": [-84.504127, 33.675095]}, "properties": {"kind": "stop", "name": "HOGAN RD@STONE RD", "mode": "bus"}}, {"type": "Feature", "geometry": {"type": "Point", "coordinates": [-84.508139, 33.674368]}, "properties": {"kind": "stop", "name": "HOGAN RD @ N CAMP CREEK PKWY SW", "mode": "bus"}}, {"type": "Feature", "geometry": {"type": "Point", "coordinates": [-84.508048, 33.674069]}, "properties": {"kind": "stop", "name": "HOGAN RD @ N CAMP CREEK PKY", "mode": "bus"}}, {"type": "Feature", "geometry": {"type": "Point", "coordinates": [-84.506268, 33.695401]}, "properties": {"kind": "stop", "name": "BARGE RD @ HIGHWOOD DR", "mode": "bus"}}, {"type": "Feature", "geometry": {"type": "Point", "coordinates": [-84.496483, 33.686172]}, "properties": {"kind": "stop", "name": "GREENBRIAR PKWY SW @ 3268", "mode": "bus"}}, {"type": "Feature", "geometry": {"type": "Point", "coordinates": [-84.493844, 33.68631]}, "properties": {"kind": "stop", "name": "GREENBRIAR PKWY SW @ 3170", "mode": "bus"}}, {"type": "Feature", "geometry": {"type": "Point", "coordinates": [-84.491617, 33.686385]}, "properties": {"kind": "stop", "name": "GREENBRIAR PKWY SW @ CONTINENTAL COLONY PKWY SW", "mode": "bus"}}, {"type": "Feature", "geometry": {"type": "Point", "coordinates": [-84.493757, 33.686382]}, "properties": {"kind": "stop", "name": "GREENBRIAR PKWY SW @ 3170", "mode": "bus"}}, {"type": "Feature", "geometry": {"type": "Point", "coordinates": [-84.49757, 33.696608]}, "properties": {"kind": "stop", "name": "MEADOWLANE DR SW@2153", "mode": "bus"}}, {"type": "Feature", "geometry": {"type": "Point", "coordinates": [-84.492166, 33.693984]}, "properties": {"kind": "stop", "name": "DALE LN SW@MT GILEAD RD SW", "mode": "bus"}}, {"type": "Feature", "geometry": {"type": "Point", "coordinates": [-84.495881, 33.694113]}, "properties": {"kind": "stop", "name": "DALE LN SW @ COUNTRY CLUB LN SW", "mode": "bus"}}, {"type": "Feature", "geometry": {"type": "Point", "coordinates": [-84.491747, 33.685884]}, "properties": {"kind": "stop", "name": "CONTINENTAL COLONY PKWY SW @ GREENBRIAR PKWY SW", "mode": "bus"}}, {"type": "Feature", "geometry": {"type": "Point", "coordinates": [-84.492418, 33.68497]}, "properties": {"kind": "stop", "name": "CONTINENTAL COLONY PKY@RIVIERA DR", "mode": "bus"}}, {"type": "Feature", "geometry": {"type": "Point", "coordinates": [-84.49219, 33.684693]}, "properties": {"kind": "stop", "name": "CONTINENTAL COLONY PKWY SW @ RIVIERA DR", "mode": "bus"}}, {"type": "Feature", "geometry": {"type": "Point", "coordinates": [-84.494761, 33.678386]}, "properties": {"kind": "stop", "name": "CONTINENTAL COLONY PKWY SW @ HOGAN RD SW", "mode": "bus"}}, {"type": "Feature", "geometry": {"type": "Point", "coordinates": [-84.497162, 33.676098]}, "properties": {"kind": "stop", "name": "STONE HOGAN RD CONNE@CAMP CREEK", "mode": "bus"}}, {"type": "Feature", "geometry": {"type": "Point", "coordinates": [-84.49696, 33.67602]}, "properties": {"kind": "stop", "name": "STONE HOGAN CONNECTOR SW @ 2950", "mode": "bus"}}, {"type": "Feature", "geometry": {"type": "Point", "coordinates": [-84.497021, 33.673782]}, "properties": {"kind": "stop", "name": "STONE HOGAN CONNECTOR SW @ N CAMP CREEK PKWY", "mode": "bus"}}, {"type": "Feature", "geometry": {"type": "Point", "coordinates": [-84.497307, 33.673592]}, "properties": {"kind": "stop", "name": "STONE HOGAN RD CONNE@CAMP CREEK", "mode": "bus"}}, {"type": "Feature", "geometry": {"type": "Point", "coordinates": [-84.500683, 33.672117]}, "properties": {"kind": "stop", "name": "N CAMP CREEK PKY SW @ STONE RD SW", "mode": "bus"}}, {"type": "Feature", "geometry": {"type": "Point", "coordinates": [-84.500493, 33.672613]}, "properties": {"kind": "stop", "name": "N CAMP CREEK PKWY SW @ STONE RD SW", "mode": "bus"}}, {"type": "Feature", "geometry": {"type": "Point", "coordinates": [-84.503377, 33.670361]}, "properties": {"kind": "stop", "name": "N CAMP CREEK PKY SW @ 3540", "mode": "bus"}}, {"type": "Feature", "geometry": {"type": "Point", "coordinates": [-84.491981, 33.693976]}, "properties": {"kind": "stop", "name": "MT GILEAD RD SW@DALE LN", "mode": "bus"}}, {"type": "Feature", "geometry": {"type": "Point", "coordinates": [-84.502318, 33.673653]}, "properties": {"kind": "stop", "name": "STONE RD@MEADOWBRIDGE DR", "mode": "bus"}}, {"type": "Feature", "geometry": {"type": "Point", "coordinates": [-84.501997, 33.673815]}, "properties": {"kind": "stop", "name": "STONE RD@MEADOWBRIDGE DR", "mode": "bus"}}, {"type": "Feature", "geometry": {"type": "Point", "coordinates": [-84.493737, 33.682273]}, "properties": {"kind": "stop", "name": "CONTINENTAL COLONY PKWY SW @ 3030", "mode": "bus"}}, {"type": "Feature", "geometry": {"type": "Point", "coordinates": [-84.495357, 33.677974]}, "properties": {"kind": "stop", "name": "STONE HOGAN CONNECTOR SW @ HOGAN RD SW", "mode": "bus"}}, {"type": "Feature", "geometry": {"type": "Point", "coordinates": [-84.493841, 33.682291]}, "properties": {"kind": "stop", "name": "CONTINENTAL COLONY PKY@3033", "mode": "bus"}}, {"type": "Feature", "geometry": {"type": "Point", "coordinates": [-84.496483, 33.686244]}, "properties": {"kind": "stop", "name": "GREENBRIAR PKWY SW @ 3268", "mode": "bus"}}, {"type": "Feature", "geometry": {"type": "Point", "coordinates": [-84.493776, 33.680062]}, "properties": {"kind": "stop", "name": "CONTINENTAL COLONY PKWY SW @ 3060", "mode": "bus"}}, {"type": "Feature", "geometry": {"type": "Point", "coordinates": [-84.493968, 33.68094]}, "properties": {"kind": "stop", "name": "CONTINENTAL COLONY PKY@HOGAN RD", "mode": "bus"}}, {"type": "Feature", "geometry": {"type": "Point", "coordinates": [-84.499324, 33.684019]}, "properties": {"kind": "stop", "name": "GREENBRIAR PKWY SW @ 3350", "mode": "bus"}}, {"type": "Feature", "geometry": {"type": "Point", "coordinates": [-84.497322, 33.694142]}, "properties": {"kind": "stop", "name": "DALE LN @ MEADOWLANE DR", "mode": "bus"}}, {"type": "Feature", "geometry": {"type": "Point", "coordinates": [-84.493457, 33.683455]}, "properties": {"kind": "stop", "name": "CONTINENTAL COLONY PKWY SW @ 2999", "mode": "bus"}}, {"type": "Feature", "geometry": {"type": "Point", "coordinates": [-84.493301, 33.683864]}, "properties": {"kind": "stop", "name": "CONTINENTAL COLONY PKY@2999", "mode": "bus"}}, {"type": "Feature", "geometry": {"type": "Point", "coordinates": [-84.49153, 33.686314]}, "properties": {"kind": "stop", "name": "GREENBRIAR PKWY SW @ CONTINENTAL COLONY PKWY SW", "mode": "bus"}}, {"type": "Feature", "geometry": {"type": "Point", "coordinates": [-84.527261, 33.663447]}, "properties": {"kind": "stop", "name": "OLD FAIRBURN RD @ SOMERSET TRL", "mode": "bus"}}, {"type": "Feature", "geometry": {"type": "Point", "coordinates": [-84.520998, 33.664308]}, "properties": {"kind": "stop", "name": "FAIRBURN RD @ LANDING SOUTH DR", "mode": "bus"}}, {"type": "Feature", "geometry": {"type": "Point", "coordinates": [-84.523453, 33.664104]}, "properties": {"kind": "stop", "name": "FAIRBURN RD SW @ WELCOME ALL RD", "mode": "bus"}}, {"type": "Feature", "geometry": {"type": "Point", "coordinates": [-84.520304, 33.664658]}, "properties": {"kind": "stop", "name": "FAIRBURN RD SW @ LANDINGS NORTH DR", "mode": "bus"}}, {"type": "Feature", "geometry": {"type": "Point", "coordinates": [-84.522885, 33.663878]}, "properties": {"kind": "stop", "name": "FAIRBURN RD @ WELCOME ALL RD", "mode": "bus"}}, {"type": "Feature", "geometry": {"type": "Point", "coordinates": [-84.514236, 33.674027]}, "properties": {"kind": "stop", "name": "FAIRBURN RD @ STEPHANIE DR", "mode": "bus"}}, {"type": "Feature", "geometry": {"type": "Point", "coordinates": [-84.514442, 33.67524]}, "properties": {"kind": "stop", "name": "N CAMP CREEK PKY @ FAIRBURN RD", "mode": "bus"}}, {"type": "Feature", "geometry": {"type": "Point", "coordinates": [-84.516088, 33.66787]}, "properties": {"kind": "stop", "name": "FAIRBURN RD SW @ REDWINE PKY SW", "mode": "bus"}}, {"type": "Feature", "geometry": {"type": "Point", "coordinates": [-84.520839, 33.719733]}, "properties": {"kind": "stop", "name": "KIMBERLY RD @ FAIRLY WAY", "mode": "bus"}}, {"type": "Feature", "geometry": {"type": "Point", "coordinates": [-84.515946, 33.667808]}, "properties": {"kind": "stop", "name": "FAIRBURN RD SW @ REDWINE PKY SW", "mode": "bus"}}, {"type": "Feature", "geometry": {"type": "Point", "coordinates": [-84.507221, 33.688804]}, "properties": {"kind": "stop", "name": "BARGE RD PARK & RIDE", "mode": "bus"}}, {"type": "Feature", "geometry": {"type": "Point", "coordinates": [-84.510328, 33.65711]}, "properties": {"kind": "stop", "name": "PRINCETON LAKES PKY @ CAR MIA DR", "mode": "bus"}}, {"type": "Feature", "geometry": {"type": "Point", "coordinates": [-84.508734, 33.657945]}, "properties": {"kind": "stop", "name": "PRINCETON LAKES PKWY @ 3725", "mode": "bus"}}, {"type": "Feature", "geometry": {"type": "Point", "coordinates": [-84.537291, 33.682255]}, "properties": {"kind": "stop", "name": "COUNTY LINE RD@IVYWOOD DR", "mode": "bus"}}, {"type": "Feature", "geometry": {"type": "Point", "coordinates": [-84.508976, 33.659198]}, "properties": {"kind": "stop", "name": "PRINCETON LAKES PKY @ REDWINE RD", "mode": "bus"}}, {"type": "Feature", "geometry": {"type": "Point", "coordinates": [-84.510242, 33.657379]}, "properties": {"kind": "stop", "name": "PRINCETON LAKES PKY @ CAR MIA DR", "mode": "bus"}}, {"type": "Feature", "geometry": {"type": "Point", "coordinates": [-84.512585, 33.656417]}, "properties": {"kind": "stop", "name": "PRINCETON LAKES PKY @ CAMP CREEK PKY", "mode": "bus"}}, {"type": "Feature", "geometry": {"type": "Point", "coordinates": [-84.511999, 33.656535]}, "properties": {"kind": "stop", "name": "PRINCETON LAKES PKY @ CAMP CREEK PKY", "mode": "bus"}}, {"type": "Feature", "geometry": {"type": "Point", "coordinates": [-84.525363, 33.664095]}, "properties": {"kind": "stop", "name": "FAIRBURN RD @ VILLAGE PARK LN", "mode": "bus"}}, {"type": "Feature", "geometry": {"type": "Point", "coordinates": [-84.525233, 33.664166]}, "properties": {"kind": "stop", "name": "FAIRBURN RD SW @ VILLAGE PARK LN", "mode": "bus"}}, {"type": "Feature", "geometry": {"type": "Point", "coordinates": [-84.51451, 33.671212]}, "properties": {"kind": "stop", "name": "FAIRBURN RD @ 3070", "mode": "bus"}}, {"type": "Feature", "geometry": {"type": "Point", "coordinates": [-84.500608, 33.68409]}, "properties": {"kind": "stop", "name": "GREENBRIAR PKWY SW @ 3381", "mode": "bus"}}, {"type": "Feature", "geometry": {"type": "Point", "coordinates": [-84.500573, 33.683991]}, "properties": {"kind": "stop", "name": "GREENBRIAR PKWY SW @ 3378", "mode": "bus"}}, {"type": "Feature", "geometry": {"type": "Point", "coordinates": [-84.528998, 33.701785]}, "properties": {"kind": "stop", "name": "NISKEY LAKE RD SW@2004", "mode": "bus"}}, {"type": "Feature", "geometry": {"type": "Point", "coordinates": [-84.504148, 33.675302]}, "properties": {"kind": "stop", "name": "HOGAN RD SW@STONE RD SW", "mode": "bus"}}, {"type": "Feature", "geometry": {"type": "Point", "coordinates": [-84.508663, 33.659915]}, "properties": {"kind": "stop", "name": "PRINCETON LAKES PKWY SW @ REDWINE RD", "mode": "bus"}}, {"type": "Feature", "geometry": {"type": "Point", "coordinates": [-84.49838, 33.684433]}, "properties": {"kind": "stop", "name": "GREENBRIAR PKWY SW @ 3350", "mode": "bus"}}, {"type": "Feature", "geometry": {"type": "Point", "coordinates": [-84.506149, 33.690544]}, "properties": {"kind": "stop", "name": "BARGE RD SW@CAMPBELLTON RD SW", "mode": "bus"}}, {"type": "Feature", "geometry": {"type": "Point", "coordinates": [-84.506133, 33.692889]}, "properties": {"kind": "stop", "name": "BARGE RD SW@PACIFIC DR SW", "mode": "bus"}}, {"type": "Feature", "geometry": {"type": "Point", "coordinates": [-84.506168, 33.693892]}, "properties": {"kind": "stop", "name": "BARGE RD SW@DALE LN SW", "mode": "bus"}}, {"type": "Feature", "geometry": {"type": "Point", "coordinates": [-84.506149, 33.695261]}, "properties": {"kind": "stop", "name": "BARGE RD SW@HIGHWOOD RD SW", "mode": "bus"}}, {"type": "Feature", "geometry": {"type": "Point", "coordinates": [-84.50731, 33.699037]}, "properties": {"kind": "stop", "name": "BARGE RD SW@FAIRBURN RD SW", "mode": "bus"}}, {"type": "Feature", "geometry": {"type": "Point", "coordinates": [-84.514315, 33.671535]}, "properties": {"kind": "stop", "name": "FAIRBURN RD SW @ 3070", "mode": "bus"}}, {"type": "Feature", "geometry": {"type": "Point", "coordinates": [-84.495946, 33.694006]}, "properties": {"kind": "stop", "name": "DALE LN SW @ COUNTRY CLUB LN SW", "mode": "bus"}}, {"type": "Feature", "geometry": {"type": "Point", "coordinates": [-84.497489, 33.694111]}, "properties": {"kind": "stop", "name": "MEADOWLANE DR SW @ DALE LN SW", "mode": "bus"}}, {"type": "Feature", "geometry": {"type": "Point", "coordinates": [-84.500602, 33.67255]}, "properties": {"kind": "stop", "name": "STONE RD SW @ N CAMP CREEK PKY SW", "mode": "bus"}}, {"type": "Feature", "geometry": {"type": "Point", "coordinates": [-84.534195, 33.694175]}, "properties": {"kind": "stop", "name": "COUNTY LINE RD SW @ NOTTING HILL DR SW", "mode": "bus"}}, {"type": "Feature", "geometry": {"type": "Point", "coordinates": [-84.497354, 33.69677]}, "properties": {"kind": "stop", "name": "MEADOWLANE DR SW @ 2160", "mode": "bus"}}, {"type": "Feature", "geometry": {"type": "Point", "coordinates": [-84.52082, 33.656441]}, "properties": {"kind": "stop", "name": "WELCOME ALL RD CONN @ CAMP CREEK PKWY", "mode": "bus"}}, {"type": "Feature", "geometry": {"type": "Point", "coordinates": [-84.521494, 33.656398]}, "properties": {"kind": "stop", "name": "WELCOME ALL RD CONN @ WELCOME ALL RD", "mode": "bus"}}], "properties": {"coverage_pct": 91.0, "rail_coverage_pct": 0.0, "stop_count": 174, "rail_stop_count": 0, "bus_stop_count": 174, "transit_index": 30, "weights": {"rail": 2.0, "bus": 1.0}}}