{"type": "FeatureCollection", "features": [{"type": "Feature", "geometry": {"type": "Polygon", "coordinates": [[[-84.33816320164462, 33.76930946918268], [-84.3373600172618, 33.76907071424746], [-84.33658872685477, 33.76876735576153], [-84.33585675969418, 33.76840231588502], [-84.33517116601088, 33.76797911089784], [-84.33463575713337, 33.767575158913914], [-84.33438615013296, 33.76742107647613], [-84.33375354163111, 33.76694377879291], [-84.3331800025971, 33.76641699032166], [-84.33274522988131, 33.765929032899265], [-84.33234455068512, 33.76562670985829], [-84.33177102905246, 33.765099914674835], [-84.33126209993787, 33.76452870354107], [-84.33082266402033, 33.76391857834939], [-84.330456952346, 33.76327541569357], [-84.330168485618, 33.76260541024496], [-84.32996004034014, 33.76191501506893], [-84.32983362213864, 33.76121087945725], [-84.32979796264881, 33.76062357507433], [-84.32967318448459, 33.76061862031628], [-84.32904167817296, 33.7606453670964], [-84.32819017977079, 33.76061154760486], [-84.32743575495958, 33.760519083620515], [-84.3274258371236, 33.760520325606606], [-84.32657447029521, 33.76055636808262], [-84.32572297367108, 33.76052253156598], [-84.32533673443113, 33.76047518588924], [-84.32496791092318, 33.76046052669452], [-84.32412448843164, 33.760357131959644], [-84.32329726378512, 33.760185180204694], [-84.32249420543761, 33.759946327812685], [-84.32172304888545, 33.75964287559599], [-84.32099122210862, 33.75927774661773], [-84.32092293432447, 33.75923557684096], [-84.32063899258513, 33.75912384044063], [-84.31990717479827, 33.75875870497952], [-84.31931469854803, 33.758392819988444], [-84.31930645552373, 33.758392491963086], [-84.3193049973537, 33.75839231313917], [-84.31873580895045, 33.75841637331291], [-84.31812895553875, 33.75839221968434], [-84.31789590879359, 33.75871806484309], [-84.31822108325598, 33.758918882783625], [-84.31885354684593, 33.759396261106374], [-84.31942695156494, 33.759923117129254], [-84.31993577502271, 33.760494377787964], [-84.32037511638424, 33.76110454234642], [-84.32068956499297, 33.76165770517639], [-84.32070815442385, 33.76168352191092], [-84.32107378658895, 33.76232671384414], [-84.32136218169428, 33.76299674078258], [-84.32157056074875, 33.76368715054671], [-84.32169691513234, 33.76439129452148], [-84.32174002600989, 33.765102391670474], [-84.32169947614508, 33.76581359383119], [-84.32157565399753, 33.76651805166297], [-84.32136975006075, 33.767208980612835], [-84.32108374547332, 33.76787972626353], [-84.32072039300975, 33.76852382843438], [-84.32028319063137, 33.76913508341681], [-84.31977634785008, 33.76970760374453], [-84.31920474522623, 33.77023587492175], [-84.31857388738982, 33.770714808562], [-84.31788985003624, 33.77113979142463], [-84.3171592214067, 33.77150672987539], [-84.3163890388173, 33.77181208934185], [-84.31618371304735, 33.77187372446024], [-84.31591947151922, 33.77186655393354], [-84.31584093748648, 33.77187988979426], [-84.31472044321582, 33.77200743204471], [-84.31302030106426, 33.772107440715], [-84.31214552226649, 33.77212200351174], [-84.31127342663659, 33.77206300502892], [-84.31041286181444, 33.771931043814654], [-84.30957255837073, 33.771727458637805], [-84.30910383220838, 33.77156969375494], [-84.308968539111, 33.77151644546801], [-84.30823666501465, 33.77115124169449], [-84.30755118457444, 33.770727883162024], [-84.30691869995317, 33.77025044785709], [-84.30634530253789, 33.76972353458899], [-84.30583651426821, 33.76915221866834], [-84.30539723446448, 33.76854200299645], [-84.30508285864998, 33.767988801636015], [-84.30506427252709, 33.767962982565976], [-84.30469873568826, 33.767319743548484], [-84.30441045550648, 33.766649677847155], [-84.30420220668725, 33.76595923910662], [-84.30407599296343, 33.76525507703711], [-84.30403302786803, 33.764543973358386], [-84.30407372312315, 33.763832776478424], [-84.30419768475379, 33.76312833553596], [-84.30440371696116, 33.76243743444254], [-84.30468983371499, 33.76176672655889], [-84.30502265455996, 33.76117693845485], [-84.30471872171175, 33.76129741950928], [-84.30391646869143, 33.76153818293236], [-84.30308982070886, 33.7617121035202], [-84.30224674065278, 33.7618175059148], [-84.30139534981888, 33.76185337477939], [-84.30054384962152, 33.76181936458654], [-84.2997004425305, 33.76171580294912], [-84.29887325299774, 33.76154368746246], [-84.29807024913819, 33.76130467608759], [-84.29729916592225, 33.761001071169005], [-84.29656743062213, 33.76063579724133], [-84.2958820912324, 33.76021237283928], [-84.29548319638039, 33.759911159314996], [-84.29526993685754, 33.75999567801653], [-84.29446766932475, 33.760236380114655], [-84.29364101453184, 33.760410237477366], [-84.29279793543338, 33.76051557535601], [-84.29194655331598, 33.76055137903567], [-84.29109506950995, 33.76051730361714], [-84.2902516863271, 33.76041367734203], [-84.28942452798869, 33.760241498428584], [-84.28862156230876, 33.760002425449116], [-84.28785052388942, 33.759698761341795], [-84.28711883957077, 33.75933343121153], [-84.2864335568556, 33.75890995413453], [-84.28580127600048, 33.75843240923883], [-84.28522808642809, 33.757905396388914], [-84.28471950807479, 33.757333991853955], [-84.28428043823791, 33.756723699387955], [-84.28391510443495, 33.75608039719423], [-84.28362702372728, 33.755410281286196], [-84.28341896889913, 33.75471980579091], [-84.28329294181529, 33.754015620771376], [-84.28325015421191, 33.75330450816722], [-84.28329101610268, 33.75259331647121], [-84.28341513190915, 33.75188889477109], [-84.28353679780949, 33.75148120308695], [-84.28357419082953, 33.75083033570823], [-84.28366234897122, 33.75032997389821], [-84.28337466878405, 33.74982336364496], [-84.28308661334991, 33.74915324574218], [-84.28287857811492, 33.74846276859403], [-84.28275256475568, 33.74775858227932], [-84.28271090777488, 33.74706613441032], [-84.28257683188227, 33.74675421177249], [-84.2825279674752, 33.74659202190238], [-84.28237228015364, 33.746375584945355], [-84.28200700470029, 33.74573227590215], [-84.28171897366782, 33.7450621543125], [-84.28151095936272, 33.74437167435787], [-84.2813849632604, 33.74366748614396], [-84.28136590722889, 33.74335062671603], [-84.28128304059184, 33.74288747893056], [-84.2812402753784, 33.74217636429976], [-84.28128114886076, 33.74146517196142], [-84.28140526534999, 33.74076075100936], [-84.28161142755866, 33.74006988516165], [-84.28189764820739, 33.73939922743885], [-84.28226116923355, 33.73875523610708], [-84.28242198312488, 33.73853051089909], [-84.28243946461174, 33.73822625198005], [-84.28256356704539, 33.7375218295234], [-84.28276971229408, 33.736830961414775], [-84.28305591324204, 33.73616030069659], [-84.28341941201654, 33.73551630566396], [-84.28385670660926, 33.73490517768814], [-84.28436358465304, 33.734332801519216], [-84.28493516402695, 33.733804688641264], [-84.28556593989717, 33.73332592422503], [-84.28624983773956, 33.73290111818736], [-84.28698027183333, 33.7325343608277], [-84.28775020866239, 33.73222918346757], [-84.28855223461495, 33.7319885244709], [-84.28937862733073, 33.73181470097133], [-84.2902214300104, 33.73170938657787], [-84.29107252797434, 33.73167359527274], [-84.29192372673563, 33.73170767165578], [-84.29276683083874, 33.73181128762939], [-84.2929657783199, 33.731852708833145], [-84.29380029830293, 33.73181759620295], [-84.29465149950207, 33.73185165377724], [-84.29549460823026, 33.73195525111411], [-84.29632150686665, 33.73212739075449], [-84.29712423374973, 33.73236641529388], [-84.29716148175746, 33.732381086461615], [-84.29759917810266, 33.73247219794699], [-84.29801022405132, 33.732488632313334], [-84.29852417180415, 33.73255176980984], [-84.29865471532474, 33.73253544808454], [-84.2995058177438, 33.73249959865018], [-84.30035702779651, 33.73253361687133], [-84.30039323259902, 33.732538063929724], [-84.30045173810211, 33.73253559897216], [-84.30130294886074, 33.73256961067106], [-84.30214607244864, 33.73267316254714], [-84.30292819267271, 33.73283593446706], [-84.30321346677371, 33.73277589587276], [-84.30405626161615, 33.73267048709221], [-84.30490736298914, 33.732634600432526], [-84.30575857637295, 33.73266858141112], [-84.3058783290503, 33.7326832852895], [-84.30665321601755, 33.73265060098989], [-84.3075044302035, 33.73268456993194], [-84.30834756221101, 33.73278807944317], [-84.30855365528691, 33.73283096024965], [-84.3088928553937, 33.732788522071445], [-84.30974395579514, 33.73275260207994], [-84.31006819303862, 33.73276553378433], [-84.31053971833767, 33.73270653384744], [-84.31139081720082, 33.732670602508925], [-84.3122420333282, 33.7327045387887], [-84.31302754518921, 33.732800943779566], [-84.31317449692567, 33.732782552948095], [-84.31402559537153, 33.73274660345161], [-84.31487681321684, 33.73278052156434], [-84.3157199548225, 33.73288398071164], [-84.31644112743619, 33.73303398407988], [-84.31652967710225, 33.733037511006444], [-84.3168362350081, 33.73307512411119], [-84.31712016387263, 33.733039581752315], [-84.3179712631037, 33.73300360506064], [-84.31798992052444, 33.733004347958186], [-84.3181038281632, 33.73297013760716], [-84.31893016995116, 33.73279611650604], [-84.31974126078411, 33.73269456754868], [-84.32040805292532, 33.73255413698543], [-84.32125082411706, 33.73244861091293], [-84.32210191567596, 33.732412605769845], [-84.32295313317663, 33.73244646821372], [-84.32379628098334, 33.73254987220562], [-84.32462324109967, 33.732721822147056], [-84.32542605127321, 33.73296066245906], [-84.3260844189296, 33.733219790317044], [-84.32649916856104, 33.73305523861162], [-84.32730109303078, 33.732814328256865], [-84.32789797394159, 33.73268858293456], [-84.32794129244827, 33.73268956662962], [-84.32891121094706, 33.732719564381625], [-84.32974135448309, 33.732778649419195], [-84.33056090225978, 33.73290392635056], [-84.33136231203802, 33.73309424226089], [-84.33213820837925, 33.733347845680015], [-84.33288145047695, 33.7336624026898], [-84.33358519783661, 33.73403501838855], [-84.33424297320116, 33.734462263515475], [-84.33484872214457, 33.73494020599138], [-84.33539686878589, 33.73546444708565], [-84.33649690236724, 33.73662438718998], [-84.33661530148267, 33.73675212829354], [-84.33709531945223, 33.73728210169256], [-84.33741949713146, 33.737665145479895], [-84.33763983216333, 33.73794420822673], [-84.33767297487724, 33.737978511104636], [-84.33767660005171, 33.737981040170574], [-84.3377981610846, 33.73806744211289], [-84.33786139895177, 33.738113233071125], [-84.33801389273727, 33.73818851302076], [-84.3380750088458, 33.738210736715985], [-84.33825846457121, 33.73826597052828], [-84.33830825080135, 33.738275154358334], [-84.33850986955811, 33.738294608900134], [-84.33866997358714, 33.73829460861828], [-84.3387599975844, 33.73829460864202], [-84.33895800493289, 33.738296494621004], [-84.34000791658649, 33.73831649323933], [-84.34005170144877, 33.73831741935431], [-84.34079084495252, 33.73833460931651], [-84.34096998876124, 33.73833460927676], [-84.3412699887636, 33.73833460935712], [-84.34191997403394, 33.73833460953171], [-84.34200190615374, 33.73833493221727], [-84.34323092543708, 33.73834461008122], [-84.34411414412303, 33.7383446109828], [-84.34411862110464, 33.738344416328346], [-84.34473243080863, 33.73833587937522], [-84.34537237694698, 33.73834587872035], [-84.34544896304551, 33.73834735751407], [-84.34696373349757, 33.738382181662615], [-84.34788255796855, 33.73833842816516], [-84.34788791102264, 33.73833791012471], [-84.34811522883122, 33.7383135546642], [-84.34897985073933, 33.73825738580524], [-84.34984686686037, 33.73827353672087], [-84.35070763315535, 33.73836184638073], [-84.35155356785015, 33.738521434337166], [-84.35237623693227, 33.73875070949714], [-84.35316743817984, 33.73904738597405], [-84.35391928288782, 33.73940850586241], [-84.35462427447938, 33.739830468708746], [-84.35527538322084, 33.74030906738609], [-84.35586611629654, 33.740839530015435], [-84.35639058254637, 33.74141656751736], [-84.35684355122027, 33.74203442632125], [-84.35722050416427, 33.74268694570763], [-84.35751768091605, 33.74336761921334], [-84.35773211625923, 33.74406965948832], [-84.35786166985949, 33.74478606595842], [-84.35790504768464, 33.745509694620495], [-84.35790510312437, 33.74605969442963], [-84.35790511925258, 33.746219694493256], [-84.35790127821913, 33.74643606235824], [-84.35789515838829, 33.746607902677944], [-84.35789516360924, 33.74665969448818], [-84.35789519889092, 33.74700969445232], [-84.3578952089715, 33.74710969449301], [-84.35789526038329, 33.747619694418475], [-84.35789527651275, 33.74777969447535], [-84.35789528760182, 33.74788969448248], [-84.3578953057477, 33.74806969446861], [-84.3578953208694, 33.74821969447199], [-84.35789543009975, 33.74930318501214], [-84.35790507023631, 33.75009667662587], [-84.35790551745826, 33.75016969462738], [-84.357905606763, 33.75105545249871], [-84.35791553641322, 33.75228121011303], [-84.35790279165468, 33.7525001193243], [-84.35790507747252, 33.752500142968536], [-84.35789581543304, 33.75312492070865], [-84.35789585826657, 33.75354969435711], [-84.35789467459516, 33.75367008288015], [-84.35786601661873, 33.7551198935605], [-84.35786604685322, 33.75541969435408], [-84.35786612753289, 33.75621969427116], [-84.35786595563604, 33.7562659546907], [-84.35785626198873, 33.7575528249461], [-84.35785629689529, 33.7578989445133], [-84.35786763793904, 33.75798428689403], [-84.3578838265755, 33.75863529747882], [-84.35786521663329, 33.75927958235687], [-84.35785591972527, 33.75995385625952], [-84.35779103291459, 33.76075935789646], [-84.35761940087656, 33.761553851379006], [-84.35759940736733, 33.76162385270664], [-84.35736504306976, 33.76229803462964], [-84.35705376017434, 33.76295014164179], [-84.35666847158573, 33.76357406791495], [-84.3562127833658, 33.76416397135529], [-84.35569096101547, 33.7647143283238], [-84.35510788957033, 33.76521998537836], [-84.3544690278824, 33.76567620755184], [-84.35378035751549, 33.76607872271312], [-84.35304832673219, 33.76642376159451], [-84.35227979009801, 33.766708093109905], [-84.35196976944066, 33.766808100930184], [-84.35177662808054, 33.76686821556156], [-84.3502765248112, 33.76731825109584], [-84.34946603783641, 33.76752471757204], [-84.34761589661179, 33.7679147494583], [-84.34741123459261, 33.76795569700704], [-84.34477102916878, 33.76845573819367], [-84.34474939958648, 33.76845981023642], [-84.34303926627118, 33.76877983661196], [-84.34223578426602, 33.76889741048047], [-84.34154237308601, 33.76897104853264], [-84.34135115672149, 33.769008057956924], [-84.34060174312026, 33.76912443298007], [-84.34017071366983, 33.76917514261105], [-84.34009949595048, 33.76918463831131], [-84.33968434003926, 33.76923144924402], [-84.33937644348234, 33.76925987097945], [-84.338714455536, 33.769365788454735], [-84.33853302662268, 33.769386288257216], [-84.33816320164462, 33.76930946918268]]]}, "properties": {"kind": "walkshed", "buffer_mi": 0.5}}, {"type": "Feature", "geometry": {"type": "Point", "coordinates": [-84.313053, 33.765113]}, "properties": {"kind": "stop", "name": "East Lake", "mode": "rail"}}, {"type": "Feature", "geometry": {"type": "Point", "coordinates": [-84.339886, 33.761805]}, "properties": {"kind": "stop", "name": "Edgewood/ Candler Park", "mode": "rail"}}, {"type": "Feature", "geometry": {"type": "Point", "coordinates": [-84.352757, 33.757411]}, "properties": {"kind": "stop", "name": "Inman Park/ Reynoldstown", "mode": "rail"}}, {"type": "Feature", "geometry": {"type": "Point", "coordinates": [-84.340825, 33.761803]}, "properties": {"kind": "stop", "name": "EDGEWOOD-CANDLER PARK STATION", "mode": "bus"}}, {"type": "Feature", "geometry": {"type": "Point", "coordinates": [-84.340456, 33.761866]}, "properties": {"kind": "stop", "name": "EDGEWOOD-CANDLER PARK STATION", "mode": "bus"}}, {"type": "Feature", "geometry": {"type": "Point", "coordinates": [-84.352762, 33.757451]}, "properties": {"kind": "stop", "name": "INMAN PARK-REYNOLDSTOWN STATION", "mode": "bus"}}, {"type": "Feature", "geometry": {"type": "Point", "coordinates": [-84.353066, 33.757227]}, "properties": {"kind": "stop", "name": "INMAN PARK-REYNOLDSTOWN STATION", "mode": "bus"}}, {"type": "Feature", "geometry": {"type": "Point", "coordinates": [-84.338585, 33.756746]}, "properties": {"kind": "stop", "name": "MAYSON AVE NE@WATSON ST NE", "mode": "bus"}}, {"type": "Feature", "geometry": {"type": "Point", "coordinates": [-84.338531, 33.75791]}, "properties": {"kind": "stop", "name": "MAYSON AVE NE@2ND ST NE", "mode": "bus"}}, {"type": "Feature", "geometry": {"type": "Point", "coordinates": [-84.338387, 33.75938]}, "properties": {"kind": "stop", "name": "MAYSON AVE NE@1ST ST NE", "mode": "bus"}}, {"type": "Feature", "geometry": {"type": "Point", "coordinates": [-84.338477, 33.760488]}, "properties": {"kind": "stop", "name": "MAYSON AVE NE@LA FRANCE ST NE", "mode": "bus"}}, {"type": "Feature", "geometry": {"type": "Point", "coordinates": [-84.345185, 33.75851]}, "properties": {"kind": "stop", "name": "MARION PL NE @ CAROLINE ST NE", "mode": "bus"}}, {"type": "Feature", "geometry": {"type": "Point", "coordinates": [-84.345009, 33.760204]}, "properties": {"kind": "stop", "name": "MARION PL NE @ LA FRANCE ST NE", "mode": "bus"}}, {"type": "Feature", "geometry": {"type": "Point", "coordinates": [-84.344967, 33.760523]}, "properties": {"kind": "stop", "name": "LA FRANCE ST NE @ MARION PL NE", "mode": "bus"}}, {"type": "Feature", "geometry": {"type": "Point", "coordinates": [-84.343971, 33.760151]}, "properties": {"kind": "stop", "name": "LA FRANCE ST NE @ FLORA AVE NE", "mode": "bus"}}, {"type": "Feature", "geometry": {"type": "Point", "coordinates": [-84.343761, 33.760407]}, "properties": {"kind": "stop", "name": "LA FRANCE ST NE @ FLORA AVE NE", "mode": "bus"}}, {"type": "Feature", "geometry": {"type": "Point", "coordinates": [-84.341074, 33.76073]}, "properties": {"kind": "stop", "name": "LA FRANCE ST NE @ WHITEFOORD AVE", "mode": "bus"}}, {"type": "Feature", "geometry": {"type": "Point", "coordinates": [-84.342117, 33.760246]}, "properties": {"kind": "stop", "name": "LA FRANCE ST NE @ WHITEFOORD AVE NE", "mode": "bus"}}, {"type": "Feature", "geometry": {"type": "Point", "coordinates": [-84.338564, 33.759646]}, "properties": {"kind": "stop", "name": "MAYSON AVE NE@1ST ST NE", "mode": "bus"}}, {"type": "Feature", "geometry": {"type": "Point", "coordinates": [-84.338607, 33.757982]}, "properties": {"kind": "stop", "name": "MAYSON AVE NE@2ND ST NE", "mode": "bus"}}, {"type": "Feature", "geometry": {"type": "Point", "coordinates": [-84.345365, 33.758235]}, "properties": {"kind": "stop", "name": "CAROLINE ST @ MARION PL", "mode": "bus"}}, {"type": "Feature", "geometry": {"type": "Point", "coordinates": [-84.338683, 33.757006]}, "properties": {"kind": "stop", "name": "MAYSON AVE NE @ CHIPLEY ST NE", "mode": "bus"}}, {"type": "Feature", "geometry": {"type": "Point", "coordinates": [-84.340671, 33.762363]}, "properties": {"kind": "stop", "name": "EDGEWOOD/CANDLER PARK STATION - NORTH LOOP", "mode": "bus"}}, {"type": "Feature", "geometry": {"type": "Point", "coordinates": [-84.31272, 33.764534]}, "properties": {"kind": "stop", "name": "EAST LAKE STATION - SOUTH LOOP", "mode": "bus"}}, {"type": "Feature", "geometry": {"type": "Point", "coordinates": [-84.349239, 33.756601]}, "properties": {"kind": "stop", "name": "MORELAND AVE NE @ WADE ST NE", "mode": "bus"}}, {"type": "Feature", "geometry": {"type": "Point", "coordinates": [-84.349892, 33.758418]}, "properties": {"kind": "stop", "name": "SEABOARD AVE NE @ BRANTLEY ST NE", "mode": "bus"}}, {"type": "Feature", "geometry": {"type": "Point", "coordinates": [-84.34925, 33.758526]}, "properties": {"kind": "stop", "name": "MORELAND AVE NE @ SEABOARD AVE", "mode": "bus"}}, {"type": "Feature", "geometry": {"type": "Point", "coordinates": [-84.349315, 33.753722]}, "properties": {"kind": "stop", "name": "MORELAND AVE NE @ BOULEVARD DR NE", "mode": "bus"}}, {"type": "Feature", "geometry": {"type": "Point", "coordinates": [-84.349248, 33.752162]}, "properties": {"kind": "stop", "name": "MORELAND AVE NE @ WYLIE ST SE", "mode": "bus"}}, {"type": "Feature", "geometry": {"type": "Point", "coordinates": [-84.349318, 33.749798]}, "properties": {"kind": "stop", "name": "MORELAND AVE SE @ KIRKWOOD AVE SE", "mode": "bus"}}, {"type": "Feature", "geometry": {"type": "Point", "coordinates": [-84.349311, 33.747774]}, "properties": {"kind": "stop", "name": "MORELAND AVE SE @ MEMORIAL DR SE", "mode": "bus"}}, {"type": "Feature", "geometry": {"type": "Point", "coordinates": [-84.349323, 33.743426]}, "properties": {"kind": "stop", "name": "MORELAND AVE SE @ FAITH AVE SE", "mode": "bus"}}, {"type": "Feature", "geometry": {"type": "Point", "coordinates": [-84.349945, 33.759811]}, "properties": {"kind": "stop", "name": "DEKALB AVE NE @ HARALSON AVE NE", "mode": "bus"}}, {"type": "Feature", "geometry": {"type": "Point", "coordinates": [-84.351392, 33.758713]}, "properties": {"kind": "stop", "name": "DEKALB AVE NE @ DEGRESS AVE NE", "mode": "bus"}}, {"type": "Feature", "geometry": {"type": "Point", "coordinates": [-84.353409, 33.757726]}, "properties": {"kind": "stop", "name": "INMAN PARK/REYNOLDSTOWN STATION - NORTH LOOP", "mode": "bus"}}, {"type": "Feature", "geometry": {"type": "Point", "coordinates": [-84.353111, 33.756635]}, "properties": {"kind": "stop", "name": "INMAN PARK/REYNOLDSTOWN STATION - SOUTH LOOP", "mode": "bus"}}, {"type": "Feature", "geometry": {"type": "Point", "coordinates": [-84.349267, 33.741948]}, "properties": {"kind": "stop", "name": "MORELAND AVE SE @ SANDERS AVE SE", "mode": "bus"}}, {"type": "Feature", "geometry": {"type": "Point", "coordinates": [-84.349403, 33.740623]}, "properties": {"kind": "stop", "name": "MORELAND AVE SE @ GLENWOOD AVE", "mode": "bus"}}, {"type": "Feature", "geometry": {"type": "Point", "coordinates": [-84.348541, 33.747641]}, "properties": {"kind": "stop", "name": "MEMORIAL DR SE@MORELAND AVE SE", "mode": "bus"}}, {"type": "Feature", "geometry": {"type": "Point", "coordinates": [-84.348269, 33.74757]}, "properties": {"kind": "stop", "name": "MEMORIAL DR SE@MORELAND AVE SE", "mode": "bus"}}, {"type": "Feature", "geometry": {"type": "Point", "coordinates": [-84.350372, 33.747425]}, "properties": {"kind": "stop", "name": "MEMORIAL DR SE@FLAT SHOALS AVE SE", "mode": "bus"}}, {"type": "Feature", "geometry": {"type": "Point", "coordinates": [-84.350682, 33.747238]}, "properties": {"kind": "stop", "name": "MEMORIAL DR SE@HOWELL DR SE", "mode": "bus"}}, {"type": "Feature", "geometry": {"type": "Point", "coordinates": [-84.352554, 33.747028]}, "properties": {"kind": "stop", "name": "MEMORIAL DR SE@WILBUR AVE SE", "mode": "bus"}}, {"type": "Feature", "geometry": {"type": "Point", "coordinates": [-84.353043, 33.746651]}, "properties": {"kind": "stop", "name": "MEMORIAL DR SE@WILBUR AVE SE", "mode": "bus"}}, {"type": "Feature", "geometry": {"type": "Point", "coordinates": [-84.354233, 33.746696]}, "properties": {"kind": "stop", "name": "MEMORIAL DR SE@STOVALL ST SE", "mode": "bus"}}, {"type": "Feature", "geometry": {"type": "Point", "coordinates": [-84.354568, 33.746346]}, "properties": {"kind": "stop", "name": "MEMORIAL DR SE@STOVALL ST SE", "mode": "bus"}}, {"type": "Feature", "geometry": {"type": "Point", "coordinates": [-84.355378, 33.746467]}, "properties": {"kind": "stop", "name": "MEMORIAL DR SE @ GIBSON ST SE", "mode": "bus"}}, {"type": "Feature", "geometry": {"type": "Point", "coordinates": [-84.356575, 33.746719]}, "properties": {"kind": "stop", "name": "MEMORIAL DR SE@HOLTZCLAW ST SE", "mode": "bus"}}, {"type": "Feature", "geometry": {"type": "Point", "coordinates": [-84.344049, 33.739058]}, "properties": {"kind": "stop", "name": "FLAT SHOALS AVE SE @ MAY AVE SE", "mode": "bus"}}, {"type": "Feature", "geometry": {"type": "Point", "coordinates": [-84.334886, 33.739963]}, "properties": {"kind": "stop", "name": "GLENWOOD AVE SE@MAYNARD TER SE", "mode": "bus"}}, {"type": "Feature", "geometry": {"type": "Point", "coordinates": [-84.33231, 33.739919]}, "properties": {"kind": "stop", "name": "GLENWOOD AVE SE@CLIFTON ST SE", "mode": "bus"}}, {"type": "Feature", "geometry": {"type": "Point", "coordinates": [-84.330647, 33.739874]}, "properties": {"kind": "stop", "name": "GLENWOOD AVE SE@WINTHROP DR SE", "mode": "bus"}}, {"type": "Feature", "geometry": {"type": "Point", "coordinates": [-84.329835, 33.739754]}, "properties": {"kind": "stop", "name": "GLENWOOD AVE SE@WINTHROP DR SE", "mode": "bus"}}, {"type": "Feature", "geometry": {"type": "Point", "coordinates": [-84.330071, 33.739928]}, "properties": {"kind": "stop", "name": "GLENWOOD AVE SE @ WINTHROP DR SE", "mode": "bus"}}, {"type": "Feature", "geometry": {"type": "Point", "coordinates": [-84.33256, 33.73999]}, "properties": {"kind": "stop", "name": "GLENWOOD AVE SE @ CLIFTON ST SE", "mode": "bus"}}, {"type": "Feature", "geometry": {"type": "Point", "coordinates": [-84.334778, 33.740035]}, "properties": {"kind": "stop", "name": "GLENWOOD AVE SE @ MAYNARD TER SE", "mode": "bus"}}, {"type": "Feature", "geometry": {"type": "Point", "coordinates": [-84.314222, 33.751125]}, "properties": {"kind": "stop", "name": "HOSEA L WILLIAMS DR @ LAKEVIEW DR NE", "mode": "bus"}}, {"type": "Feature", "geometry": {"type": "Point", "coordinates": [-84.316101, 33.751144]}, "properties": {"kind": "stop", "name": "HOSEA L WILLIAMS DR NE @ ROCKYFORD RD NE", "mode": "bus"}}, {"type": "Feature", "geometry": {"type": "Point", "coordinates": [-84.31739, 33.751144]}, "properties": {"kind": "stop", "name": "HOSEA L WILLIAMS DR NE @ BATES AVE NE", "mode": "bus"}}, {"type": "Feature", "geometry": {"type": "Point", "coordinates": [-84.318723, 33.751161]}, "properties": {"kind": "stop", "name": "HOSEA L WILLIAMS DR NE @ BRANHAM ST NE", "mode": "bus"}}, {"type": "Feature", "geometry": {"type": "Point", "coordinates": [-84.320145, 33.751171]}, "properties": {"kind": "stop", "name": "HOSEA L WILLIAMS DR NE @ NORWOOD AVE NE", "mode": "bus"}}, {"type": "Feature", "geometry": {"type": "Point", "coordinates": [-84.321533, 33.751175]}, "properties": {"kind": "stop", "name": "HOSEA L WILLIAMS DR @ KIRKWOOD RD", "mode": "bus"}}, {"type": "Feature", "geometry": {"type": "Point", "coordinates": [-84.324722, 33.75272]}, "properties": {"kind": "stop", "name": "HOSEA L WILLIAMS DR @ DOYLE ST SE", "mode": "bus"}}, {"type": "Feature", "geometry": {"type": "Point", "coordinates": [-84.325806, 33.753239]}, "properties": {"kind": "stop", "name": "HOSEA L WILLIAMS DR @ WARREN ST NE", "mode": "bus"}}, {"type": "Feature", "geometry": {"type": "Point", "coordinates": [-84.329028, 33.75339]}, "properties": {"kind": "stop", "name": "HOSEA L WILLIAMS DR @ ROGERS ST NE", "mode": "bus"}}, {"type": "Feature", "geometry": {"type": "Point", "coordinates": [-84.330333, 33.75339]}, "properties": {"kind": "stop", "name": "HOSEA L WILLIAMS DR NE @ CLAY ST NE", "mode": "bus"}}, {"type": "Feature", "geometry": {"type": "Point", "coordinates": [-84.331616, 33.753399]}, "properties": {"kind": "stop", "name": "HOSEA L WILLIAMS DR @ CLIFTON ST NE", "mode": "bus"}}, {"type": "Feature", "geometry": {"type": "Point", "coordinates": [-84.333007, 33.753408]}, "properties": {"kind": "stop", "name": "HOSEA L WILLIAMS DR @ WYMAN ST NE", "mode": "bus"}}, {"type": "Feature", "geometry": {"type": "Point", "coordinates": [-84.334573, 33.753417]}, "properties": {"kind": "stop", "name": "HOSEA L WILLIAMS DR @ WOODBINE AVE", "mode": "bus"}}, {"type": "Feature", "geometry": {"type": "Point", "coordinates": [-84.337573, 33.753443]}, "properties": {"kind": "stop", "name": "HOSEA L WILLIAMS DR @ ANNISTON AVE SE", "mode": "bus"}}, {"type": "Feature", "geometry": {"type": "Point", "coordinates": [-84.338497, 33.753443]}, "properties": {"kind": "stop", "name": "HOSEA L WILLIAMS DR SE @ MAYSON AVE", "mode": "bus"}}, {"type": "Feature", "geometry": {"type": "Point", "coordinates": [-84.338595, 33.755368]}, "properties": {"kind": "stop", "name": "MAYSON AVE NE@HARDEE ST NE", "mode": "bus"}}, {"type": "Feature", "geometry": {"type": "Point", "coordinates": [-84.338748, 33.755439]}, "properties": {"kind": "stop", "name": "MAYSON AVE NE@HARDEE ST NE", "mode": "bus"}}, {"type": "Feature", "geometry": {"type": "Point", "coordinates": [-84.323425, 33.751984]}, "properties": {"kind": "stop", "name": "HOSEA L WILLIAMS DR @ HOWARD ST NE", "mode": "bus"}}, {"type": "Feature", "geometry": {"type": "Point", "coordinates": [-84.345855, 33.747552]}, "properties": {"kind": "stop", "name": "MEMORIAL DR SE@TRENTON ST SE", "mode": "bus"}}, {"type": "Feature", "geometry": {"type": "Point", "coordinates": [-84.344388, 33.747535]}, "properties": {"kind": "stop", "name": "MEMORIAL DR SE@HAAS AVE SE", "mode": "bus"}}, {"type": "Feature", "geometry": {"type": "Point", "coordinates": [-84.343247, 33.747535]}, "properties": {"kind": "stop", "name": "MEMORIAL DR SE@PATTERSON AVE SE", "mode": "bus"}}, {"type": "Feature", "geometry": {"type": "Point", "coordinates": [-84.342344, 33.747535]}, "properties": {"kind": "stop", "name": "MEMORIAL DR SE@MEMORIAL TER SE", "mode": "bus"}}, {"type": "Feature", "geometry": {"type": "Point", "coordinates": [-84.319886, 33.747313]}, "properties": {"kind": "stop", "name": "MEMORIAL DR SE@DOUGLAS ST SE", "mode": "bus"}}, {"type": "Feature", "geometry": {"type": "Point", "coordinates": [-84.317255, 33.747295]}, "properties": {"kind": "stop", "name": "MEMORIAL DR SE@2154", "mode": "bus"}}, {"type": "Feature", "geometry": {"type": "Point", "coordinates": [-84.315429, 33.747294]}, "properties": {"kind": "stop", "name": "MEMORIAL DR SE @ WATSON CIR", "mode": "bus"}}, {"type": "Feature", "geometry": {"type": "Point", "coordinates": [-84.335137, 33.747464]}, "properties": {"kind": "stop", "name": "MEMORIAL DR SE @ DIXIE ST SE", "mode": "bus"}}, {"type": "Feature", "geometry": {"type": "Point", "coordinates": [-84.328539, 33.747447]}, "properties": {"kind": "stop", "name": "MEMORIAL DR SE @ WILKINSON DR SE", "mode": "bus"}}, {"type": "Feature", "geometry": {"type": "Point", "coordinates": [-84.331581, 33.747524]}, "properties": {"kind": "stop", "name": "MEMORIAL DR SE @ CLIFTON ST SE", "mode": "bus"}}, {"type": "Feature", "geometry": {"type": "Point", "coordinates": [-84.332749, 33.747627]}, "properties": {"kind": "stop", "name": "MEMORIAL DR SE @ WYMAN ST SE", "mode": "bus"}}, {"type": "Feature", "geometry": {"type": "Point", "coordinates": [-84.3358, 33.747545]}, "properties": {"kind": "stop", "name": "MEMORIAL DR SE @ DIXIE ST SE", "mode": "bus"}}, {"type": "Feature", "geometry": {"type": "Point", "coordinates": [-84.337524, 33.747635]}, "properties": {"kind": "stop", "name": "MEMORIAL DR SE@1560", "mode": "bus"}}, {"type": "Feature", "geometry": {"type": "Point", "coordinates": [-84.338493, 33.747555]}, "properties": {"kind": "stop", "name": "MEMORIAL DR SE@LAMON AVE SE", "mode": "bus"}}, {"type": "Feature", "geometry": {"type": "Point", "coordinates": [-84.339737, 33.747654]}, "properties": {"kind": "stop", "name": "MEMORIAL DR SE@EASTSIDE AVE SE", "mode": "bus"}}, {"type": "Feature", "geometry": {"type": "Point", "coordinates": [-84.343185, 33.747643]}, "properties": {"kind": "stop", "name": "MEMORIAL DR SE@PATTERSON AVE SE", "mode": "bus"}}, {"type": "Feature", "geometry": {"type": "Point", "coordinates": [-84.344353, 33.747612]}, "properties": {"kind": "stop", "name": "MEMORIAL DR SE@HAAS AVE SE", "mode": "bus"}}, {"type": "Feature", "geometry": {"type": "Point", "coordinates": [-84.345329, 33.747612]}, "properties": {"kind": "stop", "name": "MEMORIAL DR SE@DAHLGREEN ST SE", "mode": "bus"}}, {"type": "Feature", "geometry": {"type": "Point", "coordinates": [-84.322115, 33.739668]}, "properties": {"kind": "stop", "name": "GLENWOOD AVE SE@TERRY MILL RD SE", "mode": "bus"}}, {"type": "Feature", "geometry": {"type": "Point", "coordinates": [-84.320637, 33.73991]}, "properties": {"kind": "stop", "name": "GLENWOOD AVE SE@LOMITA RD", "mode": "bus"}}, {"type": "Feature", "geometry": {"type": "Point", "coordinates": [-84.320694, 33.740017]}, "properties": {"kind": "stop", "name": "GLENWOOD AVE SE@LOMITA RD SE", "mode": "bus"}}, {"type": "Feature", "geometry": {"type": "Point", "coordinates": [-84.314038, 33.740002]}, "properties": {"kind": "stop", "name": "GLENWOOD AVE SE @ EVA DAVIS WAY", "mode": "bus"}}, {"type": "Feature", "geometry": {"type": "Point", "coordinates": [-84.313865, 33.740196]}, "properties": {"kind": "stop", "name": "GLENWOOD AVE SE @ EVA DAVIS WAY", "mode": "bus"}}, {"type": "Feature", "geometry": {"type": "Point", "coordinates": [-84.342532, 33.760443]}, "properties": {"kind": "stop", "name": "LA FRANCE ST @ WHITEFOORD AVE", "mode": "bus"}}, {"type": "Feature", "geometry": {"type": "Point", "coordinates": [-84.32356, 33.747402]}, "properties": {"kind": "stop", "name": "MEMORIAL DR SE @ S HOWARD ST", "mode": "bus"}}, {"type": "Feature", "geometry": {"type": "Point", "coordinates": [-84.338649, 33.753551]}, "properties": {"kind": "stop", "name": "MAYSON AVE @ HOSEA L WILLIAMS DR", "mode": "bus"}}, {"type": "Feature", "geometry": {"type": "Point", "coordinates": [-84.337649, 33.753372]}, "properties": {"kind": "stop", "name": "HOSEA L WILLIAMS DR @ ANNISTON AVE SE", "mode": "bus"}}, {"type": "Feature", "geometry": {"type": "Point", "coordinates": [-84.334692, 33.753345]}, "properties": {"kind": "stop", "name": "HOSEA L WILLIAMS DR @ WOODBINE AVE SE", "mode": "bus"}}, {"type": "Feature", "geometry": {"type": "Point", "coordinates": [-84.33317, 33.753345]}, "properties": {"kind": "stop", "name": "HOSEA L WILLIAMS DR @ WYMAN ST SE", "mode": "bus"}}, {"type": "Feature", "geometry": {"type": "Point", "coordinates": [-84.331583, 33.753328]}, "properties": {"kind": "stop", "name": "HOSEA L WILLIAMS DR @ CLIFTON ST NE", "mode": "bus"}}, {"type": "Feature", "geometry": {"type": "Point", "coordinates": [-84.33042, 33.753328]}, "properties": {"kind": "stop", "name": "HOSEA L WILLIAMS DR @ CLAY ST NE", "mode": "bus"}}, {"type": "Feature", "geometry": {"type": "Point", "coordinates": [-84.329268, 33.753319]}, "properties": {"kind": "stop", "name": "HOSEA L WILLIAMS DR @ ROGERS ST SE", "mode": "bus"}}, {"type": "Feature", "geometry": {"type": "Point", "coordinates": [-84.326561, 33.753301]}, "properties": {"kind": "stop", "name": "HOSEA L WILLIAMS DR SE @ WARREN ST SE", "mode": "bus"}}, {"type": "Feature", "geometry": {"type": "Point", "coordinates": [-84.324343, 33.752415]}, "properties": {"kind": "stop", "name": "HOSEA L WILLIAMS DR @ DOYLE ST SE", "mode": "bus"}}, {"type": "Feature", "geometry": {"type": "Point", "coordinates": [-84.322854, 33.751466]}, "properties": {"kind": "stop", "name": "HOSEA L WILLIAMS DR @ HOWARD ST SE", "mode": "bus"}}, {"type": "Feature", "geometry": {"type": "Point", "coordinates": [-84.320669, 33.75109]}, "properties": {"kind": "stop", "name": "HOSEA L WILLIAMS DR NE @ NORWOOD AVE NE", "mode": "bus"}}, {"type": "Feature", "geometry": {"type": "Point", "coordinates": [-84.317701, 33.751072]}, "properties": {"kind": "stop", "name": "HOSEA L WILLIAMS DR NE @ BATES AVE SE", "mode": "bus"}}, {"type": "Feature", "geometry": {"type": "Point", "coordinates": [-84.31432, 33.751036]}, "properties": {"kind": "stop", "name": "HOSEA L WILLIAMS DR NE @ LAKEVIEW DR SE", "mode": "bus"}}, {"type": "Feature", "geometry": {"type": "Point", "coordinates": [-84.341214, 33.747517]}, "properties": {"kind": "stop", "name": "MEMORIAL DR SE@1422", "mode": "bus"}}, {"type": "Feature", "geometry": {"type": "Point", "coordinates": [-84.339703, 33.747518]}, "properties": {"kind": "stop", "name": "MEMORIAL DR SE@EASTSIDE AVE SE", "mode": "bus"}}, {"type": "Feature", "geometry": {"type": "Point", "coordinates": [-84.338616, 33.747509]}, "properties": {"kind": "stop", "name": "MEMORIAL DR SE@LAMON AVE SE", "mode": "bus"}}, {"type": "Feature", "geometry": {"type": "Point", "coordinates": [-84.33755, 33.747491]}, "properties": {"kind": "stop", "name": "MEMORIAL DR SE@1599", "mode": "bus"}}, {"type": "Feature", "geometry": {"type": "Point", "coordinates": [-84.33193, 33.747429]}, "properties": {"kind": "stop", "name": "MEMORIAL DR SE@CLIFTON ST SE", "mode": "bus"}}, {"type": "Feature", "geometry": {"type": "Point", "coordinates": [-84.328728, 33.747253]}, "properties": {"kind": "stop", "name": "MEMORIAL DR SE@WILKINSON DR SE", "mode": "bus"}}, {"type": "Feature", "geometry": {"type": "Point", "coordinates": [-84.343918, 33.739058]}, "properties": {"kind": "stop", "name": "FLAT SHOALS AVE SE @ MAY AVE SE", "mode": "bus"}}, {"type": "Feature", "geometry": {"type": "Point", "coordinates": [-84.326234, 33.747429]}, "properties": {"kind": "stop", "name": "MEMORIAL DR SE @ WARREN ST SE", "mode": "bus"}}, {"type": "Feature", "geometry": {"type": "Point", "coordinates": [-84.321144, 33.747494]}, "properties": {"kind": "stop", "name": "MEMORIAL DR @ PALATKA ST SE", "mode": "bus"}}, {"type": "Feature", "geometry": {"type": "Point", "coordinates": [-84.319451, 33.747366]}, "properties": {"kind": "stop", "name": "MEMORIAL DR SE @ DOUGLAS ST SE", "mode": "bus"}}, {"type": "Feature", "geometry": {"type": "Point", "coordinates": [-84.317201, 33.747366]}, "properties": {"kind": "stop", "name": "MEMORIAL DR SE @ 2154", "mode": "bus"}}, {"type": "Feature", "geometry": {"type": "Point", "coordinates": [-84.343658, 33.740079]}, "properties": {"kind": "stop", "name": "GLENWOOD AVE SE@PATTERSON AVE SE", "mode": "bus"}}, {"type": "Feature", "geometry": {"type": "Point", "coordinates": [-84.343114, 33.740159]}, "properties": {"kind": "stop", "name": "GLENWOOD AVE@PATTERSON AVE", "mode": "bus"}}, {"type": "Feature", "geometry": {"type": "Point", "coordinates": [-84.340209, 33.739954]}, "properties": {"kind": "stop", "name": "GLENWOOD AVE SE@EASTSIDE AVE SE", "mode": "bus"}}, {"type": "Feature", "geometry": {"type": "Point", "coordinates": [-84.33985, 33.74014]}, "properties": {"kind": "stop", "name": "GLENWOOD AVE SE@EASTSIDE AVE SE", "mode": "bus"}}, {"type": "Feature", "geometry": {"type": "Point", "coordinates": [-84.338191, 33.740008]}, "properties": {"kind": "stop", "name": "GLENWOOD AVE@BLAKE AVE SE", "mode": "bus"}}, {"type": "Feature", "geometry": {"type": "Point", "coordinates": [-84.336171, 33.739938]}, "properties": {"kind": "stop", "name": "GLENWOOD AVE@MCWILLIAMS AVE", "mode": "bus"}}, {"type": "Feature", "geometry": {"type": "Point", "coordinates": [-84.338288, 33.740079]}, "properties": {"kind": "stop", "name": "GLENWOOD AVE@BLAKE AVE", "mode": "bus"}}, {"type": "Feature", "geometry": {"type": "Point", "coordinates": [-84.345593, 33.740105]}, "properties": {"kind": "stop", "name": "GLENWOOD AVE SE@FLAT SHOALS AVE SE", "mode": "bus"}}, {"type": "Feature", "geometry": {"type": "Point", "coordinates": [-84.345011, 33.739864]}, "properties": {"kind": "stop", "name": "FLAT SHOALS AVE @ GLENWOOD AVE", "mode": "bus"}}, {"type": "Feature", "geometry": {"type": "Point", "coordinates": [-84.34531, 33.740168]}, "properties": {"kind": "stop", "name": "GLENWOOD AVE SE@FLAT SHOALS AVE SE", "mode": "bus"}}, {"type": "Feature", "geometry": {"type": "Point", "coordinates": [-84.336017, 33.740062]}, "properties": {"kind": "stop", "name": "GLENWOOD AVE@MCWILLIAMS AVE", "mode": "bus"}}, {"type": "Feature", "geometry": {"type": "Point", "coordinates": [-84.314723, 33.743794]}, "properties": {"kind": "stop", "name": "EVA DAVIS WAY @ LAKESIDE VILLAGE DR SE", "mode": "bus"}}, {"type": "Feature", "geometry": {"type": "Point", "coordinates": [-84.314363, 33.741028]}, "properties": {"kind": "stop", "name": "EVA DAVIS WAY @ HILLSIDE VILLAGE DR", "mode": "bus"}}, {"type": "Feature", "geometry": {"type": "Point", "coordinates": [-84.313846, 33.74749]}, "properties": {"kind": "stop", "name": "MEMORIAL DR @ E LAKE TER", "mode": "bus"}}, {"type": "Feature", "geometry": {"type": "Point", "coordinates": [-84.317984, 33.740259]}, "properties": {"kind": "stop", "name": "GLENWOOD AVE SE @ BERNICE ST SE", "mode": "bus"}}, {"type": "Feature", "geometry": {"type": "Point", "coordinates": [-84.314677, 33.746447]}, "properties": {"kind": "stop", "name": "EVA DAVIS WAY @ MEMORIAL DR SE", "mode": "bus"}}, {"type": "Feature", "geometry": {"type": "Point", "coordinates": [-84.292383, 33.748785]}, "properties": {"kind": "stop", "name": "CANDLER RD@TUPELO ST SE", "mode": "bus"}}, {"type": "Feature", "geometry": {"type": "Point", "coordinates": [-84.292145, 33.747263]}, "properties": {"kind": "stop", "name": "CANDLER RD @ MEMORIAL DR SE", "mode": "bus"}}, {"type": "Feature", "geometry": {"type": "Point", "coordinates": [-84.291048, 33.744775]}, "properties": {"kind": "stop", "name": "CANDLER RD@ALSTON DR SE", "mode": "bus"}}, {"type": "Feature", "geometry": {"type": "Point", "coordinates": [-84.290451, 33.743214]}, "properties": {"kind": "stop", "name": "CANDLER RD@WHITE OAK DR", "mode": "bus"}}, {"type": "Feature", "geometry": {"type": "Point", "coordinates": [-84.289925, 33.742168]}, "properties": {"kind": "stop", "name": "CANDLER RD@DAWES AVE", "mode": "bus"}}, {"type": "Feature", "geometry": {"type": "Point", "coordinates": [-84.290027, 33.742948]}, "properties": {"kind": "stop", "name": "CANDLER RD@WHITE OAK DR", "mode": "bus"}}, {"type": "Feature", "geometry": {"type": "Point", "coordinates": [-84.290885, 33.74464]}, "properties": {"kind": "stop", "name": "CANDLER RD@ALSTON DR", "mode": "bus"}}, {"type": "Feature", "geometry": {"type": "Point", "coordinates": [-84.291403, 33.745876]}, "properties": {"kind": "stop", "name": "CANDLER RD @ 240", "mode": "bus"}}, {"type": "Feature", "geometry": {"type": "Point", "coordinates": [-84.292166, 33.748078]}, "properties": {"kind": "stop", "name": "CANDLER RD @ TUPELO ST", "mode": "bus"}}, {"type": "Feature", "geometry": {"type": "Point", "coordinates": [-84.292219, 33.751533]}, "properties": {"kind": "stop", "name": "CANDLER RD @ CHEVELLE LN NE", "mode": "bus"}}, {"type": "Feature", "geometry": {"type": "Point", "coordinates": [-84.3112, 33.751098]}, "properties": {"kind": "stop", "name": "HOSEA L WILLIAMS DR @ 1ST AVE", "mode": "bus"}}, {"type": "Feature", "geometry": {"type": "Point", "coordinates": [-84.30894, 33.747231]}, "properties": {"kind": "stop", "name": "MEMORIAL DR SE @ 2ND AVE SE", "mode": "bus"}}, {"type": "Feature", "geometry": {"type": "Point", "coordinates": [-84.306557, 33.746964]}, "properties": {"kind": "stop", "name": "MEMORIAL DR SE@COTTAGE GROVE AVE SE", "mode": "bus"}}, {"type": "Feature", "geometry": {"type": "Point", "coordinates": [-84.305481, 33.746979]}, "properties": {"kind": "stop", "name": "MEMORIAL DR SE@CARTER AVE SE", "mode": "bus"}}, {"type": "Feature", "geometry": {"type": "Point", "coordinates": [-84.301461, 33.747149]}, "properties": {"kind": "stop", "name": "MEMORIAL DR SE@GREEN AVE SE", "mode": "bus"}}, {"type": "Feature", "geometry": {"type": "Point", "coordinates": [-84.299276, 33.747131]}, "properties": {"kind": "stop", "name": "MEMORIAL DR SE@DANIEL AVE SE", "mode": "bus"}}, {"type": "Feature", "geometry": {"type": "Point", "coordinates": [-84.298385, 33.747104]}, "properties": {"kind": "stop", "name": "MEMORIAL DR SE@DANIEL AVE SE", "mode": "bus"}}, {"type": "Feature", "geometry": {"type": "Point", "coordinates": [-84.296265, 33.747076]}, "properties": {"kind": "stop", "name": "MEMORIAL DR SE@SPENCE AVE SE", "mode": "bus"}}, {"type": "Feature", "geometry": {"type": "Point", "coordinates": [-84.294323, 33.74695]}, "properties": {"kind": "stop", "name": "MEMORIAL DR SE@OAKRIDGE AVE SE", "mode": "bus"}}, {"type": "Feature", "geometry": {"type": "Point", "coordinates": [-84.291395, 33.747039]}, "properties": {"kind": "stop", "name": "MEMORIAL DR SE @ CANDLER RD SE", "mode": "bus"}}, {"type": "Feature", "geometry": {"type": "Point", "coordinates": [-84.309756, 33.740008]}, "properties": {"kind": "stop", "name": "GLENWOOD AVE SE @ 2ND AVE SE", "mode": "bus"}}, {"type": "Feature", "geometry": {"type": "Point", "coordinates": [-84.309637, 33.74007]}, "properties": {"kind": "stop", "name": "GLENWOOD AVE SE@2ND AVE SE", "mode": "bus"}}, {"type": "Feature", "geometry": {"type": "Point", "coordinates": [-84.306495, 33.739998]}, "properties": {"kind": "stop", "name": "GLENWOOD AVE SE@SUMMIT DR", "mode": "bus"}}, {"type": "Feature", "geometry": {"type": "Point", "coordinates": [-84.306665, 33.739906]}, "properties": {"kind": "stop", "name": "GLENWOOD AVE SE@SUMMIT DR", "mode": "bus"}}, {"type": "Feature", "geometry": {"type": "Point", "coordinates": [-84.304919, 33.73989]}, "properties": {"kind": "stop", "name": "GLENWOOD AVE SE@CARTER AVE SE", "mode": "bus"}}, {"type": "Feature", "geometry": {"type": "Point", "coordinates": [-84.305435, 33.740093]}, "properties": {"kind": "stop", "name": "GLENWOOD AVE SE@CARTER AVE SE", "mode": "bus"}}, {"type": "Feature", "geometry": {"type": "Point", "coordinates": [-84.300463, 33.739791]}, "properties": {"kind": "stop", "name": "GLENWOOD AVE SE@PARKER AVE", "mode": "bus"}}, {"type": "Feature", "geometry": {"type": "Point", "coordinates": [-84.299517, 33.739755]}, "properties": {"kind": "stop", "name": "GLENWOOD AVE SE@DANIEL AVE", "mode": "bus"}}, {"type": "Feature", "geometry": {"type": "Point", "coordinates": [-84.299225, 33.739902]}, "properties": {"kind": "stop", "name": "GLENWOOD AVE SE@DANIEL AVE", "mode": "bus"}}, {"type": "Feature", "geometry": {"type": "Point", "coordinates": [-84.29717, 33.73971]}, "properties": {"kind": "stop", "name": "GLENWOOD AVE SE @ QUILLIAN AVE", "mode": "bus"}}, {"type": "Feature", "geometry": {"type": "Point", "coordinates": [-84.297623, 33.739845]}, "properties": {"kind": "stop", "name": "GLENWOOD AVE SE@QUILLIAN AVE", "mode": "bus"}}, {"type": "Feature", "geometry": {"type": "Point", "coordinates": [-84.295128, 33.739426]}, "properties": {"kind": "stop", "name": "GLENWOOD AVE SE@ALLENDALE DR SE", "mode": "bus"}}, {"type": "Feature", "geometry": {"type": "Point", "coordinates": [-84.293811, 33.739073]}, "properties": {"kind": "stop", "name": "GLENWOOD AVE SE@ASHBURTON AVE", "mode": "bus"}}, {"type": "Feature", "geometry": {"type": "Point", "coordinates": [-84.291083, 33.738929]}, "properties": {"kind": "stop", "name": "GLENWOOD AVE SE@HOOPER ST SE", "mode": "bus"}}, {"type": "Feature", "geometry": {"type": "Point", "coordinates": [-84.301842, 33.75264]}, "properties": {"kind": "stop", "name": "E LAKE DR NE@KNOX ST NE", "mode": "bus"}}, {"type": "Feature", "geometry": {"type": "Point", "coordinates": [-84.301481, 33.751365]}, "properties": {"kind": "stop", "name": "E LAKE DR SE@HOSEA L WILLIAMS DR", "mode": "bus"}}, {"type": "Feature", "geometry": {"type": "Point", "coordinates": [-84.298579, 33.751302]}, "properties": {"kind": "stop", "name": "HOSEA L WILLIAMS DR @ DANIEL AVE SE", "mode": "bus"}}, {"type": "Feature", "geometry": {"type": "Point", "coordinates": [-84.296155, 33.751382]}, "properties": {"kind": "stop", "name": "HOSEA L WILLIAMS DR @ SPENCE AVE SE", "mode": "bus"}}, {"type": "Feature", "geometry": {"type": "Point", "coordinates": [-84.292339, 33.751533]}, "properties": {"kind": "stop", "name": "HOSEA L WILLIAMS DR @ CANDLER RD", "mode": "bus"}}, {"type": "Feature", "geometry": {"type": "Point", "coordinates": [-84.296013, 33.751534]}, "properties": {"kind": "stop", "name": "HOSEA L WILLIAMS DR @ SPENCE AVE", "mode": "bus"}}, {"type": "Feature", "geometry": {"type": "Point", "coordinates": [-84.298427, 33.751454]}, "properties": {"kind": "stop", "name": "HOSEA L WILLIAMS DR @ DANIEL AVE", "mode": "bus"}}, {"type": "Feature", "geometry": {"type": "Point", "coordinates": [-84.301259, 33.751377]}, "properties": {"kind": "stop", "name": "HOSEA L WILLIAMS DR @  E LAKE DR", "mode": "bus"}}, {"type": "Feature", "geometry": {"type": "Point", "coordinates": [-84.301216, 33.752258]}, "properties": {"kind": "stop", "name": "E LAKE DR@KNOX ST", "mode": "bus"}}, {"type": "Feature", "geometry": {"type": "Point", "coordinates": [-84.301384, 33.754598]}, "properties": {"kind": "stop", "name": "E LAKE DR @ W PHARR RD", "mode": "bus"}}, {"type": "Feature", "geometry": {"type": "Point", "coordinates": [-84.309883, 33.752022]}, "properties": {"kind": "stop", "name": "2ND AVE @ NORTHERN ST", "mode": "bus"}}, {"type": "Feature", "geometry": {"type": "Point", "coordinates": [-84.309798, 33.750785]}, "properties": {"kind": "stop", "name": "2ND AVE @ HOSEA L WILLIAMS DR", "mode": "bus"}}, {"type": "Feature", "geometry": {"type": "Point", "coordinates": [-84.309809, 33.749478]}, "properties": {"kind": "stop", "name": "2ND AVE SE @ COTTAGE GROVE AVE", "mode": "bus"}}, {"type": "Feature", "geometry": {"type": "Point", "coordinates": [-84.309787, 33.747347]}, "properties": {"kind": "stop", "name": "2ND AVE SE @ MEMORIAL DR SE", "mode": "bus"}}, {"type": "Feature", "geometry": {"type": "Point", "coordinates": [-84.309525, 33.745029]}, "properties": {"kind": "stop", "name": "2ND AVE SE @ ALSTON DR SE", "mode": "bus"}}, {"type": "Feature", "geometry": {"type": "Point", "coordinates": [-84.309689, 33.749272]}, "properties": {"kind": "stop", "name": "2ND AVE SE @ 90", "mode": "bus"}}, {"type": "Feature", "geometry": {"type": "Point", "coordinates": [-84.309547, 33.752098]}, "properties": {"kind": "stop", "name": "2ND AVE @ NORTHERN ST", "mode": "bus"}}, {"type": "Feature", "geometry": {"type": "Point", "coordinates": [-84.311298, 33.751009]}, "properties": {"kind": "stop", "name": "HOSEA L WILLIAMS DR NE @ 1ST AVE SE", "mode": "bus"}}, {"type": "Feature", "geometry": {"type": "Point", "coordinates": [-84.291936, 33.753296]}, "properties": {"kind": "stop", "name": "S CANDLER ST @ E PHARR RD", "mode": "bus"}}, {"type": "Feature", "geometry": {"type": "Point", "coordinates": [-84.292442, 33.751678]}, "properties": {"kind": "stop", "name": "CANDLER RD @ HOSEA L WILLIAMS DR", "mode": "bus"}}, {"type": "Feature", "geometry": {"type": "Point", "coordinates": [-84.310555, 33.754852]}, "properties": {"kind": "stop", "name": "2ND AVE @ 351", "mode": "bus"}}, {"type": "Feature", "geometry": {"type": "Point", "coordinates": [-84.310173, 33.754223]}, "properties": {"kind": "stop", "name": "2ND AVE @ OAKVIEW RD", "mode": "bus"}}, {"type": "Feature", "geometry": {"type": "Point", "coordinates": [-84.30507, 33.747239]}, "properties": {"kind": "stop", "name": "MEMORIAL DR@CARTER AVE", "mode": "bus"}}, {"type": "Feature", "geometry": {"type": "Point", "coordinates": [-84.302678, 33.747158]}, "properties": {"kind": "stop", "name": "MEMORIAL DR@LAKE DR SE", "mode": "bus"}}, {"type": "Feature", "geometry": {"type": "Point", "coordinates": [-84.302624, 33.747221]}, "properties": {"kind": "stop", "name": "MEMORIAL DR@LAKE DR SE", "mode": "bus"}}, {"type": "Feature", "geometry": {"type": "Point", "coordinates": [-84.2995, 33.74736]}, "properties": {"kind": "stop", "name": "MEMORIAL DR SE@DANIEL AVE", "mode": "bus"}}, {"type": "Feature", "geometry": {"type": "Point", "coordinates": [-84.298141, 33.747318]}, "properties": {"kind": "stop", "name": "MEMORIAL DR SE@DANIEL AVE", "mode": "bus"}}, {"type": "Feature", "geometry": {"type": "Point", "coordinates": [-84.295959, 33.747322]}, "properties": {"kind": "stop", "name": "MEMORIAL DR SE@SPENCE AVE", "mode": "bus"}}, {"type": "Feature", "geometry": {"type": "Point", "coordinates": [-84.293877, 33.747284]}, "properties": {"kind": "stop", "name": "MEMORIAL DR SE@OAKRIDGE AVE SE", "mode": "bus"}}, {"type": "Feature", "geometry": {"type": "Point", "coordinates": [-84.311157, 33.747339]}, "properties": {"kind": "stop", "name": "MEMORIAL DR SE @ 1ST AVE", "mode": "bus"}}, {"type": "Feature", "geometry": {"type": "Point", "coordinates": [-84.311029, 33.747278]}, "properties": {"kind": "stop", "name": "MEMORIAL DR SE @ 1ST AVE", "mode": "bus"}}, {"type": "Feature", "geometry": {"type": "Point", "coordinates": [-84.30969, 33.747312]}, "properties": {"kind": "stop", "name": "MEMORIAL DR SE@SECOND AVE", "mode": "bus"}}, {"type": "Feature", "geometry": {"type": "Point", "coordinates": [-84.291634, 33.747111]}, "properties": {"kind": "stop", "name": "MEMORIAL DR SE @ CANDLER RD SE", "mode": "bus"}}, {"type": "Feature", "geometry": {"type": "Point", "coordinates": [-84.300262, 33.739902]}, "properties": {"kind": "stop", "name": "GLENWOOD AVE SE@PARKER AVE", "mode": "bus"}}, {"type": "Feature", "geometry": {"type": "Point", "coordinates": [-84.311403, 33.739926]}, "properties": {"kind": "stop", "name": "GLENWOOD AVE @ FAYETTEVILLE RD", "mode": "bus"}}, {"type": "Feature", "geometry": {"type": "Point", "coordinates": [-84.348179, 33.740123]}, "properties": {"kind": "stop", "name": "GLENWOOD AVE SE @ BROWNWOOD AVE SE", "mode": "bus"}}, {"type": "Feature", "geometry": {"type": "Point", "coordinates": [-84.3494, 33.739231]}, "properties": {"kind": "stop", "name": "MORELAND AVE SE @ PORTLAND AVE SE", "mode": "bus"}}, {"type": "Feature", "geometry": {"type": "Point", "coordinates": [-84.351166, 33.74049]}, "properties": {"kind": "stop", "name": "GLENWOOD AVE SE@HEMLOCK CIR SE", "mode": "bus"}}, {"type": "Feature", "geometry": {"type": "Point", "coordinates": [-84.354172, 33.740005]}, "properties": {"kind": "stop", "name": "GLENWOOD AVE SE@STOVALL ST SE", "mode": "bus"}}, {"type": "Feature", "geometry": {"type": "Point", "coordinates": [-84.354234, 33.739888]}, "properties": {"kind": "stop", "name": "GLENWOOD AVE SE@STOVALL ST SE", "mode": "bus"}}, {"type": "Feature", "geometry": {"type": "Point", "coordinates": [-84.351332, 33.74039]}, "properties": {"kind": "stop", "name": "GLENWOOD AVE SE@HEMLOCK CIR SE", "mode": "bus"}}, {"type": "Feature", "geometry": {"type": "Point", "coordinates": [-84.348364, 33.740208]}, "properties": {"kind": "stop", "name": "GLENWOOD AVE SE @ BROWNWOOD AVE", "mode": "bus"}}, {"type": "Feature", "geometry": {"type": "Point", "coordinates": [-84.349386, 33.740337]}, "properties": {"kind": "stop", "name": "GLENWOOD AVE SE @ MORELAND AVE SE", "mode": "bus"}}, {"type": "Feature", "geometry": {"type": "Point", "coordinates": [-84.349197, 33.738838]}, "properties": {"kind": "stop", "name": "MORELAND AVE SE@PORTLAND AVE", "mode": "bus"}}, {"type": "Feature", "geometry": {"type": "Point", "coordinates": [-84.349152, 33.739948]}, "properties": {"kind": "stop", "name": "MORELAND AVE SE@GLENWOOD AVE SE", "mode": "bus"}}, {"type": "Feature", "geometry": {"type": "Point", "coordinates": [-84.34914, 33.74122]}, "properties": {"kind": "stop", "name": "MORELAND AVE SE @ METROPOLITAN AVE SE", "mode": "bus"}}, {"type": "Feature", "geometry": {"type": "Point", "coordinates": [-84.349159, 33.743032]}, "properties": {"kind": "stop", "name": "MORELAND AVE SE @ MCPHERSON AVE SE", "mode": "bus"}}, {"type": "Feature", "geometry": {"type": "Point", "coordinates": [-84.34916, 33.747543]}, "properties": {"kind": "stop", "name": "MORELAND AVE SE @ MEMORIAL DR SE", "mode": "bus"}}, {"type": "Feature", "geometry": {"type": "Point", "coordinates": [-84.349139, 33.749655]}, "properties": {"kind": "stop", "name": "MORELAND AVE SE @ MERLIN AVE SE", "mode": "bus"}}, {"type": "Feature", "geometry": {"type": "Point", "coordinates": [-84.349162, 33.752341]}, "properties": {"kind": "stop", "name": "MORELAND AVE SE @ WYLIE ST SE", "mode": "bus"}}, {"type": "Feature", "geometry": {"type": "Point", "coordinates": [-84.349173, 33.753504]}, "properties": {"kind": "stop", "name": "MORELAND AVE SE @ HOSEA L WILLIAMS DR NE", "mode": "bus"}}, {"type": "Feature", "geometry": {"type": "Point", "coordinates": [-84.349119, 33.755599]}, "properties": {"kind": "stop", "name": "MORELAND AVE NE @ HARDEE ST NE", "mode": "bus"}}, {"type": "Feature", "geometry": {"type": "Point", "coordinates": [-84.315691, 33.740259]}, "properties": {"kind": "stop", "name": "GLENWOOD AVE@2225", "mode": "bus"}}, {"type": "Feature", "geometry": {"type": "Point", "coordinates": [-84.347065, 33.758437]}, "properties": {"kind": "stop", "name": "CAROLINE ST @ 1270", "mode": "bus"}}, {"type": "Feature", "geometry": {"type": "Point", "coordinates": [-84.349566, 33.758374]}, "properties": {"kind": "stop", "name": "SEABOARD AVE NE @ MORELAND AVE NE", "mode": "bus"}}, {"type": "Feature", "geometry": {"type": "Point", "coordinates": [-84.347739, 33.758338]}, "properties": {"kind": "stop", "name": "CAROLINE ST @ 1245", "mode": "bus"}}, {"type": "Feature", "geometry": {"type": "Point", "coordinates": [-84.349242, 33.765158]}, "properties": {"kind": "stop", "name": "MORELAND AVE @ EUCLID AVE", "mode": "bus"}}, {"type": "Feature", "geometry": {"type": "Point", "coordinates": [-84.349263, 33.762357]}, "properties": {"kind": "stop", "name": "MORELAND AVE @ 299", "mode": "bus"}}, {"type": "Feature", "geometry": {"type": "Point", "coordinates": [-84.349154, 33.762357]}, "properties": {"kind": "stop", "name": "MORELAND AVE @ 299", "mode": "bus"}}, {"type": "Feature", "geometry": {"type": "Point", "coordinates": [-84.349122, 33.764899]}, "properties": {"kind": "stop", "name": "MORELAND AVE @ MCLENDON AVE", "mode": "bus"}}, {"type": "Feature", "geometry": {"type": "Point", "coordinates": [-84.314484, 33.741208]}, "properties": {"kind": "stop", "name": "EVA DAVIS WAY @ GREENHAVEN DR SE", "mode": "bus"}}, {"type": "Feature", "geometry": {"type": "Point", "coordinates": [-84.31481, 33.743598]}, "properties": {"kind": "stop", "name": "EVA DAVIS WAY @ FOREST LAKES AVE", "mode": "bus"}}, {"type": "Feature", "geometry": {"type": "Point", "coordinates": [-84.31444, 33.747258]}, "properties": {"kind": "stop", "name": "EVA DAVIS WAY @ MEMORIAL DR", "mode": "bus"}}, {"type": "Feature", "geometry": {"type": "Point", "coordinates": [-84.322006, 33.73974]}, "properties": {"kind": "stop", "name": "GLENWOOD AVE@TERRY MILL RD", "mode": "bus"}}, {"type": "Feature", "geometry": {"type": "Point", "coordinates": [-84.322066, 33.747292]}, "properties": {"kind": "stop", "name": "MEMORIAL DR@S HOWARD ST", "mode": "bus"}}, {"type": "Feature", "geometry": {"type": "Point", "coordinates": [-84.306157, 33.747257]}, "properties": {"kind": "stop", "name": "MEMORIAL DR@COTTAGE GROVE AVE", "mode": "bus"}}, {"type": "Feature", "geometry": {"type": "Point", "coordinates": [-84.309756, 33.740392]}, "properties": {"kind": "stop", "name": "2ND AVE SE @ GLENWOOD AVE SE", "mode": "bus"}}, {"type": "Feature", "geometry": {"type": "Point", "coordinates": [-84.309648, 33.740437]}, "properties": {"kind": "stop", "name": "2ND AVE SE @ GLENWOOD AVE SE", "mode": "bus"}}, {"type": "Feature", "geometry": {"type": "Point", "coordinates": [-84.331811, 33.746328]}, "properties": {"kind": "stop", "name": "CLIFTON ST SE @ MEMORIAL DR SE", "mode": "bus"}}, {"type": "Feature", "geometry": {"type": "Point", "coordinates": [-84.309678, 33.751331]}, "properties": {"kind": "stop", "name": "2ND AVE NE @ HOSEA L WILLIAMS DR NE", "mode": "bus"}}, {"type": "Feature", "geometry": {"type": "Point", "coordinates": [-84.311061, 33.740124]}, "properties": {"kind": "stop", "name": "GLENWOOD AVE @ FAYETTEVILLE RD", "mode": "bus"}}, {"type": "Feature", "geometry": {"type": "Point", "coordinates": [-84.349285, 33.76344]}, "properties": {"kind": "stop", "name": "MORELAND AVE NE @ 326", "mode": "bus"}}, {"type": "Feature", "geometry": {"type": "Point", "coordinates": [-84.309668, 33.747142]}, "properties": {"kind": "stop", "name": "2ND AVE SE @ MEMORIAL DR SE", "mode": "bus"}}, {"type": "Feature", "geometry": {"type": "Point", "coordinates": [-84.309766, 33.745316]}, "properties": {"kind": "stop", "name": "2ND AVE SE @ ALSTON DR SE", "mode": "bus"}}, {"type": "Feature", "geometry": {"type": "Point", "coordinates": [-84.310026, 33.751125]}, "properties": {"kind": "stop", "name": "HOSEA WILLIAMS DR @ 2ND AVE", "mode": "bus"}}, {"type": "Feature", "geometry": {"type": "Point", "coordinates": [-84.349088, 33.759028]}, "properties": {"kind": "stop", "name": "MORELAND AVE @ CAROLINE ST", "mode": "bus"}}, {"type": "Feature", "geometry": {"type": "Point", "coordinates": [-84.340825, 33.761803]}, "properties": {"kind": "stop", "name": "EDGEWOOD-CANDLER PARK STATION", "mode": "bus"}}, {"type": "Feature", "geometry": {"type": "Point", "coordinates": [-84.340456, 33.761866]}, "properties": {"kind": "stop", "name": "EDGEWOOD-CANDLER PARK STATION", "mode": "bus"}}, {"type": "Feature", "geometry": {"type": "Point", "coordinates": [-84.352762, 33.757451]}, "properties": {"kind": "stop", "name": "INMAN PARK-REYNOLDSTOWN STATION", "mode": "bus"}}, {"type": "Feature", "geometry": {"type": "Point", "coordinates": [-84.353066, 33.757227]}, "properties": {"kind": "stop", "name": "INMAN PARK-REYNOLDSTOWN STATION", "mode": "bus"}}], "properties": {"coverage_pct": 99.2, "rail_coverage_pct": 16.5, "stop_count": 253, "rail_stop_count": 3, "bus_stop_count": 250, "transit_index": 44, "weights": {"rail": 2.0, "bus": 1.0}}}