{"type": "FeatureCollection", "features": [{"type": "Feature", "geometry": {"type": "Polygon", "coordinates": [[[-84.36110394176215, 33.75384369776619], [-84.3606980640661, 33.75379405956911], [-84.36047868540423, 33.75376406453764], [-84.35965605761629, 33.75358104703203], [-84.35885883374038, 33.753331636598006], [-84.35809467350933, 33.753018229637], [-84.35737091875276, 33.75264383741946], [-84.35669452282261, 33.75221205713283], [-84.35607198376336, 33.7517270372978], [-84.3559567161027, 33.751617731939426], [-84.35557127020788, 33.751726137248625], [-84.35516652322656, 33.75183085985341], [-84.3542364540845, 33.75205087766746], [-84.35389229007998, 33.75212596771125], [-84.3538422862275, 33.75213596853196], [-84.35378045611847, 33.75214813506861], [-84.35316040807663, 33.75226814493957], [-84.35301093361592, 33.752295917713646], [-84.35155081902961, 33.75255593921686], [-84.35073320514532, 33.752667785569216], [-84.35026910450269, 33.75271241086768], [-84.35004493556654, 33.75273642898405], [-84.34993952116618, 33.75274717651006], [-84.34962949560325, 33.75277717907], [-84.34912437133568, 33.75281361734771], [-84.3476542481891, 33.75288362355894], [-84.34716001028308, 33.75289538044214], [-84.34694999259666, 33.75289538050029], [-84.34671114597742, 33.752892636466505], [-84.34500929515748, 33.75285351423565], [-84.34466998916734, 33.75284821298669], [-84.3443400498403, 33.75285538126434], [-84.34318995298628, 33.75285538157699], [-84.34310818980272, 33.75285505972428], [-84.34187905489706, 33.7528453820438], [-84.34126999404718, 33.75284538210633], [-84.34097000144791, 33.752845382186656], [-84.34066998875666, 33.75284538226684], [-84.34042833297876, 33.75284257320236], [-84.33959015533502, 33.7528230810184], [-84.33866097338428, 33.752805382871294], [-84.33800997357717, 33.75280538301897], [-84.33701342641608, 33.75275746459641], [-84.3358733322297, 33.75264745581402], [-84.33499721779405, 33.75252471139219], [-84.33396713708134, 33.75233469623308], [-84.33289512299729, 33.75207560559106], [-84.33196505869176, 33.75179558391222], [-84.3315536881081, 33.751661764823034], [-84.331353675253, 33.751591759500606], [-84.33124343967296, 33.751552427248825], [-84.33080341202813, 33.75139241514993], [-84.33076521456867, 33.75137843367128], [-84.33057520272925, 33.7513084283884], [-84.32981712785318, 33.75099135439992], [-84.32964711928751, 33.75091134863765], [-84.32949124107887, 33.7508362045327], [-84.3287012035636, 33.75044617676431], [-84.32817271489562, 33.75016325748642], [-84.32760269419784, 33.74983323502572], [-84.32682019176916, 33.74932248468207], [-84.32669059900444, 33.74922744550759], [-84.32648142282494, 33.749075966147856], [-84.32611267229986, 33.74881868687306], [-84.3255390370061, 33.74838060280395], [-84.3253539904689, 33.74821153353748], [-84.32498257672427, 33.7478944537355], [-84.32443144344406, 33.74737663107172], [-84.32386145931838, 33.74678660025902], [-84.32336980283254, 33.746224454385334], [-84.32307448613145, 33.745850348111475], [-84.32282233827074, 33.745571909923285], [-84.32178241888741, 33.744475176439224], [-84.32128289864866, 33.74389117113499], [-84.32085490364251, 33.743268789143194], [-84.32050262164871, 33.74261412254729], [-84.32037274266183, 33.742290502712144], [-84.32023702512681, 33.742205327662106], [-84.31962195161607, 33.74173590070303], [-84.31906355444994, 33.74121939586082], [-84.31802358109887, 33.74015934000579], [-84.31767931625863, 33.73978412020405], [-84.31761931902501, 33.739714116813325], [-84.31718791083983, 33.73915888579495], [-84.31681887491212, 33.738573115418895], [-84.31680016675563, 33.73853543762606], [-84.31672062823876, 33.738434677802005], [-84.31620096242024, 33.7376818105958], [-84.31565102438252, 33.73676177630385], [-84.31517238733691, 33.73579096663644], [-84.31474248007268, 33.734700938062794], [-84.31471444117102, 33.734614699271916], [-84.31511796061119, 33.73430825070237], [-84.31580171999443, 33.7338832814201], [-84.31653203601874, 33.73351634962073], [-84.31730187630296, 33.73321098830492], [-84.3181038281632, 33.73297013760716], [-84.31893016995116, 33.73279611650604], [-84.31915898087905, 33.73276746983281], [-84.3187919409718, 33.732430116826315], [-84.31831608502365, 33.73224278842595], [-84.31758450575396, 33.73187763694543], [-84.31689929276216, 33.731454326901776], [-84.31626704563494, 33.730976935813125], [-84.31569385347254, 33.730450062061635], [-84.31518523623903, 33.72987878057616], [-84.31474609160952, 33.7292685939253], [-84.31438064782535, 33.72862537929333], [-84.31434244168179, 33.72853656062923], [-84.3143366555851, 33.728526376460316], [-84.31404843144603, 33.72785632890246], [-84.31384020037123, 33.72716590203076], [-84.31371396592657, 33.726461745441], [-84.3136709418486, 33.725750640800314], [-84.31371154043147, 33.72503943652633], [-84.31383536863505, 33.72433498182962], [-84.31404123194909, 33.72364406075508], [-84.31432714597291, 33.722973326856874], [-84.31469035559641, 33.72232923913646], [-84.31512736159473, 33.72171799985919], [-84.31563395437836, 33.72114549484812], [-84.31620525457141, 33.72061723682914], [-84.31683576002621, 33.72013831237133], [-84.31751939882014, 33.71971333293312], [-84.3182495877242, 33.719346390483786], [-84.31901929558066, 33.719041018126944], [-84.31982111097997, 33.71880015610375], [-84.32064731358683, 33.71862612350202], [-84.32141449440327, 33.71853004568966], [-84.3215078721418, 33.7179985081276], [-84.32171365901675, 33.71730757376856], [-84.32179238292645, 33.71712283714039], [-84.32197472963614, 33.71651059086007], [-84.32226055846424, 33.7158398380599], [-84.32262367892453, 33.71519572651545], [-84.3230605926508, 33.71458445872195], [-84.32356709094192, 33.714011920777565], [-84.32413829533162, 33.713483625725615], [-84.32476870459423, 33.71300466049215], [-84.3254522477328, 33.71257963692844], [-84.32618234243867, 33.712212647428835], [-84.32695195846037, 33.711907225550114], [-84.32775368527177, 33.71166631201016], [-84.32857980338974, 33.711492226392856], [-84.32942235865612, 33.71138664482993], [-84.330273238771, 33.71135058387479], [-84.33112425134313, 33.7113843907221], [-84.33196720270828, 33.71148773986787], [-84.33279397676002, 33.71165963624118], [-84.33359661303626, 33.71189842477824], [-84.33436738331285, 33.712201806346485], [-84.33509886596907, 33.71256685986606], [-84.33578401741124, 33.71299007041642], [-84.33641623986848, 33.71346736305836], [-84.33698944490943, 33.71399414204686], [-84.33749811206877, 33.714565335058104], [-84.33793734201942, 33.71517544200635], [-84.33830290377827, 33.71581858798135], [-84.33859127548958, 33.71648857979809], [-84.33879967839215, 33.71717896561499], [-84.3388862242369, 33.71766098809032], [-84.33927455625573, 33.718200360207206], [-84.33964014088927, 33.71884350183737], [-84.33992853319327, 33.7195134901388], [-84.34013695420806, 33.72020387330391], [-84.34016205722324, 33.720343669241515], [-84.34041765800593, 33.72093745735653], [-84.34062608642546, 33.721627839513516], [-84.34074801865775, 33.72230682877457], [-84.34074131164982, 33.72219654288288], [-84.34078168539102, 33.721485329984425], [-84.34090528736876, 33.72078084842927], [-84.34095672812458, 33.720608002900015], [-84.34097387913188, 33.720510247610996], [-84.34091033372772, 33.72029976614204], [-84.34078388865719, 33.71959563707872], [-84.34074064507774, 33.71888454174476], [-84.34078101739837, 33.71817332846959], [-84.34090461475847, 33.71746884655195], [-84.34101997910928, 33.717081196205214], [-84.34088369518943, 33.716629763963866], [-84.34075725585274, 33.71592563443655], [-84.34071401447046, 33.71521453866369], [-84.34075438543077, 33.71450332497889], [-84.34087797788655, 33.71379884268483], [-84.34099876818597, 33.713392943051375], [-84.34096225833773, 33.7127925553133], [-84.34100262620868, 33.71208134127828], [-84.34112621325659, 33.7113768584768], [-84.3412178157499, 33.711069029136794], [-84.34114227245874, 33.7108187812228], [-84.34101583974561, 33.71011465127655], [-84.34097259936318, 33.709403554921934], [-84.34101296569061, 33.70869234049817], [-84.34113654792597, 33.707987857315125], [-84.34134215392874, 33.707296889693545], [-84.34142280488288, 33.707107495016054], [-84.34133012509596, 33.706892162087065], [-84.34118016264547, 33.706395366126294], [-84.34117017109236, 33.70637215136289], [-84.34102813712052, 33.70590161504062], [-84.34117713009294, 33.70537446181226], [-84.341446455875, 33.704713499406374], [-84.34179054837159, 33.70407723458005], [-84.34220621946083, 33.70347155953998], [-84.34268961839358, 33.7029020830927], [-84.34323626749384, 33.702374078723764], [-84.34384110365292, 33.701892435784906], [-84.34449852523234, 33.70146161424023], [-84.34520244394042, 33.70108560338957], [-84.3459463412025, 33.70076788495014], [-84.34672332850316, 33.70051140083728], [-84.34752621114278, 33.700318525941896], [-84.34834755481945, 33.70019104615558], [-84.34917975442153, 33.70013014184641], [-84.34978970327354, 33.70011014367414], [-84.35010734064824, 33.700113879015305], [-84.35011692713094, 33.7001107776253], [-84.35095744741403, 33.699917232420795], [-84.35181695313635, 33.69979512856627], [-84.35258852181032, 33.69975128146733], [-84.35291372665463, 33.69966860247683], [-84.35371965234984, 33.69949847282185], [-84.35454134945546, 33.69939354962357], [-84.35537128495388, 33.699354794770606], [-84.356881158033, 33.699344796039135], [-84.35775014975515, 33.69937545570818], [-84.35861111010134, 33.699478642342065], [-84.35945539731019, 33.69965332021431], [-84.36027453685226, 33.6998977360089], [-84.36106030643475, 33.70020943640663], [-84.36180481848359, 33.7005852926934], [-84.36250059927717, 33.70102153214393], [-84.36314066393989, 33.70151377586738], [-84.36371858654388, 33.70205708273592], [-84.36420860047627, 33.702567056213645], [-84.36422734269985, 33.70258663087391], [-84.36434134107907, 33.70270611482379], [-84.36434678665734, 33.70273639871196], [-84.36443052348349, 33.702799588354374], [-84.36477970562098, 33.703165569249535], [-84.36512226422965, 33.703445827916426], [-84.36525016063877, 33.703589382650314], [-84.36529126464605, 33.70362039979385], [-84.36546424347034, 33.703706677275804], [-84.36554097457915, 33.703754049455455], [-84.36593428065699, 33.70403641095483], [-84.36605336826038, 33.70410798194119], [-84.36608336752954, 33.70412798064753], [-84.36636867020006, 33.704326665959876], [-84.36689352822177, 33.70470836323592], [-84.36720259654106, 33.70489542499953], [-84.36746734281456, 33.70509519160002], [-84.36781059600912, 33.70526638604814], [-84.36803352059178, 33.70540803108503], [-84.36839813901588, 33.70565110062291], [-84.36871229175335, 33.70583570043227], [-84.36915526273974, 33.70616993364101], [-84.36944949555942, 33.70628565134581], [-84.3695899740253, 33.7063557098711], [-84.36969006813227, 33.70641557741903], [-84.3697034280301, 33.70641997822284], [-84.37002188873737, 33.706531041029805], [-84.37003302217073, 33.70653514277912], [-84.37014709718461, 33.70657213965719], [-84.37105302008995, 33.70685019264185], [-84.3715230850712, 33.7069912109382], [-84.37229218705153, 33.70725737407349], [-84.37302725623047, 33.707583874531934], [-84.3737215349471, 33.7079677108907], [-84.37436864027404, 33.708405354613966], [-84.37496262267877, 33.708892782470166], [-84.37549802071267, 33.70942551349608], [-84.37596991122585, 33.70999865016881], [-84.37637395464593, 33.71060692340857], [-84.37670643490384, 33.711244740998914], [-84.37696429363908, 33.711906238980795], [-84.37714515836821, 33.712585335548425], [-84.37724736435584, 33.713275786952345], [-84.37726996998524, 33.71397124489621], [-84.37726010004722, 33.714367637970895], [-84.37725022783054, 33.714784030964424], [-84.37724540880917, 33.71492149441146], [-84.3772296054878, 33.7152620025367], [-84.37722203927123, 33.71571107575043], [-84.37722205624303, 33.71587969482733], [-84.37721911629151, 33.71606910467002], [-84.3772120979891, 33.716294416101874], [-84.37721210053354, 33.71631969484082], [-84.37721217373688, 33.71704697983637], [-84.3786270139623, 33.71705475183158], [-84.37949185567626, 33.71709560588736], [-84.3803475233959, 33.71720826678776], [-84.38118550178665, 33.71739161336167], [-84.38199745142416, 33.71764382098956], [-84.38277529173058, 33.71796237974876], [-84.38351128134404, 33.718344119374784], [-84.38419809512389, 33.7187852407905], [-84.38482889702732, 33.71928135389105], [-84.38539740813339, 33.719827521209176], [-84.38589796913836, 33.720418307027934], [-84.3863255967005, 33.72104783145317], [-84.38667603307273, 33.72170982890912], [-84.38694578852846, 33.7223977104758], [-84.3871321761561, 33.723104629449395], [-84.38723333867397, 33.72382354947368], [-84.38724826699564, 33.72454731456537], [-84.38723366574578, 33.724920605110384], [-84.38724301280136, 33.72647382182743], [-84.38724312254915, 33.72650969492734], [-84.38724321620555, 33.72743969455444], [-84.38724323131186, 33.72758969470464], [-84.38724289847642, 33.72764519830865], [-84.38730860991578, 33.72772486992198], [-84.38771391925331, 33.72833417546141], [-84.38804738071033, 33.72897316839937], [-84.38830591468376, 33.72963595057091], [-84.38848713300257, 33.73031640409154], [-84.3885893610313, 33.731008247815616], [-84.38861165319348, 33.73170509530717], [-84.38859273630426, 33.73244576362179], [-84.38858347710078, 33.73318310830661], [-84.38857904357147, 33.73372618787326], [-84.38872578242821, 33.73389073303997], [-84.38915896737905, 33.73448918218799], [-84.38952118030366, 33.73511969682175], [-84.38980905433856, 33.7357764188932], [-84.39001991309902, 33.736453246730186], [-84.3901517956028, 33.737143891713124], [-84.3902034745546, 33.737841936693314], [-84.3902135370017, 33.73846193574803], [-84.39021433520028, 33.73855969478568], [-84.39021442588954, 33.73945969441995], [-84.39021447828965, 33.739979694489016], [-84.39021456394656, 33.74082969441411], [-84.39021463852139, 33.741569694427334], [-84.39021464356034, 33.741619694562964], [-84.39021471816916, 33.74236001466297], [-84.39021487006691, 33.74236922388259], [-84.39055703232923, 33.74257235526904], [-84.39120818029546, 33.7430469222221], [-84.39179966172667, 33.7435731944878], [-84.3923256209925, 33.74414596299814], [-84.39278085069219, 33.74475955835815], [-84.39316084322782, 33.745407906937565], [-84.39346183546577, 33.7460845909666], [-84.39368084604249, 33.74678291204225], [-84.39381570494307, 33.747495957417556], [-84.39386507505775, 33.74821666841846], [-84.39382846549958, 33.748937910311554], [-84.39370623654844, 33.7496525429317], [-84.39349959616908, 33.750353491370255], [-84.39321058813441, 33.751033816024254], [-84.3928420718681, 33.75168678131251], [-84.39239769420342, 33.75230592237776], [-84.39188185333512, 33.75288510911387], [-84.39129965531885, 33.75341860688286], [-84.39065686354752, 33.75390113331976], [-84.38995984170369, 33.75432791066142], [-84.3892154907521, 33.75469471307992], [-84.38764329434999, 33.75538377662193], [-84.38738085213473, 33.755502301376985], [-84.3866149916571, 33.7558087580986], [-84.38581696017143, 33.756051277390846], [-84.38499438703784, 33.7562275406417], [-84.3841551364191, 33.75633586266706], [-84.3833072320447, 33.75637520783394], [-84.38245878044367, 33.75634519996938], [-84.38161789338271, 33.75624612595978], [-84.38029380321676, 33.756034518415696], [-84.38018322953825, 33.75604066137689], [-84.3801757694329, 33.756041565634604], [-84.38014845715767, 33.756046623473054], [-84.37940836291064, 33.7562143804955], [-84.37435620081702, 33.75799484782179], [-84.37357017400693, 33.75823526783187], [-84.3727600876079, 33.758411371176], [-84.37193346622736, 33.758521522063354], [-84.37109798817829, 33.7585646973151], [-84.3702614141054, 33.75854049587576], [-84.36943151484357, 33.758449142541586], [-84.36861599918129, 33.758291485871155], [-84.36782244220245, 33.758068990297744], [-84.3670582148747, 33.75778372251687], [-84.3663304155406, 33.757438332276045], [-84.3656458039499, 33.75703602774567], [-84.36501073844748, 33.75658054570067], [-84.36443111690149, 33.75607611679076], [-84.36391232192128, 33.75552742622279], [-84.3634591708743, 33.75493957022155], [-84.36307587116586, 33.75431800867432], [-84.36295588708285, 33.75409800104063], [-84.36286989810132, 33.753933421768686], [-84.36216836846117, 33.75392454161628], [-84.36131881310764, 33.753878930623436], [-84.36110013056036, 33.753849031930145], [-84.36110394176215, 33.75384369776619]], [[-84.34080674261189, 33.723049445793926], [-84.34081237144022, 33.72306252158523], [-84.34078907166838, 33.72293277755206], [-84.34079075155633, 33.72296040010944], [-84.34080674261189, 33.723049445793926]]]}, "properties": {"kind": "walkshed", "buffer_mi": 0.5}}, {"type": "Feature", "geometry": {"type": "Point", "coordinates": [-84.385846, 33.74998]}, "properties": {"kind": "stop", "name": "Georgia State", "mode": "rail"}}, {"type": "Feature", "geometry": {"type": "Point", "coordinates": [-84.375546, 33.749808]}, "properties": {"kind": "stop", "name": "King Memorial", "mode": "rail"}}, {"type": "Feature", "geometry": {"type": "Point", "coordinates": [-84.385915, 33.750161]}, "properties": {"kind": "stop", "name": "GEORGIA STATE STATION", "mode": "bus"}}, {"type": "Feature", "geometry": {"type": "Point", "coordinates": [-84.385882, 33.750143]}, "properties": {"kind": "stop", "name": "GEORGIA STATE STATION", "mode": "bus"}}, {"type": "Feature", "geometry": {"type": "Point", "coordinates": [-84.375675, 33.749951]}, "properties": {"kind": "stop", "name": "KING MEMORIAL STATION", "mode": "bus"}}, {"type": "Feature", "geometry": {"type": "Point", "coordinates": [-84.37599, 33.749853]}, "properties": {"kind": "stop", "name": "KING MEMORIAL STATION", "mode": "bus"}}, {"type": "Feature", "geometry": {"type": "Point", "coordinates": [-84.39113, 33.753362]}, "properties": {"kind": "stop", "name": "PEACHTREE ST @ ALABAMA ST (FIVE POINTS STATION)", "mode": "bus"}}, {"type": "Feature", "geometry": {"type": "Point", "coordinates": [-84.39214, 33.752199]}, "properties": {"kind": "stop", "name": "PEACHTREE ST @ MARTIN L KING JR DR", "mode": "bus"}}, {"type": "Feature", "geometry": {"type": "Point", "coordinates": [-84.389462, 33.754527]}, "properties": {"kind": "stop", "name": "EDGEWOOD AVE @ PEACHTREE ST", "mode": "bus"}}, {"type": "Feature", "geometry": {"type": "Point", "coordinates": [-84.374364, 33.757462]}, "properties": {"kind": "stop", "name": "JACKSON ST NE @ IRWIN ST NE", "mode": "bus"}}, {"type": "Feature", "geometry": {"type": "Point", "coordinates": [-84.374394, 33.753648]}, "properties": {"kind": "stop", "name": "JACKSON ST SE @ CHAMBERLAIN ST SE", "mode": "bus"}}, {"type": "Feature", "geometry": {"type": "Point", "coordinates": [-84.374255, 33.757435]}, "properties": {"kind": "stop", "name": "JACKSON ST NE @ IRWIN ST NE", "mode": "bus"}}, {"type": "Feature", "geometry": {"type": "Point", "coordinates": [-84.368549, 33.757564]}, "properties": {"kind": "stop", "name": "IRWIN ST NE @ RANDOLPH ST NE", "mode": "bus"}}, {"type": "Feature", "geometry": {"type": "Point", "coordinates": [-84.371646, 33.757561]}, "properties": {"kind": "stop", "name": "IRWIN ST NE @ BOULEVARD NE", "mode": "bus"}}, {"type": "Feature", "geometry": {"type": "Point", "coordinates": [-84.349248, 33.752162]}, "properties": {"kind": "stop", "name": "MORELAND AVE NE @ WYLIE ST SE", "mode": "bus"}}, {"type": "Feature", "geometry": {"type": "Point", "coordinates": [-84.349318, 33.749798]}, "properties": {"kind": "stop", "name": "MORELAND AVE SE @ KIRKWOOD AVE SE", "mode": "bus"}}, {"type": "Feature", "geometry": {"type": "Point", "coordinates": [-84.349311, 33.747774]}, "properties": {"kind": "stop", "name": "MORELAND AVE SE @ MEMORIAL DR SE", "mode": "bus"}}, {"type": "Feature", "geometry": {"type": "Point", "coordinates": [-84.349323, 33.743426]}, "properties": {"kind": "stop", "name": "MORELAND AVE SE @ FAITH AVE SE", "mode": "bus"}}, {"type": "Feature", "geometry": {"type": "Point", "coordinates": [-84.372228, 33.756034]}, "properties": {"kind": "stop", "name": "BOULEVARD NE @ OLD WHEAT ST NE", "mode": "bus"}}, {"type": "Feature", "geometry": {"type": "Point", "coordinates": [-84.386727, 33.746845]}, "properties": {"kind": "stop", "name": "MEMORIAL DR SE @ CAPITOLE AVE", "mode": "bus"}}, {"type": "Feature", "geometry": {"type": "Point", "coordinates": [-84.383934, 33.746841]}, "properties": {"kind": "stop", "name": "MEMORIAL DR SE @ MARTIN ST SE", "mode": "bus"}}, {"type": "Feature", "geometry": {"type": "Point", "coordinates": [-84.381564, 33.746833]}, "properties": {"kind": "stop", "name": "MEMORIAL DR SE @ CONNALLY ST SE", "mode": "bus"}}, {"type": "Feature", "geometry": {"type": "Point", "coordinates": [-84.379031, 33.74679]}, "properties": {"kind": "stop", "name": "MEMORIAL DR SE @ HILL ST SE", "mode": "bus"}}, {"type": "Feature", "geometry": {"type": "Point", "coordinates": [-84.379324, 33.745662]}, "properties": {"kind": "stop", "name": "HILL ST SE @ WOODWARD AVE SE", "mode": "bus"}}, {"type": "Feature", "geometry": {"type": "Point", "coordinates": [-84.393057, 33.750787]}, "properties": {"kind": "stop", "name": "PEACHTREE ST SW @ MITCHELL ST SW", "mode": "bus"}}, {"type": "Feature", "geometry": {"type": "Point", "coordinates": [-84.393686, 33.748089]}, "properties": {"kind": "stop", "name": "PRYOR ST SW @ GARNETT ST SW", "mode": "bus"}}, {"type": "Feature", "geometry": {"type": "Point", "coordinates": [-84.392775, 33.74945]}, "properties": {"kind": "stop", "name": "PRYOR ST SW @ TRINITY AVE SW", "mode": "bus"}}, {"type": "Feature", "geometry": {"type": "Point", "coordinates": [-84.391066, 33.751593]}, "properties": {"kind": "stop", "name": "PRYOR ST @ MARTIN L KING JR DR", "mode": "bus"}}, {"type": "Feature", "geometry": {"type": "Point", "coordinates": [-84.38757, 33.753105]}, "properties": {"kind": "stop", "name": "DECATUR ST SE @ PEACHTREE CENTER AVE", "mode": "bus"}}, {"type": "Feature", "geometry": {"type": "Point", "coordinates": [-84.386449, 33.7523]}, "properties": {"kind": "stop", "name": "DECATUR ST SE @ COLLINS ST SE", "mode": "bus"}}, {"type": "Feature", "geometry": {"type": "Point", "coordinates": [-84.384945, 33.75143]}, "properties": {"kind": "stop", "name": "DECATUR ST @ PIEDMONT AVE", "mode": "bus"}}, {"type": "Feature", "geometry": {"type": "Point", "coordinates": [-84.392334, 33.747414]}, "properties": {"kind": "stop", "name": "CENTRAL AVE SW@PULLIAM ST SW", "mode": "bus"}}, {"type": "Feature", "geometry": {"type": "Point", "coordinates": [-84.391197, 33.748851]}, "properties": {"kind": "stop", "name": "CENTRAL AVE SW @ TRINITY AVE SW", "mode": "bus"}}, {"type": "Feature", "geometry": {"type": "Point", "coordinates": [-84.390693, 33.749512]}, "properties": {"kind": "stop", "name": "CENTRAL AVE SW @ MITCHELL ST SW", "mode": "bus"}}, {"type": "Feature", "geometry": {"type": "Point", "coordinates": [-84.39075, 33.75141]}, "properties": {"kind": "stop", "name": "MARTIN LUTHER KING J DR SW @ PRYOR ST", "mode": "bus"}}, {"type": "Feature", "geometry": {"type": "Point", "coordinates": [-84.382255, 33.755507]}, "properties": {"kind": "stop", "name": "AUBURN AVE NE @ PIEDMONT AVE NE", "mode": "bus"}}, {"type": "Feature", "geometry": {"type": "Point", "coordinates": [-84.392066, 33.750329]}, "properties": {"kind": "stop", "name": "MITCHELL ST SW @ PRYOR ST SW", "mode": "bus"}}, {"type": "Feature", "geometry": {"type": "Point", "coordinates": [-84.388393, 33.750043]}, "properties": {"kind": "stop", "name": "MARTIN L KING J DR @ COURTLAND ST", "mode": "bus"}}, {"type": "Feature", "geometry": {"type": "Point", "coordinates": [-84.39183, 33.751939]}, "properties": {"kind": "stop", "name": "MARTIN L KING JR DR @ PEACHTREE ST", "mode": "bus"}}, {"type": "Feature", "geometry": {"type": "Point", "coordinates": [-84.385666, 33.75154]}, "properties": {"kind": "stop", "name": "DECATUR ST SE @ PIEDMONT AVE SE", "mode": "bus"}}, {"type": "Feature", "geometry": {"type": "Point", "coordinates": [-84.380316, 33.749797]}, "properties": {"kind": "stop", "name": "DECATUR ST SE @ BELL ST SE", "mode": "bus"}}, {"type": "Feature", "geometry": {"type": "Point", "coordinates": [-84.384285, 33.7506]}, "properties": {"kind": "stop", "name": "DECATUR ST SE @ JESSE HILL JR DR SE", "mode": "bus"}}, {"type": "Feature", "geometry": {"type": "Point", "coordinates": [-84.382914, 33.749894]}, "properties": {"kind": "stop", "name": "DECATUR ST SE @ PRATT ST SE", "mode": "bus"}}, {"type": "Feature", "geometry": {"type": "Point", "coordinates": [-84.38419, 33.754539]}, "properties": {"kind": "stop", "name": "EDGEWOOD AVE SE @ COURTLAND ST SE", "mode": "bus"}}, {"type": "Feature", "geometry": {"type": "Point", "coordinates": [-84.386169, 33.754513]}, "properties": {"kind": "stop", "name": "EDGEWOOD AVE @ PEACHTREE CENTER AVE", "mode": "bus"}}, {"type": "Feature", "geometry": {"type": "Point", "coordinates": [-84.388581, 33.753597]}, "properties": {"kind": "stop", "name": "DECATUR ST @ KIMBALL WAY", "mode": "bus"}}, {"type": "Feature", "geometry": {"type": "Point", "coordinates": [-84.391353, 33.753183]}, "properties": {"kind": "stop", "name": "ALABAMA ST @ PEACHTREE ST (FIVE POINTS STATION)", "mode": "bus"}}, {"type": "Feature", "geometry": {"type": "Point", "coordinates": [-84.387733, 33.7416]}, "properties": {"kind": "stop", "name": "HANK AARON DR SE @ FULTON ST SE", "mode": "bus"}}, {"type": "Feature", "geometry": {"type": "Point", "coordinates": [-84.387703, 33.746281]}, "properties": {"kind": "stop", "name": "CAPITOL AVE @ MEMORIAL DR", "mode": "bus"}}, {"type": "Feature", "geometry": {"type": "Point", "coordinates": [-84.390687, 33.74963]}, "properties": {"kind": "stop", "name": "MITCHELL ST SW @ CENTRAL AVE SW", "mode": "bus"}}, {"type": "Feature", "geometry": {"type": "Point", "coordinates": [-84.386602, 33.752282]}, "properties": {"kind": "stop", "name": "DECATUR ST SE @ COLLINS ST SE", "mode": "bus"}}, {"type": "Feature", "geometry": {"type": "Point", "coordinates": [-84.389813, 33.754203]}, "properties": {"kind": "stop", "name": "PEACHTREE ST @ DECATUR ST", "mode": "bus"}}, {"type": "Feature", "geometry": {"type": "Point", "coordinates": [-84.379623, 33.752715]}, "properties": {"kind": "stop", "name": "BELL ST SE @ PRATT ST SE", "mode": "bus"}}, {"type": "Feature", "geometry": {"type": "Point", "coordinates": [-84.381088, 33.749743]}, "properties": {"kind": "stop", "name": "DECATUR ST @ 263", "mode": "bus"}}, {"type": "Feature", "geometry": {"type": "Point", "coordinates": [-84.393191, 33.750915]}, "properties": {"kind": "stop", "name": "MITCHELL ST @ PEACHTREE ST", "mode": "bus"}}, {"type": "Feature", "geometry": {"type": "Point", "coordinates": [-84.389211, 33.753229]}, "properties": {"kind": "stop", "name": "WALL ST @ PRYOR ST", "mode": "bus"}}, {"type": "Feature", "geometry": {"type": "Point", "coordinates": [-84.384017, 33.755524]}, "properties": {"kind": "stop", "name": "AUBURN AVE @ COURTLAND ST", "mode": "bus"}}, {"type": "Feature", "geometry": {"type": "Point", "coordinates": [-84.381347, 33.746896]}, "properties": {"kind": "stop", "name": "MEMORIAL DR SE @ CONNALLY ST SE", "mode": "bus"}}, {"type": "Feature", "geometry": {"type": "Point", "coordinates": [-84.383749, 33.74694]}, "properties": {"kind": "stop", "name": "MEMORIAL DR SE @ MARTIN ST SE", "mode": "bus"}}, {"type": "Feature", "geometry": {"type": "Point", "coordinates": [-84.386347, 33.746965]}, "properties": {"kind": "stop", "name": "MEMORIAL DR SE @ FRASER ST SE", "mode": "bus"}}, {"type": "Feature", "geometry": {"type": "Point", "coordinates": [-84.374122, 33.752351]}, "properties": {"kind": "stop", "name": "JACKSON ST SE @ LUCY ST", "mode": "bus"}}, {"type": "Feature", "geometry": {"type": "Point", "coordinates": [-84.373631, 33.750722]}, "properties": {"kind": "stop", "name": "JACKSON ST SE @ DECATUR ST SE", "mode": "bus"}}, {"type": "Feature", "geometry": {"type": "Point", "coordinates": [-84.379962, 33.755472]}, "properties": {"kind": "stop", "name": "AUBURN AVE NE @ JESSE HILL JR DR NE", "mode": "bus"}}, {"type": "Feature", "geometry": {"type": "Point", "coordinates": [-84.37208, 33.755851]}, "properties": {"kind": "stop", "name": "BOULEVARD NE @ OLD WHEAT ST NE", "mode": "bus"}}, {"type": "Feature", "geometry": {"type": "Point", "coordinates": [-84.379248, 33.745528]}, "properties": {"kind": "stop", "name": "HILL ST SE @ WOODWARD AVE SE", "mode": "bus"}}, {"type": "Feature", "geometry": {"type": "Point", "coordinates": [-84.365607, 33.746697]}, "properties": {"kind": "stop", "name": "MEMORIAL DR SE@POWELL ST SE", "mode": "bus"}}, {"type": "Feature", "geometry": {"type": "Point", "coordinates": [-84.366531, 33.746697]}, "properties": {"kind": "stop", "name": "MEMORIAL DR SE@BEREAN AVE SE", "mode": "bus"}}, {"type": "Feature", "geometry": {"type": "Point", "coordinates": [-84.365226, 33.746625]}, "properties": {"kind": "stop", "name": "MEMORIAL DR SE@CAMERON ST SE", "mode": "bus"}}, {"type": "Feature", "geometry": {"type": "Point", "coordinates": [-84.36802, 33.746812]}, "properties": {"kind": "stop", "name": "MEMORIAL DR SE@BOULEVARD SE", "mode": "bus"}}, {"type": "Feature", "geometry": {"type": "Point", "coordinates": [-84.366961, 33.7466]}, "properties": {"kind": "stop", "name": "MEMORIAL DR SE@BEREAN AVE SE", "mode": "bus"}}, {"type": "Feature", "geometry": {"type": "Point", "coordinates": [-84.368139, 33.746669]}, "properties": {"kind": "stop", "name": "MEMORIAL DR SE@BOULEVARD  SE", "mode": "bus"}}, {"type": "Feature", "geometry": {"type": "Point", "coordinates": [-84.369716, 33.746686]}, "properties": {"kind": "stop", "name": "MEMORIAL DR SE@PARK AVE SE", "mode": "bus"}}, {"type": "Feature", "geometry": {"type": "Point", "coordinates": [-84.37974, 33.749681]}, "properties": {"kind": "stop", "name": "DECATUR ST SE @ HILL ST", "mode": "bus"}}, {"type": "Feature", "geometry": {"type": "Point", "coordinates": [-84.3877, 33.75306]}, "properties": {"kind": "stop", "name": "DECATUR ST SE @ CENTRAL AVE SW", "mode": "bus"}}, {"type": "Feature", "geometry": {"type": "Point", "coordinates": [-84.376613, 33.755447]}, "properties": {"kind": "stop", "name": "AUBURN AVE NE @ HILLIARD ST NE", "mode": "bus"}}, {"type": "Feature", "geometry": {"type": "Point", "coordinates": [-84.37002, 33.746758]}, "properties": {"kind": "stop", "name": "MEMORIAL DR@ PARK AVE", "mode": "bus"}}, {"type": "Feature", "geometry": {"type": "Point", "coordinates": [-84.379162, 33.746888]}, "properties": {"kind": "stop", "name": "MEMORIAL DR SE @ HILL ST SE", "mode": "bus"}}, {"type": "Feature", "geometry": {"type": "Point", "coordinates": [-84.375825, 33.746836]}, "properties": {"kind": "stop", "name": "MEMORIAL DR @ GEORGE ST", "mode": "bus"}}, {"type": "Feature", "geometry": {"type": "Point", "coordinates": [-84.373643, 33.751438]}, "properties": {"kind": "stop", "name": "JACKSON ST SE @ TODD ST SE", "mode": "bus"}}, {"type": "Feature", "geometry": {"type": "Point", "coordinates": [-84.374187, 33.752798]}, "properties": {"kind": "stop", "name": "JACKSON ST SE @ GARTRELL ST SE", "mode": "bus"}}, {"type": "Feature", "geometry": {"type": "Point", "coordinates": [-84.374264, 33.753756]}, "properties": {"kind": "stop", "name": "JACKSON ST SE @ CHAMBERLAIN ST SE", "mode": "bus"}}, {"type": "Feature", "geometry": {"type": "Point", "coordinates": [-84.375167, 33.755465]}, "properties": {"kind": "stop", "name": "AUBURN AVE @ WILLIAM H BORDERS SR DR", "mode": "bus"}}, {"type": "Feature", "geometry": {"type": "Point", "coordinates": [-84.375944, 33.746729]}, "properties": {"kind": "stop", "name": "MEMORIAL DR @ GRANT ST SE", "mode": "bus"}}, {"type": "Feature", "geometry": {"type": "Point", "coordinates": [-84.376695, 33.747015]}, "properties": {"kind": "stop", "name": "GRANT ST @ MEMORIAL DR", "mode": "bus"}}, {"type": "Feature", "geometry": {"type": "Point", "coordinates": [-84.373539, 33.746719]}, "properties": {"kind": "stop", "name": "MEMORIAL DR@CHEROKEE AVE", "mode": "bus"}}, {"type": "Feature", "geometry": {"type": "Point", "coordinates": [-84.375881, 33.749978]}, "properties": {"kind": "stop", "name": "KING MEMORIAL STATION", "mode": "bus"}}, {"type": "Feature", "geometry": {"type": "Point", "coordinates": [-84.349267, 33.741948]}, "properties": {"kind": "stop", "name": "MORELAND AVE SE @ SANDERS AVE SE", "mode": "bus"}}, {"type": "Feature", "geometry": {"type": "Point", "coordinates": [-84.349403, 33.740623]}, "properties": {"kind": "stop", "name": "MORELAND AVE SE @ GLENWOOD AVE", "mode": "bus"}}, {"type": "Feature", "geometry": {"type": "Point", "coordinates": [-84.348541, 33.747641]}, "properties": {"kind": "stop", "name": "MEMORIAL DR SE@MORELAND AVE SE", "mode": "bus"}}, {"type": "Feature", "geometry": {"type": "Point", "coordinates": [-84.348269, 33.74757]}, "properties": {"kind": "stop", "name": "MEMORIAL DR SE@MORELAND AVE SE", "mode": "bus"}}, {"type": "Feature", "geometry": {"type": "Point", "coordinates": [-84.350372, 33.747425]}, "properties": {"kind": "stop", "name": "MEMORIAL DR SE@FLAT SHOALS AVE SE", "mode": "bus"}}, {"type": "Feature", "geometry": {"type": "Point", "coordinates": [-84.350682, 33.747238]}, "properties": {"kind": "stop", "name": "MEMORIAL DR SE@HOWELL DR SE", "mode": "bus"}}, {"type": "Feature", "geometry": {"type": "Point", "coordinates": [-84.352554, 33.747028]}, "properties": {"kind": "stop", "name": "MEMORIAL DR SE@WILBUR AVE SE", "mode": "bus"}}, {"type": "Feature", "geometry": {"type": "Point", "coordinates": [-84.353043, 33.746651]}, "properties": {"kind": "stop", "name": "MEMORIAL DR SE@WILBUR AVE SE", "mode": "bus"}}, {"type": "Feature", "geometry": {"type": "Point", "coordinates": [-84.354233, 33.746696]}, "properties": {"kind": "stop", "name": "MEMORIAL DR SE@STOVALL ST SE", "mode": "bus"}}, {"type": "Feature", "geometry": {"type": "Point", "coordinates": [-84.354568, 33.746346]}, "properties": {"kind": "stop", "name": "MEMORIAL DR SE@STOVALL ST SE", "mode": "bus"}}, {"type": "Feature", "geometry": {"type": "Point", "coordinates": [-84.355378, 33.746467]}, "properties": {"kind": "stop", "name": "MEMORIAL DR SE @ GIBSON ST SE", "mode": "bus"}}, {"type": "Feature", "geometry": {"type": "Point", "coordinates": [-84.356575, 33.746719]}, "properties": {"kind": "stop", "name": "MEMORIAL DR SE@HOLTZCLAW ST SE", "mode": "bus"}}, {"type": "Feature", "geometry": {"type": "Point", "coordinates": [-84.359052, 33.746627]}, "properties": {"kind": "stop", "name": "MEMORIAL DR SE @ CHESTER AVE SE", "mode": "bus"}}, {"type": "Feature", "geometry": {"type": "Point", "coordinates": [-84.358497, 33.746556]}, "properties": {"kind": "stop", "name": "MEMORIAL DR SE @ BILL KENNEDY WAY", "mode": "bus"}}, {"type": "Feature", "geometry": {"type": "Point", "coordinates": [-84.362193, 33.746653]}, "properties": {"kind": "stop", "name": "MEMORIAL DR SE@PEARL ST SE", "mode": "bus"}}, {"type": "Feature", "geometry": {"type": "Point", "coordinates": [-84.361791, 33.746591]}, "properties": {"kind": "stop", "name": "MEMORIAL DR SE @ PEARL ST SE", "mode": "bus"}}, {"type": "Feature", "geometry": {"type": "Point", "coordinates": [-84.344049, 33.739058]}, "properties": {"kind": "stop", "name": "FLAT SHOALS AVE SE @ MAY AVE SE", "mode": "bus"}}, {"type": "Feature", "geometry": {"type": "Point", "coordinates": [-84.341777, 33.736149]}, "properties": {"kind": "stop", "name": "FLAT SHOALS AVE SE @ MILTON PL SE", "mode": "bus"}}, {"type": "Feature", "geometry": {"type": "Point", "coordinates": [-84.34021, 33.733852]}, "properties": {"kind": "stop", "name": "FLAT SHOALS AVE SE @ EAST SIDE AVE", "mode": "bus"}}, {"type": "Feature", "geometry": {"type": "Point", "coordinates": [-84.328669, 33.729303]}, "properties": {"kind": "stop", "name": "FLAT SHOALS RD SE@LEAH LN SE", "mode": "bus"}}, {"type": "Feature", "geometry": {"type": "Point", "coordinates": [-84.325332, 33.727647]}, "properties": {"kind": "stop", "name": "FLAT SHOALS RD SE@1909", "mode": "bus"}}, {"type": "Feature", "geometry": {"type": "Point", "coordinates": [-84.334886, 33.739963]}, "properties": {"kind": "stop", "name": "GLENWOOD AVE SE@MAYNARD TER SE", "mode": "bus"}}, {"type": "Feature", "geometry": {"type": "Point", "coordinates": [-84.33231, 33.739919]}, "properties": {"kind": "stop", "name": "GLENWOOD AVE SE@CLIFTON ST SE", "mode": "bus"}}, {"type": "Feature", "geometry": {"type": "Point", "coordinates": [-84.330647, 33.739874]}, "properties": {"kind": "stop", "name": "GLENWOOD AVE SE@WINTHROP DR SE", "mode": "bus"}}, {"type": "Feature", "geometry": {"type": "Point", "coordinates": [-84.329835, 33.739754]}, "properties": {"kind": "stop", "name": "GLENWOOD AVE SE@WINTHROP DR SE", "mode": "bus"}}, {"type": "Feature", "geometry": {"type": "Point", "coordinates": [-84.330071, 33.739928]}, "properties": {"kind": "stop", "name": "GLENWOOD AVE SE @ WINTHROP DR SE", "mode": "bus"}}, {"type": "Feature", "geometry": {"type": "Point", "coordinates": [-84.33256, 33.73999]}, "properties": {"kind": "stop", "name": "GLENWOOD AVE SE @ CLIFTON ST SE", "mode": "bus"}}, {"type": "Feature", "geometry": {"type": "Point", "coordinates": [-84.334778, 33.740035]}, "properties": {"kind": "stop", "name": "GLENWOOD AVE SE @ MAYNARD TER SE", "mode": "bus"}}, {"type": "Feature", "geometry": {"type": "Point", "coordinates": [-84.325432, 33.72776]}, "properties": {"kind": "stop", "name": "FLAT SHOALS RD SE @ 1930", "mode": "bus"}}, {"type": "Feature", "geometry": {"type": "Point", "coordinates": [-84.326887, 33.728766]}, "properties": {"kind": "stop", "name": "FLAT SHOALS RD SE@HILLBURN DR SE", "mode": "bus"}}, {"type": "Feature", "geometry": {"type": "Point", "coordinates": [-84.32831, 33.729249]}, "properties": {"kind": "stop", "name": "FLAT SHOALS RD SE@LEAH LN SE", "mode": "bus"}}, {"type": "Feature", "geometry": {"type": "Point", "coordinates": [-84.327234, 33.728712]}, "properties": {"kind": "stop", "name": "FLAT SHOALS RD SE@HILLBURN DR SE", "mode": "bus"}}, {"type": "Feature", "geometry": {"type": "Point", "coordinates": [-84.339994, 33.733804]}, "properties": {"kind": "stop", "name": "FLAT SHOALS AVE SE @ EAST SIDE AVE", "mode": "bus"}}, {"type": "Feature", "geometry": {"type": "Point", "coordinates": [-84.342005, 33.736749]}, "properties": {"kind": "stop", "name": "FLAT SHOALS AVE SE @ VAN EPPS AVE SE", "mode": "bus"}}, {"type": "Feature", "geometry": {"type": "Point", "coordinates": [-84.342476, 33.737617]}, "properties": {"kind": "stop", "name": "FLAT SHOALS AVE SE @ NEWTON AVE SE", "mode": "bus"}}, {"type": "Feature", "geometry": {"type": "Point", "coordinates": [-84.33315, 33.72686]}, "properties": {"kind": "stop", "name": "BOULDERCREST DR SE @ PIPER CIR SE", "mode": "bus"}}, {"type": "Feature", "geometry": {"type": "Point", "coordinates": [-84.333635, 33.727843]}, "properties": {"kind": "stop", "name": "BOULDERCREST DR SE @ STALLINGS AVE SE", "mode": "bus"}}, {"type": "Feature", "geometry": {"type": "Point", "coordinates": [-84.336396, 33.730708]}, "properties": {"kind": "stop", "name": "BOULDERCREST DR SE @ FLAT SHOALS RD SE", "mode": "bus"}}, {"type": "Feature", "geometry": {"type": "Point", "coordinates": [-84.342842, 33.738065]}, "properties": {"kind": "stop", "name": "FLAT SHOALS AVE SE @ NEWTON AVE SE", "mode": "bus"}}, {"type": "Feature", "geometry": {"type": "Point", "coordinates": [-84.337211, 33.731236]}, "properties": {"kind": "stop", "name": "FLAT SHOALS AVE SE @ CAVANAUGH AVE SE", "mode": "bus"}}, {"type": "Feature", "geometry": {"type": "Point", "coordinates": [-84.335724, 33.72995]}, "properties": {"kind": "stop", "name": "BOULDERCREST DR SE @ FLAT SHOALS RD SE", "mode": "bus"}}, {"type": "Feature", "geometry": {"type": "Point", "coordinates": [-84.33418, 33.72902]}, "properties": {"kind": "stop", "name": "BOULDERCREST DR SE @ WINFIELD AVE SE", "mode": "bus"}}, {"type": "Feature", "geometry": {"type": "Point", "coordinates": [-84.3345, 33.72911]}, "properties": {"kind": "stop", "name": "BOULDERCREST DR SE @ BLACK OAK DR SE", "mode": "bus"}}, {"type": "Feature", "geometry": {"type": "Point", "coordinates": [-84.333918, 33.727795]}, "properties": {"kind": "stop", "name": "BOULDERCREST DR SE @ STALLINGS AVE SE", "mode": "bus"}}, {"type": "Feature", "geometry": {"type": "Point", "coordinates": [-84.33357, 33.72709]}, "properties": {"kind": "stop", "name": "BOULDERCREST DR SE @ WILLOW PL SE", "mode": "bus"}}, {"type": "Feature", "geometry": {"type": "Point", "coordinates": [-84.345855, 33.747552]}, "properties": {"kind": "stop", "name": "MEMORIAL DR SE@TRENTON ST SE", "mode": "bus"}}, {"type": "Feature", "geometry": {"type": "Point", "coordinates": [-84.344388, 33.747535]}, "properties": {"kind": "stop", "name": "MEMORIAL DR SE@HAAS AVE SE", "mode": "bus"}}, {"type": "Feature", "geometry": {"type": "Point", "coordinates": [-84.343247, 33.747535]}, "properties": {"kind": "stop", "name": "MEMORIAL DR SE@PATTERSON AVE SE", "mode": "bus"}}, {"type": "Feature", "geometry": {"type": "Point", "coordinates": [-84.342344, 33.747535]}, "properties": {"kind": "stop", "name": "MEMORIAL DR SE@MEMORIAL TER SE", "mode": "bus"}}, {"type": "Feature", "geometry": {"type": "Point", "coordinates": [-84.335137, 33.747464]}, "properties": {"kind": "stop", "name": "MEMORIAL DR SE @ DIXIE ST SE", "mode": "bus"}}, {"type": "Feature", "geometry": {"type": "Point", "coordinates": [-84.328539, 33.747447]}, "properties": {"kind": "stop", "name": "MEMORIAL DR SE @ WILKINSON DR SE", "mode": "bus"}}, {"type": "Feature", "geometry": {"type": "Point", "coordinates": [-84.331581, 33.747524]}, "properties": {"kind": "stop", "name": "MEMORIAL DR SE @ CLIFTON ST SE", "mode": "bus"}}, {"type": "Feature", "geometry": {"type": "Point", "coordinates": [-84.332749, 33.747627]}, "properties": {"kind": "stop", "name": "MEMORIAL DR SE @ WYMAN ST SE", "mode": "bus"}}, {"type": "Feature", "geometry": {"type": "Point", "coordinates": [-84.3358, 33.747545]}, "properties": {"kind": "stop", "name": "MEMORIAL DR SE @ DIXIE ST SE", "mode": "bus"}}, {"type": "Feature", "geometry": {"type": "Point", "coordinates": [-84.337524, 33.747635]}, "properties": {"kind": "stop", "name": "MEMORIAL DR SE@1560", "mode": "bus"}}, {"type": "Feature", "geometry": {"type": "Point", "coordinates": [-84.338493, 33.747555]}, "properties": {"kind": "stop", "name": "MEMORIAL DR SE@LAMON AVE SE", "mode": "bus"}}, {"type": "Feature", "geometry": {"type": "Point", "coordinates": [-84.339737, 33.747654]}, "properties": {"kind": "stop", "name": "MEMORIAL DR SE@EASTSIDE AVE SE", "mode": "bus"}}, {"type": "Feature", "geometry": {"type": "Point", "coordinates": [-84.343185, 33.747643]}, "properties": {"kind": "stop", "name": "MEMORIAL DR SE@PATTERSON AVE SE", "mode": "bus"}}, {"type": "Feature", "geometry": {"type": "Point", "coordinates": [-84.344353, 33.747612]}, "properties": {"kind": "stop", "name": "MEMORIAL DR SE@HAAS AVE SE", "mode": "bus"}}, {"type": "Feature", "geometry": {"type": "Point", "coordinates": [-84.345329, 33.747612]}, "properties": {"kind": "stop", "name": "MEMORIAL DR SE@DAHLGREEN ST SE", "mode": "bus"}}, {"type": "Feature", "geometry": {"type": "Point", "coordinates": [-84.322115, 33.739668]}, "properties": {"kind": "stop", "name": "GLENWOOD AVE SE@TERRY MILL RD SE", "mode": "bus"}}, {"type": "Feature", "geometry": {"type": "Point", "coordinates": [-84.320637, 33.73991]}, "properties": {"kind": "stop", "name": "GLENWOOD AVE SE@LOMITA RD", "mode": "bus"}}, {"type": "Feature", "geometry": {"type": "Point", "coordinates": [-84.320694, 33.740017]}, "properties": {"kind": "stop", "name": "GLENWOOD AVE SE@LOMITA RD SE", "mode": "bus"}}, {"type": "Feature", "geometry": {"type": "Point", "coordinates": [-84.341214, 33.747517]}, "properties": {"kind": "stop", "name": "MEMORIAL DR SE@1422", "mode": "bus"}}, {"type": "Feature", "geometry": {"type": "Point", "coordinates": [-84.339703, 33.747518]}, "properties": {"kind": "stop", "name": "MEMORIAL DR SE@EASTSIDE AVE SE", "mode": "bus"}}, {"type": "Feature", "geometry": {"type": "Point", "coordinates": [-84.338616, 33.747509]}, "properties": {"kind": "stop", "name": "MEMORIAL DR SE@LAMON AVE SE", "mode": "bus"}}, {"type": "Feature", "geometry": {"type": "Point", "coordinates": [-84.33755, 33.747491]}, "properties": {"kind": "stop", "name": "MEMORIAL DR SE@1599", "mode": "bus"}}, {"type": "Feature", "geometry": {"type": "Point", "coordinates": [-84.33193, 33.747429]}, "properties": {"kind": "stop", "name": "MEMORIAL DR SE@CLIFTON ST SE", "mode": "bus"}}, {"type": "Feature", "geometry": {"type": "Point", "coordinates": [-84.328728, 33.747253]}, "properties": {"kind": "stop", "name": "MEMORIAL DR SE@WILKINSON DR SE", "mode": "bus"}}, {"type": "Feature", "geometry": {"type": "Point", "coordinates": [-84.343918, 33.739058]}, "properties": {"kind": "stop", "name": "FLAT SHOALS AVE SE @ MAY AVE SE", "mode": "bus"}}, {"type": "Feature", "geometry": {"type": "Point", "coordinates": [-84.326234, 33.747429]}, "properties": {"kind": "stop", "name": "MEMORIAL DR SE @ WARREN ST SE", "mode": "bus"}}, {"type": "Feature", "geometry": {"type": "Point", "coordinates": [-84.343658, 33.740079]}, "properties": {"kind": "stop", "name": "GLENWOOD AVE SE@PATTERSON AVE SE", "mode": "bus"}}, {"type": "Feature", "geometry": {"type": "Point", "coordinates": [-84.343114, 33.740159]}, "properties": {"kind": "stop", "name": "GLENWOOD AVE@PATTERSON AVE", "mode": "bus"}}, {"type": "Feature", "geometry": {"type": "Point", "coordinates": [-84.340209, 33.739954]}, "properties": {"kind": "stop", "name": "GLENWOOD AVE SE@EASTSIDE AVE SE", "mode": "bus"}}, {"type": "Feature", "geometry": {"type": "Point", "coordinates": [-84.33985, 33.74014]}, "properties": {"kind": "stop", "name": "GLENWOOD AVE SE@EASTSIDE AVE SE", "mode": "bus"}}, {"type": "Feature", "geometry": {"type": "Point", "coordinates": [-84.338191, 33.740008]}, "properties": {"kind": "stop", "name": "GLENWOOD AVE@BLAKE AVE SE", "mode": "bus"}}, {"type": "Feature", "geometry": {"type": "Point", "coordinates": [-84.336171, 33.739938]}, "properties": {"kind": "stop", "name": "GLENWOOD AVE@MCWILLIAMS AVE", "mode": "bus"}}, {"type": "Feature", "geometry": {"type": "Point", "coordinates": [-84.338288, 33.740079]}, "properties": {"kind": "stop", "name": "GLENWOOD AVE@BLAKE AVE", "mode": "bus"}}, {"type": "Feature", "geometry": {"type": "Point", "coordinates": [-84.345593, 33.740105]}, "properties": {"kind": "stop", "name": "GLENWOOD AVE SE@FLAT SHOALS AVE SE", "mode": "bus"}}, {"type": "Feature", "geometry": {"type": "Point", "coordinates": [-84.345011, 33.739864]}, "properties": {"kind": "stop", "name": "FLAT SHOALS AVE @ GLENWOOD AVE", "mode": "bus"}}, {"type": "Feature", "geometry": {"type": "Point", "coordinates": [-84.34531, 33.740168]}, "properties": {"kind": "stop", "name": "GLENWOOD AVE SE@FLAT SHOALS AVE SE", "mode": "bus"}}, {"type": "Feature", "geometry": {"type": "Point", "coordinates": [-84.336017, 33.740062]}, "properties": {"kind": "stop", "name": "GLENWOOD AVE@MCWILLIAMS AVE", "mode": "bus"}}, {"type": "Feature", "geometry": {"type": "Point", "coordinates": [-84.376199, 33.736721]}, "properties": {"kind": "stop", "name": "GEORGIA AVE SE @ GRANT ST SE", "mode": "bus"}}, {"type": "Feature", "geometry": {"type": "Point", "coordinates": [-84.38781, 33.736542]}, "properties": {"kind": "stop", "name": "HANK AARON DR SE @ GEORGIA AVE SE", "mode": "bus"}}, {"type": "Feature", "geometry": {"type": "Point", "coordinates": [-84.386046, 33.736779]}, "properties": {"kind": "stop", "name": "GEORGIA AVE SE @ FRASER ST SE", "mode": "bus"}}, {"type": "Feature", "geometry": {"type": "Point", "coordinates": [-84.384465, 33.730353]}, "properties": {"kind": "stop", "name": "ATLANTA AVE SE @ MARTIN ST SE", "mode": "bus"}}, {"type": "Feature", "geometry": {"type": "Point", "coordinates": [-84.38328, 33.730335]}, "properties": {"kind": "stop", "name": "ATLANTA AVE SE @ GREENFIELD AVE SE", "mode": "bus"}}, {"type": "Feature", "geometry": {"type": "Point", "coordinates": [-84.380773, 33.731716]}, "properties": {"kind": "stop", "name": "ORMOND ST SE@CONNALLY ST SE", "mode": "bus"}}, {"type": "Feature", "geometry": {"type": "Point", "coordinates": [-84.384254, 33.731686]}, "properties": {"kind": "stop", "name": "ORMOND ST SE@MARTIN ST SE", "mode": "bus"}}, {"type": "Feature", "geometry": {"type": "Point", "coordinates": [-84.384166, 33.736744]}, "properties": {"kind": "stop", "name": "GEORGIA AVE SE @ MARTIN ST SE", "mode": "bus"}}, {"type": "Feature", "geometry": {"type": "Point", "coordinates": [-84.382027, 33.736693]}, "properties": {"kind": "stop", "name": "GEORGIA AVE SE @ AMI ST SE", "mode": "bus"}}, {"type": "Feature", "geometry": {"type": "Point", "coordinates": [-84.386345, 33.730352]}, "properties": {"kind": "stop", "name": "ATLANTA AVE SE @ FRASER ST SE", "mode": "bus"}}, {"type": "Feature", "geometry": {"type": "Point", "coordinates": [-84.381981, 33.736799]}, "properties": {"kind": "stop", "name": "GEORGIA AVE SE @ AMI ST SE", "mode": "bus"}}, {"type": "Feature", "geometry": {"type": "Point", "coordinates": [-84.383872, 33.736807]}, "properties": {"kind": "stop", "name": "GEORGIA AVE SE@MARTIN ST SE", "mode": "bus"}}, {"type": "Feature", "geometry": {"type": "Point", "coordinates": [-84.386242, 33.736904]}, "properties": {"kind": "stop", "name": "GEORGIA AVE SE @ FRASER ST SE", "mode": "bus"}}, {"type": "Feature", "geometry": {"type": "Point", "coordinates": [-84.387987, 33.731434]}, "properties": {"kind": "stop", "name": "HANK AARON DR @ ORMOND ST SE", "mode": "bus"}}, {"type": "Feature", "geometry": {"type": "Point", "coordinates": [-84.387779, 33.731518]}, "properties": {"kind": "stop", "name": "HANK AARON DR@ORMOND ST SE", "mode": "bus"}}, {"type": "Feature", "geometry": {"type": "Point", "coordinates": [-84.387985, 33.730548]}, "properties": {"kind": "stop", "name": "HANK AARON DR@ATLANTA AVE SE", "mode": "bus"}}, {"type": "Feature", "geometry": {"type": "Point", "coordinates": [-84.387916, 33.730306]}, "properties": {"kind": "stop", "name": "HANK AARON DR@ATLANTA AVE SE", "mode": "bus"}}, {"type": "Feature", "geometry": {"type": "Point", "coordinates": [-84.387825, 33.728989]}, "properties": {"kind": "stop", "name": "HANK AARON DR@VANIRA AVE SE", "mode": "bus"}}, {"type": "Feature", "geometry": {"type": "Point", "coordinates": [-84.388133, 33.736858]}, "properties": {"kind": "stop", "name": "RALPH D ABERNATHY BLVD @ HANK AARON DR", "mode": "bus"}}, {"type": "Feature", "geometry": {"type": "Point", "coordinates": [-84.387848, 33.734406]}, "properties": {"kind": "stop", "name": "HANK AARON DR @ BILL LUCAS DR SE", "mode": "bus"}}, {"type": "Feature", "geometry": {"type": "Point", "coordinates": [-84.387749, 33.732845]}, "properties": {"kind": "stop", "name": "HANK AARON DR SW@LITTLE ST SE", "mode": "bus"}}, {"type": "Feature", "geometry": {"type": "Point", "coordinates": [-84.387947, 33.7374]}, "properties": {"kind": "stop", "name": "HANK AARON DR @ RALPH D ABERNATHY BLVD", "mode": "bus"}}, {"type": "Feature", "geometry": {"type": "Point", "coordinates": [-84.387822, 33.742014]}, "properties": {"kind": "stop", "name": "CAPITOL AVE @ FULTON ST", "mode": "bus"}}, {"type": "Feature", "geometry": {"type": "Point", "coordinates": [-84.388108, 33.733384]}, "properties": {"kind": "stop", "name": "HANK AARON DR SW @ LITTLE ST SE", "mode": "bus"}}, {"type": "Feature", "geometry": {"type": "Point", "coordinates": [-84.387537, 33.730317]}, "properties": {"kind": "stop", "name": "ATLANTA AVE SE @ HANK AARON DR", "mode": "bus"}}, {"type": "Feature", "geometry": {"type": "Point", "coordinates": [-84.387924, 33.734218]}, "properties": {"kind": "stop", "name": "HANK AARON DR SW @ BILL LUCAS DR SW", "mode": "bus"}}, {"type": "Feature", "geometry": {"type": "Point", "coordinates": [-84.368222, 33.73855]}, "properties": {"kind": "stop", "name": "BOULEVARD SE@ ROSALIA ST", "mode": "bus"}}, {"type": "Feature", "geometry": {"type": "Point", "coordinates": [-84.368275, 33.736563]}, "properties": {"kind": "stop", "name": "BOULEVARD SE@ BERNE ST", "mode": "bus"}}, {"type": "Feature", "geometry": {"type": "Point", "coordinates": [-84.368358, 33.732314]}, "properties": {"kind": "stop", "name": "BOULEVARD SE@DELMAR AVE SE", "mode": "bus"}}, {"type": "Feature", "geometry": {"type": "Point", "coordinates": [-84.36838, 33.730515]}, "properties": {"kind": "stop", "name": "BOULEVARD SE@ATLANTA AVE SE", "mode": "bus"}}, {"type": "Feature", "geometry": {"type": "Point", "coordinates": [-84.36808, 33.736724]}, "properties": {"kind": "stop", "name": "BOULEVARD SE@ BERNE ST SE", "mode": "bus"}}, {"type": "Feature", "geometry": {"type": "Point", "coordinates": [-84.36806, 33.740591]}, "properties": {"kind": "stop", "name": "BOULEVARD SE @ HANSELL ST SE", "mode": "bus"}}, {"type": "Feature", "geometry": {"type": "Point", "coordinates": [-84.363228, 33.72756]}, "properties": {"kind": "stop", "name": "UNITED AVE @ EDIE AVE SE", "mode": "bus"}}, {"type": "Feature", "geometry": {"type": "Point", "coordinates": [-84.364348, 33.729287]}, "properties": {"kind": "stop", "name": "UNITED AVE @ CHARLES BANK AVE", "mode": "bus"}}, {"type": "Feature", "geometry": {"type": "Point", "coordinates": [-84.378669, 33.725558]}, "properties": {"kind": "stop", "name": "HILL ST SE@1059", "mode": "bus"}}, {"type": "Feature", "geometry": {"type": "Point", "coordinates": [-84.380866, 33.730256]}, "properties": {"kind": "stop", "name": "ATLANTA AVE SE @ CONNALLY ST SE", "mode": "bus"}}, {"type": "Feature", "geometry": {"type": "Point", "coordinates": [-84.379976, 33.730301]}, "properties": {"kind": "stop", "name": "ATLANTA AVE SE @ GRANT TER SE", "mode": "bus"}}, {"type": "Feature", "geometry": {"type": "Point", "coordinates": [-84.373533, 33.731219]}, "properties": {"kind": "stop", "name": "CHEROKEE AVE @ ORMOND ST", "mode": "bus"}}, {"type": "Feature", "geometry": {"type": "Point", "coordinates": [-84.379971, 33.73665]}, "properties": {"kind": "stop", "name": "GEORGIA AVE SE @ GRANT TER SE", "mode": "bus"}}, {"type": "Feature", "geometry": {"type": "Point", "coordinates": [-84.378492, 33.736675]}, "properties": {"kind": "stop", "name": "GEORGIA AVE SE @ HILL ST SE", "mode": "bus"}}, {"type": "Feature", "geometry": {"type": "Point", "coordinates": [-84.373643, 33.734896]}, "properties": {"kind": "stop", "name": "CHEROKEE AVE SE @ BASS ST SE", "mode": "bus"}}, {"type": "Feature", "geometry": {"type": "Point", "coordinates": [-84.373653, 33.73375]}, "properties": {"kind": "stop", "name": "CHEROKEE AVE SE @ AUGUSTA AVE SE", "mode": "bus"}}, {"type": "Feature", "geometry": {"type": "Point", "coordinates": [-84.373816, 33.733133]}, "properties": {"kind": "stop", "name": "CHEROKEE AVE SE @ GRANT PARK PL SE", "mode": "bus"}}, {"type": "Feature", "geometry": {"type": "Point", "coordinates": [-84.373652, 33.731423]}, "properties": {"kind": "stop", "name": "CHEROKEE AVE @ ORMOND ST", "mode": "bus"}}, {"type": "Feature", "geometry": {"type": "Point", "coordinates": [-84.379753, 33.736755]}, "properties": {"kind": "stop", "name": "GEORGIA AVE SE @ GRANT TER SE", "mode": "bus"}}, {"type": "Feature", "geometry": {"type": "Point", "coordinates": [-84.348179, 33.740123]}, "properties": {"kind": "stop", "name": "GLENWOOD AVE SE @ BROWNWOOD AVE SE", "mode": "bus"}}, {"type": "Feature", "geometry": {"type": "Point", "coordinates": [-84.349483, 33.726488]}, "properties": {"kind": "stop", "name": "MORELAND AVE SE @ BURNS ST SE", "mode": "bus"}}, {"type": "Feature", "geometry": {"type": "Point", "coordinates": [-84.349449, 33.727819]}, "properties": {"kind": "stop", "name": "MORELAND AVE SE @ LYNDALE DR SE", "mode": "bus"}}, {"type": "Feature", "geometry": {"type": "Point", "coordinates": [-84.349415, 33.729077]}, "properties": {"kind": "stop", "name": "MORELAND AVE SE@STONEYBROOK DR", "mode": "bus"}}, {"type": "Feature", "geometry": {"type": "Point", "coordinates": [-84.349405, 33.730133]}, "properties": {"kind": "stop", "name": "MORELAND AVE SE@EDEN AVE SE", "mode": "bus"}}, {"type": "Feature", "geometry": {"type": "Point", "coordinates": [-84.349394, 33.731905]}, "properties": {"kind": "stop", "name": "MORELAND AVE SE@DELAWARE AVE SE", "mode": "bus"}}, {"type": "Feature", "geometry": {"type": "Point", "coordinates": [-84.349384, 33.732863]}, "properties": {"kind": "stop", "name": "MORELAND AVE SE @ GRACEWOOD AVE SE", "mode": "bus"}}, {"type": "Feature", "geometry": {"type": "Point", "coordinates": [-84.349401, 33.734177]}, "properties": {"kind": "stop", "name": "MORELAND AVE SE @ ORMEWOOD AVE SE", "mode": "bus"}}, {"type": "Feature", "geometry": {"type": "Point", "coordinates": [-84.349397, 33.735095]}, "properties": {"kind": "stop", "name": "MORELAND AVE SE @ HALL AVE SE", "mode": "bus"}}, {"type": "Feature", "geometry": {"type": "Point", "coordinates": [-84.349383, 33.736101]}, "properties": {"kind": "stop", "name": "MORELAND AVE SE @ BERNE ST SE", "mode": "bus"}}, {"type": "Feature", "geometry": {"type": "Point", "coordinates": [-84.34932, 33.737589]}, "properties": {"kind": "stop", "name": "MORELAND AVE SE@WOODLAND AVE SE", "mode": "bus"}}, {"type": "Feature", "geometry": {"type": "Point", "coordinates": [-84.3494, 33.739231]}, "properties": {"kind": "stop", "name": "MORELAND AVE SE @ PORTLAND AVE SE", "mode": "bus"}}, {"type": "Feature", "geometry": {"type": "Point", "coordinates": [-84.351166, 33.74049]}, "properties": {"kind": "stop", "name": "GLENWOOD AVE SE@HEMLOCK CIR SE", "mode": "bus"}}, {"type": "Feature", "geometry": {"type": "Point", "coordinates": [-84.354172, 33.740005]}, "properties": {"kind": "stop", "name": "GLENWOOD AVE SE@STOVALL ST SE", "mode": "bus"}}, {"type": "Feature", "geometry": {"type": "Point", "coordinates": [-84.35508, 33.739857]}, "properties": {"kind": "stop", "name": "GLENWOOD AVE SE@GLENWOOD PL SE", "mode": "bus"}}, {"type": "Feature", "geometry": {"type": "Point", "coordinates": [-84.357604, 33.739814]}, "properties": {"kind": "stop", "name": "GLENWOOD AVE SE @ BILL KENNEDY WAY SE", "mode": "bus"}}, {"type": "Feature", "geometry": {"type": "Point", "coordinates": [-84.356321, 33.739709]}, "properties": {"kind": "stop", "name": "GLENWOOD AVE SE@HAMILTON ST SE", "mode": "bus"}}, {"type": "Feature", "geometry": {"type": "Point", "coordinates": [-84.355043, 33.739717]}, "properties": {"kind": "stop", "name": "GLENWOOD AVE SE@GLENWOOD PL SE", "mode": "bus"}}, {"type": "Feature", "geometry": {"type": "Point", "coordinates": [-84.354234, 33.739888]}, "properties": {"kind": "stop", "name": "GLENWOOD AVE SE@STOVALL ST SE", "mode": "bus"}}, {"type": "Feature", "geometry": {"type": "Point", "coordinates": [-84.351332, 33.74039]}, "properties": {"kind": "stop", "name": "GLENWOOD AVE SE@HEMLOCK CIR SE", "mode": "bus"}}, {"type": "Feature", "geometry": {"type": "Point", "coordinates": [-84.348364, 33.740208]}, "properties": {"kind": "stop", "name": "GLENWOOD AVE SE @ BROWNWOOD AVE", "mode": "bus"}}, {"type": "Feature", "geometry": {"type": "Point", "coordinates": [-84.349386, 33.740337]}, "properties": {"kind": "stop", "name": "GLENWOOD AVE SE @ MORELAND AVE SE", "mode": "bus"}}, {"type": "Feature", "geometry": {"type": "Point", "coordinates": [-84.349319, 33.726089]}, "properties": {"kind": "stop", "name": "MORELAND AVE SE@BEECHVIEW DR SE", "mode": "bus"}}, {"type": "Feature", "geometry": {"type": "Point", "coordinates": [-84.349319, 33.72731]}, "properties": {"kind": "stop", "name": "MORELAND AVE SE@LYNDALE DR SE", "mode": "bus"}}, {"type": "Feature", "geometry": {"type": "Point", "coordinates": [-84.349297, 33.731851]}, "properties": {"kind": "stop", "name": "MORELAND AVE SE@DELAWARE AVE SE", "mode": "bus"}}, {"type": "Feature", "geometry": {"type": "Point", "coordinates": [-84.349281, 33.732777]}, "properties": {"kind": "stop", "name": "MORELAND AVE SE@GRACEWOOD AVE SE", "mode": "bus"}}, {"type": "Feature", "geometry": {"type": "Point", "coordinates": [-84.349243, 33.733803]}, "properties": {"kind": "stop", "name": "MORELAND AVE SE@ORMEWOOD AVE SE", "mode": "bus"}}, {"type": "Feature", "geometry": {"type": "Point", "coordinates": [-84.349236, 33.734894]}, "properties": {"kind": "stop", "name": "MORELAND AVE SE@HALL ST SE", "mode": "bus"}}, {"type": "Feature", "geometry": {"type": "Point", "coordinates": [-84.349254, 33.736067]}, "properties": {"kind": "stop", "name": "MORELAND AVE SE@BERNE ST SE", "mode": "bus"}}, {"type": "Feature", "geometry": {"type": "Point", "coordinates": [-84.349244, 33.737527]}, "properties": {"kind": "stop", "name": "MORELAND AVE SE@WOODLAND AVE SE", "mode": "bus"}}, {"type": "Feature", "geometry": {"type": "Point", "coordinates": [-84.349197, 33.738838]}, "properties": {"kind": "stop", "name": "MORELAND AVE SE@PORTLAND AVE", "mode": "bus"}}, {"type": "Feature", "geometry": {"type": "Point", "coordinates": [-84.349152, 33.739948]}, "properties": {"kind": "stop", "name": "MORELAND AVE SE@GLENWOOD AVE SE", "mode": "bus"}}, {"type": "Feature", "geometry": {"type": "Point", "coordinates": [-84.34914, 33.74122]}, "properties": {"kind": "stop", "name": "MORELAND AVE SE @ METROPOLITAN AVE SE", "mode": "bus"}}, {"type": "Feature", "geometry": {"type": "Point", "coordinates": [-84.349159, 33.743032]}, "properties": {"kind": "stop", "name": "MORELAND AVE SE @ MCPHERSON AVE SE", "mode": "bus"}}, {"type": "Feature", "geometry": {"type": "Point", "coordinates": [-84.34916, 33.747543]}, "properties": {"kind": "stop", "name": "MORELAND AVE SE @ MEMORIAL DR SE", "mode": "bus"}}, {"type": "Feature", "geometry": {"type": "Point", "coordinates": [-84.349251, 33.728714]}, "properties": {"kind": "stop", "name": "MORELAND AVE@STONEYBROOK DR", "mode": "bus"}}, {"type": "Feature", "geometry": {"type": "Point", "coordinates": [-84.349139, 33.749655]}, "properties": {"kind": "stop", "name": "MORELAND AVE SE @ MERLIN AVE SE", "mode": "bus"}}, {"type": "Feature", "geometry": {"type": "Point", "coordinates": [-84.349296, 33.730061]}, "properties": {"kind": "stop", "name": "MORELAND AVE@EDEN AVE", "mode": "bus"}}, {"type": "Feature", "geometry": {"type": "Point", "coordinates": [-84.349162, 33.752341]}, "properties": {"kind": "stop", "name": "MORELAND AVE SE @ WYLIE ST SE", "mode": "bus"}}, {"type": "Feature", "geometry": {"type": "Point", "coordinates": [-84.385275, 33.723367]}, "properties": {"kind": "stop", "name": "MILTON AVE SE @ 79", "mode": "bus"}}, {"type": "Feature", "geometry": {"type": "Point", "coordinates": [-84.384773, 33.722984]}, "properties": {"kind": "stop", "name": "MILTON AVE SE@79", "mode": "bus"}}, {"type": "Feature", "geometry": {"type": "Point", "coordinates": [-84.368324, 33.725974]}, "properties": {"kind": "stop", "name": "BOULEVARD SE @ HAMILTON AVE SE", "mode": "bus"}}, {"type": "Feature", "geometry": {"type": "Point", "coordinates": [-84.376783, 33.715909]}, "properties": {"kind": "stop", "name": "MCDONOUGH BLVD SE@ MILLER REED AVE S", "mode": "bus"}}, {"type": "Feature", "geometry": {"type": "Point", "coordinates": [-84.373804, 33.714039]}, "properties": {"kind": "stop", "name": "MCDONOUGH BLVD SE@SAWTELL AVE SE", "mode": "bus"}}, {"type": "Feature", "geometry": {"type": "Point", "coordinates": [-84.370066, 33.713808]}, "properties": {"kind": "stop", "name": "MCDONOUGH BLVD SE@PARK AVE SE", "mode": "bus"}}, {"type": "Feature", "geometry": {"type": "Point", "coordinates": [-84.368067, 33.71363]}, "properties": {"kind": "stop", "name": "MCDONOUGH BLVD SE@BOULEVARD  SE", "mode": "bus"}}, {"type": "Feature", "geometry": {"type": "Point", "coordinates": [-84.366698, 33.713201]}, "properties": {"kind": "stop", "name": "MCDONOUGH BLVD SE@BENTEEN AVE SE", "mode": "bus"}}, {"type": "Feature", "geometry": {"type": "Point", "coordinates": [-84.365372, 33.712691]}, "properties": {"kind": "stop", "name": "MCDONOUGH BLVD SE @ FUNSTON AVE SE", "mode": "bus"}}, {"type": "Feature", "geometry": {"type": "Point", "coordinates": [-84.3666, 33.713254]}, "properties": {"kind": "stop", "name": "MCDONOUGH BLVD SE @ BENTEEN AVE SE", "mode": "bus"}}, {"type": "Feature", "geometry": {"type": "Point", "coordinates": [-84.368349, 33.713827]}, "properties": {"kind": "stop", "name": "MCDONOUGH BLVD SE @ BOULEVARD  SE", "mode": "bus"}}, {"type": "Feature", "geometry": {"type": "Point", "coordinates": [-84.372392, 33.713825]}, "properties": {"kind": "stop", "name": "MCDONOUGH BLVD SE @ GAULT ST SE", "mode": "bus"}}, {"type": "Feature", "geometry": {"type": "Point", "coordinates": [-84.374033, 33.714272]}, "properties": {"kind": "stop", "name": "MCDONOUGH BLVD SE@SAWTELL AVE", "mode": "bus"}}, {"type": "Feature", "geometry": {"type": "Point", "coordinates": [-84.375522, 33.715095]}, "properties": {"kind": "stop", "name": "MCDONOUGH BLVD SE @ ERIC ST SE", "mode": "bus"}}, {"type": "Feature", "geometry": {"type": "Point", "coordinates": [-84.376564, 33.715858]}, "properties": {"kind": "stop", "name": "MCDONOUGH BLVD SE@MILLER REED AVE S", "mode": "bus"}}, {"type": "Feature", "geometry": {"type": "Point", "coordinates": [-84.375472, 33.721934]}, "properties": {"kind": "stop", "name": "ENGLEWOOD AVE SE @ MAILING AVE SE", "mode": "bus"}}, {"type": "Feature", "geometry": {"type": "Point", "coordinates": [-84.37056, 33.721936]}, "properties": {"kind": "stop", "name": "ENGLEWOOD AVE SE@GAULT ST SE", "mode": "bus"}}, {"type": "Feature", "geometry": {"type": "Point", "coordinates": [-84.365287, 33.71714]}, "properties": {"kind": "stop", "name": "CUSTER AVE SE @ FUNSTON AVE SE", "mode": "bus"}}, {"type": "Feature", "geometry": {"type": "Point", "coordinates": [-84.368004, 33.717175]}, "properties": {"kind": "stop", "name": "CUSTER AVE SE @ BOULEVARD SE", "mode": "bus"}}, {"type": "Feature", "geometry": {"type": "Point", "coordinates": [-84.370669, 33.721981]}, "properties": {"kind": "stop", "name": "ENGLEWOOD AVE SE@GAULT ST SE", "mode": "bus"}}, {"type": "Feature", "geometry": {"type": "Point", "coordinates": [-84.373665, 33.722042]}, "properties": {"kind": "stop", "name": "ENGLEWOOD AVE SE@460", "mode": "bus"}}, {"type": "Feature", "geometry": {"type": "Point", "coordinates": [-84.375635, 33.722032]}, "properties": {"kind": "stop", "name": "ENGLEWOOD AVE SE@MAILING AVE SE", "mode": "bus"}}, {"type": "Feature", "geometry": {"type": "Point", "coordinates": [-84.378494, 33.722652]}, "properties": {"kind": "stop", "name": "HILL ST SE @ 1110", "mode": "bus"}}, {"type": "Feature", "geometry": {"type": "Point", "coordinates": [-84.378456, 33.725471]}, "properties": {"kind": "stop", "name": "HILL ST SE@1064", "mode": "bus"}}, {"type": "Feature", "geometry": {"type": "Point", "coordinates": [-84.378507, 33.726471]}, "properties": {"kind": "stop", "name": "HILL ST SE@FARRINGTON AVE", "mode": "bus"}}, {"type": "Feature", "geometry": {"type": "Point", "coordinates": [-84.378465, 33.728539]}, "properties": {"kind": "stop", "name": "HILL ST SE @ TUSKEGEE ST SE", "mode": "bus"}}, {"type": "Feature", "geometry": {"type": "Point", "coordinates": [-84.367634, 33.717076]}, "properties": {"kind": "stop", "name": "CUSTER AVE SE @ BOULEVARD SE", "mode": "bus"}}, {"type": "Feature", "geometry": {"type": "Point", "coordinates": [-84.357496, 33.717089]}, "properties": {"kind": "stop", "name": "CUSTER AVE SE @ 930", "mode": "bus"}}, {"type": "Feature", "geometry": {"type": "Point", "coordinates": [-84.368482, 33.71832]}, "properties": {"kind": "stop", "name": "BOULEVARD SE @ BURROUGHS ST", "mode": "bus"}}, {"type": "Feature", "geometry": {"type": "Point", "coordinates": [-84.368397, 33.720791]}, "properties": {"kind": "stop", "name": "BOULEVARD SE @ ENGLEWOOD AVE SE", "mode": "bus"}}, {"type": "Feature", "geometry": {"type": "Point", "coordinates": [-84.378552, 33.728467]}, "properties": {"kind": "stop", "name": "HILL ST SE @ TUSKEGEE ST SE", "mode": "bus"}}, {"type": "Feature", "geometry": {"type": "Point", "coordinates": [-84.378572, 33.726551]}, "properties": {"kind": "stop", "name": "HILL ST SE @ FARRINGTON AVE", "mode": "bus"}}, {"type": "Feature", "geometry": {"type": "Point", "coordinates": [-84.378382, 33.722127]}, "properties": {"kind": "stop", "name": "ENGLEWOOD AVE@HILL ST", "mode": "bus"}}, {"type": "Feature", "geometry": {"type": "Point", "coordinates": [-84.368571, 33.721507]}, "properties": {"kind": "stop", "name": "BOULEVARD SE @ ENGLEWOOD AVE SE", "mode": "bus"}}, {"type": "Feature", "geometry": {"type": "Point", "coordinates": [-84.368591, 33.718186]}, "properties": {"kind": "stop", "name": "BOULEVARD SE @ BURROUGHS ST", "mode": "bus"}}, {"type": "Feature", "geometry": {"type": "Point", "coordinates": [-84.378474, 33.731399]}, "properties": {"kind": "stop", "name": "HILL ST SE @ ORMOND ST", "mode": "bus"}}, {"type": "Feature", "geometry": {"type": "Point", "coordinates": [-84.378466, 33.730239]}, "properties": {"kind": "stop", "name": "HILL ST SE @ ATLANTA AVE", "mode": "bus"}}, {"type": "Feature", "geometry": {"type": "Point", "coordinates": [-84.361242, 33.710275]}, "properties": {"kind": "stop", "name": "MCDONOUGH BLVD SE @ ELLEBY RD SE", "mode": "bus"}}, {"type": "Feature", "geometry": {"type": "Point", "coordinates": [-84.349631, 33.71575]}, "properties": {"kind": "stop", "name": "MORELAND AVE SE @ CUSTER AVE SE", "mode": "bus"}}, {"type": "Feature", "geometry": {"type": "Point", "coordinates": [-84.349586, 33.719069]}, "properties": {"kind": "stop", "name": "MORELAND AVE SE @ EASTLAND RD SE", "mode": "bus"}}, {"type": "Feature", "geometry": {"type": "Point", "coordinates": [-84.349522, 33.724538]}, "properties": {"kind": "stop", "name": "MORELAND AVE SE @ UNITED AVE", "mode": "bus"}}, {"type": "Feature", "geometry": {"type": "Point", "coordinates": [-84.3495, 33.721871]}, "properties": {"kind": "stop", "name": "MORELAND AVE @ VICKERS ST", "mode": "bus"}}, {"type": "Feature", "geometry": {"type": "Point", "coordinates": [-84.349609, 33.724001]}, "properties": {"kind": "stop", "name": "UNITED AVE @ MORELAND AVE SE", "mode": "bus"}}, {"type": "Feature", "geometry": {"type": "Point", "coordinates": [-84.350021, 33.724236]}, "properties": {"kind": "stop", "name": "UNITED AVE @ MORELAND AVE SE", "mode": "bus"}}, {"type": "Feature", "geometry": {"type": "Point", "coordinates": [-84.352044, 33.72469]}, "properties": {"kind": "stop", "name": "UNITED AVE @ 1089", "mode": "bus"}}, {"type": "Feature", "geometry": {"type": "Point", "coordinates": [-84.352036, 33.7248]}, "properties": {"kind": "stop", "name": "UNITED AVE @ 1098", "mode": "bus"}}, {"type": "Feature", "geometry": {"type": "Point", "coordinates": [-84.353065, 33.72528]}, "properties": {"kind": "stop", "name": "UNITED AVE @ WOODLAND AVE", "mode": "bus"}}, {"type": "Feature", "geometry": {"type": "Point", "coordinates": [-84.35318, 33.72552]}, "properties": {"kind": "stop", "name": "UNITED AVE @ WOODLAND AVE SE", "mode": "bus"}}, {"type": "Feature", "geometry": {"type": "Point", "coordinates": [-84.355598, 33.726345]}, "properties": {"kind": "stop", "name": "UNITED AVE @ ALLOWAY PL", "mode": "bus"}}, {"type": "Feature", "geometry": {"type": "Point", "coordinates": [-84.355698, 33.726433]}, "properties": {"kind": "stop", "name": "UNITED AVE @ ALLOWAY PL SE", "mode": "bus"}}, {"type": "Feature", "geometry": {"type": "Point", "coordinates": [-84.357185, 33.72664]}, "properties": {"kind": "stop", "name": "UNITED AVE @ UNDERWOOD AVE", "mode": "bus"}}, {"type": "Feature", "geometry": {"type": "Point", "coordinates": [-84.349396, 33.715202]}, "properties": {"kind": "stop", "name": "MORELAND AVE SE@CUSTER AVE SE", "mode": "bus"}}, {"type": "Feature", "geometry": {"type": "Point", "coordinates": [-84.349423, 33.718872]}, "properties": {"kind": "stop", "name": "MORELAND AVE SE @ EASTLAND RD SE", "mode": "bus"}}, {"type": "Feature", "geometry": {"type": "Point", "coordinates": [-84.349424, 33.722184]}, "properties": {"kind": "stop", "name": "MORELAND AVE SE @ VILLAGE CREEK LNDG", "mode": "bus"}}, {"type": "Feature", "geometry": {"type": "Point", "coordinates": [-84.349349, 33.724377]}, "properties": {"kind": "stop", "name": "MORELAND AVE@SKY HAVEN RD", "mode": "bus"}}, {"type": "Feature", "geometry": {"type": "Point", "coordinates": [-84.35302, 33.713509]}, "properties": {"kind": "stop", "name": "WOODLAND AVE SE @ WOODLAND CIR SE", "mode": "bus"}}, {"type": "Feature", "geometry": {"type": "Point", "coordinates": [-84.35307, 33.715559]}, "properties": {"kind": "stop", "name": "WOODLAND AVE SE @ CUSTER AVE SE", "mode": "bus"}}, {"type": "Feature", "geometry": {"type": "Point", "coordinates": [-84.361636, 33.717123]}, "properties": {"kind": "stop", "name": "CUSTER AVE SE @ BENTEEN PARK DR SE", "mode": "bus"}}, {"type": "Feature", "geometry": {"type": "Point", "coordinates": [-84.353236, 33.715711]}, "properties": {"kind": "stop", "name": "CUSTER AVE SE @ WOODLAND AVE SE", "mode": "bus"}}, {"type": "Feature", "geometry": {"type": "Point", "coordinates": [-84.365396, 33.717032]}, "properties": {"kind": "stop", "name": "CUSTER AVE SE @ FUNSTON AVE SE", "mode": "bus"}}, {"type": "Feature", "geometry": {"type": "Point", "coordinates": [-84.358137, 33.716972]}, "properties": {"kind": "stop", "name": "CUSTER AVE SE @ 930", "mode": "bus"}}, {"type": "Feature", "geometry": {"type": "Point", "coordinates": [-84.322354, 33.72574]}, "properties": {"kind": "stop", "name": "FLAT SHOALS RD SE@FAYETTEVILLE RD", "mode": "bus"}}, {"type": "Feature", "geometry": {"type": "Point", "coordinates": [-84.330026, 33.719403]}, "properties": {"kind": "stop", "name": "BOULDERCREST DR SE @ FAYETTEVILLE RD SE", "mode": "bus"}}, {"type": "Feature", "geometry": {"type": "Point", "coordinates": [-84.331417, 33.72147]}, "properties": {"kind": "stop", "name": "BOULDERCREST DR SE @ SMITH ST SE", "mode": "bus"}}, {"type": "Feature", "geometry": {"type": "Point", "coordinates": [-84.331939, 33.722777]}, "properties": {"kind": "stop", "name": "BOULDERCREST DR SE @ MARY DELL DR SE", "mode": "bus"}}, {"type": "Feature", "geometry": {"type": "Point", "coordinates": [-84.332178, 33.723833]}, "properties": {"kind": "stop", "name": "BOULDERCREST DR SE @ WAINWRIGHT DR SE", "mode": "bus"}}, {"type": "Feature", "geometry": {"type": "Point", "coordinates": [-84.332504, 33.725364]}, "properties": {"kind": "stop", "name": "BOULDERCREST DR SE @ LOCHLAND RD SE", "mode": "bus"}}, {"type": "Feature", "geometry": {"type": "Point", "coordinates": [-84.331624, 33.721631]}, "properties": {"kind": "stop", "name": "BOULDERCREST DR SE @ SMITH ST SE", "mode": "bus"}}, {"type": "Feature", "geometry": {"type": "Point", "coordinates": [-84.33093, 33.72061]}, "properties": {"kind": "stop", "name": "BOULDERCREST DR SE @ SARGENT AVE SE", "mode": "bus"}}, {"type": "Feature", "geometry": {"type": "Point", "coordinates": [-84.322398, 33.725839]}, "properties": {"kind": "stop", "name": "FLAT SHOALS RD SE@FAYETTEVILLE RD", "mode": "bus"}}, {"type": "Feature", "geometry": {"type": "Point", "coordinates": [-84.330111, 33.719269]}, "properties": {"kind": "stop", "name": "BOULDERCREST DR SE @ FAYETTEVILLE RD SE", "mode": "bus"}}, {"type": "Feature", "geometry": {"type": "Point", "coordinates": [-84.332113, 33.723055]}, "properties": {"kind": "stop", "name": "BOULDERCREST DR SE @ ORANGE BLOSSOM TER SE", "mode": "bus"}}, {"type": "Feature", "geometry": {"type": "Point", "coordinates": [-84.363068, 33.71134]}, "properties": {"kind": "stop", "name": "MCDONOUGH BLVD SE @ PARK RD SE", "mode": "bus"}}, {"type": "Feature", "geometry": {"type": "Point", "coordinates": [-84.361405, 33.710284]}, "properties": {"kind": "stop", "name": "MCDONOUGH BLVD SE@ELLEBY RD SE", "mode": "bus"}}, {"type": "Feature", "geometry": {"type": "Point", "coordinates": [-84.360655, 33.709747]}, "properties": {"kind": "stop", "name": "MCDONOUGH BLVD SE @ NEW TOWN CIR", "mode": "bus"}}, {"type": "Feature", "geometry": {"type": "Point", "coordinates": [-84.359405, 33.708942]}, "properties": {"kind": "stop", "name": "MCDONOUGH BLVD @ MORELAND DR", "mode": "bus"}}, {"type": "Feature", "geometry": {"type": "Point", "coordinates": [-84.35659, 33.706186]}, "properties": {"kind": "stop", "name": "MCDONOUGH BLVD SE @ HENRY THOMAS DR SE", "mode": "bus"}}, {"type": "Feature", "geometry": {"type": "Point", "coordinates": [-84.356275, 33.706132]}, "properties": {"kind": "stop", "name": "MCDONOUGH BLVD SE @ HENRY THOMAS DR SE", "mode": "bus"}}, {"type": "Feature", "geometry": {"type": "Point", "coordinates": [-84.358253, 33.707994]}, "properties": {"kind": "stop", "name": "MCDONOUGH BLVD SE @ WELCH ST SE", "mode": "bus"}}, {"type": "Feature", "geometry": {"type": "Point", "coordinates": [-84.363263, 33.711582]}, "properties": {"kind": "stop", "name": "MCDONOUGH BLVD SE @ PARK RD SE", "mode": "bus"}}, {"type": "Feature", "geometry": {"type": "Point", "coordinates": [-84.349633, 33.704774]}, "properties": {"kind": "stop", "name": "MORELAND AVE SE @ MCDONOUGH BLVD SE", "mode": "bus"}}, {"type": "Feature", "geometry": {"type": "Point", "coordinates": [-84.349654, 33.709391]}, "properties": {"kind": "stop", "name": "MORELAND AVE SE @ MORELAND DR SE", "mode": "bus"}}, {"type": "Feature", "geometry": {"type": "Point", "coordinates": [-84.355125, 33.699833]}, "properties": {"kind": "stop", "name": "TURNER RD SE@VELMA ST SE", "mode": "bus"}}, {"type": "Feature", "geometry": {"type": "Point", "coordinates": [-84.354829, 33.70342]}, "properties": {"kind": "stop", "name": "TURNER RD SE@KIPLING ST SE", "mode": "bus"}}, {"type": "Feature", "geometry": {"type": "Point", "coordinates": [-84.355296, 33.705211]}, "properties": {"kind": "stop", "name": "HENRY THOMAS DR SE (W) @ MCDONOUGH BLVD SE", "mode": "bus"}}, {"type": "Feature", "geometry": {"type": "Point", "coordinates": [-84.349473, 33.704254]}, "properties": {"kind": "stop", "name": "MORELAND AVE SE @ MCDONOUGH BLVD SE", "mode": "bus"}}, {"type": "Feature", "geometry": {"type": "Point", "coordinates": [-84.34945, 33.700333]}, "properties": {"kind": "stop", "name": "MORELAND AVE SE @ ISA DR SE", "mode": "bus"}}, {"type": "Feature", "geometry": {"type": "Point", "coordinates": [-84.352288, 33.709078]}, "properties": {"kind": "stop", "name": "MORELAND DR @ WOODLAND AVE", "mode": "bus"}}, {"type": "Feature", "geometry": {"type": "Point", "coordinates": [-84.352463, 33.710913]}, "properties": {"kind": "stop", "name": "WOODLAND AVE SE @ 1608", "mode": "bus"}}, {"type": "Feature", "geometry": {"type": "Point", "coordinates": [-84.349699, 33.700711]}, "properties": {"kind": "stop", "name": "MORELAND AVE SE@ISA DR SE", "mode": "bus"}}, {"type": "Feature", "geometry": {"type": "Point", "coordinates": [-84.352188, 33.702624]}, "properties": {"kind": "stop", "name": "KIPLING ST SE @ HENRY THOMAS DR SE (E)", "mode": "bus"}}, {"type": "Feature", "geometry": {"type": "Point", "coordinates": [-84.349644, 33.71278]}, "properties": {"kind": "stop", "name": "MORELAND AVE @ 1475", "mode": "bus"}}, {"type": "Feature", "geometry": {"type": "Point", "coordinates": [-84.355492, 33.705381]}, "properties": {"kind": "stop", "name": "MCDONOUGH BLVD @ HENRY THOMAS DR", "mode": "bus"}}, {"type": "Feature", "geometry": {"type": "Point", "coordinates": [-84.351099, 33.704352]}, "properties": {"kind": "stop", "name": "HENRY THOMAS DR SE (E) @ MCDONOUGH BLVD SE", "mode": "bus"}}, {"type": "Feature", "geometry": {"type": "Point", "coordinates": [-84.351936, 33.703002]}, "properties": {"kind": "stop", "name": "HENRY THOMAS DR SE (E) @ KIPLING ST SE", "mode": "bus"}}, {"type": "Feature", "geometry": {"type": "Point", "coordinates": [-84.35834, 33.707967]}, "properties": {"kind": "stop", "name": "MCDONOUGH BLVD @ WELCH ST", "mode": "bus"}}, {"type": "Feature", "geometry": {"type": "Point", "coordinates": [-84.372059, 33.757588]}, "properties": {"kind": "stop", "name": "BOULEVARD NE @ IRWIN ST NE", "mode": "bus"}}, {"type": "Feature", "geometry": {"type": "Point", "coordinates": [-84.372135, 33.757686]}, "properties": {"kind": "stop", "name": "BOULEVARD NE @ IRWIN ST NE", "mode": "bus"}}, {"type": "Feature", "geometry": {"type": "Point", "coordinates": [-84.373556, 33.734798]}, "properties": {"kind": "stop", "name": "CHEROKEE AVE SE @ BASS ST SE", "mode": "bus"}}, {"type": "Feature", "geometry": {"type": "Point", "coordinates": [-84.37354, 33.73232]}, "properties": {"kind": "stop", "name": "CHEROKEE AVE @ GRANT PARK PL", "mode": "bus"}}, {"type": "Feature", "geometry": {"type": "Point", "coordinates": [-84.373566, 33.733634]}, "properties": {"kind": "stop", "name": "CHEROKEE AVE SE @ AUGUSTA AVE SE", "mode": "bus"}}, {"type": "Feature", "geometry": {"type": "Point", "coordinates": [-84.373325, 33.730161]}, "properties": {"kind": "stop", "name": "ATLANTA AVE @ CHEROKEE AVE", "mode": "bus"}}, {"type": "Feature", "geometry": {"type": "Point", "coordinates": [-84.357864, 33.7397]}, "properties": {"kind": "stop", "name": "GLENWOOD AVE SE @ BILL KENNEDY WAY SE", "mode": "bus"}}, {"type": "Feature", "geometry": {"type": "Point", "coordinates": [-84.387846, 33.731819]}, "properties": {"kind": "stop", "name": "ORMOND ST@HANK AARON DR", "mode": "bus"}}, {"type": "Feature", "geometry": {"type": "Point", "coordinates": [-84.385434, 33.749764]}, "properties": {"kind": "stop", "name": "GA STATE STATION - JESSE HILL JR DR", "mode": "bus"}}, {"type": "Feature", "geometry": {"type": "Point", "coordinates": [-84.384156, 33.752543]}, "properties": {"kind": "stop", "name": "PIEDMONT AVE  SE @ GILMER ST SE", "mode": "bus"}}, {"type": "Feature", "geometry": {"type": "Point", "coordinates": [-84.356234, 33.73979]}, "properties": {"kind": "stop", "name": "GLENWOOD AVE@HAMILTON ST SE", "mode": "bus"}}, {"type": "Feature", "geometry": {"type": "Point", "coordinates": [-84.374276, 33.755895]}, "properties": {"kind": "stop", "name": "JACKSON ST NE @ OLD WHEAT ST NE", "mode": "bus"}}, {"type": "Feature", "geometry": {"type": "Point", "coordinates": [-84.386893, 33.749937]}, "properties": {"kind": "stop", "name": "GA STATE STATION - PIEDMONT AVE", "mode": "bus"}}, {"type": "Feature", "geometry": {"type": "Point", "coordinates": [-84.33707, 33.731227]}, "properties": {"kind": "stop", "name": "FLAT SHOALS AVE SE @ CAVANAUGH AVE SE", "mode": "bus"}}, {"type": "Feature", "geometry": {"type": "Point", "coordinates": [-84.384289, 33.756087]}, "properties": {"kind": "stop", "name": "COURTLAND ST @ AUBURN AVE", "mode": "bus"}}, {"type": "Feature", "geometry": {"type": "Point", "coordinates": [-84.322006, 33.73974]}, "properties": {"kind": "stop", "name": "GLENWOOD AVE@TERRY MILL RD", "mode": "bus"}}, {"type": "Feature", "geometry": {"type": "Point", "coordinates": [-84.358202, 33.741919]}, "properties": {"kind": "stop", "name": "BILL KENNEDY WAY SE @ FAITH AVE SE", "mode": "bus"}}, {"type": "Feature", "geometry": {"type": "Point", "coordinates": [-84.361603, 33.716989]}, "properties": {"kind": "stop", "name": "CUSTER AVE SE @ BENTEEN PARK DR SE", "mode": "bus"}}, {"type": "Feature", "geometry": {"type": "Point", "coordinates": [-84.338233, 33.732149]}, "properties": {"kind": "stop", "name": "FLAT SHOALS AVE SE @ CLOVERDALE DR SE", "mode": "bus"}}, {"type": "Feature", "geometry": {"type": "Point", "coordinates": [-84.336331, 33.73077]}, "properties": {"kind": "stop", "name": "FLAT SHOALS RD SE@FLAT SHOALS AVE S", "mode": "bus"}}, {"type": "Feature", "geometry": {"type": "Point", "coordinates": [-84.335646, 33.730654]}, "properties": {"kind": "stop", "name": "FLAT SHOALS RD SE@MAYNARD TER SE", "mode": "bus"}}, {"type": "Feature", "geometry": {"type": "Point", "coordinates": [-84.333907, 33.730717]}, "properties": {"kind": "stop", "name": "FLAT SHOALS RD SE@WINFIELD AVE SE", "mode": "bus"}}, {"type": "Feature", "geometry": {"type": "Point", "coordinates": [-84.333853, 33.730788]}, "properties": {"kind": "stop", "name": "FLAT SHOALS RD SE@WINFIELD AVE SE", "mode": "bus"}}, {"type": "Feature", "geometry": {"type": "Point", "coordinates": [-84.330103, 33.729983]}, "properties": {"kind": "stop", "name": "FLAT SHOALS RD SE@CLIFTON RD SE", "mode": "bus"}}, {"type": "Feature", "geometry": {"type": "Point", "coordinates": [-84.330234, 33.730511]}, "properties": {"kind": "stop", "name": "FLAT SHOALS RD SE@ROCKLAND DR SE", "mode": "bus"}}, {"type": "Feature", "geometry": {"type": "Point", "coordinates": [-84.357054, 33.726506]}, "properties": {"kind": "stop", "name": "UNITED AVE @ UNDERWOOD AVE", "mode": "bus"}}, {"type": "Feature", "geometry": {"type": "Point", "coordinates": [-84.359663, 33.727033]}, "properties": {"kind": "stop", "name": "UNITED AVE @ WALKER AVE SE", "mode": "bus"}}, {"type": "Feature", "geometry": {"type": "Point", "coordinates": [-84.359619, 33.726899]}, "properties": {"kind": "stop", "name": "UNITED AVE @ WALKER AVE SE", "mode": "bus"}}, {"type": "Feature", "geometry": {"type": "Point", "coordinates": [-84.362304, 33.727363]}, "properties": {"kind": "stop", "name": "UNITED AVE @ CONFEDERATE CT", "mode": "bus"}}, {"type": "Feature", "geometry": {"type": "Point", "coordinates": [-84.363749, 33.727784]}, "properties": {"kind": "stop", "name": "UNITED AVE @ EDIE AVE SE", "mode": "bus"}}, {"type": "Feature", "geometry": {"type": "Point", "coordinates": [-84.364489, 33.729439]}, "properties": {"kind": "stop", "name": "UNITED AVE @ HOME AVE SE", "mode": "bus"}}, {"type": "Feature", "geometry": {"type": "Point", "coordinates": [-84.349678, 33.700602]}, "properties": {"kind": "stop", "name": "ISA DR SE @ MORELAND AVE SE", "mode": "bus"}}, {"type": "Feature", "geometry": {"type": "Point", "coordinates": [-84.378785, 33.720053]}, "properties": {"kind": "stop", "name": "HILL ST SE @ DALTON ST SE", "mode": "bus"}}, {"type": "Feature", "geometry": {"type": "Point", "coordinates": [-84.378828, 33.718951]}, "properties": {"kind": "stop", "name": "HILL ST SE @ NOLAN ST SE", "mode": "bus"}}, {"type": "Feature", "geometry": {"type": "Point", "coordinates": [-84.378827, 33.717448]}, "properties": {"kind": "stop", "name": "HILL ST SE @ MILTON AVE SE", "mode": "bus"}}, {"type": "Feature", "geometry": {"type": "Point", "coordinates": [-84.378721, 33.722228]}, "properties": {"kind": "stop", "name": "HILL ST SE@ENGLEWOOD AVE SE", "mode": "bus"}}, {"type": "Feature", "geometry": {"type": "Point", "coordinates": [-84.376188, 33.736605]}, "properties": {"kind": "stop", "name": "GEORGIA AVE SE @ GRANT ST SE", "mode": "bus"}}, {"type": "Feature", "geometry": {"type": "Point", "coordinates": [-84.37371, 33.736561]}, "properties": {"kind": "stop", "name": "GEORGIA AVE SE @ CHEROKEE AVE SE", "mode": "bus"}}, {"type": "Feature", "geometry": {"type": "Point", "coordinates": [-84.368244, 33.732122]}, "properties": {"kind": "stop", "name": "BOULEVARD SE @ DELMAR AVE", "mode": "bus"}}, {"type": "Feature", "geometry": {"type": "Point", "coordinates": [-84.37209, 33.753766]}, "properties": {"kind": "stop", "name": "BOULEVARD SE @ CHAMBERLAIN ST SE", "mode": "bus"}}, {"type": "Feature", "geometry": {"type": "Point", "coordinates": [-84.37209, 33.754267]}, "properties": {"kind": "stop", "name": "BOULEVARD SE @ EDGEWOOD AVE SE", "mode": "bus"}}, {"type": "Feature", "geometry": {"type": "Point", "coordinates": [-84.371284, 33.751609]}, "properties": {"kind": "stop", "name": "BOULEVARD SE @ DECATUR ST SE", "mode": "bus"}}, {"type": "Feature", "geometry": {"type": "Point", "coordinates": [-84.370838, 33.751761]}, "properties": {"kind": "stop", "name": "BOULEVARD SE @ DECATUR ST SE", "mode": "bus"}}, {"type": "Feature", "geometry": {"type": "Point", "coordinates": [-84.389407, 33.753346]}, "properties": {"kind": "stop", "name": "PRYOR ST SE @ WALL ST SE", "mode": "bus"}}, {"type": "Feature", "geometry": {"type": "Point", "coordinates": [-84.390368, 33.75358]}, "properties": {"kind": "stop", "name": "PEACHTREE ST @ WALL ST (FIVE POINTS STATION)", "mode": "bus"}}, {"type": "Feature", "geometry": {"type": "Point", "coordinates": [-84.377654, 33.751284]}, "properties": {"kind": "stop", "name": "AUBURN POINTE DR @ VERANDA CIR", "mode": "bus"}}, {"type": "Feature", "geometry": {"type": "Point", "coordinates": [-84.377697, 33.751212]}, "properties": {"kind": "stop", "name": "AUBURN POINTE DR @ VERANDA CIR", "mode": "bus"}}, {"type": "Feature", "geometry": {"type": "Point", "coordinates": [-84.331811, 33.746328]}, "properties": {"kind": "stop", "name": "CLIFTON ST SE @ MEMORIAL DR SE", "mode": "bus"}}, {"type": "Feature", "geometry": {"type": "Point", "coordinates": [-84.374374, 33.75594]}, "properties": {"kind": "stop", "name": "JACKSON ST NE @ OLD WHEAT ST NE", "mode": "bus"}}, {"type": "Feature", "geometry": {"type": "Point", "coordinates": [-84.374961, 33.755506]}, "properties": {"kind": "stop", "name": "KING HISTORIC DISTRICT", "mode": "bus"}}, {"type": "Feature", "geometry": {"type": "Point", "coordinates": [-84.378785, 33.755565]}, "properties": {"kind": "stop", "name": "DOBBS PLAZA", "mode": "bus"}}, {"type": "Feature", "geometry": {"type": "Point", "coordinates": [-84.382019, 33.755522]}, "properties": {"kind": "stop", "name": "AUBURN AVE @ PIEDMONT AVE", "mode": "bus"}}, {"type": "Feature", "geometry": {"type": "Point", "coordinates": [-84.388211, 33.755036]}, "properties": {"kind": "stop", "name": "PARK PLACE", "mode": "bus"}}, {"type": "Feature", "geometry": {"type": "Point", "coordinates": [-84.385283, 33.754483]}, "properties": {"kind": "stop", "name": "HURT PARK", "mode": "bus"}}, {"type": "Feature", "geometry": {"type": "Point", "coordinates": [-84.379845, 33.754407]}, "properties": {"kind": "stop", "name": "SWEET AUBURN MARKET", "mode": "bus"}}, {"type": "Feature", "geometry": {"type": "Point", "coordinates": [-84.376378, 33.754408]}, "properties": {"kind": "stop", "name": "EDGEWOOD AVE @ HILLIARD ST", "mode": "bus"}}, {"type": "Feature", "geometry": {"type": "Point", "coordinates": [-84.36188, 33.727211]}, "properties": {"kind": "stop", "name": "UNITED AVE @ AVONDALE AVE", "mode": "bus"}}, {"type": "Feature", "geometry": {"type": "Point", "coordinates": [-84.387763, 33.736903]}, "properties": {"kind": "stop", "name": "GEORGIA AVE @ HANK AARON DR", "mode": "bus"}}, {"type": "Feature", "geometry": {"type": "Point", "coordinates": [-84.351036, 33.701506]}, "properties": {"kind": "stop", "name": "KIPLING ST SE @ 1088", "mode": "bus"}}, {"type": "Feature", "geometry": {"type": "Point", "coordinates": [-84.378569, 33.721995]}, "properties": {"kind": "stop", "name": "HILL ST SE @ ENGLEWOOD AVE SE", "mode": "bus"}}, {"type": "Feature", "geometry": {"type": "Point", "coordinates": [-84.355448, 33.703662]}, "properties": {"kind": "stop", "name": "KIPLING ST @ HENRY THOMAS DR", "mode": "bus"}}, {"type": "Feature", "geometry": {"type": "Point", "coordinates": [-84.383088, 33.74984]}, "properties": {"kind": "stop", "name": "DECATUR ST @ PRATT ST SE", "mode": "bus"}}, {"type": "Feature", "geometry": {"type": "Point", "coordinates": [-84.354937, 33.703313]}, "properties": {"kind": "stop", "name": "TURNER RD SE @ KIPLING ST SE", "mode": "bus"}}, {"type": "Feature", "geometry": {"type": "Point", "coordinates": [-84.375739, 33.715363]}, "properties": {"kind": "stop", "name": "MCDONOUGH BLVD SE @ ERIC ST SE", "mode": "bus"}}, {"type": "Feature", "geometry": {"type": "Point", "coordinates": [-84.378675, 33.718987]}, "properties": {"kind": "stop", "name": "HILL ST SE @ NOLAN ST SE", "mode": "bus"}}, {"type": "Feature", "geometry": {"type": "Point", "coordinates": [-84.358126, 33.741919]}, "properties": {"kind": "stop", "name": "BILL KENNEDY WAY SE @ FAITH AVE SE", "mode": "bus"}}, {"type": "Feature", "geometry": {"type": "Point", "coordinates": [-84.350042, 33.715536]}, "properties": {"kind": "stop", "name": "CUSTER AVE SE @ MORELAND AVE SE", "mode": "bus"}}, {"type": "Feature", "geometry": {"type": "Point", "coordinates": [-84.374068, 33.73665]}, "properties": {"kind": "stop", "name": "GEORGIA AVE SE @ CHEROKEE AVE SE", "mode": "bus"}}, {"type": "Feature", "geometry": {"type": "Point", "coordinates": [-84.378362, 33.736738]}, "properties": {"kind": "stop", "name": "GEORGIA AVE SE @ HILL ST SE", "mode": "bus"}}, {"type": "Feature", "geometry": {"type": "Point", "coordinates": [-84.354975, 33.716319]}, "properties": {"kind": "stop", "name": "CUSTER AVE SE @ KNOB HILL CT", "mode": "bus"}}, {"type": "Feature", "geometry": {"type": "Point", "coordinates": [-84.368685, 33.730109]}, "properties": {"kind": "stop", "name": "ATLANTA AVE SE @ BOULEVARD SE", "mode": "bus"}}, {"type": "Feature", "geometry": {"type": "Point", "coordinates": [-84.369032, 33.730216]}, "properties": {"kind": "stop", "name": "ATLANTA AVE SE @ BOULEVARD SE", "mode": "bus"}}, {"type": "Feature", "geometry": {"type": "Point", "coordinates": [-84.365479, 33.730361]}, "properties": {"kind": "stop", "name": "ATLANTA AVE SE @ MARION AVE SE", "mode": "bus"}}, {"type": "Feature", "geometry": {"type": "Point", "coordinates": [-84.365544, 33.730433]}, "properties": {"kind": "stop", "name": "ATLANTA AVE SE @ MARION AVE SE", "mode": "bus"}}, {"type": "Feature", "geometry": {"type": "Point", "coordinates": [-84.330287, 33.718606]}, "properties": {"kind": "stop", "name": "EASTLAND RD SE @ BOULDERCREST RD SE", "mode": "bus"}}, {"type": "Feature", "geometry": {"type": "Point", "coordinates": [-84.355752, 33.703698]}, "properties": {"kind": "stop", "name": "HENRY THOMAS DR SE @ THOMASVILLE BLVD SE", "mode": "bus"}}, {"type": "Feature", "geometry": {"type": "Point", "coordinates": [-84.352558, 33.702866]}, "properties": {"kind": "stop", "name": "KIPLING ST SE @ HENRY THOMAS DR SE", "mode": "bus"}}, {"type": "Feature", "geometry": {"type": "Point", "coordinates": [-84.350645, 33.7007]}, "properties": {"kind": "stop", "name": "ISA DR SE @ KIPLING ST SE", "mode": "bus"}}, {"type": "Feature", "geometry": {"type": "Point", "coordinates": [-84.354947, 33.700654]}, "properties": {"kind": "stop", "name": "TURNER RD SE @ ISA DR SE", "mode": "bus"}}, {"type": "Feature", "geometry": {"type": "Point", "coordinates": [-84.380722, 33.754451]}, "properties": {"kind": "stop", "name": "EDGEWOOD AVE @ JESSE HILL JR DR", "mode": "bus"}}, {"type": "Feature", "geometry": {"type": "Point", "coordinates": [-84.374438, 33.75457]}, "properties": {"kind": "stop", "name": "JACKSON ST @ EDGEWOOD AVE", "mode": "bus"}}, {"type": "Feature", "geometry": {"type": "Point", "coordinates": [-84.337918, 33.731988]}, "properties": {"kind": "stop", "name": "FLAT SHOALS AVE @ CLOVERDALE DR", "mode": "bus"}}, {"type": "Feature", "geometry": {"type": "Point", "coordinates": [-84.376895, 33.754435]}, "properties": {"kind": "stop", "name": "EDGEWOOD AVE @ HILLIARD ST", "mode": "bus"}}, {"type": "Feature", "geometry": {"type": "Point", "coordinates": [-84.376564, 33.7474]}, "properties": {"kind": "stop", "name": "GRANT ST @ MLK JR DR", "mode": "bus"}}, {"type": "Feature", "geometry": {"type": "Point", "coordinates": [-84.355246, 33.716624]}, "properties": {"kind": "stop", "name": "CUSTER AVE SE @ KNOB HILL CT SE", "mode": "bus"}}, {"type": "Feature", "geometry": {"type": "Point", "coordinates": [-84.379608, 33.74747]}, "properties": {"kind": "stop", "name": "HILL ST SE @ MARTIN L KING JR DR", "mode": "bus"}}, {"type": "Feature", "geometry": {"type": "Point", "coordinates": [-84.372272, 33.713906]}, "properties": {"kind": "stop", "name": "MCDONOUGH BLVD SE @ GAULT ST SE", "mode": "bus"}}, {"type": "Feature", "geometry": {"type": "Point", "coordinates": [-84.392075, 33.75192]}, "properties": {"kind": "stop", "name": "PEACHTREE ST SW @ MARTIN L KING, JR DR", "mode": "bus"}}, {"type": "Feature", "geometry": {"type": "Point", "coordinates": [-84.393268, 33.75079]}, "properties": {"kind": "stop", "name": "PEACHTREE ST SW @ MITCHELL ST SW", "mode": "bus"}}, {"type": "Feature", "geometry": {"type": "Point", "coordinates": [-84.381869, 33.717768]}, "properties": {"kind": "stop", "name": "LAKEWOOD AVE @ MCDONOUGH BLVD", "mode": "bus"}}, {"type": "Feature", "geometry": {"type": "Point", "coordinates": [-84.332733, 33.725704]}, "properties": {"kind": "stop", "name": "BOULDERCREST DR @ PIPER CIR", "mode": "bus"}}, {"type": "Feature", "geometry": {"type": "Point", "coordinates": [-84.368465, 33.726618]}, "properties": {"kind": "stop", "name": "BOULEVARD SE @ HAMILTON AVE", "mode": "bus"}}, {"type": "Feature", "geometry": {"type": "Point", "coordinates": [-84.368293, 33.730091]}, "properties": {"kind": "stop", "name": "BOULEVARD SE @ ATLANTA AVE", "mode": "bus"}}, {"type": "Feature", "geometry": {"type": "Point", "coordinates": [-84.383467, 33.747737]}, "properties": {"kind": "stop", "name": "MARTIN L KING JR DR @ MARTIN ST", "mode": "bus"}}, {"type": "Feature", "geometry": {"type": "Point", "coordinates": [-84.379532, 33.747658]}, "properties": {"kind": "stop", "name": "HILL ST @ MARTIN L KING JR DR", "mode": "bus"}}, {"type": "Feature", "geometry": {"type": "Point", "coordinates": [-84.383326, 33.721386]}, "properties": {"kind": "stop", "name": "MILTON AVE SE @ LAKEWOOD AVE SE", "mode": "bus"}}, {"type": "Feature", "geometry": {"type": "Point", "coordinates": [-84.382877, 33.721238]}, "properties": {"kind": "stop", "name": "LAKEWOOD AVE SE @ MILTON AVE SE", "mode": "bus"}}, {"type": "Feature", "geometry": {"type": "Point", "coordinates": [-84.381169, 33.753719]}, "properties": {"kind": "stop", "name": "COCA COLA PL SE @ JESSE HILL JR DR SE", "mode": "bus"}}, {"type": "Feature", "geometry": {"type": "Point", "coordinates": [-84.382016, 33.750817]}, "properties": {"kind": "stop", "name": "PRATT ST SE @ DECATUR ST SE (GRADY HOSP)", "mode": "bus"}}, {"type": "Feature", "geometry": {"type": "Point", "coordinates": [-84.38992, 33.746862]}, "properties": {"kind": "stop", "name": "MEMORIAL DR @ WASHINGTON ST", "mode": "bus"}}, {"type": "Feature", "geometry": {"type": "Point", "coordinates": [-84.352932, 33.715801]}, "properties": {"kind": "stop", "name": "CUSTER AVE @ CUSTER WAY SE", "mode": "bus"}}, {"type": "Feature", "geometry": {"type": "Point", "coordinates": [-84.385915, 33.750161]}, "properties": {"kind": "stop", "name": "GEORGIA STATE STATION", "mode": "bus"}}, {"type": "Feature", "geometry": {"type": "Point", "coordinates": [-84.385882, 33.750143]}, "properties": {"kind": "stop", "name": "GEORGIA STATE STATION", "mode": "bus"}}, {"type": "Feature", "geometry": {"type": "Point", "coordinates": [-84.375675, 33.749951]}, "properties": {"kind": "stop", "name": "KING MEMORIAL STATION", "mode": "bus"}}, {"type": "Feature", "geometry": {"type": "Point", "coordinates": [-84.37599, 33.749853]}, "properties": {"kind": "stop", "name": "KING MEMORIAL STATION", "mode": "bus"}}], "properties": {"coverage_pct": 100.0, "rail_coverage_pct": 6.0, "stop_count": 453, "rail_stop_count": 2, "bus_stop_count": 451, "transit_index": 37, "weights": {"rail": 2.0, "bus": 1.0}}}