{"type": "FeatureCollection", "features": [{"type": "Feature", "geometry": {"type": "MultiPolygon", "coordinates": [[[[-84.4634701901096, 33.82712596793481], [-84.46273971420675, 33.82749376453343], [-84.46196955434185, 33.82780002999208], [-84.46116712887085, 33.82804181413742], [-84.46034016717604, 33.82821678790244], [-84.45949663516693, 33.828323265777954], [-84.45864465849431, 33.82836022206097], [-84.45850605448018, 33.82835486814514], [-84.45795797546478, 33.8284708218505], [-84.45711443788643, 33.82857728345542], [-84.45626245754548, 33.82861422329738], [-84.45541024153896, 33.82858128552632], [-84.45456599923826, 33.82847878741896], [-84.45373786314917, 33.82830771632081], [-84.45293381051466, 33.82806972012846], [-84.45267644411611, 33.82796886098067], [-84.45213710858069, 33.827992226660115], [-84.45128490011695, 33.82795926033626], [-84.45044066864885, 33.827856733919056], [-84.44983038478036, 33.82773064333982], [-84.44954526586271, 33.827790943623555], [-84.44941276213885, 33.82780765800043], [-84.44913023808553, 33.827983535981886], [-84.44839969288076, 33.82835124794296], [-84.44762947355292, 33.82865742410513], [-84.44682699903161, 33.8288991151555], [-84.44599999917239, 33.829073992924165], [-84.44515644025293, 33.82918037282714], [-84.44430444818367, 33.82921723010568], [-84.44345223017473, 33.82918420970546], [-84.44260799561681, 33.829081629699616], [-84.44177987694084, 33.828910478223015], [-84.4409758512217, 33.828672403946925], [-84.4403299270552, 33.82841919705917], [-84.43961146054926, 33.8285710852284], [-84.43876789834007, 33.82867742145341], [-84.43791590820275, 33.82871423458548], [-84.43706369732887, 33.828681169995725], [-84.43621947504028, 33.82857854618322], [-84.43539137364955, 33.828407351705046], [-84.43458737006479, 33.82816923564686], [-84.43381520889695, 33.827866491726446], [-84.43308232781278, 33.82750203618345], [-84.43239578585491, 33.827079379669485], [-84.4322455740337, 33.82696634381089], [-84.43184320535897, 33.826847164326935], [-84.4310710656613, 33.82654440305528], [-84.43033820742683, 33.826179931015844], [-84.42965168947785, 33.82575725901909], [-84.42901812398057, 33.82528045843952], [-84.42844361274233, 33.82475412197479], [-84.42793368843934, 33.82418331938295], [-84.42749326134097, 33.82357354862527], [-84.42743279568998, 33.82346754329115], [-84.42783645765336, 33.8234361842916], [-84.42843640701818, 33.823426185364575], [-84.42867129321954, 33.82343140760716], [-84.42875902309794, 33.82310376058914], [-84.42902442788339, 33.822430027560806], [-84.4293673730916, 33.82178114002078], [-84.42939737650696, 33.82173114186889], [-84.42994069271543, 33.820951037646154], [-84.42998069507948, 33.82090103994702], [-84.43050725946482, 33.82031018939407], [-84.43110286125078, 33.819766929295504], [-84.43176136461146, 33.819276855123796], [-84.43247598620285, 33.818845014455256], [-84.4332393650315, 33.81847585501081], [-84.43344935351, 33.81838586173405], [-84.43356452234973, 33.81833740218935], [-84.43402449626247, 33.8181474164972], [-84.43486151125126, 33.8178461996458], [-84.43573170991166, 33.81761979257437], [-84.43634760715469, 33.817517047982335], [-84.43719347203898, 33.8173342563023], [-84.43817289860952, 33.81721946546712], [-84.43916160683429, 33.81719827816966], [-84.44031150983228, 33.817228276153195], [-84.44119296968235, 33.8172888396746], [-84.4420624955735, 33.817423848299775], [-84.44291108732348, 33.81763190459352], [-84.4437299612749, 33.81791085501957], [-84.44418993363689, 33.81809084158609], [-84.4450600610778, 33.818483177132144], [-84.44564508269886, 33.81878403825695], [-84.4464340432351, 33.81916207315706], [-84.44695443970329, 33.81904770135278], [-84.44784352559724, 33.81893256591706], [-84.44874210637279, 33.81889474883234], [-84.4496405574061, 33.8189346551431], [-84.450529255465, 33.81905185740255], [-84.45139868170523, 33.819245100248274], [-84.45165866290014, 33.819315094797076], [-84.45190046220235, 33.81939271078013], [-84.45220016518435, 33.81946836311513], [-84.45300559850219, 33.819753580122594], [-84.45318673138476, 33.81973590871608], [-84.45347316967042, 33.819700977217416], [-84.45473001538963, 33.81962474527383], [-84.45503998921022, 33.81962474541073], [-84.45536998836839, 33.81962474555665], [-84.45624427901882, 33.819661533264416], [-84.45710970484791, 33.81977152493583], [-84.45795749080638, 33.81995360529293], [-84.4587790405755, 33.82020592810217], [-84.45956602367174, 33.820525934881424], [-84.46031045986568, 33.82091038082448], [-84.46100480006157, 33.82135536768099], [-84.46164200281966, 33.821856383259586], [-84.46221560574683, 33.82240834715493], [-84.46271979103257, 33.82300566223619], [-84.46314944446551, 33.82364227137654], [-84.46350020733203, 33.82431171884951], [-84.46376852066888, 33.82500721577118], [-84.46395166141936, 33.825721708925634], [-84.46404777012393, 33.82644795227687], [-84.46405778420633, 33.82658795150758], [-84.46406085868772, 33.82675815046927], [-84.4634701901096, 33.82712596793481]]], [[[-84.41381804041455, 33.84668166951709], [-84.41365257734164, 33.84661677678459], [-84.41363353905939, 33.846624336742615], [-84.41283079976716, 33.84686580705691], [-84.4120035563241, 33.84704045741741], [-84.41115977735676, 33.84714660543148], [-84.41030759089733, 33.84718322857522], [-84.4094552060302, 33.8471499740509], [-84.40861083375455, 33.84704716218831], [-84.40778260782855, 33.846875783357156], [-84.40697850636023, 33.846637488420136], [-84.4062062749032, 33.846334572819224], [-84.40547335180054, 33.845969954448904], [-84.40478679649833, 33.84554714553013], [-84.40415322152109, 33.845070218757016], [-84.40357872876555, 33.844543768043295], [-84.40306885072768, 33.84397286424785], [-84.40262849722862, 33.84336300630679], [-84.40226190815302, 33.842720068244205], [-84.40197261265345, 33.8420502425729], [-84.40176339521294, 33.84135998063157], [-84.40163626888986, 33.84065593043348], [-84.40159245600114, 33.83994487262682], [-84.40163237642679, 33.839233655183314], [-84.40175564364544, 33.83852912744474], [-84.40184373314474, 33.83823279407418], [-84.40204957045076, 33.838229500232565], [-84.40220821524946, 33.83822138189935], [-84.40248819166237, 33.83821138283279], [-84.40300734697229, 33.83821576305416], [-84.40307265995979, 33.838184349494654], [-84.40315404633391, 33.83814874372519], [-84.40344627997783, 33.83801447706202], [-84.40344679778018, 33.83801526185175], [-84.40365167248491, 33.83791917030216], [-84.4039632094664, 33.837782400979954], [-84.40416611044006, 33.837687715901225], [-84.40435468571448, 33.83760224757603], [-84.40535463215798, 33.837162280242715], [-84.40552590181265, 33.837088932443976], [-84.40636585447173, 33.836738958744654], [-84.40682900627064, 33.836559953472786], [-84.40704290028161, 33.83648356458717], [-84.4071487625235, 33.83641652095334], [-84.4078239644083, 33.83598247960722], [-84.40801098895778, 33.83586556099206], [-84.4085209728749, 33.83555558194259], [-84.40901767791027, 33.83527502903615], [-84.409227668903, 33.83516503683922], [-84.40991365196919, 33.834840929650376], [-84.41047832401787, 33.83460166655583], [-84.4109648599599, 33.834247440128614], [-84.41168719308203, 33.83382111222694], [-84.41245769989696, 33.83345825090748], [-84.41326840229787, 33.83316261310632], [-84.41411090629333, 33.832937259714086], [-84.41497648886997, 33.83278452390674], [-84.4158561882499, 33.83270598700662], [-84.41628615210965, 33.832685988833994], [-84.41677000410776, 33.832674744986626], [-84.41681999988322, 33.83267474500577], [-84.41723629684536, 33.83268306692951], [-84.41784262993694, 33.832707320864955], [-84.4178010761325, 33.83247595891801], [-84.41775649226177, 33.831792219406154], [-84.41778934667174, 33.831108017386654], [-84.41789934486958, 33.83042944738906], [-84.41808550525697, 33.82976255363417], [-84.41834616793692, 33.829113276201326], [-84.41867900955847, 33.8284873981286], [-84.41908106406466, 33.8278904939158], [-84.41920107250898, 33.82773050094814], [-84.41943295983258, 33.82743737524169], [-84.41945370649692, 33.82741248175856], [-84.41951813503427, 33.82732965398867], [-84.41993816507777, 33.82683605776462], [-84.42024618160472, 33.82653147695281], [-84.42024568041175, 33.82653112782356], [-84.42035568308513, 33.82642113368211], [-84.42060181693623, 33.82618552605925], [-84.42072181842808, 33.826075532220784], [-84.42116041584661, 33.825722636488365], [-84.42122309778682, 33.82574120902246], [-84.4219951959493, 33.826044032189785], [-84.42272801795406, 33.82640855398827], [-84.42341450732083, 33.82683126461909], [-84.4235085575371, 33.82690205070515], [-84.42353650489777, 33.826919259270355], [-84.42417005230665, 33.82739608797115], [-84.42474455527297, 33.82792244415931], [-84.42525448083799, 33.82849325958692], [-84.42569491755943, 33.82910303780941], [-84.42606162283349, 33.82974590708784], [-84.42635106379024, 33.830415676907755], [-84.42656045136691, 33.83110589757153], [-84.42668776722908, 33.83180992229132], [-84.42672299458415, 33.83237899689991], [-84.42688683137796, 33.832412878186915], [-84.42769085376459, 33.832651044200695], [-84.42846303673994, 33.83295382613287], [-84.42919594509225, 33.83331830867814], [-84.4293504358063, 33.83341341775406], [-84.42946365178848, 33.833436827880114], [-84.4302676908128, 33.833674976972844], [-84.43103989199473, 33.83397774263072], [-84.43177281994738, 33.834342209705106], [-84.43245941717126, 33.83476486892422], [-84.43309307198335, 33.835241650660684], [-84.43366768216742, 33.835767964093115], [-84.4341777137329, 33.836338741385696], [-84.43461825421714, 33.8369484864615], [-84.43471266717856, 33.837113949888135], [-84.43508729605708, 33.83763245751285], [-84.43545410831699, 33.83827529745459], [-84.43574365159016, 33.838945043807556], [-84.4359531358283, 33.83963524710072], [-84.43604673086514, 33.84015243123116], [-84.43606184333133, 33.840202222444034], [-84.43610748890086, 33.840265394695294], [-84.43647432016542, 33.840908231235034], [-84.4367638804043, 33.84157797482371], [-84.4369733794057, 33.842268176016994], [-84.4371007977615, 33.842972188215214], [-84.43714490638521, 33.843683231657764], [-84.43712242730263, 33.844086678756554], [-84.43740063147577, 33.84457417110928], [-84.43769021149359, 33.84524391202786], [-84.43789972708677, 33.84593411115596], [-84.43801965731777, 33.846596680055065], [-84.43813498412952, 33.84675626999271], [-84.43850185861652, 33.84739909961185], [-84.4387914568953, 33.84806883754752], [-84.43900098838729, 33.84875903441006], [-84.43912843337102, 33.849463043641705], [-84.43917256250293, 33.85017408551055], [-84.43913294873275, 33.850885312393096], [-84.4390576614156, 33.85131665055442], [-84.43925423136186, 33.85166105076222], [-84.43954385011727, 33.85233078636719], [-84.43975339830048, 33.853020981392156], [-84.43988085602889, 33.853724989297135], [-84.43992499383586, 33.85443603036311], [-84.43988538458709, 33.855147256974334], [-84.4398683785775, 33.85524468894149], [-84.43985342128902, 33.85551325900051], [-84.43973044360956, 33.85621782151711], [-84.43952528026101, 33.85690893443361], [-84.43923990523689, 33.857579941565376], [-84.43887706523516, 33.85822438021666], [-84.4384402532683, 33.858836043440256], [-84.43793367507507, 33.85940903983879], [-84.43736220865537, 33.85993785033078], [-84.43673135731649, 33.86041738133362], [-84.43604719668205, 33.860843013850264], [-84.43531631617346, 33.86121064798538], [-84.43454575552794, 33.861516742461106], [-84.43374293696515, 33.86175834875086], [-84.43291559365724, 33.86193313950095], [-84.432071695193, 33.86203943096549], [-84.43121937075638, 33.86207619923781], [-84.43036683076186, 33.86204309012138], [-84.42952228770429, 33.86194042254453], [-84.4286938769885, 33.86176918548646], [-84.42788957850436, 33.861531028443736], [-84.42711713970512, 33.86122824552979], [-84.42638400093307, 33.86086375336088], [-84.42569722371358, 33.86044106294244], [-84.42506342271052, 33.85996424582751], [-84.42448870199932, 33.859437894874105], [-84.42397859627289, 33.85886707998093], [-84.42353801754646, 33.85825729922874], [-84.42317120787457, 33.85761442589916], [-84.42288169853474, 33.85694465188272], [-84.4226722760693, 33.85625442802175], [-84.42254495551069, 33.85555040196408], [-84.4225009610455, 33.85483935412662], [-84.42254071430108, 33.854128132386236], [-84.42255773978943, 33.854030702700044], [-84.42257275099958, 33.853762134420634], [-84.42258539556748, 33.85368977445593], [-84.42255538790418, 33.8536482389852], [-84.42218860550808, 33.85300536212522], [-84.4218991196126, 33.85233558519246], [-84.4216897165346, 33.851645359057216], [-84.42156436835785, 33.85095215544599], [-84.42103617743373, 33.85074505497148], [-84.42030315411674, 33.85038052548214], [-84.41961649087307, 33.849957799940675], [-84.41898280126809, 33.84948095023813], [-84.4184081883038, 33.84895456954609], [-84.41789818563504, 33.84838372804927], [-84.41785145799088, 33.84831903862161], [-84.41772228545904, 33.84828077141515], [-84.41695000169614, 33.847977923428296], [-84.41621701928626, 33.84761336929275], [-84.41553039824758, 33.84719062061066], [-84.41537863504622, 33.84707640710444], [-84.41462216100062, 33.846919919756765], [-84.41381804041455, 33.84668166951709]]], [[[-84.44027799757531, 33.857816350410054], [-84.44100882780026, 33.85744868690029], [-84.4417793286649, 33.85714255211428], [-84.4425820811233, 33.8569008936281], [-84.44340935581995, 33.85672603819206], [-84.44425318746651, 33.856619669344], [-84.44510545148215, 33.856582811211965], [-84.44595794216156, 33.856615818661254], [-84.44680245162122, 33.85671837388073], [-84.44763084876632, 33.8568894894408], [-84.44801970936645, 33.85700457025974], [-84.448343839747, 33.85696370058253], [-84.44919610521474, 33.856926814161646], [-84.45004860067921, 33.85695979329361], [-84.45089311821086, 33.85706232043976], [-84.45172152663731, 33.857233408440685], [-84.45252584977445, 33.85747141001416], [-84.45329834317063, 33.85777403360449], [-84.45403156862784, 33.858138365431024], [-84.45471846578427, 33.85856089752459], [-84.45535242007094, 33.8590375614825], [-84.45592732638966, 33.859563767618276], [-84.45643764789958, 33.86013444913027], [-84.45687846934689, 33.86074411086507], [-84.45724554442351, 33.86138688220724], [-84.45753533669819, 33.862056573587395], [-84.45774505372395, 33.862746736065255], [-84.45787267399203, 33.863450723415305], [-84.45791696646992, 33.864161756117525], [-84.45787750253297, 33.86487298663769], [-84.45775466017156, 33.865577565369115], [-84.45754962043036, 33.8662687066006], [-84.4572643561109, 33.866939753875556], [-84.45690161284331, 33.86758424411221], [-84.45646488270663, 33.86819596986695], [-84.45595837064978, 33.868769039140396], [-84.45538695403394, 33.86929793214924], [-84.45475613568516, 33.869777554516], [-84.45407199090788, 33.87020328636336], [-84.45334110896958, 33.87057102683878], [-84.45257052962036, 33.87087723363961], [-84.45176767525939, 33.87111895715666], [-84.45094027940334, 33.871293868906264], [-84.45053771631564, 33.87134462847627], [-84.45048924331044, 33.87135487531639], [-84.44964527487193, 33.87146128730262], [-84.44879286523935, 33.87149817747914], [-84.44857116043642, 33.87148960071193], [-84.44856070857756, 33.871499273143094], [-84.4479298356896, 33.8719788606772], [-84.44724563926168, 33.872404554741344], [-84.44651470905936, 33.87277225484692], [-84.44574408529812, 33.873078419080166], [-84.44494119080547, 33.87332009824199], [-84.4441137594851, 33.87349496427618], [-84.44326976177399, 33.87360133271114], [-84.44241732781273, 33.87363817889827], [-84.44156466907167, 33.87360514788997], [-84.44071999919049, 33.87350255786182], [-84.43989145479688, 33.8733313970457], [-84.43908701706951, 33.87309331420359], [-84.4383144348042, 33.872790602734035], [-84.43758114972634, 33.87242617856517], [-84.43689422477176, 33.87200355204761], [-84.43626027602834, 33.87152679411914], [-84.43568540899541, 33.8710004970681], [-84.4351751597759, 33.87042973027453], [-84.43473444176752, 33.86981999135645], [-84.43436749836646, 33.869177153193256], [-84.43407786213815, 33.86850740733743], [-84.43386832084663, 33.867817204360854], [-84.43374089066808, 33.86711319171092], [-84.43369679684398, 33.8664021496761], [-84.43373646195747, 33.865690926078], [-84.43385950194302, 33.86498637031937], [-84.43406472986467, 33.86429526742329], [-84.43435016742346, 33.86362427269862], [-84.43471306408028, 33.86297984766089], [-84.43514992360731, 33.862368197824615], [-84.43565653780975, 33.86179521296593], [-84.43622802709147, 33.861266410429444], [-84.43685888747208, 33.86078688202444], [-84.43746715001066, 33.86040846142353], [-84.43788501250745, 33.859823356479595], [-84.438391593454, 33.859250360305964], [-84.4389630489455, 33.85872154503636], [-84.43959387532675, 33.85824200260279], [-84.44027799757531, 33.857816350410054]]], [[[-84.38932323531216, 33.84988329453205], [-84.38968975860772, 33.85052627059205], [-84.38997898738336, 33.85119612444008], [-84.39018813461611, 33.85188640556823], [-84.3902273083078, 33.852103492575694], [-84.39023939750861, 33.8521202382067], [-84.39060593730403, 33.85276321124278], [-84.39089518085967, 33.85343306263844], [-84.39110434101015, 33.854123341909414], [-84.39123140160771, 33.85482740170212], [-84.39127513700895, 33.85553846179531], [-84.39123512395443, 33.85624967438738], [-84.39111174572423, 33.8569541900407], [-84.3909061885262, 33.85764522364819], [-84.39062043014867, 33.85831611978668], [-84.3902572209841, 33.85896041682725], [-84.39000457510255, 33.859313812332566], [-84.38980838846751, 33.859973296234486], [-84.38952261384166, 33.8606441896404], [-84.38917374358114, 33.86126301712068], [-84.38912466432748, 33.86154321605957], [-84.38910667414835, 33.86186282106581], [-84.38900227734273, 33.86245882508753], [-84.3890741163623, 33.86262518498862], [-84.38928328471884, 33.863315466287936], [-84.38941034443518, 33.86401952691224], [-84.38945406987544, 33.864730586632255], [-84.38944065672582, 33.86496888674318], [-84.38944309806948, 33.8650085872967], [-84.38942606578745, 33.8653111836799], [-84.38946837603176, 33.865409158322656], [-84.38967755447608, 33.86609943860064], [-84.389804621683, 33.86680349847048], [-84.38984835194428, 33.8675145577102], [-84.38980832204871, 33.86822576852641], [-84.38968491543737, 33.86893028149844], [-84.38965468635996, 33.8690318849451], [-84.38976290727591, 33.86963150061202], [-84.38980663876949, 33.87034255953555], [-84.38976660734394, 33.87105377001827], [-84.3896460152847, 33.87174219098895], [-84.38974317465666, 33.87228050126089], [-84.38978690746501, 33.8729915598807], [-84.38974687476656, 33.87370277005668], [-84.38962346002879, 33.87440728237434], [-84.38941784980946, 33.875098311758464], [-84.3893039400177, 33.8753656809576], [-84.38927009980326, 33.875966802416], [-84.38914667799393, 33.87667131402601], [-84.38894105860331, 33.87736234239786], [-84.38892805243539, 33.877392869326485], [-84.38888277143325, 33.87765133171573], [-84.38867714760806, 33.87834235955522], [-84.3883913037296, 33.8790132486182], [-84.38802799101218, 33.87965753734339], [-84.38789304136215, 33.879846247387356], [-84.38780738233041, 33.88004728596212], [-84.38744406087675, 33.88069157289259], [-84.38700676747764, 33.881303053637176], [-84.38649971251104, 33.88187583855394], [-84.38592777857195, 33.88240441059654], [-84.38529647347427, 33.882883678477796], [-84.38461187721614, 33.88330902573417], [-84.38388058341914, 33.88367635521762], [-84.38310963580564, 33.88398212858492], [-84.38230646032689, 33.884223400403165], [-84.38147879359691, 33.884397846541425], [-84.38063460832333, 33.88450378657476], [-84.37978203645577, 33.88454019998343], [-84.37969574064891, 33.88453681377765], [-84.37942284541178, 33.88412674438692], [-84.37909294186224, 33.883497025160615], [-84.37883595837316, 33.88284409755465], [-84.37865419901989, 33.88217381989438], [-84.37854929280708, 33.88149220604034], [-84.37852217911414, 33.88080537142164], [-84.37853223795884, 33.88022537188968], [-84.37853262677898, 33.88020494148899], [-84.3785527120123, 33.87923557787904], [-84.37856274868554, 33.87874621377172], [-84.37856646978749, 33.87862450475978], [-84.37859654476507, 33.87788450655617], [-84.3786308742024, 33.87744121448214], [-84.3787154523376, 33.876701812101565], [-84.37871564769172, 33.87669106048894], [-84.37873407771826, 33.87618259161172], [-84.37872207723531, 33.87592917863034], [-84.37873217868125, 33.87492917893276], [-84.3787330684015, 33.87486987311725], [-84.37875277084397, 33.873879970821505], [-84.3787625255608, 33.87314428385911], [-84.3787725020442, 33.872303531705015], [-84.37878255110721, 33.871318565115935], [-84.37878332481907, 33.871265519221005], [-84.3787930819555, 33.87075115593904], [-84.37882251627322, 33.868618242393524], [-84.37882254520169, 33.86833297661144], [-84.37879368735088, 33.86785602415825], [-84.37879807298089, 33.86705815487129], [-84.37883272360982, 33.86657373391211], [-84.37883272908982, 33.86651969311909], [-84.37886678831538, 33.86587884867311], [-84.37890780268386, 33.86562262995715], [-84.37891032888336, 33.865582424723044], [-84.37893537575611, 33.865450378800595], [-84.37896856876257, 33.86524301855587], [-84.37898959688958, 33.86514493305373], [-84.37896363577342, 33.86502327252559], [-84.37894364861653, 33.864893271095355], [-84.37892053113428, 33.864727319404324], [-84.37877014500819, 33.864416278005656], [-84.37875014926662, 33.86436627666909], [-84.37862092317394, 33.86401349976918], [-84.3785709380654, 33.8638635005965], [-84.37849096110894, 33.863623499571865], [-84.37827758833177, 33.86280093847558], [-84.37824760394281, 33.86264093635283], [-84.3782138991959, 33.862443300681996], [-84.37819935188737, 33.8623486814241], [-84.37800559170273, 33.86218638542836], [-84.37756393026073, 33.86178799833133], [-84.37728095579712, 33.86154431070386], [-84.37703186156622, 33.86133078841433], [-84.37673594393773, 33.861081092985], [-84.37660084437934, 33.860964517957676], [-84.37643084545458, 33.860814509359635], [-84.37582092408718, 33.86021417733568], [-84.37572092779915, 33.860104171778346], [-84.3752383308874, 33.85951521453101], [-84.37482740767754, 33.858889561399636], [-84.37449213031263, 33.8582332626178], [-84.37423573918466, 33.85755266463192], [-84.3740607116585, 33.856854348712645], [-84.37396873818386, 33.85614506730066], [-84.37396070602395, 33.85543167870315], [-84.37396385792896, 33.85536562928922], [-84.37396386157117, 33.85532969323047], [-84.37396389400217, 33.85500969320641], [-84.37396486990762, 33.8549016132221], [-84.37397395623579, 33.85439565046981], [-84.37397396393365, 33.854319693251924], [-84.37397399636303, 33.85399969321804], [-84.37397401764453, 33.85378969324221], [-84.373977419023, 33.85360697557469], [-84.37396428912821, 33.8534330711435], [-84.37401104379565, 33.85262712215239], [-84.37402105177867, 33.85254712281391], [-84.37415083969218, 33.85184484172335], [-84.37436234166356, 33.85115652142885], [-84.37465352709424, 33.85048876408894], [-84.37502160126617, 33.84984797447874], [-84.37546303221016, 33.84924029857417], [-84.37597358463532, 33.84867156462323], [-84.37654836059176, 33.848147227268406], [-84.37718184647572, 33.847672315255394], [-84.3778679659249, 33.8472513832282], [-84.37860013809652, 33.84688846807201], [-84.37899485588329, 33.846734196928864], [-84.3791417997392, 33.84645343343721], [-84.37955906778481, 33.84583108654618], [-84.37961907200469, 33.84575109006721], [-84.38011648437156, 33.8451562781618], [-84.38024648893399, 33.84501628529119], [-84.38044365215876, 33.84481172607651], [-84.38050365361303, 33.8447517292749], [-84.38116231417966, 33.84416289718314], [-84.38121231396083, 33.84412289959064], [-84.38151677886496, 33.84389065143735], [-84.3816267772383, 33.84381065647046], [-84.3817367856606, 33.843730654195575], [-84.38194003826412, 33.843594826416776], [-84.38259128277332, 33.84399608549447], [-84.38322473062948, 33.84447312367063], [-84.38343894729373, 33.84466950571387], [-84.38355629819527, 33.84475787904199], [-84.38379979426871, 33.844879075993106], [-84.38411134600827, 33.84507102679784], [-84.38419177951883, 33.845111060965145], [-84.38487823054231, 33.84553398502698], [-84.38551170243888, 33.846011011238865], [-84.38608609474991, 33.84653754642561], [-84.38659587557896, 33.84710852061586], [-84.3869073499813, 33.8475400241691], [-84.38716521825704, 33.84769888497289], [-84.38779871884337, 33.84817589915149], [-84.38837313968733, 33.84870242338366], [-84.3888829486178, 33.84927338780363], [-84.38932323531216, 33.84988329453205]]]]}, "properties": {"kind": "walkshed", "buffer_mi": 0.5}}, {"type": "Feature", "geometry": {"type": "Point", "coordinates": [-84.38097, 33.872971]}, "properties": {"kind": "stop", "name": "ROSWELL RD NE @ MIDVALE DR NE", "mode": "bus"}}, {"type": "Feature", "geometry": {"type": "Point", "coordinates": [-84.380612, 33.875271]}, "properties": {"kind": "stop", "name": "ROSWELL RD NE @ WIEUCA RD NE", "mode": "bus"}}, {"type": "Feature", "geometry": {"type": "Point", "coordinates": [-84.379764, 33.877285]}, "properties": {"kind": "stop", "name": "ROSWELL RD NE @ DILBECK PL NW", "mode": "bus"}}, {"type": "Feature", "geometry": {"type": "Point", "coordinates": [-84.381089, 33.873007]}, "properties": {"kind": "stop", "name": "ROSWELL RD NE @ MIDVALE DR NE", "mode": "bus"}}, {"type": "Feature", "geometry": {"type": "Point", "coordinates": [-84.380348, 33.876251]}, "properties": {"kind": "stop", "name": "ROSWELL RD NE @ WIEUCA RD NE", "mode": "bus"}}, {"type": "Feature", "geometry": {"type": "Point", "coordinates": [-84.429273, 33.847548]}, "properties": {"kind": "stop", "name": "NORTHSIDE PKY NW @ 3419", "mode": "bus"}}, {"type": "Feature", "geometry": {"type": "Point", "coordinates": [-84.427569, 33.841736]}, "properties": {"kind": "stop", "name": "HOWELL MILL RD @ 3193", "mode": "bus"}}, {"type": "Feature", "geometry": {"type": "Point", "coordinates": [-84.442394, 33.866383]}, "properties": {"kind": "stop", "name": "NORTH ATLANTA HIGH SCHOOL", "mode": "bus"}}, {"type": "Feature", "geometry": {"type": "Point", "coordinates": [-84.430477, 33.850193]}, "properties": {"kind": "stop", "name": "NORTHSIDE PKY NW @ 3487", "mode": "bus"}}, {"type": "Feature", "geometry": {"type": "Point", "coordinates": [-84.430214, 33.850212]}, "properties": {"kind": "stop", "name": "NORTHSIDE PKY NW @ 3487", "mode": "bus"}}, {"type": "Feature", "geometry": {"type": "Point", "coordinates": [-84.429376, 33.847368]}, "properties": {"kind": "stop", "name": "NORTHSIDE PKY NW @ 3330", "mode": "bus"}}, {"type": "Feature", "geometry": {"type": "Point", "coordinates": [-84.382579, 33.855554]}, "properties": {"kind": "stop", "name": "ROSWELL RD NE @ POWERS FERRY RD NW", "mode": "bus"}}, {"type": "Feature", "geometry": {"type": "Point", "coordinates": [-84.381075, 33.858301]}, "properties": {"kind": "stop", "name": "ROSWELL RD NE @ IVY PKWY NE", "mode": "bus"}}, {"type": "Feature", "geometry": {"type": "Point", "coordinates": [-84.381481, 33.857882]}, "properties": {"kind": "stop", "name": "ROSWELL RD NE @ IVY PKWY NE", "mode": "bus"}}, {"type": "Feature", "geometry": {"type": "Point", "coordinates": [-84.381663, 33.853317]}, "properties": {"kind": "stop", "name": "PIEDMONT RD NE @ HABERSHAM RD NE", "mode": "bus"}}, {"type": "Feature", "geometry": {"type": "Point", "coordinates": [-84.37747, 33.849936]}, "properties": {"kind": "stop", "name": "PIEDMONT RD NE @ 3525", "mode": "bus"}}, {"type": "Feature", "geometry": {"type": "Point", "coordinates": [-84.378984, 33.85092]}, "properties": {"kind": "stop", "name": "PIEDMONT RD NE @ 3565", "mode": "bus"}}, {"type": "Feature", "geometry": {"type": "Point", "coordinates": [-84.381053, 33.852924]}, "properties": {"kind": "stop", "name": "PIEDMONT RD NE @ HABERSHAM RD NE", "mode": "bus"}}, {"type": "Feature", "geometry": {"type": "Point", "coordinates": [-84.377089, 33.849614]}, "properties": {"kind": "stop", "name": "PIEDMONT RD NE @ 3500", "mode": "bus"}}, {"type": "Feature", "geometry": {"type": "Point", "coordinates": [-84.380416, 33.860558]}, "properties": {"kind": "stop", "name": "ROSWELL RD NE @ SHELDON DR NE", "mode": "bus"}}, {"type": "Feature", "geometry": {"type": "Point", "coordinates": [-84.380189, 33.862831]}, "properties": {"kind": "stop", "name": "ROSWELL RD NE @ LAND O LAKES DR NE", "mode": "bus"}}, {"type": "Feature", "geometry": {"type": "Point", "coordinates": [-84.380746, 33.865024]}, "properties": {"kind": "stop", "name": "ROSWELL RD NE @ LAKEMOORE DR NE", "mode": "bus"}}, {"type": "Feature", "geometry": {"type": "Point", "coordinates": [-84.381031, 33.867548]}, "properties": {"kind": "stop", "name": "ROSWELL RD NE @ CHASTAIN DR NE", "mode": "bus"}}, {"type": "Feature", "geometry": {"type": "Point", "coordinates": [-84.380989, 33.870188]}, "properties": {"kind": "stop", "name": "ROSWELL RD NE @ RICKENBACKER DR NE", "mode": "bus"}}, {"type": "Feature", "geometry": {"type": "Point", "coordinates": [-84.379376, 33.851152]}, "properties": {"kind": "stop", "name": "PIEDMONT RD NE @ 3558", "mode": "bus"}}, {"type": "Feature", "geometry": {"type": "Point", "coordinates": [-84.381109, 33.870358]}, "properties": {"kind": "stop", "name": "ROSWELL RD NE @ RICKENBACKER DR NE", "mode": "bus"}}, {"type": "Feature", "geometry": {"type": "Point", "coordinates": [-84.380558, 33.860334]}, "properties": {"kind": "stop", "name": "ROSWELL RD NE @ LE BRUN RD", "mode": "bus"}}, {"type": "Feature", "geometry": {"type": "Point", "coordinates": [-84.38045, 33.861167]}, "properties": {"kind": "stop", "name": "ROSWELL RD NE @ LE BRUN RD NE", "mode": "bus"}}, {"type": "Feature", "geometry": {"type": "Point", "coordinates": [-84.380276, 33.862509]}, "properties": {"kind": "stop", "name": "ROSWELL RD NE @ LAUREL FOREST CIR", "mode": "bus"}}, {"type": "Feature", "geometry": {"type": "Point", "coordinates": [-84.380757, 33.864746]}, "properties": {"kind": "stop", "name": "ROSWELL RD NE @ LAKEMOORE DR", "mode": "bus"}}, {"type": "Feature", "geometry": {"type": "Point", "coordinates": [-84.381151, 33.86753]}, "properties": {"kind": "stop", "name": "ROSWELL RD NE @ CHASTAIN DR NE", "mode": "bus"}}, {"type": "Feature", "geometry": {"type": "Point", "coordinates": [-84.451044, 33.819344]}, "properties": {"kind": "stop", "name": "MARIETTA BLVD NW @ MOORES MILL RD NW", "mode": "bus"}}, {"type": "Feature", "geometry": {"type": "Point", "coordinates": [-84.452113, 33.820737]}, "properties": {"kind": "stop", "name": "BOLTON RD NW @ MOORES MILL RD", "mode": "bus"}}, {"type": "Feature", "geometry": {"type": "Point", "coordinates": [-84.449893, 33.820318]}, "properties": {"kind": "stop", "name": "BOLTON RD NW @ CORONET WAY NW", "mode": "bus"}}, {"type": "Feature", "geometry": {"type": "Point", "coordinates": [-84.456238, 33.821359]}, "properties": {"kind": "stop", "name": "BOLTON RD NW@MARIETTA BLVD NW", "mode": "bus"}}, {"type": "Feature", "geometry": {"type": "Point", "coordinates": [-84.426961, 33.840385]}, "properties": {"kind": "stop", "name": "HOWELL MILL RD NW @ DOWNWOOD CIR NW", "mode": "bus"}}, {"type": "Feature", "geometry": {"type": "Point", "coordinates": [-84.42438, 33.839407]}, "properties": {"kind": "stop", "name": "HOWELL MILL RD NW @ WESTMINSTER CIR N", "mode": "bus"}}, {"type": "Feature", "geometry": {"type": "Point", "coordinates": [-84.458544, 33.821052]}, "properties": {"kind": "stop", "name": "BOLTON RD@BARNETT DR", "mode": "bus"}}, {"type": "Feature", "geometry": {"type": "Point", "coordinates": [-84.45862, 33.821105]}, "properties": {"kind": "stop", "name": "BOLTON RD NW@BARNETT DR NW", "mode": "bus"}}, {"type": "Feature", "geometry": {"type": "Point", "coordinates": [-84.420108, 33.837253]}, "properties": {"kind": "stop", "name": "HOWELL MILL RD NW@MOORES MILL RD NW", "mode": "bus"}}, {"type": "Feature", "geometry": {"type": "Point", "coordinates": [-84.447804, 33.820571]}, "properties": {"kind": "stop", "name": "DEFOORS FERRY RD@PINE GROVE", "mode": "bus"}}, {"type": "Feature", "geometry": {"type": "Point", "coordinates": [-84.455792, 33.821198]}, "properties": {"kind": "stop", "name": "BOLTON RD NW @ MARIETTA BLVD NW", "mode": "bus"}}, {"type": "Feature", "geometry": {"type": "Point", "coordinates": [-84.437893, 33.821459]}, "properties": {"kind": "stop", "name": "DEFOORS FERRY RD @ WESTOVER PLANTATION RD", "mode": "bus"}}, {"type": "Feature", "geometry": {"type": "Point", "coordinates": [-84.437911, 33.821371]}, "properties": {"kind": "stop", "name": "DEFOORS FERRY RD @ WESTOVER PLANTATION RD", "mode": "bus"}}, {"type": "Feature", "geometry": {"type": "Point", "coordinates": [-84.418038, 33.832539]}, "properties": {"kind": "stop", "name": "HOWELL MILL RD@NAWENCH DR", "mode": "bus"}}, {"type": "Feature", "geometry": {"type": "Point", "coordinates": [-84.445706, 33.863999]}, "properties": {"kind": "stop", "name": "NORTHSIDE PKWY NW @ 4111", "mode": "bus"}}, {"type": "Feature", "geometry": {"type": "Point", "coordinates": [-84.42743, 33.841069]}, "properties": {"kind": "stop", "name": "HOWELL MILL RD @ DOWNWOOD CIR NW", "mode": "bus"}}, {"type": "Feature", "geometry": {"type": "Point", "coordinates": [-84.420355, 33.837435]}, "properties": {"kind": "stop", "name": "HOWELL MILL RD @ MOORES MILL RD", "mode": "bus"}}, {"type": "Feature", "geometry": {"type": "Point", "coordinates": [-84.431197, 33.854821]}, "properties": {"kind": "stop", "name": "NORTHSIDE PKWY@3715", "mode": "bus"}}, {"type": "Feature", "geometry": {"type": "Point", "coordinates": [-84.431229, 33.854455]}, "properties": {"kind": "stop", "name": "NORTHSIDE PKWY @ 3715", "mode": "bus"}}, {"type": "Feature", "geometry": {"type": "Point", "coordinates": [-84.448769, 33.864243]}, "properties": {"kind": "stop", "name": "NORTHSIDE PKWY @ RIVER GREEN DR", "mode": "bus"}}, {"type": "Feature", "geometry": {"type": "Point", "coordinates": [-84.44922, 33.864182]}, "properties": {"kind": "stop", "name": "NORTHSIDE PKWY @ RIVER GREEN DR", "mode": "bus"}}, {"type": "Feature", "geometry": {"type": "Point", "coordinates": [-84.447826, 33.820679]}, "properties": {"kind": "stop", "name": "DEFOORS FERRY RD @ 2788", "mode": "bus"}}, {"type": "Feature", "geometry": {"type": "Point", "coordinates": [-84.417916, 33.832451]}, "properties": {"kind": "stop", "name": "HOWELL MILL RD NW @ NAWENCH DR NW", "mode": "bus"}}, {"type": "Feature", "geometry": {"type": "Point", "coordinates": [-84.445129, 33.863838]}, "properties": {"kind": "stop", "name": "NORTHSIDE PKWY NW @ 4111", "mode": "bus"}}, {"type": "Feature", "geometry": {"type": "Point", "coordinates": [-84.42845, 33.843702]}, "properties": {"kind": "stop", "name": "HOWELL MILL RD NW @ 3280", "mode": "bus"}}, {"type": "Feature", "geometry": {"type": "Point", "coordinates": [-84.428304, 33.843735]}, "properties": {"kind": "stop", "name": "HOWELL MILL RD NW @ 3280", "mode": "bus"}}, {"type": "Feature", "geometry": {"type": "Point", "coordinates": [-84.444107, 33.821757]}, "properties": {"kind": "stop", "name": "DEFOORS FERRY RD @ WARREN CT", "mode": "bus"}}, {"type": "Feature", "geometry": {"type": "Point", "coordinates": [-84.444281, 33.821962]}, "properties": {"kind": "stop", "name": "DEFOORS FERRY RD @ WARREN CT", "mode": "bus"}}, {"type": "Feature", "geometry": {"type": "Point", "coordinates": [-84.436064, 33.820395]}, "properties": {"kind": "stop", "name": "DEFOORS FERRY RD @ HYDE MANOR DR", "mode": "bus"}}, {"type": "Feature", "geometry": {"type": "Point", "coordinates": [-84.435149, 33.820137]}, "properties": {"kind": "stop", "name": "DEFOORS FERRY RD @ HYDE MANOR DR", "mode": "bus"}}, {"type": "Feature", "geometry": {"type": "Point", "coordinates": [-84.425116, 33.844338]}, "properties": {"kind": "stop", "name": "NORTHSIDE PKWY @ 3295", "mode": "bus"}}, {"type": "Feature", "geometry": {"type": "Point", "coordinates": [-84.42103, 33.841571]}, "properties": {"kind": "stop", "name": "NORTHSIDE PKWY @ 3160", "mode": "bus"}}, {"type": "Feature", "geometry": {"type": "Point", "coordinates": [-84.417126, 33.839972]}, "properties": {"kind": "stop", "name": "NORTHSIDE PKWY @ MOORES MILL RD", "mode": "bus"}}, {"type": "Feature", "geometry": {"type": "Point", "coordinates": [-84.449011, 33.820248]}, "properties": {"kind": "stop", "name": "DEFOORS FERRY RD @ CORONET WAY", "mode": "bus"}}, {"type": "Feature", "geometry": {"type": "Point", "coordinates": [-84.410287, 33.839928]}, "properties": {"kind": "stop", "name": "NORTHSIDE PKWY @ 2334", "mode": "bus"}}, {"type": "Feature", "geometry": {"type": "Point", "coordinates": [-84.424384, 33.839361]}, "properties": {"kind": "stop", "name": "HOWELL MILL RD @ HOWELL MILL PLANTATION", "mode": "bus"}}, {"type": "Feature", "geometry": {"type": "Point", "coordinates": [-84.419276, 33.84046]}, "properties": {"kind": "stop", "name": "NORTHSIDE PKY@RILMAN RD", "mode": "bus"}}], "properties": {"coverage_pct": 29.5, "rail_coverage_pct": 0.0, "stop_count": 68, "rail_stop_count": 0, "bus_stop_count": 68, "transit_index": 10, "weights": {"rail": 2.0, "bus": 1.0}}}