{"type": "FeatureCollection", "features": [{"type": "Feature", "geometry": {"type": "MultiPolygon", "coordinates": [[[[-84.40535407302542, 33.73373322354747], [-84.40563930853297, 33.733062281979066], [-84.4060018766213, 33.732417929255725], [-84.40643828423731, 33.731806370197795], [-84.40694432754687, 33.73123349371015], [-84.40751513245817, 33.730704816097266], [-84.4081452015855, 33.730225427969366], [-84.40882846720066, 33.72979994524948], [-84.40955834966147, 33.72943246475205], [-84.410327820755, 33.729126524759806], [-84.41112947134647, 33.72888507097713], [-84.4119555826836, 33.72871042818687], [-84.4127982006717, 33.728604277882425], [-84.4136492124064, 33.728567642090006], [-84.41450042422986, 33.72860087353578], [-84.41534364056137, 33.72870365225267], [-84.41603170434307, 33.728846186921814], [-84.4157, 33.729249999999986], [-84.415, 33.73017], [-84.41445, 33.730940000000004], [-84.4136, 33.732130000000005], [-84.41358, 33.73221000000001], [-84.41331, 33.73293999999999], [-84.41321, 33.73322], [-84.41304, 33.73362999999999], [-84.41296, 33.73399], [-84.41284, 33.73451], [-84.41283, 33.73548000000001], [-84.41288, 33.73752], [-84.41284, 33.73824], [-84.41283, 33.73848999999999], [-84.41271, 33.739169999999994], [-84.41247, 33.739790000000006], [-84.41244, 33.73986], [-84.41225000000001, 33.74029], [-84.41207, 33.7406], [-84.41192, 33.74083999999999], [-84.41156000000001, 33.74128], [-84.41130000000001, 33.7416], [-84.4112, 33.74167], [-84.41060000000002, 33.74214], [-84.41012743239806, 33.74243909472476], [-84.40959441450117, 33.74222976995855], [-84.40886236658051, 33.7418651617294], [-84.40817662848417, 33.74144236096714], [-84.40754380486366, 33.740965440284036], [-84.40696999037893, 33.74043899353186], [-84.40646071099499, 33.73986809152796], [-84.40602087077102, 33.73925823318806], [-84.40565470465368, 33.7386152925372], [-84.40536573772918, 33.73794546211064], [-84.4051567513245, 33.73725519329081], [-84.40502975628249, 33.736551134155846], [-84.40498597366604, 33.735840065439184], [-84.40502582307417, 33.735128835217424], [-84.40514891868001, 33.734424292955914], [-84.40535407302542, 33.73373322354747]]], [[[-84.3907469919943, 33.74277724666646], [-84.39147706175402, 33.74240987303624], [-84.39224671328728, 33.74210404560367], [-84.39304853572364, 33.74186270898942], [-84.39387480865781, 33.74168818684844], [-84.39471757644077, 33.74158215951288], [-84.39556872472723, 33.741545647825475], [-84.39642005854577, 33.74157900331814], [-84.397263381142, 33.74168190483017], [-84.39809057283878, 33.74185336159856], [-84.39889366915723, 33.74209172279048], [-84.39966493744863, 33.74239469338677], [-84.40039695130233, 33.74275935626397], [-84.40108266201524, 33.74318220026281], [-84.40165167419899, 33.74361107324458], [-84.40135, 33.74376], [-84.40079, 33.74402], [-84.39997, 33.74441999999999], [-84.39933, 33.74472], [-84.39804000000001, 33.745039999999996], [-84.39752000000001, 33.74517], [-84.39714, 33.74522], [-84.39559, 33.74542000000001], [-84.39552000000002, 33.74542000000001], [-84.39445, 33.745349999999995], [-84.3942, 33.745329999999996], [-84.39369, 33.74532], [-84.39334, 33.74531000000001], [-84.39225, 33.74528], [-84.39187, 33.74524], [-84.39164, 33.74522000000001], [-84.39095, 33.745149999999995], [-84.39047, 33.74500999999999], [-84.39009, 33.74491], [-84.38869, 33.74608], [-84.38772, 33.74681999999999], [-84.38689, 33.74744999999999], [-84.38518, 33.748270000000005], [-84.38388, 33.74785], [-84.38381, 33.74785000000001], [-84.38353, 33.74778], [-84.38218000000002, 33.74745], [-84.3815, 33.747430000000016], [-84.3807, 33.74741], [-84.38071, 33.74734], [-84.38073, 33.74687999999999], [-84.38057, 33.746869999999994], [-84.38046, 33.74686999999999], [-84.38047, 33.74562], [-84.38048, 33.74396000000001], [-84.38047288106799, 33.7438389787325], [-84.38083472345805, 33.74406219745149], [-84.38100560417789, 33.74395586338348], [-84.38173572575319, 33.74358854721989], [-84.38250542270919, 33.74328278038934], [-84.3833072837387, 33.743041506929174], [-84.3841335880654, 33.74286704988647], [-84.3849763797384, 33.74276108896693], [-84.38582754418275, 33.74272464437415], [-84.38667888627158, 33.74275806699438], [-84.38752220917091, 33.742861035021], [-84.3883493932006, 33.74303255705093], [-84.38915247395526, 33.74327098162333], [-84.38969390837295, 33.7434837184878], [-84.3900635340229, 33.74320262924075], [-84.3907469919943, 33.74277724666646]]]]}, "properties": {"kind": "walkshed", "buffer_mi": 0.5}}, {"type": "Feature", "geometry": {"type": "Polygon", "coordinates": [[[-84.38045000000001, 33.74345], [-84.38104, 33.74343999999999], [-84.38112, 33.74343999999999], [-84.38154, 33.74343999999999], [-84.38154, 33.743019999999994], [-84.38153, 33.74241], [-84.38153, 33.741620000000005], [-84.38153, 33.74157000000001], [-84.38153, 33.740829999999995], [-84.38153, 33.73998000000001], [-84.38153, 33.73946], [-84.38153, 33.73856], [-84.38152, 33.737939999999995], [-84.37986, 33.73792], [-84.37989, 33.736740000000005], [-84.37984000000002, 33.73665999999999], [-84.37987, 33.735499999999995], [-84.37989, 33.73433000000001], [-84.3799, 33.73312000000001], [-84.37991, 33.73232999999999], [-84.37992, 33.73158999999999], [-84.37993000000002, 33.73155], [-84.37971, 33.731539999999995], [-84.37851, 33.73151], [-84.37852, 33.73091000000001], [-84.37852, 33.73032], [-84.37854000000002, 33.729110000000006], [-84.37855, 33.72841], [-84.37856, 33.72759], [-84.37856, 33.72744], [-84.37856, 33.72651], [-84.37855, 33.72482000000001], [-84.37857, 33.72431], [-84.38026, 33.72433], [-84.38057, 33.72433], [-84.38098, 33.724329999999995], [-84.3815, 33.72430000000001], [-84.38183, 33.72428000000001], [-84.38216, 33.724230000000006], [-84.38245, 33.724180000000004], [-84.38277, 33.72411], [-84.38314, 33.72402], [-84.38363, 33.72386], [-84.38394, 33.72373], [-84.38437, 33.72356], [-84.38506, 33.72322], [-84.38806, 33.72172], [-84.38855, 33.72147], [-84.3903, 33.72061], [-84.39144, 33.72015], [-84.3927, 33.71973], [-84.39319, 33.71958], [-84.39349, 33.71949], [-84.39385, 33.71941000000001], [-84.39446, 33.71936], [-84.3951, 33.719379999999994], [-84.39546, 33.71945], [-84.39579, 33.719460000000005], [-84.39621, 33.71960000000001], [-84.39659, 33.71969000000001], [-84.39699, 33.719800000000006], [-84.39788, 33.720000000000006], [-84.3987, 33.72013], [-84.40247, 33.72028], [-84.40607, 33.720400000000005], [-84.40782, 33.72047], [-84.40844, 33.72053], [-84.40951, 33.720749999999995], [-84.40989, 33.72089], [-84.41097, 33.721309999999995], [-84.41141, 33.721900000000005], [-84.41278, 33.72418], [-84.41303, 33.724610000000006], [-84.41332, 33.72503], [-84.41363, 33.725429999999996], [-84.41396, 33.72582], [-84.41432, 33.72618], [-84.41469, 33.72651], [-84.41509, 33.72683], [-84.41551, 33.72711], [-84.41673, 33.72796], [-84.41616, 33.72869], [-84.41603170434307, 33.728846186921814], [-84.41534364056137, 33.72870365225267], [-84.41450042422986, 33.72860087353578], [-84.4136492124064, 33.728567642090006], [-84.4127982006717, 33.728604277882425], [-84.4119555826836, 33.72871042818687], [-84.41112947134647, 33.72888507097713], [-84.410327820755, 33.729126524759806], [-84.40955834966147, 33.72943246475205], [-84.40882846720066, 33.72979994524948], [-84.4081452015855, 33.730225427969366], [-84.40751513245817, 33.730704816097266], [-84.40694432754687, 33.73123349371015], [-84.40643828423731, 33.731806370197795], [-84.4060018766213, 33.732417929255725], [-84.40563930853297, 33.733062281979066], [-84.40535407302542, 33.73373322354747], [-84.40514891868001, 33.734424292955914], [-84.40502582307417, 33.735128835217424], [-84.40498597366604, 33.735840065439184], [-84.40502975628249, 33.736551134155846], [-84.4051567513245, 33.73725519329081], [-84.40536573772918, 33.73794546211064], [-84.40565470465368, 33.7386152925372], [-84.40602087077102, 33.73925823318806], [-84.40646071099499, 33.73986809152796], [-84.40696999037893, 33.74043899353186], [-84.40754380486366, 33.740965440284036], [-84.40817662848417, 33.74144236096714], [-84.40886236658051, 33.7418651617294], [-84.40959441450117, 33.74222976995855], [-84.41012743239806, 33.74243909472476], [-84.40981, 33.742639999999994], [-84.4097, 33.7427], [-84.40907, 33.74297], [-84.40846, 33.743179999999995], [-84.40837, 33.74321], [-84.40824, 33.74325000000001], [-84.40752, 33.7435], [-84.4068, 33.74374], [-84.40537, 33.7442], [-84.4053, 33.74422000000001], [-84.40474, 33.744730000000004], [-84.40463, 33.74463], [-84.40436, 33.74419], [-84.40401, 33.74356000000001], [-84.4038, 33.743179999999995], [-84.40357, 33.74269], [-84.40266, 33.74313000000001], [-84.40214, 33.74337], [-84.40165167419899, 33.74361107324458], [-84.40108266201524, 33.74318220026281], [-84.40039695130233, 33.74275935626397], [-84.39966493744863, 33.74239469338677], [-84.39889366915723, 33.74209172279048], [-84.39809057283878, 33.74185336159856], [-84.397263381142, 33.74168190483017], [-84.39642005854577, 33.74157900331814], [-84.39556872472723, 33.741545647825475], [-84.39471757644077, 33.74158215951288], [-84.39387480865781, 33.74168818684844], [-84.39304853572364, 33.74186270898942], [-84.39224671328728, 33.74210404560367], [-84.39147706175402, 33.74240987303624], [-84.3907469919943, 33.74277724666646], [-84.3900635340229, 33.74320262924075], [-84.38969390837295, 33.7434837184878], [-84.38915247395526, 33.74327098162333], [-84.3883493932006, 33.74303255705093], [-84.38752220917091, 33.742861035021], [-84.38667888627158, 33.74275806699438], [-84.38582754418275, 33.74272464437415], [-84.3849763797384, 33.74276108896693], [-84.3841335880654, 33.74286704988647], [-84.3833072837387, 33.743041506929174], [-84.38250542270919, 33.74328278038934], [-84.38173572575319, 33.74358854721989], [-84.38100560417789, 33.74395586338348], [-84.38083472345805, 33.74406219745149], [-84.38047288106799, 33.7438389787325], [-84.38045000000001, 33.74345]]]}, "properties": {"kind": "gap"}}], "properties": {"coverage_pct": 20.4, "rail_coverage_pct": 20.4, "stop_count": 0, "rail_stop_count": 0, "bus_stop_count": 0, "transit_index": 20, "weights": {"rail": 2.0, "bus": 1.0}}}