{"type": "FeatureCollection", "features": [{"type": "Feature", "geometry": {"type": "MultiPolygon", "coordinates": [[[[-84.4263972040729, 33.6501825570539], [-84.42724764762637, 33.65021570470772], [-84.42809011278452, 33.65031840127491], [-84.42891648811965, 33.650489657963696], [-84.42971881700791, 33.6507278258653], [-84.43048937418574, 33.65103061181894], [-84.431220740087, 33.65139510047599], [-84.43190587224659, 33.65181778235165], [-84.43253817308533, 33.65229458759472], [-84.43311155342445, 33.6528209251516], [-84.4336204911191, 33.65339172694824], [-84.4340600842464, 33.65400149666608], [-84.43442609833573, 33.65464436264329], [-84.43471500718546, 33.6553141343931], [-84.43492402687143, 33.656004362196086], [-84.43505114261818, 33.656708399193334], [-84.43509512827156, 33.657419465383555], [-84.43505555818253, 33.65813071290807], [-84.43493281138494, 33.65883529199585], [-84.43472806802392, 33.65952641693296], [-84.43444329806626, 33.66019743142179], [-84.43408124239869, 33.660841872699514], [-84.43364538649335, 33.66145353379838], [-84.43313992689161, 33.662026523346945], [-84.43256973082705, 33.66255532233569], [-84.43194028937533, 33.66303483729913], [-84.43125766458066, 33.66346044940101], [-84.43052843106817, 33.66382805894876], [-84.42975961270466, 33.66413412490711], [-84.4289586149183, 33.66437569902917], [-84.428133153331, 33.664550454275314], [-84.42729117939207, 33.66465670724485], [-84.42663505155257, 33.66468504548798], [-84.42643840613935, 33.66480763795856], [-84.42570914060671, 33.66517521914687], [-84.4249402930209, 33.665481255201676], [-84.42413926909194, 33.66572279816422], [-84.42331378469387, 33.665897521295115], [-84.422471791496, 33.666003741503154], [-84.42162140031466, 33.6660404355703], [-84.42077080292626, 33.66600725001576], [-84.41992819309729, 33.665904504503985], [-84.41910168759519, 33.6657331887634], [-84.41829924794344, 33.66549495304585], [-84.41752860367768, 33.66519209221886], [-84.41679717784446, 33.6648275236445], [-84.41611201546233, 33.664404759058705], [-84.41547971563665, 33.66392787072292], [-84.41490636798281, 33.663401452174824], [-84.41439749397139, 33.66283057395775], [-84.41395799376043, 33.66222073475606], [-84.41359209902635, 33.661577808408516], [-84.41330333224724, 33.66090798731095], [-84.41309447282897, 33.66021772275473], [-84.41296753039872, 33.65951366277611], [-84.41292372552032, 33.65880258811633], [-84.41296347801507, 33.65809134690939], [-84.41308640299715, 33.6573867887271], [-84.41329131465893, 33.65669569861673], [-84.41357623776676, 33.65602473176614], [-84.41393842675356, 33.65538034942577], [-84.41437439222165, 33.65476875670335], [-84.41487993459818, 33.65419584283036], [-84.41545018461726, 33.6536671244738], [-84.41607362034298, 33.65319228534198], [-84.41664318612571, 33.65266418298671], [-84.41727263782609, 33.65218474506346], [-84.41795524332986, 33.651759209503645], [-84.41868442934907, 33.65139167363291], [-84.41945317437354, 33.65108567626922], [-84.42025407625535, 33.65084416367113], [-84.42107942344613, 33.650669461189096], [-84.42192126920298, 33.65056325089221], [-84.42277150805076, 33.65052655538466], [-84.42362195376695, 33.65055972796745], [-84.42366509989124, 33.65056498889901], [-84.42387979609774, 33.65050023907486], [-84.42470513252252, 33.65032551242859], [-84.42554697031377, 33.65021927747444], [-84.4263972040729, 33.6501825570539]]], [[[-84.43232755676999, 33.69257739043255], [-84.4331543451558, 33.69274861561433], [-84.43395707885148, 33.692986752408004], [-84.43472802869852, 33.69328950795304], [-84.43545977135219, 33.6936539671946], [-84.43614526072145, 33.694076620932236], [-84.43677789578858, 33.694553399586965], [-84.43735158415683, 33.695079712362556], [-84.43786080071483, 33.69565049142502], [-84.43812258611936, 33.69601340509767], [-84.43824075385265, 33.696647194676395], [-84.43828964048186, 33.69733997426799], [-84.43825911719455, 33.69803348871356], [-84.43814946134576, 33.69872139298793], [-84.43807408703105, 33.69906701624013], [-84.43806731980169, 33.69911077537903], [-84.438065531582, 33.69912151113012], [-84.4380373431675, 33.699340772688316], [-84.43803027611514, 33.699383200410495], [-84.43802939033276, 33.699393842602625], [-84.43800340221325, 33.69964364403108], [-84.43799615576965, 33.699701662041704], [-84.43799545124905, 33.69970942032052], [-84.43798894183587, 33.69976978631996], [-84.43798653460391, 33.69981811202205], [-84.43798859356976, 33.69981820177997], [-84.43797860960515, 33.69997820239304], [-84.43796549576744, 33.700149416098085], [-84.43795550674471, 33.700259416734966], [-84.4378441398332, 33.70099081162592], [-84.43764453693701, 33.70170898282998], [-84.43735875722206, 33.70240651365679], [-84.43702103285531, 33.70301942768582], [-84.43666766381843, 33.70515823311329], [-84.43660848802614, 33.705225285466035], [-84.43603802989114, 33.70575409805839], [-84.43540829457481, 33.706233628783934], [-84.43472534695157, 33.70665925865323], [-84.43429703767303, 33.706875080303455], [-84.43430749212605, 33.706874628350874], [-84.43515849681756, 33.70690771853154], [-84.43600152456825, 33.707010357479746], [-84.43634973413477, 33.707082447787194], [-84.43554991241628, 33.71192285351775], [-84.43545675485552, 33.7123788126658], [-84.43535679369975, 33.71278881926775], [-84.43532140178154, 33.7129270832036], [-84.43521144012331, 33.71333709045622], [-84.43513861638826, 33.71358766955484], [-84.43312481699465, 33.72001606380407], [-84.43293820889004, 33.72067386177776], [-84.43282863229176, 33.721021505182236], [-84.43257869627894, 33.721741521518126], [-84.43234677773526, 33.72231809589675], [-84.43206682689382, 33.722928113783624], [-84.43195475836423, 33.72316025110106], [-84.43159481269035, 33.72387027381986], [-84.43127442327905, 33.72443354095512], [-84.43089446204517, 33.72503356405405], [-84.43070642824277, 33.7253151749053], [-84.43025646499953, 33.72595520162831], [-84.42979069611643, 33.726549102139266], [-84.42925767407799, 33.72710211369508], [-84.42866250364497, 33.72760893880919], [-84.42801088522353, 33.72806472234102], [-84.4273090602695, 33.72846509802992], [-84.42656375149531, 33.72880623034655], [-84.42578209845291, 33.72908485125901], [-84.42497158911029, 33.72929829156109], [-84.42413998807902, 33.72944450646098], [-84.42396751476511, 33.729460348748184], [-84.42384174441402, 33.72956733489457], [-84.42317275469216, 33.73003251669167], [-84.4224513856834, 33.730439402082524], [-84.42168488526433, 33.73078390254385], [-84.42088095510458, 33.73106255637055], [-84.42004767324572, 33.73127256348344], [-84.41919341288508, 33.73141181358558], [-84.41832675818331, 33.7314789073834], [-84.41745641794402, 33.73147317065829], [-84.41659113803632, 33.731394661047155], [-84.41573961344324, 33.731244167463146], [-84.41491040082349, 33.731023202162675], [-84.41411183246815, 33.73073398553846], [-84.4133519325201, 33.730379423792236], [-84.41205835563925, 33.72970263614899], [-84.41122006029332, 33.72931940832913], [-84.40749252365255, 33.72795810212622], [-84.4073063078881, 33.727887900073156], [-84.40680544671459, 33.72769311961291], [-84.40568940022995, 33.7276484756448], [-84.40212375384061, 33.72752962168829], [-84.4020571875488, 33.72752718807316], [-84.39828687126274, 33.72737717699145], [-84.39708153729195, 33.72725823874492], [-84.39626147181703, 33.72712822842403], [-84.39562508477555, 33.72700646035854], [-84.3947350174963, 33.726806444616486], [-84.3942756980513, 33.726691773500264], [-84.39387566944019, 33.72658176495085], [-84.39309393459152, 33.72633127461002], [-84.39234471094227, 33.72601903447277], [-84.39163496538656, 33.72564794814858], [-84.39097129746061, 33.725221466436196], [-84.39035987795337, 33.72474355521391], [-84.38980639151625, 33.724218658539094], [-84.38931598380633, 33.72365165730079], [-84.38889321365494, 33.72304782381135], [-84.38854201070549, 33.722412772759874], [-84.38826563891402, 33.72175240898503], [-84.38806666625025, 33.7210728725533], [-84.38794694087913, 33.72038048165454], [-84.38790757404225, 33.71968167384619], [-84.38794892979588, 33.71898294619312], [-84.38807062169857, 33.71829079485973], [-84.38827151647612, 33.71761165471628], [-84.38854974462755, 33.716951839520746], [-84.38890271787055, 33.716317483231926], [-84.38932715326219, 33.71571448299921], [-84.38982292924213, 33.71508201334367], [-84.38993318938304, 33.71487727920682], [-84.39030719308988, 33.71382480803357], [-84.390396037963, 33.71358952420172], [-84.39087614008056, 33.71238955533098], [-84.39114332416501, 33.711806464188435], [-84.39146950276151, 33.71124472937635], [-84.39185225935863, 33.71070851059863], [-84.39340806412675, 33.70872784418863], [-84.39363849280632, 33.70834481473889], [-84.39417759416588, 33.70700194977819], [-84.3946906451072, 33.70561862955763], [-84.39507844476744, 33.70409276957674], [-84.39509265384905, 33.70403790574102], [-84.39520444591469, 33.70361418782809], [-84.3952937959183, 33.702696103844], [-84.39536681406145, 33.701220487628085], [-84.39544646592421, 33.70049526891706], [-84.39587671207838, 33.69797529736826], [-84.39592528325046, 33.69772272663443], [-84.3960673610576, 33.6970588296296], [-84.3941765974071, 33.69457168524036], [-84.3935042096886, 33.6938031696191], [-84.39329493186737, 33.693553095596855], [-84.39289496755296, 33.69305308855558], [-84.39265499390929, 33.69275309051297], [-84.39228822612185, 33.692251764978224], [-84.39205264279641, 33.691898344130486], [-84.39181872119171, 33.691564129045446], [-84.39126537862565, 33.69062361764398], [-84.39079545380734, 33.68965358715983], [-84.39047014876338, 33.68884990480934], [-84.39025930647989, 33.688019971493944], [-84.39007940243256, 33.687029958772236], [-84.38999674434389, 33.6863776346307], [-84.38998490255713, 33.68572173555668], [-84.39004397225972, 33.685067623027095], [-84.39019591197312, 33.684019242817925], [-84.39019653416229, 33.683962525806876], [-84.38996087304284, 33.68228813724819], [-84.38995139663837, 33.68221785528375], [-84.38991424400189, 33.681929699483916], [-84.38971444691586, 33.68046344877446], [-84.38954253196303, 33.67934527726527], [-84.38953287766276, 33.67928015510117], [-84.38934081601228, 33.67793478573609], [-84.38914972848471, 33.67674931124569], [-84.3891253279148, 33.67658353714101], [-84.38904538700513, 33.67598353139275], [-84.38899419753231, 33.67501868367411], [-84.38905442441288, 33.6727586868932], [-84.38911370773462, 33.67205847392772], [-84.38925364195467, 33.67136632797201], [-84.38947291534669, 33.67068872763511], [-84.38976947368363, 33.67003201522774], [-84.39014053953028, 33.66940233740995], [-84.39058263829695, 33.66880558767465], [-84.39109163080872, 33.6682473512053], [-84.39166275208336, 33.66773285262248], [-84.39229065595414, 33.667266907107695], [-84.39296946511857, 33.666853875360886], [-84.39369282614484, 33.66649762281204], [-84.39445396892117, 33.66620148346747], [-84.39524576999234, 33.66596822872845], [-84.39606081919214, 33.66580004147271], [-84.39689148894944, 33.66569849564069], [-84.39773000562153, 33.66566454151701], [-84.3978199980651, 33.665664541549006], [-84.39788999890656, 33.665664541573896], [-84.39794999932704, 33.66566454159522], [-84.39800999932643, 33.66566454161658], [-84.39806999932794, 33.66566454163792], [-84.39816999764918, 33.665664541673515], [-84.39867540040817, 33.665676858610446], [-84.39883290400303, 33.665684541937736], [-84.39884999849484, 33.665684541939484], [-84.39900999513648, 33.66568454199665], [-84.39910999765652, 33.66568454203238], [-84.39936999094112, 33.66568454212538], [-84.39945999807848, 33.665684542157585], [-84.39955999766016, 33.665684542193404], [-84.39965438735669, 33.665684971450084], [-84.40075429500641, 33.66569497101721], [-84.400819690046, 33.665695771345796], [-84.40101057138371, 33.665698708911016], [-84.40125624560547, 33.66613050710999], [-84.40154493689793, 33.666800356115914], [-84.40175372043389, 33.66749063978465], [-84.40188058370981, 33.6681947107179], [-84.401924303001, 33.66890578858588], [-84.40190339792066, 33.66927892151676], [-84.40225886828458, 33.66894948221139], [-84.40288851825903, 33.66847011792439], [-84.40357132318127, 33.668044662035236], [-84.40430070784447, 33.66767721110198], [-84.40506964882725, 33.667371303124504], [-84.40587074209648, 33.66712988350059], [-84.40669627426269, 33.666955276685606], [-84.40753829680358, 33.66684916382772], [-84.40838870254343, 33.66681256659331], [-84.40923930365426, 33.666845837337725], [-84.41008191043058, 33.666948655715515], [-84.41090841008204, 33.667120031762956], [-84.4117108447883, 33.66735831542283], [-84.41248148826709, 33.66766121242067], [-84.41321292012105, 33.66802580633945], [-84.41389809724939, 33.668448586681585], [-84.41453042163889, 33.6689254826484], [-84.41510380388263, 33.66945190231319], [-84.41561272181573, 33.6700227768116], [-84.41605227370371, 33.67063260912518], [-84.41606196094321, 33.670649628171795], [-84.41619528577812, 33.67083460033898], [-84.41656123947207, 33.67147751774982], [-84.41685006730687, 33.67214732981347], [-84.41705898613628, 33.67283758642185], [-84.41718598215398, 33.673541640438074], [-84.41719099959617, 33.67362300720606], [-84.41720320269512, 33.673651306012694], [-84.41737215028617, 33.674209482592495], [-84.41768442069504, 33.67424756342405], [-84.41851100500566, 33.67441888804279], [-84.41931352827147, 33.67465712165554], [-84.4200842633584, 33.674959970469594], [-84.42081578898775, 33.67532451853191], [-84.42150106115656, 33.67574725578653], [-84.42213348093716, 33.67622411184983], [-84.42270695800468, 33.67675049517958], [-84.42321596928161, 33.677321337261645], [-84.42365561213494, 33.67793114139008], [-84.42402165161324, 33.67857403557208], [-84.42431056126814, 33.679243829049504], [-84.4245195571653, 33.67993407189368], [-84.4246466247558, 33.68063811710078], [-84.4246905383467, 33.68134918459008], [-84.42465087298044, 33.682060426489976], [-84.42452800860612, 33.6827649930829], [-84.42432312649908, 33.68345609877455], [-84.42403819796058, 33.68412708745177], [-84.42397824715741, 33.68423374024219], [-84.42406603781401, 33.68472015625036], [-84.42410994892852, 33.68543122348871], [-84.42407027713152, 33.68614246476348], [-84.4239474024336, 33.68684703036309], [-84.42374250620917, 33.68753813470275], [-84.42345755989511, 33.68820912168218], [-84.42329645281043, 33.688495713635945], [-84.42322960808308, 33.688721168335974], [-84.42312564740949, 33.688965967337005], [-84.423147340148, 33.6893172893192], [-84.42311735384295, 33.68985475956988], [-84.42313943011794, 33.69021228946557], [-84.42309974839293, 33.690923529925925], [-84.42307948908129, 33.69103968403846], [-84.42308952967008, 33.69120229251811], [-84.4230831162361, 33.69131724290153], [-84.4233645000494, 33.69145743191363], [-84.42404991314989, 33.69188015327069], [-84.42468246566497, 33.6923569944216], [-84.42525606599183, 33.69288336396827], [-84.42576518986603, 33.69345419352979], [-84.42580944198377, 33.69351555844734], [-84.42632431655474, 33.69336034439849], [-84.42652195040527, 33.69331852156478], [-84.42654483462458, 33.69330699060369], [-84.42731392349948, 33.693000944793454], [-84.42811519089103, 33.692759381157146], [-84.42894092173363, 33.69258462553561], [-84.42978316559301, 33.69247836050863], [-84.43063381316394, 33.69244160920669], [-84.43148467429188, 33.69247472546759], [-84.43232755676999, 33.69257739043255]]]]}, "properties": {"kind": "walkshed", "buffer_mi": 0.5}}, {"type": "Feature", "geometry": {"type": "Point", "coordinates": [-84.428944, 33.700331]}, "properties": {"kind": "stop", "name": "Lakewood/ Ft. McPherson", "mode": "rail"}}, {"type": "Feature", "geometry": {"type": "Point", "coordinates": [-84.42516, 33.717032]}, "properties": {"kind": "stop", "name": "Oakland City", "mode": "rail"}}, {"type": "Feature", "geometry": {"type": "Point", "coordinates": [-84.428768, 33.70088]}, "properties": {"kind": "stop", "name": "LAKEWOOD-FT MCPHERSON STATION", "mode": "bus"}}, {"type": "Feature", "geometry": {"type": "Point", "coordinates": [-84.428865, 33.700298]}, "properties": {"kind": "stop", "name": "LAKEWOOD-FT MCPHERSON STATION", "mode": "bus"}}, {"type": "Feature", "geometry": {"type": "Point", "coordinates": [-84.42503, 33.7173]}, "properties": {"kind": "stop", "name": "OAKLAND CITY STATION", "mode": "bus"}}, {"type": "Feature", "geometry": {"type": "Point", "coordinates": [-84.425138, 33.716978]}, "properties": {"kind": "stop", "name": "OAKLAND CITY STATION", "mode": "bus"}}, {"type": "Feature", "geometry": {"type": "Point", "coordinates": [-84.423383, 33.729646]}, "properties": {"kind": "stop", "name": "LAWTON ST SW@MONTREAT AVE SW", "mode": "bus"}}, {"type": "Feature", "geometry": {"type": "Point", "coordinates": [-84.423381, 33.728679]}, "properties": {"kind": "stop", "name": "LAWTON ST SW@MERRILL AVE SW", "mode": "bus"}}, {"type": "Feature", "geometry": {"type": "Point", "coordinates": [-84.425438, 33.728714]}, "properties": {"kind": "stop", "name": "MERRILL AVE SW@HALL ST SW", "mode": "bus"}}, {"type": "Feature", "geometry": {"type": "Point", "coordinates": [-84.425631, 33.728641]}, "properties": {"kind": "stop", "name": "MERRILL AVE SW@HALL ST SW", "mode": "bus"}}, {"type": "Feature", "geometry": {"type": "Point", "coordinates": [-84.423381, 33.728608]}, "properties": {"kind": "stop", "name": "MERRILL AVE SW@LAWTON ST SW", "mode": "bus"}}, {"type": "Feature", "geometry": {"type": "Point", "coordinates": [-84.423279, 33.729511]}, "properties": {"kind": "stop", "name": "LAWTON ST SW@MONTREAT AVE SW", "mode": "bus"}}, {"type": "Feature", "geometry": {"type": "Point", "coordinates": [-84.408112, 33.727154]}, "properties": {"kind": "stop", "name": "METROPOLITAN PKY SW@BROOKLINE ST SW", "mode": "bus"}}, {"type": "Feature", "geometry": {"type": "Point", "coordinates": [-84.407664, 33.727286]}, "properties": {"kind": "stop", "name": "METROPOLITAN PKWY SW @ BROOKLINE ST SW", "mode": "bus"}}, {"type": "Feature", "geometry": {"type": "Point", "coordinates": [-84.407812, 33.727967]}, "properties": {"kind": "stop", "name": "METROPOLITAN PKY SW@ARTHUR ST SW", "mode": "bus"}}, {"type": "Feature", "geometry": {"type": "Point", "coordinates": [-84.434262, 33.714463]}, "properties": {"kind": "stop", "name": "CAMPBELLTON RD SW@VENETIAN DR SW", "mode": "bus"}}, {"type": "Feature", "geometry": {"type": "Point", "coordinates": [-84.43433, 33.71413]}, "properties": {"kind": "stop", "name": "CAMPBELLTON RD SW @ VENETIAN DR SW", "mode": "bus"}}, {"type": "Feature", "geometry": {"type": "Point", "coordinates": [-84.424626, 33.716536]}, "properties": {"kind": "stop", "name": "MURPHY AVE SW@ARDEN AVE SW", "mode": "bus"}}, {"type": "Feature", "geometry": {"type": "Point", "coordinates": [-84.424097, 33.713715]}, "properties": {"kind": "stop", "name": "LANGSTON AVE SW@DECKNER AVE SW", "mode": "bus"}}, {"type": "Feature", "geometry": {"type": "Point", "coordinates": [-84.425298, 33.714436]}, "properties": {"kind": "stop", "name": "LANGSTON AVE SW@MURPHY AVE SW", "mode": "bus"}}, {"type": "Feature", "geometry": {"type": "Point", "coordinates": [-84.425439, 33.714534]}, "properties": {"kind": "stop", "name": "MURPHY AVE SW@LANGSTON AVE SW", "mode": "bus"}}, {"type": "Feature", "geometry": {"type": "Point", "coordinates": [-84.423349, 33.712353]}, "properties": {"kind": "stop", "name": "LANGSTON AVE SW@HOOD DR SW", "mode": "bus"}}, {"type": "Feature", "geometry": {"type": "Point", "coordinates": [-84.427377, 33.717639]}, "properties": {"kind": "stop", "name": "CAMPBELLTON RD SW@OAKLAND DR SW", "mode": "bus"}}, {"type": "Feature", "geometry": {"type": "Point", "coordinates": [-84.430689, 33.716291]}, "properties": {"kind": "stop", "name": "CAMPBELLTON RD SW@EPWORTH ST SW", "mode": "bus"}}, {"type": "Feature", "geometry": {"type": "Point", "coordinates": [-84.432418, 33.71538]}, "properties": {"kind": "stop", "name": "CAMPBELLTON RD SW@LORENZO DR SW", "mode": "bus"}}, {"type": "Feature", "geometry": {"type": "Point", "coordinates": [-84.432287, 33.715045]}, "properties": {"kind": "stop", "name": "CAMPBELLTON RD SW@LORENZO DR SW", "mode": "bus"}}, {"type": "Feature", "geometry": {"type": "Point", "coordinates": [-84.430591, 33.71596]}, "properties": {"kind": "stop", "name": "CAMPBELLTON RD SW @ RYAN ST SW", "mode": "bus"}}, {"type": "Feature", "geometry": {"type": "Point", "coordinates": [-84.427602, 33.717373]}, "properties": {"kind": "stop", "name": "CAMPBELLTON RD SW@OAKLAND DR SW", "mode": "bus"}}, {"type": "Feature", "geometry": {"type": "Point", "coordinates": [-84.418178, 33.71258]}, "properties": {"kind": "stop", "name": "SYLVAN RD SW@BYRON DR SW", "mode": "bus"}}, {"type": "Feature", "geometry": {"type": "Point", "coordinates": [-84.418092, 33.71292]}, "properties": {"kind": "stop", "name": "SYLVAN RD SW@BYRON DR SW", "mode": "bus"}}, {"type": "Feature", "geometry": {"type": "Point", "coordinates": [-84.427323, 33.725954]}, "properties": {"kind": "stop", "name": "OAKLAND DR SW@ALMONT DR SW", "mode": "bus"}}, {"type": "Feature", "geometry": {"type": "Point", "coordinates": [-84.428345, 33.725906]}, "properties": {"kind": "stop", "name": "ALMONT DR SW@INDALE PL SW", "mode": "bus"}}, {"type": "Feature", "geometry": {"type": "Point", "coordinates": [-84.42939, 33.725929]}, "properties": {"kind": "stop", "name": "ALMONT DR SW@EDGEFIELD DR SW", "mode": "bus"}}, {"type": "Feature", "geometry": {"type": "Point", "coordinates": [-84.430874, 33.724188]}, "properties": {"kind": "stop", "name": "WYLAND DR SW@LANVALE DR SW", "mode": "bus"}}, {"type": "Feature", "geometry": {"type": "Point", "coordinates": [-84.430688, 33.723329]}, "properties": {"kind": "stop", "name": "WYLAND DR SW@LYNFORD DR SW", "mode": "bus"}}, {"type": "Feature", "geometry": {"type": "Point", "coordinates": [-84.430763, 33.722398]}, "properties": {"kind": "stop", "name": "WYLAND DR SW@AVON AVE SW", "mode": "bus"}}, {"type": "Feature", "geometry": {"type": "Point", "coordinates": [-84.430882, 33.722326]}, "properties": {"kind": "stop", "name": "AVON AVE SW@EPWORTH ST SW", "mode": "bus"}}, {"type": "Feature", "geometry": {"type": "Point", "coordinates": [-84.430595, 33.722939]}, "properties": {"kind": "stop", "name": "WYLAND DR SW@EDGEFIELD DR SW", "mode": "bus"}}, {"type": "Feature", "geometry": {"type": "Point", "coordinates": [-84.430695, 33.724049]}, "properties": {"kind": "stop", "name": "WYLAND DR SW@LANVALE DR SW", "mode": "bus"}}, {"type": "Feature", "geometry": {"type": "Point", "coordinates": [-84.429735, 33.725881]}, "properties": {"kind": "stop", "name": "ALMONT DR SW@EDGEFIELD DR SW", "mode": "bus"}}, {"type": "Feature", "geometry": {"type": "Point", "coordinates": [-84.428529, 33.725846]}, "properties": {"kind": "stop", "name": "ALMONT DR SW@INDALE PL SW", "mode": "bus"}}, {"type": "Feature", "geometry": {"type": "Point", "coordinates": [-84.427355, 33.725838]}, "properties": {"kind": "stop", "name": "ALMONT DR@OAKLAND DR", "mode": "bus"}}, {"type": "Feature", "geometry": {"type": "Point", "coordinates": [-84.424417, 33.713926]}, "properties": {"kind": "stop", "name": "LANGSTON AVE@DECKNER AVE", "mode": "bus"}}, {"type": "Feature", "geometry": {"type": "Point", "coordinates": [-84.423766, 33.712641]}, "properties": {"kind": "stop", "name": "LANGSTON AVE@HOOD DR", "mode": "bus"}}, {"type": "Feature", "geometry": {"type": "Point", "coordinates": [-84.426301, 33.717407]}, "properties": {"kind": "stop", "name": "OAKLAND CITY STATION", "mode": "bus"}}, {"type": "Feature", "geometry": {"type": "Point", "coordinates": [-84.408035, 33.719791]}, "properties": {"kind": "stop", "name": "METROPOLITAN PKY SW@ERIN AVE SW", "mode": "bus"}}, {"type": "Feature", "geometry": {"type": "Point", "coordinates": [-84.408019, 33.71201]}, "properties": {"kind": "stop", "name": "METROPOLITAN PKY SW @ 1577", "mode": "bus"}}, {"type": "Feature", "geometry": {"type": "Point", "coordinates": [-84.407956, 33.714423]}, "properties": {"kind": "stop", "name": "METROPOLITAN PKY SW@DECKNER AVE SW", "mode": "bus"}}, {"type": "Feature", "geometry": {"type": "Point", "coordinates": [-84.408058, 33.716171]}, "properties": {"kind": "stop", "name": "METROPOLITAN PKY SW@GENESSEE AVE SW", "mode": "bus"}}, {"type": "Feature", "geometry": {"type": "Point", "coordinates": [-84.40791, 33.722273]}, "properties": {"kind": "stop", "name": "METROPOLITAN PKY SW @ UNIVERSITY AVE", "mode": "bus"}}, {"type": "Feature", "geometry": {"type": "Point", "coordinates": [-84.408107, 33.724873]}, "properties": {"kind": "stop", "name": "METROPOLITAN PKY SW@MAYLAND AVE SW", "mode": "bus"}}, {"type": "Feature", "geometry": {"type": "Point", "coordinates": [-84.408073, 33.725582]}, "properties": {"kind": "stop", "name": "METROPOLITAN PKY SW@FLETCHER ST SW", "mode": "bus"}}, {"type": "Feature", "geometry": {"type": "Point", "coordinates": [-84.407806, 33.713963]}, "properties": {"kind": "stop", "name": "METROPOLITAN PKY SW@DECKNER AVE SW", "mode": "bus"}}, {"type": "Feature", "geometry": {"type": "Point", "coordinates": [-84.407776, 33.715893]}, "properties": {"kind": "stop", "name": "METROPOLITAN PKY SW@LYNNHAVEN DR SW", "mode": "bus"}}, {"type": "Feature", "geometry": {"type": "Point", "coordinates": [-84.407808, 33.718532]}, "properties": {"kind": "stop", "name": "METROPOLITAN PKWY SW @ MANFORD RD SW", "mode": "bus"}}, {"type": "Feature", "geometry": {"type": "Point", "coordinates": [-84.407749, 33.724471]}, "properties": {"kind": "stop", "name": "METROPOLITAN PKY SW@MAYLAND AVE SW", "mode": "bus"}}, {"type": "Feature", "geometry": {"type": "Point", "coordinates": [-84.407878, 33.726148]}, "properties": {"kind": "stop", "name": "METROPOLITAN PKY SW @ FLETCHER ST SW", "mode": "bus"}}, {"type": "Feature", "geometry": {"type": "Point", "coordinates": [-84.401674, 33.724238]}, "properties": {"kind": "stop", "name": "MCDANIEL ST SW@ROY ST SW", "mode": "bus"}}, {"type": "Feature", "geometry": {"type": "Point", "coordinates": [-84.401726, 33.722161]}, "properties": {"kind": "stop", "name": "MCDANIEL ST SW @ UNIVERSITY AVE SW", "mode": "bus"}}, {"type": "Feature", "geometry": {"type": "Point", "coordinates": [-84.399739, 33.712692]}, "properties": {"kind": "stop", "name": "LINCOLN ST SW@THORNTON ST", "mode": "bus"}}, {"type": "Feature", "geometry": {"type": "Point", "coordinates": [-84.407793, 33.722545]}, "properties": {"kind": "stop", "name": "METROPOLITAN PKY SW @ UNIVERSITY AVE", "mode": "bus"}}, {"type": "Feature", "geometry": {"type": "Point", "coordinates": [-84.390764, 33.725032]}, "properties": {"kind": "stop", "name": "WEYMAN AVE SW@RIDGE AVE SW", "mode": "bus"}}, {"type": "Feature", "geometry": {"type": "Point", "coordinates": [-84.393469, 33.722253]}, "properties": {"kind": "stop", "name": "PRYOR RD SW @ UNIVERSITY AVE SW", "mode": "bus"}}, {"type": "Feature", "geometry": {"type": "Point", "coordinates": [-84.393593, 33.720848]}, "properties": {"kind": "stop", "name": "PRYOR RD SW@UNIVERSITY AVE", "mode": "bus"}}, {"type": "Feature", "geometry": {"type": "Point", "coordinates": [-84.393443, 33.718541]}, "properties": {"kind": "stop", "name": "PRYOR RD SW@MANFORD RD SW", "mode": "bus"}}, {"type": "Feature", "geometry": {"type": "Point", "coordinates": [-84.393326, 33.72047]}, "properties": {"kind": "stop", "name": "PRYOR RD SW@UNIVERSITY AVE", "mode": "bus"}}, {"type": "Feature", "geometry": {"type": "Point", "coordinates": [-84.39339, 33.71817]}, "properties": {"kind": "stop", "name": "PRYOR RD SW@MANFORD RD SW", "mode": "bus"}}, {"type": "Feature", "geometry": {"type": "Point", "coordinates": [-84.393862, 33.714101]}, "properties": {"kind": "stop", "name": "ARTHUR LANGFORD JR PL SW @ PRYOR RD SW", "mode": "bus"}}, {"type": "Feature", "geometry": {"type": "Point", "coordinates": [-84.395764, 33.714153]}, "properties": {"kind": "stop", "name": "ARTHUR LANGFORD JR PL SW @ 220", "mode": "bus"}}, {"type": "Feature", "geometry": {"type": "Point", "coordinates": [-84.397676, 33.713857]}, "properties": {"kind": "stop", "name": "ARTHUR LANGFORD JR PL SW @ JOYLAND PL", "mode": "bus"}}, {"type": "Feature", "geometry": {"type": "Point", "coordinates": [-84.397893, 33.713078]}, "properties": {"kind": "stop", "name": "LINCOLN ST SW @ ARTHUR LANGFORD JR PL SW", "mode": "bus"}}, {"type": "Feature", "geometry": {"type": "Point", "coordinates": [-84.395786, 33.714207]}, "properties": {"kind": "stop", "name": "ARTHUR LANGFORD JR PL SW @ BOWEN CIR SW", "mode": "bus"}}, {"type": "Feature", "geometry": {"type": "Point", "coordinates": [-84.394147, 33.7142]}, "properties": {"kind": "stop", "name": "ARTHUR LANGFORD JR PL SW @ PRYOR RD SW", "mode": "bus"}}, {"type": "Feature", "geometry": {"type": "Point", "coordinates": [-84.39336, 33.71308]}, "properties": {"kind": "stop", "name": "PRYOR RD SW@THIRKELD AVE", "mode": "bus"}}, {"type": "Feature", "geometry": {"type": "Point", "coordinates": [-84.393568, 33.713457]}, "properties": {"kind": "stop", "name": "PRYOR RD@THIRKELD AVE", "mode": "bus"}}, {"type": "Feature", "geometry": {"type": "Point", "coordinates": [-84.399054, 33.711725]}, "properties": {"kind": "stop", "name": "THORNTON ST@THORNTON PL", "mode": "bus"}}, {"type": "Feature", "geometry": {"type": "Point", "coordinates": [-84.422815, 33.70998]}, "properties": {"kind": "stop", "name": "LANGSTON AVE SW@KATHERWOOD DR SW", "mode": "bus"}}, {"type": "Feature", "geometry": {"type": "Point", "coordinates": [-84.422081, 33.708076]}, "properties": {"kind": "stop", "name": "LANGSTON AVE SW@HARTE DR SW", "mode": "bus"}}, {"type": "Feature", "geometry": {"type": "Point", "coordinates": [-84.42126, 33.706988]}, "properties": {"kind": "stop", "name": "LANGSTON AVE SW@VICTORY DR SW", "mode": "bus"}}, {"type": "Feature", "geometry": {"type": "Point", "coordinates": [-84.420761, 33.705494]}, "properties": {"kind": "stop", "name": "LANGSTON AVE SW@BIRCH ST SW", "mode": "bus"}}, {"type": "Feature", "geometry": {"type": "Point", "coordinates": [-84.420486, 33.705605]}, "properties": {"kind": "stop", "name": "LANGSTON AVE SW@BIRCH ST SW", "mode": "bus"}}, {"type": "Feature", "geometry": {"type": "Point", "coordinates": [-84.419404, 33.704321]}, "properties": {"kind": "stop", "name": "LANGSTON AVE SW @ SYLVAN PL SW", "mode": "bus"}}, {"type": "Feature", "geometry": {"type": "Point", "coordinates": [-84.418296, 33.702071]}, "properties": {"kind": "stop", "name": "LANGSTON AVE SW @ SYLVAN RD SW", "mode": "bus"}}, {"type": "Feature", "geometry": {"type": "Point", "coordinates": [-84.418285, 33.701471]}, "properties": {"kind": "stop", "name": "SYLVAN RD SW@ASTOR AVE SW", "mode": "bus"}}, {"type": "Feature", "geometry": {"type": "Point", "coordinates": [-84.418101, 33.702832]}, "properties": {"kind": "stop", "name": "SYLVAN RD SW @ BRIDGEWATER ST SW", "mode": "bus"}}, {"type": "Feature", "geometry": {"type": "Point", "coordinates": [-84.418159, 33.705147]}, "properties": {"kind": "stop", "name": "SYLVAN RD SW@SYLVAN PL SW", "mode": "bus"}}, {"type": "Feature", "geometry": {"type": "Point", "coordinates": [-84.418138, 33.706099]}, "properties": {"kind": "stop", "name": "SYLVAN RD SW @ MELROSE DR SW", "mode": "bus"}}, {"type": "Feature", "geometry": {"type": "Point", "coordinates": [-84.418121, 33.709873]}, "properties": {"kind": "stop", "name": "SYLVAN RD SW@WOODBOURNE DR SW", "mode": "bus"}}, {"type": "Feature", "geometry": {"type": "Point", "coordinates": [-84.418129, 33.707719]}, "properties": {"kind": "stop", "name": "SYLVAN RD SW@VICTORY DR SW", "mode": "bus"}}, {"type": "Feature", "geometry": {"type": "Point", "coordinates": [-84.418209, 33.71121]}, "properties": {"kind": "stop", "name": "SYLVAN RD SW @ KATHERWOOD DR SW", "mode": "bus"}}, {"type": "Feature", "geometry": {"type": "Point", "coordinates": [-84.418197, 33.710172]}, "properties": {"kind": "stop", "name": "SYLVAN RD SW@WOODBOURNE DR SW", "mode": "bus"}}, {"type": "Feature", "geometry": {"type": "Point", "coordinates": [-84.418207, 33.709214]}, "properties": {"kind": "stop", "name": "SYLVAN RD SW@HARTE DR SW", "mode": "bus"}}, {"type": "Feature", "geometry": {"type": "Point", "coordinates": [-84.418205, 33.707827]}, "properties": {"kind": "stop", "name": "SYLVAN RD SW@VICTORY DR SW", "mode": "bus"}}, {"type": "Feature", "geometry": {"type": "Point", "coordinates": [-84.418237, 33.706815]}, "properties": {"kind": "stop", "name": "SYLVAN RD SW @ HOPE DR SW", "mode": "bus"}}, {"type": "Feature", "geometry": {"type": "Point", "coordinates": [-84.418225, 33.705965]}, "properties": {"kind": "stop", "name": "SYLVAN RD SW@MELROSE DR SW", "mode": "bus"}}, {"type": "Feature", "geometry": {"type": "Point", "coordinates": [-84.418245, 33.70498]}, "properties": {"kind": "stop", "name": "SYLVAN RD SW@SYLVAN PL SW", "mode": "bus"}}, {"type": "Feature", "geometry": {"type": "Point", "coordinates": [-84.418312, 33.703295]}, "properties": {"kind": "stop", "name": "SYLVAN RD SW @ LANGSTON AVE SW", "mode": "bus"}}, {"type": "Feature", "geometry": {"type": "Point", "coordinates": [-84.41812, 33.709214]}, "properties": {"kind": "stop", "name": "SYLVAN RD SW@HARTE DR SW", "mode": "bus"}}, {"type": "Feature", "geometry": {"type": "Point", "coordinates": [-84.423901, 33.701502]}, "properties": {"kind": "stop", "name": "ASTOR AVE SW@1082", "mode": "bus"}}, {"type": "Feature", "geometry": {"type": "Point", "coordinates": [-84.421652, 33.70145]}, "properties": {"kind": "stop", "name": "ASTOR AVE SW@BILLUPS ST SW", "mode": "bus"}}, {"type": "Feature", "geometry": {"type": "Point", "coordinates": [-84.418526, 33.701092]}, "properties": {"kind": "stop", "name": "ASTOR AVE SW@SYLVAN RD SW", "mode": "bus"}}, {"type": "Feature", "geometry": {"type": "Point", "coordinates": [-84.418098, 33.699314]}, "properties": {"kind": "stop", "name": "SYLVAN RD SW@ESTES DR", "mode": "bus"}}, {"type": "Feature", "geometry": {"type": "Point", "coordinates": [-84.430656, 33.699697]}, "properties": {"kind": "stop", "name": "HARDEE AVE @ WOMACK AVE", "mode": "bus"}}, {"type": "Feature", "geometry": {"type": "Point", "coordinates": [-84.42391, 33.70157]}, "properties": {"kind": "stop", "name": "ASTOR AVE SW@1069", "mode": "bus"}}, {"type": "Feature", "geometry": {"type": "Point", "coordinates": [-84.41843, 33.69941]}, "properties": {"kind": "stop", "name": "SYLVAN RD SW@ESTES DR", "mode": "bus"}}, {"type": "Feature", "geometry": {"type": "Point", "coordinates": [-84.421566, 33.701513]}, "properties": {"kind": "stop", "name": "ASTOR AVE SW@BILLUPS ST SW", "mode": "bus"}}, {"type": "Feature", "geometry": {"type": "Point", "coordinates": [-84.41946, 33.70148]}, "properties": {"kind": "stop", "name": "ASTOR AVE @ SYLVAN RIDGE DR", "mode": "bus"}}, {"type": "Feature", "geometry": {"type": "Point", "coordinates": [-84.423149, 33.710168]}, "properties": {"kind": "stop", "name": "LANGSTON AVE@KATHERWOOD DR", "mode": "bus"}}, {"type": "Feature", "geometry": {"type": "Point", "coordinates": [-84.422566, 33.708346]}, "properties": {"kind": "stop", "name": "LANGSTON AVE@HARTE DR", "mode": "bus"}}, {"type": "Feature", "geometry": {"type": "Point", "coordinates": [-84.421857, 33.707248]}, "properties": {"kind": "stop", "name": "LANGSTON AVE@VICTORY DR", "mode": "bus"}}, {"type": "Feature", "geometry": {"type": "Point", "coordinates": [-84.419614, 33.704272]}, "properties": {"kind": "stop", "name": "LANGSTON AVE@SYLVAN PL", "mode": "bus"}}, {"type": "Feature", "geometry": {"type": "Point", "coordinates": [-84.429884, 33.700637]}, "properties": {"kind": "stop", "name": "LEE ST SW@DESHLER ST  SW", "mode": "bus"}}, {"type": "Feature", "geometry": {"type": "Point", "coordinates": [-84.429541, 33.700649]}, "properties": {"kind": "stop", "name": "LAKEWOOD STATION", "mode": "bus"}}, {"type": "Feature", "geometry": {"type": "Point", "coordinates": [-84.408165, 33.710438]}, "properties": {"kind": "stop", "name": "METROPOLITAN PKY SW@CLAIRE DR SW", "mode": "bus"}}, {"type": "Feature", "geometry": {"type": "Point", "coordinates": [-84.398987, 33.69894]}, "properties": {"kind": "stop", "name": "PRYOR RD SW@HILLTOP DR SW", "mode": "bus"}}, {"type": "Feature", "geometry": {"type": "Point", "coordinates": [-84.398924, 33.700241]}, "properties": {"kind": "stop", "name": "PRYOR RD SW@LAKEWOOD WAY SW", "mode": "bus"}}, {"type": "Feature", "geometry": {"type": "Point", "coordinates": [-84.398926, 33.705342]}, "properties": {"kind": "stop", "name": "PRYOR RD SW@ASHWOOD AVE SW", "mode": "bus"}}, {"type": "Feature", "geometry": {"type": "Point", "coordinates": [-84.39933, 33.705253]}, "properties": {"kind": "stop", "name": "ASHWOOD AVE SW@PICKFAIR WAY SW", "mode": "bus"}}, {"type": "Feature", "geometry": {"type": "Point", "coordinates": [-84.40127, 33.70564]}, "properties": {"kind": "stop", "name": "BOND DR SW@GIBEN RD SW", "mode": "bus"}}, {"type": "Feature", "geometry": {"type": "Point", "coordinates": [-84.401973, 33.707883]}, "properties": {"kind": "stop", "name": "BOND DR SW@AMAL DR SW", "mode": "bus"}}, {"type": "Feature", "geometry": {"type": "Point", "coordinates": [-84.400637, 33.707696]}, "properties": {"kind": "stop", "name": "AMAL DR SW@GIBEN RD SW", "mode": "bus"}}, {"type": "Feature", "geometry": {"type": "Point", "coordinates": [-84.399115, 33.707446]}, "properties": {"kind": "stop", "name": "AMAL DR SW @ GIBEN RD SW", "mode": "bus"}}, {"type": "Feature", "geometry": {"type": "Point", "coordinates": [-84.408409, 33.674068]}, "properties": {"kind": "stop", "name": "METROPOLITAN PKY SW@GRAND AVE SW", "mode": "bus"}}, {"type": "Feature", "geometry": {"type": "Point", "coordinates": [-84.407944, 33.679424]}, "properties": {"kind": "stop", "name": "METROPOLITAN PKY SW@CLEVELAND AVE S", "mode": "bus"}}, {"type": "Feature", "geometry": {"type": "Point", "coordinates": [-84.40758, 33.681059]}, "properties": {"kind": "stop", "name": "METROPOLITAN PKY SW@CLEVELAND AVE S", "mode": "bus"}}, {"type": "Feature", "geometry": {"type": "Point", "coordinates": [-84.4077, 33.682827]}, "properties": {"kind": "stop", "name": "METROPOLITAN PKY SW @ CONNELL AVE SW", "mode": "bus"}}, {"type": "Feature", "geometry": {"type": "Point", "coordinates": [-84.40792, 33.696988]}, "properties": {"kind": "stop", "name": "METROPOLITAN PKY SW@LAKEWOOD AVE SW", "mode": "bus"}}, {"type": "Feature", "geometry": {"type": "Point", "coordinates": [-84.407991, 33.694911]}, "properties": {"kind": "stop", "name": "METROPOLITAN PKY SW@LANGSTON DR SW", "mode": "bus"}}, {"type": "Feature", "geometry": {"type": "Point", "coordinates": [-84.407948, 33.707047]}, "properties": {"kind": "stop", "name": "METROPOLITAN PKWY SW @ CASPLAN ST SW (S)", "mode": "bus"}}, {"type": "Feature", "geometry": {"type": "Point", "coordinates": [-84.408134, 33.707402]}, "properties": {"kind": "stop", "name": "METROPOLITAN PKY SW@CASPLAN ST SW", "mode": "bus"}}, {"type": "Feature", "geometry": {"type": "Point", "coordinates": [-84.407837, 33.710117]}, "properties": {"kind": "stop", "name": "METROPOLITAN PKWY SW @ CLAIRE DR SW", "mode": "bus"}}, {"type": "Feature", "geometry": {"type": "Point", "coordinates": [-84.407715, 33.712053]}, "properties": {"kind": "stop", "name": "METROPOLITAN PKWY SW @ 1577", "mode": "bus"}}, {"type": "Feature", "geometry": {"type": "Point", "coordinates": [-84.40815, 33.70265]}, "properties": {"kind": "stop", "name": "METROPOLITAN PKWY SW @ GRANT ST SW", "mode": "bus"}}, {"type": "Feature", "geometry": {"type": "Point", "coordinates": [-84.408356, 33.699142]}, "properties": {"kind": "stop", "name": "METROPOLITAN PKY @SAINT JOHNS AVE S", "mode": "bus"}}, {"type": "Feature", "geometry": {"type": "Point", "coordinates": [-84.408155, 33.697298]}, "properties": {"kind": "stop", "name": "METROPOLITAN PKY SW@LAKEWOOD AVE SW", "mode": "bus"}}, {"type": "Feature", "geometry": {"type": "Point", "coordinates": [-84.399185, 33.699192]}, "properties": {"kind": "stop", "name": "PRYOR RD SW@HILLTOP DR SW", "mode": "bus"}}, {"type": "Feature", "geometry": {"type": "Point", "coordinates": [-84.39887, 33.700446]}, "properties": {"kind": "stop", "name": "LAKEWOOD WAY SW@PRYOR RD SW", "mode": "bus"}}, {"type": "Feature", "geometry": {"type": "Point", "coordinates": [-84.407903, 33.698994]}, "properties": {"kind": "stop", "name": "METROPOLITAN PKY @SAINT JOHNS AVE S", "mode": "bus"}}, {"type": "Feature", "geometry": {"type": "Point", "coordinates": [-84.407921, 33.703148]}, "properties": {"kind": "stop", "name": "METROPOLITAN PKY @ FAIR DR", "mode": "bus"}}, {"type": "Feature", "geometry": {"type": "Point", "coordinates": [-84.404105, 33.71046]}, "properties": {"kind": "stop", "name": "ATLANTA METRO STATE COLLEGE", "mode": "bus"}}, {"type": "Feature", "geometry": {"type": "Point", "coordinates": [-84.408214, 33.703519]}, "properties": {"kind": "stop", "name": "METROPOLITAN PK@FAIR DR", "mode": "bus"}}, {"type": "Feature", "geometry": {"type": "Point", "coordinates": [-84.396927, 33.70023]}, "properties": {"kind": "stop", "name": "LAKEWOOD WAY SW@215", "mode": "bus"}}, {"type": "Feature", "geometry": {"type": "Point", "coordinates": [-84.393565, 33.709938]}, "properties": {"kind": "stop", "name": "PRYOR RD SW@PRYOR CIR SW", "mode": "bus"}}, {"type": "Feature", "geometry": {"type": "Point", "coordinates": [-84.39441, 33.70867]}, "properties": {"kind": "stop", "name": "PRYOR RD SW@CLAIRE DR", "mode": "bus"}}, {"type": "Feature", "geometry": {"type": "Point", "coordinates": [-84.396225, 33.70778]}, "properties": {"kind": "stop", "name": "PRYOR RD SW@AMAL DR", "mode": "bus"}}, {"type": "Feature", "geometry": {"type": "Point", "coordinates": [-84.397561, 33.707018]}, "properties": {"kind": "stop", "name": "PRYOR RD SW@AMAL DR SW", "mode": "bus"}}, {"type": "Feature", "geometry": {"type": "Point", "coordinates": [-84.396643, 33.700537]}, "properties": {"kind": "stop", "name": "LAKEWOOD WAY SW@215", "mode": "bus"}}, {"type": "Feature", "geometry": {"type": "Point", "coordinates": [-84.393415, 33.712051]}, "properties": {"kind": "stop", "name": "PRYOR RD SW@ MELDON AVE", "mode": "bus"}}, {"type": "Feature", "geometry": {"type": "Point", "coordinates": [-84.393381, 33.710431]}, "properties": {"kind": "stop", "name": "PRYOR RD@1600", "mode": "bus"}}, {"type": "Feature", "geometry": {"type": "Point", "coordinates": [-84.394086, 33.708783]}, "properties": {"kind": "stop", "name": "PRYOR RD @ CLAIRE DR", "mode": "bus"}}, {"type": "Feature", "geometry": {"type": "Point", "coordinates": [-84.396025, 33.707553]}, "properties": {"kind": "stop", "name": "PRYOR RD SW @ AMAL DR", "mode": "bus"}}, {"type": "Feature", "geometry": {"type": "Point", "coordinates": [-84.399956, 33.711796]}, "properties": {"kind": "stop", "name": "THORNTON ST SW@LINCOLN ST SW", "mode": "bus"}}, {"type": "Feature", "geometry": {"type": "Point", "coordinates": [-84.397794, 33.711708]}, "properties": {"kind": "stop", "name": "THORNTON ST SW @ ARTHUR LANGFORD JR PL SW", "mode": "bus"}}, {"type": "Feature", "geometry": {"type": "Point", "coordinates": [-84.397707, 33.712308]}, "properties": {"kind": "stop", "name": "ARTHUR LANGFORD JR PL SW @ BOOKER ST SW", "mode": "bus"}}, {"type": "Feature", "geometry": {"type": "Point", "coordinates": [-84.40845, 33.675796]}, "properties": {"kind": "stop", "name": "METROPOLITAN PKY SW@STEVE DR SW", "mode": "bus"}}, {"type": "Feature", "geometry": {"type": "Point", "coordinates": [-84.41856, 33.6975]}, "properties": {"kind": "stop", "name": "SYLVAN RD SW@LAKEWOOD AVE SW", "mode": "bus"}}, {"type": "Feature", "geometry": {"type": "Point", "coordinates": [-84.414869, 33.686317]}, "properties": {"kind": "stop", "name": "SPRINGDALE RD@BROOKDALE DR", "mode": "bus"}}, {"type": "Feature", "geometry": {"type": "Point", "coordinates": [-84.414918, 33.686632]}, "properties": {"kind": "stop", "name": "SPRINGDALE RD@BROOKDALE DR", "mode": "bus"}}, {"type": "Feature", "geometry": {"type": "Point", "coordinates": [-84.418108, 33.697425]}, "properties": {"kind": "stop", "name": "LAKEWOOD AVE@SYLVAN RD", "mode": "bus"}}, {"type": "Feature", "geometry": {"type": "Point", "coordinates": [-84.41417, 33.69628]}, "properties": {"kind": "stop", "name": "SPRINGDALE RD SW @ LAKEWOOD AVE", "mode": "bus"}}, {"type": "Feature", "geometry": {"type": "Point", "coordinates": [-84.41441, 33.69122]}, "properties": {"kind": "stop", "name": "SPRINGDALE RD SW@YALE PL SW", "mode": "bus"}}, {"type": "Feature", "geometry": {"type": "Point", "coordinates": [-84.41414, 33.69554]}, "properties": {"kind": "stop", "name": "SPRINGDALE RD SW @ SPRINGDALE CIR", "mode": "bus"}}, {"type": "Feature", "geometry": {"type": "Point", "coordinates": [-84.41519, 33.683439]}, "properties": {"kind": "stop", "name": "SPRINGDALE RD SW @ GLENWAY DR", "mode": "bus"}}, {"type": "Feature", "geometry": {"type": "Point", "coordinates": [-84.41426, 33.68899]}, "properties": {"kind": "stop", "name": "SPRINGDALE RD SW @ PEGG RD SW", "mode": "bus"}}, {"type": "Feature", "geometry": {"type": "Point", "coordinates": [-84.41432, 33.69003]}, "properties": {"kind": "stop", "name": "SPRINGDALE RD SW @ VINSON PL SW", "mode": "bus"}}, {"type": "Feature", "geometry": {"type": "Point", "coordinates": [-84.41423, 33.69109]}, "properties": {"kind": "stop", "name": "SPRINGDALE RD SW @ YALE PL SW", "mode": "bus"}}, {"type": "Feature", "geometry": {"type": "Point", "coordinates": [-84.41446, 33.69023]}, "properties": {"kind": "stop", "name": "SPRINGDALE RD@VINSON PL", "mode": "bus"}}, {"type": "Feature", "geometry": {"type": "Point", "coordinates": [-84.41388, 33.69654]}, "properties": {"kind": "stop", "name": "SPRINGDALE RD SW @ PERKERSON RD SW", "mode": "bus"}}, {"type": "Feature", "geometry": {"type": "Point", "coordinates": [-84.414049, 33.692881]}, "properties": {"kind": "stop", "name": "SPRINGDALE RD @ SPRINGDALE PL", "mode": "bus"}}, {"type": "Feature", "geometry": {"type": "Point", "coordinates": [-84.408063, 33.688832]}, "properties": {"kind": "stop", "name": "METROPOLITAN PKY SW@PEGG RD SW", "mode": "bus"}}, {"type": "Feature", "geometry": {"type": "Point", "coordinates": [-84.407944, 33.690224]}, "properties": {"kind": "stop", "name": "METROPOLITAN PKY SW @ 2370", "mode": "bus"}}, {"type": "Feature", "geometry": {"type": "Point", "coordinates": [-84.40801, 33.691489]}, "properties": {"kind": "stop", "name": "METROPOLITAN PKY SW@AVERY RD SW", "mode": "bus"}}, {"type": "Feature", "geometry": {"type": "Point", "coordinates": [-84.408516, 33.691738]}, "properties": {"kind": "stop", "name": "METROPOLITAN PKY SW@AVERY RD SW", "mode": "bus"}}, {"type": "Feature", "geometry": {"type": "Point", "coordinates": [-84.408332, 33.689282]}, "properties": {"kind": "stop", "name": "METROPOLITAN PKY SW@PEGG RD SW", "mode": "bus"}}, {"type": "Feature", "geometry": {"type": "Point", "coordinates": [-84.408478, 33.685707]}, "properties": {"kind": "stop", "name": "METROPOLITAN PKY SW@PERKERSON RD SW", "mode": "bus"}}, {"type": "Feature", "geometry": {"type": "Point", "coordinates": [-84.408259, 33.69543]}, "properties": {"kind": "stop", "name": "METROPOLITAN PKY SW@LANGSTON DR SW", "mode": "bus"}}, {"type": "Feature", "geometry": {"type": "Point", "coordinates": [-84.40799, 33.685112]}, "properties": {"kind": "stop", "name": "METROPOLITAN PKY@PERKERSON RD", "mode": "bus"}}, {"type": "Feature", "geometry": {"type": "Point", "coordinates": [-84.398155, 33.695995]}, "properties": {"kind": "stop", "name": "POLAR ROCK RD SW@BAGWELL DR SW", "mode": "bus"}}, {"type": "Feature", "geometry": {"type": "Point", "coordinates": [-84.397214, 33.695623]}, "properties": {"kind": "stop", "name": "POLAR ROCK RD SW@BICKNELL DR SW", "mode": "bus"}}, {"type": "Feature", "geometry": {"type": "Point", "coordinates": [-84.397268, 33.695784]}, "properties": {"kind": "stop", "name": "POLAR ROCK RD SW@BICKNELL DR SW", "mode": "bus"}}, {"type": "Feature", "geometry": {"type": "Point", "coordinates": [-84.398769, 33.696973]}, "properties": {"kind": "stop", "name": "POLAR ROCK RD SW@PRYOR RD SW", "mode": "bus"}}, {"type": "Feature", "geometry": {"type": "Point", "coordinates": [-84.395964, 33.695033]}, "properties": {"kind": "stop", "name": "POLAR ROCK AVE SW@POLAR ROCK RD SW", "mode": "bus"}}, {"type": "Feature", "geometry": {"type": "Point", "coordinates": [-84.396225, 33.693642]}, "properties": {"kind": "stop", "name": "POLAR ROCK AVE SW@POLAR ROCK PL", "mode": "bus"}}, {"type": "Feature", "geometry": {"type": "Point", "coordinates": [-84.396255, 33.692528]}, "properties": {"kind": "stop", "name": "POLAR ROCK AVE@POLAR ROCK PL", "mode": "bus"}}, {"type": "Feature", "geometry": {"type": "Point", "coordinates": [-84.396317, 33.691147]}, "properties": {"kind": "stop", "name": "POLAR ROCK AVE SW @ 2311", "mode": "bus"}}, {"type": "Feature", "geometry": {"type": "Point", "coordinates": [-84.396101, 33.689903]}, "properties": {"kind": "stop", "name": "POLAR ROCK AVE SW @ POLAR ROCK DR SW", "mode": "bus"}}, {"type": "Feature", "geometry": {"type": "Point", "coordinates": [-84.394653, 33.690788]}, "properties": {"kind": "stop", "name": "POLAR ROCK TER SW@POLAR ROCK DR SW", "mode": "bus"}}, {"type": "Feature", "geometry": {"type": "Point", "coordinates": [-84.394691, 33.692436]}, "properties": {"kind": "stop", "name": "POLAR ROCK TER SW@POLAR ROCK PL SW", "mode": "bus"}}, {"type": "Feature", "geometry": {"type": "Point", "coordinates": [-84.394684, 33.694065]}, "properties": {"kind": "stop", "name": "POLAR ROCK TER@POLAR ROCK RD", "mode": "bus"}}, {"type": "Feature", "geometry": {"type": "Point", "coordinates": [-84.393484, 33.681186]}, "properties": {"kind": "stop", "name": "CLEVELAND AVE SW @ OLD HAPEVILLE RD SW", "mode": "bus"}}, {"type": "Feature", "geometry": {"type": "Point", "coordinates": [-84.39043, 33.68796]}, "properties": {"kind": "stop", "name": "OLD HAPEVILLE RD @ MACON DR", "mode": "bus"}}, {"type": "Feature", "geometry": {"type": "Point", "coordinates": [-84.392715, 33.684074]}, "properties": {"kind": "stop", "name": "OLD HAPEVILLE RD SW@JUDY  SW", "mode": "bus"}}, {"type": "Feature", "geometry": {"type": "Point", "coordinates": [-84.392067, 33.684921]}, "properties": {"kind": "stop", "name": "OLD HAPEVILLE RD SW@BREVARD AVE SW", "mode": "bus"}}, {"type": "Feature", "geometry": {"type": "Point", "coordinates": [-84.39119, 33.686787]}, "properties": {"kind": "stop", "name": "OLD HAPEVILLE RD SW@2500", "mode": "bus"}}, {"type": "Feature", "geometry": {"type": "Point", "coordinates": [-84.396147, 33.68122]}, "properties": {"kind": "stop", "name": "CLEVELAND AVE SW @ STEELE AVE SW", "mode": "bus"}}, {"type": "Feature", "geometry": {"type": "Point", "coordinates": [-84.390462, 33.688671]}, "properties": {"kind": "stop", "name": "MACON DR SW@OLD HAPEVILLE RD SW", "mode": "bus"}}, {"type": "Feature", "geometry": {"type": "Point", "coordinates": [-84.426419, 33.657438]}, "properties": {"kind": "stop", "name": "INNER LOOP RD@WOOLMAN PL", "mode": "bus"}}, {"type": "Feature", "geometry": {"type": "Point", "coordinates": [-84.41502, 33.68285]}, "properties": {"kind": "stop", "name": "SPRINGDALE RD SW @ GLENWAY DR", "mode": "bus"}}, {"type": "Feature", "geometry": {"type": "Point", "coordinates": [-84.407912, 33.683387]}, "properties": {"kind": "stop", "name": "METROPOLITAN PKY SW@CONNELL AVE SW", "mode": "bus"}}, {"type": "Feature", "geometry": {"type": "Point", "coordinates": [-84.407747, 33.681481]}, "properties": {"kind": "stop", "name": "METROPOLITAN PKY SW@CLEVELAND AVE S", "mode": "bus"}}, {"type": "Feature", "geometry": {"type": "Point", "coordinates": [-84.408348, 33.679462]}, "properties": {"kind": "stop", "name": "METROPOLITAN PKY SW @ CLEVELAND AVE", "mode": "bus"}}, {"type": "Feature", "geometry": {"type": "Point", "coordinates": [-84.408656, 33.678105]}, "properties": {"kind": "stop", "name": "METROPOLITAN PKY SW @ 2799", "mode": "bus"}}, {"type": "Feature", "geometry": {"type": "Point", "coordinates": [-84.408905, 33.675774]}, "properties": {"kind": "stop", "name": "METROPOLITAN PKY SW @ STEVE DR SW", "mode": "bus"}}, {"type": "Feature", "geometry": {"type": "Point", "coordinates": [-84.408552, 33.67427]}, "properties": {"kind": "stop", "name": "METROPOLITAN PKY SW @ GRAND AVE SW", "mode": "bus"}}, {"type": "Feature", "geometry": {"type": "Point", "coordinates": [-84.413243, 33.681315]}, "properties": {"kind": "stop", "name": "CLEVELAND AVE SW @ 757", "mode": "bus"}}, {"type": "Feature", "geometry": {"type": "Point", "coordinates": [-84.413862, 33.681225]}, "properties": {"kind": "stop", "name": "CLEVELAND AVE SW @ 786", "mode": "bus"}}, {"type": "Feature", "geometry": {"type": "Point", "coordinates": [-84.416012, 33.681367]}, "properties": {"kind": "stop", "name": "CLEVELAND AVE SW @ SPRINGDALE RD SW", "mode": "bus"}}, {"type": "Feature", "geometry": {"type": "Point", "coordinates": [-84.40826, 33.68118]}, "properties": {"kind": "stop", "name": "CLEVELAND AVE SW @ METROPOLITAN PKWY", "mode": "bus"}}, {"type": "Feature", "geometry": {"type": "Point", "coordinates": [-84.405075, 33.681232]}, "properties": {"kind": "stop", "name": "CLEVELAND AVE SW @ DEARWOOD DR SW", "mode": "bus"}}, {"type": "Feature", "geometry": {"type": "Point", "coordinates": [-84.402881, 33.68118]}, "properties": {"kind": "stop", "name": "CLEVELAND AVE SW @ 3RD AVE SW", "mode": "bus"}}, {"type": "Feature", "geometry": {"type": "Point", "coordinates": [-84.401062, 33.681263]}, "properties": {"kind": "stop", "name": "CLEVELAND AVE SW @ BEELER DR SW", "mode": "bus"}}, {"type": "Feature", "geometry": {"type": "Point", "coordinates": [-84.40239, 33.68127]}, "properties": {"kind": "stop", "name": "CLEVELAND AVE SW @ THIRD AVE", "mode": "bus"}}, {"type": "Feature", "geometry": {"type": "Point", "coordinates": [-84.405325, 33.681303]}, "properties": {"kind": "stop", "name": "CLEVELAND AVE SW @ DEARWOOD DR SW", "mode": "bus"}}, {"type": "Feature", "geometry": {"type": "Point", "coordinates": [-84.407551, 33.681346]}, "properties": {"kind": "stop", "name": "CLEVELAND AVE SW @ METROPOLITAN PKWY SW", "mode": "bus"}}, {"type": "Feature", "geometry": {"type": "Point", "coordinates": [-84.41009, 33.68146]}, "properties": {"kind": "stop", "name": "CLEVELAND AVE@650", "mode": "bus"}}, {"type": "Feature", "geometry": {"type": "Point", "coordinates": [-84.408427, 33.677058]}, "properties": {"kind": "stop", "name": "METROPOLITAN PKY@OLD JONESBORO RD", "mode": "bus"}}, {"type": "Feature", "geometry": {"type": "Point", "coordinates": [-84.4216, 33.658785]}, "properties": {"kind": "stop", "name": "VIRGINIA AVE@LANG AVE", "mode": "bus"}}, {"type": "Feature", "geometry": {"type": "Point", "coordinates": [-84.414943, 33.68162]}, "properties": {"kind": "stop", "name": "SPRINGDALE RD@CLEVELAND AVE", "mode": "bus"}}, {"type": "Feature", "geometry": {"type": "Point", "coordinates": [-84.41532, 33.681511]}, "properties": {"kind": "stop", "name": "SPRINGDALE RD SW @ CLEVELAND AVE", "mode": "bus"}}, {"type": "Feature", "geometry": {"type": "Point", "coordinates": [-84.393247, 33.668922]}, "properties": {"kind": "stop", "name": "EMPIRE BLVD SW@OAK DR SW", "mode": "bus"}}, {"type": "Feature", "geometry": {"type": "Point", "coordinates": [-84.393178, 33.671071]}, "properties": {"kind": "stop", "name": "EMPIRE BLVD SW@GLENROSE CIR SW", "mode": "bus"}}, {"type": "Feature", "geometry": {"type": "Point", "coordinates": [-84.393394, 33.672592]}, "properties": {"kind": "stop", "name": "EMPIRE BLVD SW @ MT ZION RD SW", "mode": "bus"}}, {"type": "Feature", "geometry": {"type": "Point", "coordinates": [-84.393288, 33.674873]}, "properties": {"kind": "stop", "name": "HAPEVILLE RD SW@2909", "mode": "bus"}}, {"type": "Feature", "geometry": {"type": "Point", "coordinates": [-84.39328, 33.676933]}, "properties": {"kind": "stop", "name": "HAPEVILLE RD SW@WATERS RD SW", "mode": "bus"}}, {"type": "Feature", "geometry": {"type": "Point", "coordinates": [-84.393196, 33.678596]}, "properties": {"kind": "stop", "name": "HAPEVILLE RD SW@OLD HAPEVILLE RD SW", "mode": "bus"}}, {"type": "Feature", "geometry": {"type": "Point", "coordinates": [-84.393609, 33.680983]}, "properties": {"kind": "stop", "name": "OLD HAPEVILL RD @ CLEVELAND AVE", "mode": "bus"}}, {"type": "Feature", "geometry": {"type": "Point", "coordinates": [-84.396581, 33.681058]}, "properties": {"kind": "stop", "name": "CLEVELAND AVE SW @ STEELE AVE SW", "mode": "bus"}}, {"type": "Feature", "geometry": {"type": "Point", "coordinates": [-84.39401, 33.68103]}, "properties": {"kind": "stop", "name": "CLEVELAND AVE SW @ OLD HAPEVILLE RD SW", "mode": "bus"}}, {"type": "Feature", "geometry": {"type": "Point", "coordinates": [-84.393117, 33.679839]}, "properties": {"kind": "stop", "name": "OLD HAPEVILLE RD@CLEVELAND AVE", "mode": "bus"}}, {"type": "Feature", "geometry": {"type": "Point", "coordinates": [-84.425824, 33.701617]}, "properties": {"kind": "stop", "name": "ASTOR AVE@ARROW ST", "mode": "bus"}}, {"type": "Feature", "geometry": {"type": "Point", "coordinates": [-84.425922, 33.701545]}, "properties": {"kind": "stop", "name": "ASTOR AVE @ ARROW ST", "mode": "bus"}}, {"type": "Feature", "geometry": {"type": "Point", "coordinates": [-84.400882, 33.681082]}, "properties": {"kind": "stop", "name": "CLEVELAND AVE @ FORREST HILLS DR", "mode": "bus"}}, {"type": "Feature", "geometry": {"type": "Point", "coordinates": [-84.391904, 33.685528]}, "properties": {"kind": "stop", "name": "OLD HAPEVILLE RD@2466", "mode": "bus"}}, {"type": "Feature", "geometry": {"type": "Point", "coordinates": [-84.419599, 33.701371]}, "properties": {"kind": "stop", "name": "ASTOR AVE SW@SYLVAN RIDGE DR SW", "mode": "bus"}}, {"type": "Feature", "geometry": {"type": "Point", "coordinates": [-84.392147, 33.715561]}, "properties": {"kind": "stop", "name": "MOURY AVE@204", "mode": "bus"}}, {"type": "Feature", "geometry": {"type": "Point", "coordinates": [-84.392104, 33.715668]}, "properties": {"kind": "stop", "name": "MOURY AVE SW @ 204", "mode": "bus"}}, {"type": "Feature", "geometry": {"type": "Point", "coordinates": [-84.391157, 33.714031]}, "properties": {"kind": "stop", "name": "MOURY AVE@THIRKELD AVE", "mode": "bus"}}, {"type": "Feature", "geometry": {"type": "Point", "coordinates": [-84.393267, 33.717073]}, "properties": {"kind": "stop", "name": "MOURY AVE@PRYOR RD", "mode": "bus"}}, {"type": "Feature", "geometry": {"type": "Point", "coordinates": [-84.393017, 33.716957]}, "properties": {"kind": "stop", "name": "MOURY AVE@PRYOR RD", "mode": "bus"}}, {"type": "Feature", "geometry": {"type": "Point", "coordinates": [-84.41802, 33.716152]}, "properties": {"kind": "stop", "name": "SYLVAN RD@GENESSEE AVE", "mode": "bus"}}, {"type": "Feature", "geometry": {"type": "Point", "coordinates": [-84.418118, 33.717109]}, "properties": {"kind": "stop", "name": "SYLVAN RD@ARDEN AVE", "mode": "bus"}}, {"type": "Feature", "geometry": {"type": "Point", "coordinates": [-84.417968, 33.718175]}, "properties": {"kind": "stop", "name": "SYLVAN RD @ DILL AVE", "mode": "bus"}}, {"type": "Feature", "geometry": {"type": "Point", "coordinates": [-84.418109, 33.718336]}, "properties": {"kind": "stop", "name": "SYLVAN RD@DILL AVE", "mode": "bus"}}, {"type": "Feature", "geometry": {"type": "Point", "coordinates": [-84.4222, 33.722327]}, "properties": {"kind": "stop", "name": "AVON AVE SW @ MURPHY AVE SW", "mode": "bus"}}, {"type": "Feature", "geometry": {"type": "Point", "coordinates": [-84.422441, 33.722226]}, "properties": {"kind": "stop", "name": "MURPHY AVE @ AVON AVE", "mode": "bus"}}, {"type": "Feature", "geometry": {"type": "Point", "coordinates": [-84.424054, 33.718886]}, "properties": {"kind": "stop", "name": "MURPHY AVE@DILL AVE", "mode": "bus"}}, {"type": "Feature", "geometry": {"type": "Point", "coordinates": [-84.423696, 33.719504]}, "properties": {"kind": "stop", "name": "MURPHY AVE SW @ DILL AVE SW", "mode": "bus"}}, {"type": "Feature", "geometry": {"type": "Point", "coordinates": [-84.422989, 33.657978]}, "properties": {"kind": "stop", "name": "N OUTER LOOP RD @ DELTA BLVD", "mode": "bus"}}, {"type": "Feature", "geometry": {"type": "Point", "coordinates": [-84.422793, 33.657782]}, "properties": {"kind": "stop", "name": "N INNER LOOP RD @ DELTA BLVD", "mode": "bus"}}, {"type": "Feature", "geometry": {"type": "Point", "coordinates": [-84.397637, 33.707018]}, "properties": {"kind": "stop", "name": "AMAL DR @ PRYOR RD", "mode": "bus"}}, {"type": "Feature", "geometry": {"type": "Point", "coordinates": [-84.399001, 33.701377]}, "properties": {"kind": "stop", "name": "PRYOR RD SW @ ST JOHNS AVE SW", "mode": "bus"}}, {"type": "Feature", "geometry": {"type": "Point", "coordinates": [-84.395975, 33.695301]}, "properties": {"kind": "stop", "name": "POLAR ROCK RD@POLAR ROCK AVE", "mode": "bus"}}, {"type": "Feature", "geometry": {"type": "Point", "coordinates": [-84.39751, 33.722173]}, "properties": {"kind": "stop", "name": "UNIVERSITY AVE@BOOKER AVE", "mode": "bus"}}, {"type": "Feature", "geometry": {"type": "Point", "coordinates": [-84.399194, 33.722172]}, "properties": {"kind": "stop", "name": "UNIVERSITY AVE@GARIBALDI ST", "mode": "bus"}}, {"type": "Feature", "geometry": {"type": "Point", "coordinates": [-84.401313, 33.722179]}, "properties": {"kind": "stop", "name": "UNIVERSITY AVE @ MCDANIEL ST", "mode": "bus"}}, {"type": "Feature", "geometry": {"type": "Point", "coordinates": [-84.401587, 33.724104]}, "properties": {"kind": "stop", "name": "MCDANIEL ST@ROY ST", "mode": "bus"}}, {"type": "Feature", "geometry": {"type": "Point", "coordinates": [-84.401578, 33.725607]}, "properties": {"kind": "stop", "name": "MCDANIEL ST@ FLETCHER ST", "mode": "bus"}}, {"type": "Feature", "geometry": {"type": "Point", "coordinates": [-84.401665, 33.725715]}, "properties": {"kind": "stop", "name": "MCDANIEL ST@FLETCHER ST", "mode": "bus"}}, {"type": "Feature", "geometry": {"type": "Point", "coordinates": [-84.39927, 33.722019]}, "properties": {"kind": "stop", "name": "UNIVERSITY AVE@GARIBALDI ST", "mode": "bus"}}, {"type": "Feature", "geometry": {"type": "Point", "coordinates": [-84.397466, 33.722003]}, "properties": {"kind": "stop", "name": "UNIVERSITY AVE@BOOKER AVE", "mode": "bus"}}, {"type": "Feature", "geometry": {"type": "Point", "coordinates": [-84.399322, 33.707554]}, "properties": {"kind": "stop", "name": "AMAL DR@GIBEN DR", "mode": "bus"}}, {"type": "Feature", "geometry": {"type": "Point", "coordinates": [-84.400539, 33.70775]}, "properties": {"kind": "stop", "name": "AMAL DR@GIBEN RD", "mode": "bus"}}, {"type": "Feature", "geometry": {"type": "Point", "coordinates": [-84.40168, 33.708062]}, "properties": {"kind": "stop", "name": "AMAL DR@BOND DR", "mode": "bus"}}, {"type": "Feature", "geometry": {"type": "Point", "coordinates": [-84.401362, 33.705297]}, "properties": {"kind": "stop", "name": "BOND DR@ASHWOOD AVE", "mode": "bus"}}, {"type": "Feature", "geometry": {"type": "Point", "coordinates": [-84.398928, 33.705137]}, "properties": {"kind": "stop", "name": "ASHWOOD AVE@PRYOR RD", "mode": "bus"}}, {"type": "Feature", "geometry": {"type": "Point", "coordinates": [-84.397626, 33.70691]}, "properties": {"kind": "stop", "name": "PRYOR RD @ AMAL DR", "mode": "bus"}}, {"type": "Feature", "geometry": {"type": "Point", "coordinates": [-84.39898, 33.702666]}, "properties": {"kind": "stop", "name": "PRYOR RD@FAIR DR", "mode": "bus"}}, {"type": "Feature", "geometry": {"type": "Point", "coordinates": [-84.398904, 33.702559]}, "properties": {"kind": "stop", "name": "PRYOR RD@FAIR DR", "mode": "bus"}}, {"type": "Feature", "geometry": {"type": "Point", "coordinates": [-84.39882, 33.705066]}, "properties": {"kind": "stop", "name": "PRYOR RD@PRYOR CIR", "mode": "bus"}}, {"type": "Feature", "geometry": {"type": "Point", "coordinates": [-84.417896, 33.722051]}, "properties": {"kind": "stop", "name": "SYLVAN RD@AVON AVE", "mode": "bus"}}, {"type": "Feature", "geometry": {"type": "Point", "coordinates": [-84.418113, 33.722051]}, "properties": {"kind": "stop", "name": "SYLVAN RD@AVON AVE", "mode": "bus"}}, {"type": "Feature", "geometry": {"type": "Point", "coordinates": [-84.418078, 33.719625]}, "properties": {"kind": "stop", "name": "SYLVAN RD@COX AVE", "mode": "bus"}}, {"type": "Feature", "geometry": {"type": "Point", "coordinates": [-84.417958, 33.719186]}, "properties": {"kind": "stop", "name": "SYLVAN RD@ERIN AVE", "mode": "bus"}}, {"type": "Feature", "geometry": {"type": "Point", "coordinates": [-84.389837, 33.721049]}, "properties": {"kind": "stop", "name": "UNIVERSITY AVE SW@71", "mode": "bus"}}, {"type": "Feature", "geometry": {"type": "Point", "coordinates": [-84.390043, 33.721058]}, "properties": {"kind": "stop", "name": "UNIVERSITY AVE SW@71", "mode": "bus"}}, {"type": "Feature", "geometry": {"type": "Point", "coordinates": [-84.394062, 33.68208]}, "properties": {"kind": "stop", "name": "OLD HAPEVILLE RD SW@2672", "mode": "bus"}}, {"type": "Feature", "geometry": {"type": "Point", "coordinates": [-84.392425, 33.721407]}, "properties": {"kind": "stop", "name": "UNIVERSITY AVE SW @ PRYOR RD SW", "mode": "bus"}}, {"type": "Feature", "geometry": {"type": "Point", "coordinates": [-84.41818, 33.713905]}, "properties": {"kind": "stop", "name": "SYLVAN RD SW @ DECKNER AVE SW", "mode": "bus"}}, {"type": "Feature", "geometry": {"type": "Point", "coordinates": [-84.414146, 33.692666]}, "properties": {"kind": "stop", "name": "SPRINGDALE RD @ SPRINGDALE PL", "mode": "bus"}}, {"type": "Feature", "geometry": {"type": "Point", "coordinates": [-84.415431, 33.685449]}, "properties": {"kind": "stop", "name": "SPRINGDALE RD SW @ JEFFERSON AVE SW", "mode": "bus"}}, {"type": "Feature", "geometry": {"type": "Point", "coordinates": [-84.4153, 33.685288]}, "properties": {"kind": "stop", "name": "SPRINGDALE RD SW @ JEFFERSON AVE SW", "mode": "bus"}}, {"type": "Feature", "geometry": {"type": "Point", "coordinates": [-84.418122, 33.711183]}, "properties": {"kind": "stop", "name": "SYLVAN RD SW @ KATHERWOOD DR SW", "mode": "bus"}}, {"type": "Feature", "geometry": {"type": "Point", "coordinates": [-84.414468, 33.689335]}, "properties": {"kind": "stop", "name": "SPRINGDALE RD SW @ PEGG RD SW", "mode": "bus"}}, {"type": "Feature", "geometry": {"type": "Point", "coordinates": [-84.393339, 33.712123]}, "properties": {"kind": "stop", "name": "MELDON AVE @ PRYOR RD", "mode": "bus"}}, {"type": "Feature", "geometry": {"type": "Point", "coordinates": [-84.391407, 33.714407]}, "properties": {"kind": "stop", "name": "MOURY AVE @ THIRKELD", "mode": "bus"}}, {"type": "Feature", "geometry": {"type": "Point", "coordinates": [-84.393294, 33.722972]}, "properties": {"kind": "stop", "name": "PRYOR RD @ UNIVERSITY AVE", "mode": "bus"}}, {"type": "Feature", "geometry": {"type": "Point", "coordinates": [-84.407634, 33.707321]}, "properties": {"kind": "stop", "name": "CASPLAN ST @ METROPOLITAN PKWY", "mode": "bus"}}, {"type": "Feature", "geometry": {"type": "Point", "coordinates": [-84.428768, 33.70088]}, "properties": {"kind": "stop", "name": "LAKEWOOD-FT MCPHERSON STATION", "mode": "bus"}}, {"type": "Feature", "geometry": {"type": "Point", "coordinates": [-84.428865, 33.700298]}, "properties": {"kind": "stop", "name": "LAKEWOOD-FT MCPHERSON STATION", "mode": "bus"}}, {"type": "Feature", "geometry": {"type": "Point", "coordinates": [-84.42503, 33.7173]}, "properties": {"kind": "stop", "name": "OAKLAND CITY STATION", "mode": "bus"}}, {"type": "Feature", "geometry": {"type": "Point", "coordinates": [-84.425138, 33.716978]}, "properties": {"kind": "stop", "name": "OAKLAND CITY STATION", "mode": "bus"}}], "properties": {"coverage_pct": 98.4, "rail_coverage_pct": 14.7, "stop_count": 291, "rail_stop_count": 2, "bus_stop_count": 289, "transit_index": 43, "weights": {"rail": 2.0, "bus": 1.0}}}