{"type": "FeatureCollection", "features": [{"type": "Feature", "geometry": {"type": "LineString", "coordinates": [[-84.4913837, 33.678092], [-84.4913542, 33.6780738], [-84.4913198, 33.6780484], [-84.4912992, 33.6780009], [-84.4912907, 33.6779561], [-84.491298, 33.6779256], [-84.4912947, 33.6778974], [-84.491282, 33.6778805], [-84.4912527, 33.6778761], [-84.4912338, 33.6778733], [-84.4910496, 33.6778433]]}, "properties": {"surface": "", "highway": "footway"}}, {"type": "Feature", "geometry": {"type": "LineString", "coordinates": [[-84.4912527, 33.6778761], [-84.4912536, 33.6778695]]}, "properties": {"surface": "", "highway": "footway"}}, {"type": "Feature", "geometry": {"type": "LineString", "coordinates": [[-84.4896393, 33.6913552], [-84.4896982, 33.6914285], [-84.4897149, 33.6914493]]}, "properties": {"surface": "", "highway": "footway"}}, {"type": "Feature", "geometry": {"type": "LineString", "coordinates": [[-84.4897883, 33.6914954], [-84.4897816, 33.6915138], [-84.489777, 33.6915264], [-84.4898349, 33.6915955], [-84.4901192, 33.6919144]]}, "properties": {"surface": "", "highway": "footway"}}, {"type": "Feature", "geometry": {"type": "LineString", "coordinates": [[-84.4895619, 33.6916057], [-84.489573, 33.6916177], [-84.4896116, 33.6916073], [-84.4896801, 33.6916789], [-84.4899971, 33.6920447]]}, "properties": {"surface": "", "highway": "footway"}}, {"type": "Feature", "geometry": {"type": "LineString", "coordinates": [[-84.4893826, 33.6914086], [-84.4894471, 33.6914947], [-84.4894569, 33.69152], [-84.4894443, 33.691534]]}, "properties": {"surface": "", "highway": "footway"}}, {"type": "Feature", "geometry": {"type": "LineString", "coordinates": [[-84.4894569, 33.69152], [-84.4894859, 33.6915351]]}, "properties": {"surface": "", "highway": "footway"}}, {"type": "Feature", "geometry": {"type": "LineString", "coordinates": [[-84.4895517, 33.6915968], [-84.4895619, 33.6916057]]}, "properties": {"surface": "", "highway": "footway"}}, {"type": "Feature", "geometry": {"type": "LineString", "coordinates": [[-84.4896982, 33.6914285], [-84.4896908, 33.6914314]]}, "properties": {"surface": "", "highway": "footway"}}, {"type": "Feature", "geometry": {"type": "LineString", "coordinates": [[-84.4894847, 33.6915188], [-84.4894569, 33.69152]]}, "properties": {"surface": "", "highway": "footway"}}, {"type": "Feature", "geometry": {"type": "LineString", "coordinates": [[-84.4897149, 33.6914493], [-84.4897227, 33.6914573]]}, "properties": {"surface": "", "highway": "footway"}}, {"type": "Feature", "geometry": {"type": "LineString", "coordinates": [[-84.4897611, 33.6914911], [-84.4897816, 33.6915138]]}, "properties": {"surface": "", "highway": "footway"}}, {"type": "Feature", "geometry": {"type": "LineString", "coordinates": [[-84.4574563, 33.7065505], [-84.457424, 33.7065461]]}, "properties": {"surface": "", "highway": "footway"}}, {"type": "Feature", "geometry": {"type": "LineString", "coordinates": [[-84.4576158, 33.706473], [-84.4576096, 33.7064903]]}, "properties": {"surface": "", "highway": "footway"}}, {"type": "Feature", "geometry": {"type": "LineString", "coordinates": [[-84.4574556, 33.7063083], [-84.4574902, 33.7063224]]}, "properties": {"surface": "", "highway": "footway"}}, {"type": "Feature", "geometry": {"type": "LineString", "coordinates": [[-84.4863494, 33.6960547], [-84.4863282, 33.6960871]]}, "properties": {"surface": "", "highway": "footway"}}, {"type": "Feature", "geometry": {"type": "LineString", "coordinates": [[-84.4863662, 33.6957698], [-84.4863813, 33.6957728]]}, "properties": {"surface": "", "highway": "footway"}}, {"type": "Feature", "geometry": {"type": "LineString", "coordinates": [[-84.4860903, 33.6960009], [-84.4861193, 33.6959768], [-84.4861472, 33.6959485], [-84.486165, 33.6959167]]}, "properties": {"surface": "", "highway": "footway"}}]}