{"type": "FeatureCollection", "features": [{"type": "Feature", "geometry": {"type": "Polygon", "coordinates": [[[-84.50334873276383, 33.663105623132374], [-84.5041993286148, 33.66313824043252], [-84.50504200689451, 33.66324041111048], [-84.50568036201321, 33.66337226108013], [-84.50589637032701, 33.66384300978711], [-84.50612470424865, 33.66454279349828], [-84.50626833751852, 33.66525814410445], [-84.50632583246251, 33.66598191192936], [-84.50633980906156, 33.66669800809498], [-84.50664400770283, 33.669163396420394], [-84.50680986227593, 33.67013177300579], [-84.50681872339379, 33.67018490911185], [-84.5071789398232, 33.67240488307355], [-84.50717692747445, 33.672405111345725], [-84.50720363752046, 33.67254016764677], [-84.50732713699078, 33.673385088425334], [-84.50765623046715, 33.67542421206643], [-84.50771996682397, 33.67575865368364], [-84.50775417821191, 33.67595549708685], [-84.50821446446277, 33.678885463728115], [-84.50826624452502, 33.67931259720847], [-84.50856659413836, 33.68282257431393], [-84.50858756380201, 33.683458631672934], [-84.50858471741587, 33.68349812897146], [-84.50859539826315, 33.68381759069799], [-84.50859753661861, 33.68389718018892], [-84.50861763604074, 33.684887178186244], [-84.50861806094609, 33.68491027309387], [-84.50862787805843, 33.68550546899497], [-84.50863760883632, 33.68596066594027], [-84.50871697310814, 33.689683082788896], [-84.50872522096068, 33.68990517233325], [-84.5087294003712, 33.69012969522472], [-84.50872942047589, 33.69032969509983], [-84.50872942708769, 33.69039547103066], [-84.5087371158603, 33.69067126889047], [-84.50873901335719, 33.690765737106226], [-84.50874909576504, 33.69158573590156], [-84.50876882534578, 33.69321943214449], [-84.50877794502738, 33.693591804491085], [-84.50872643200572, 33.69454335437634], [-84.50871916697999, 33.694597883021224], [-84.50857900605689, 33.695982171778795], [-84.50840298075029, 33.69694515116063], [-84.50809423745044, 33.69810570707804], [-84.50801327943587, 33.698445871466184], [-84.50790772628473, 33.69883354138934], [-84.5075178423147, 33.70010356684393], [-84.50748943383658, 33.70019369572014], [-84.50737946456357, 33.7005337028874], [-84.50733068410041, 33.700678544320795], [-84.50682659561545, 33.70211788710444], [-84.50642854612917, 33.70343599943318], [-84.50629851075965, 33.70438651479988], [-84.50625492561804, 33.70519434373149], [-84.50635299645643, 33.7063392031033], [-84.5064596347795, 33.7069090071601], [-84.50694695897407, 33.708225601238496], [-84.50722192845555, 33.70872693034601], [-84.50726801866209, 33.70881241612919], [-84.50801560291804, 33.71022323983078], [-84.50842961305993, 33.710945440981185], [-84.50874817281813, 33.71157581337914], [-84.5088515897039, 33.71181080234688], [-84.50899071355144, 33.712064163738376], [-84.50907783665048, 33.71223980950859], [-84.50924831629473, 33.712549720973286], [-84.50933977648866, 33.712721834904514], [-84.50973983492975, 33.7135018090571], [-84.51013562380423, 33.71444976569668], [-84.5102956676458, 33.71493975472411], [-84.51032158709818, 33.71502095742604], [-84.51056165671751, 33.71579094089298], [-84.51068495740252, 33.71624587029202], [-84.51083501907138, 33.71689585969745], [-84.510957272508, 33.71761989063775], [-84.51099169893538, 33.71835052755443], [-84.51093794646533, 33.71908034956244], [-84.51079655883606, 33.71980194386845], [-84.51056896997952, 33.720507981065516], [-84.51025748954297, 33.721191289588084], [-84.50986527950904, 33.721844928570775], [-84.50939632214791, 33.722462258370044], [-84.50885537962466, 33.72303700803161], [-84.50824794566995, 33.723563339017176], [-84.50758018980301, 33.72403590454159], [-84.50685889467269, 33.724449903916714], [-84.50609138715302, 33.72480113134813], [-84.50528546389324, 33.72508601868788], [-84.50444931208038, 33.72530167170727], [-84.50359142622052, 33.72544589952038], [-84.502720521787, 33.72551723685802], [-84.50184544661536, 33.7255149589652], [-84.5011753904433, 33.725484956823365], [-84.50030046533172, 33.725408486809975], [-84.49943929304276, 33.725258430769664], [-84.49860071505593, 33.72503632929452], [-84.4977933407121, 33.724744462644075], [-84.49702545876764, 33.72438582731828], [-84.49673382335752, 33.724215130245035], [-84.49635069792647, 33.72410689514798], [-84.49616068502748, 33.72404689056949], [-84.49565791765353, 33.7238639179244], [-84.49484713652141, 33.72398505032516], [-84.49401849156601, 33.724041350995776], [-84.49329843112143, 33.7240613530149], [-84.49242602053604, 33.72404892798968], [-84.4915595085268, 33.72396339634729], [-84.49070764751, 33.72380562200786], [-84.490016551499, 33.72361510663624], [-84.48912674095983, 33.72408796986356], [-84.4889267305533, 33.72417797649857], [-84.4881672179616, 33.724481044295764], [-84.48737615242506, 33.7247212363657], [-84.48656096858251, 33.72489629524639], [-84.48572932791639, 33.7250045756193], [-84.48488904669773, 33.72504505978458], [-84.4840480224709, 33.72501736723347], [-84.48361979083597, 33.724968267793386], [-84.4834960570983, 33.72496341038902], [-84.48268928903548, 33.72486784101436], [-84.48189679739762, 33.724709494504424], [-84.48112556295848, 33.72448976568109], [-84.48038237910929, 33.724210590054724], [-84.48020256879506, 33.724125286253], [-84.47998146719937, 33.724040188520874], [-84.47927615391899, 33.72369836100028], [-84.47861232876686, 33.72330275395549], [-84.47799584607573, 33.72285685662309], [-84.47758241272521, 33.722495826301596], [-84.47747537187132, 33.72283591060096], [-84.47716992273001, 33.723518755707154], [-84.47678400636158, 33.72417254033026], [-84.47632151737218, 33.72479066356268], [-84.47578712377235, 33.72536688441301], [-84.47518621989136, 33.72589538484388], [-84.4745248719425, 33.72637082854261], [-84.4738097567876, 33.726788414829926], [-84.47304809451904, 33.7271439271608], [-84.47224757554025, 33.72743377572693], [-84.4714162828821, 33.72765503372851], [-84.47073623160989, 33.72780504604628], [-84.47057101984936, 33.727840043866216], [-84.47002936515212, 33.72795006838266], [-84.46967167396146, 33.72803014924124], [-84.46953409541564, 33.72807911860318], [-84.4694113868325, 33.72812918202769], [-84.4686013393722, 33.72844920629265], [-84.46805928686742, 33.72864479667511], [-84.4676752324321, 33.72877060957594], [-84.4671966284863, 33.72896504548526], [-84.46654403429284, 33.729203037914154], [-84.46587029391117, 33.72939555091754], [-84.46517993867, 33.72954128968574], [-84.46477990726048, 33.729611295541474], [-84.4644632986479, 33.72966159579696], [-84.46432328740092, 33.72968159749378], [-84.46389180988506, 33.7297339576626], [-84.4637918016625, 33.729743958531046], [-84.46365878128834, 33.72975639239142], [-84.46342876227268, 33.729776394145], [-84.46259632064788, 33.729815153738386], [-84.46176326740932, 33.72978702416829], [-84.46149324493005, 33.72976702263637], [-84.4612282071411, 33.72974396011237], [-84.4610281906443, 33.72972395855338], [-84.460158856693, 33.72959932413534], [-84.45991333253528, 33.72955328841364], [-84.45876801935015, 33.72935614402864], [-84.45867384542495, 33.72933947802802], [-84.4581480627073, 33.729243881206415], [-84.45653222366495, 33.72895815341224], [-84.45652308719056, 33.72895653345965], [-84.45607305173058, 33.7288765271549], [-84.45600824061798, 33.72886478870413], [-84.45535751087326, 33.72874475223112], [-84.45507901695379, 33.72884790059008], [-84.4542786009147, 33.72906959870954], [-84.45345621949969, 33.72922537597644], [-84.45261963001926, 33.72931376296019], [-84.45177672390871, 33.72933392590747], [-84.45093545223473, 33.72928567461297], [-84.45010375063727, 33.72916946421539], [-84.44928946441746, 33.72898639090135], [-84.44850027448076, 33.728738181557965], [-84.44774362483635, 33.72842717747222], [-84.4470266523392, 33.728056312231026], [-84.44635611933923, 33.727629084031676], [-84.44573834987467, 33.7271495226642], [-84.44517917001258, 33.72662215147849], [-84.44468385289979, 33.726051944695634], [-84.4442570690429, 33.725444280467514], [-84.44390284228578, 33.72480489012817], [-84.44362451189875, 33.72413980411699], [-84.44342470113581, 33.723455295084406], [-84.44330529255453, 33.72275781871774], [-84.44326741032897, 33.72205395284592], [-84.44331140972035, 33.721350335397894], [-84.44343687380142, 33.7206536018001], [-84.4434750899096, 33.72052668607257], [-84.44381468759306, 33.718947257007486], [-84.443694354274, 33.71896555796196], [-84.44353434128573, 33.71898555966815], [-84.4435338167241, 33.71898262921798], [-84.44314155953734, 33.71904399157556], [-84.44294154309699, 33.71906399330556], [-84.44207746908506, 33.71911403707236], [-84.44121172794318, 33.71909188294859], [-84.4403529376541, 33.71899775145497], [-84.43950964695927, 33.71883257960393], [-84.43869025019895, 33.71859801156578], [-84.43790290369463, 33.71829638229067], [-84.43715544450951, 33.717930694249866], [-84.43645531239777, 33.71750458752858], [-84.43580947572192, 33.71702230356938], [-84.43522436207712, 33.7164886429279], [-84.43470579431393, 33.71590891746266], [-84.4342589325965, 33.715288897436416], [-84.43388822307287, 33.71463475405658], [-84.43359735366678, 33.7139529980281], [-84.43338921742985, 33.713250414731526], [-84.43326588381626, 33.712533996672526], [-84.43322857816356, 33.71181087387578], [-84.43326871296644, 33.70688769748658], [-84.43374031981148, 33.70674551678663], [-84.43415772560115, 33.70665717278494], [-84.4348239923926, 33.70624194367177], [-84.43508642844904, 33.7061097020302], [-84.43507500599652, 33.70592516645729], [-84.4351145950606, 33.70521392432369], [-84.43523740364236, 33.70450935002953], [-84.43544224705006, 33.70381822877794], [-84.43572715070228, 33.70314721605704], [-84.43608936921439, 33.702502773559], [-84.43652541289984, 33.70189110697053], [-84.43703108142859, 33.70131810623365], [-84.43760150431662, 33.70078928885087], [-84.43823118785511, 33.70030974677961], [-84.43891406802646, 33.69988409742625], [-84.43964356889721, 33.69951643921047], [-84.44041266592568, 33.699210312126624], [-84.44121395357561, 33.69896866368062], [-84.44203971658612, 33.698793820529325], [-84.44267835065753, 33.69871318168339], [-84.44286662509454, 33.698077724551595], [-84.44315145227452, 33.69740669447005], [-84.44351359141449, 33.696762230005035], [-84.44394955359215, 33.69615053705525], [-84.44445513926217, 33.69557750581698], [-84.44477876950573, 33.69527741826691], [-84.44479014609917, 33.695264523785156], [-84.44536048145766, 33.694735670502645], [-84.44599007768993, 33.69425608885861], [-84.44667287161847, 33.693830396640685], [-84.44740228813956, 33.69346269268145], [-84.448171303523, 33.69315651741576], [-84.44897251301794, 33.69291481881339], [-84.44979820211522, 33.69273992401415], [-84.45064042078182, 33.69263351693714], [-84.4514910599546, 33.69259662207984], [-84.45234192955972, 33.6926295946614], [-84.45318483730885, 33.69273211720564], [-84.4540116675167, 33.69290320259584], [-84.45481445918348, 33.69314120357234], [-84.45556105786814, 33.69343424203703], [-84.45556966653064, 33.69343457537827], [-84.45641258581304, 33.69353707582773], [-84.45678591870612, 33.69361431449475], [-84.457423560407, 33.69358662703025], [-84.4582744417281, 33.69361955868885], [-84.45911736588887, 33.693722040656034], [-84.4599442170462, 33.693893086205584], [-84.46074703399887, 33.69413104846124], [-84.46151808678812, 33.69443363624227], [-84.4622499510796, 33.69479793610859], [-84.4629355796129, 33.69522044039396], [-84.46356837003229, 33.69569708095832], [-84.46414222844717, 33.696223268335224], [-84.46438006527777, 33.69648971213631], [-84.46478347729146, 33.69623811636748], [-84.46551283611595, 33.69587030593812], [-84.46628180778121, 33.69556401830013], [-84.4670829879564, 33.69532220250484], [-84.46790866241395, 33.695147186819845], [-84.46875088126124, 33.69504065632759], [-84.4696015354332, 33.69500363671311], [-84.47045243471162, 33.69503648439609], [-84.4712953865228, 33.69513888310223], [-84.47212227475772, 33.69530984690647], [-84.47215734803287, 33.69532023901342], [-84.47272227282426, 33.69529563916374], [-84.47356027931646, 33.69532796784557], [-84.47375922788652, 33.695176341798174], [-84.47444189092249, 33.69475049689504], [-84.47517119562124, 33.69438262966155], [-84.47573821401814, 33.69415672404619], [-84.47581360429325, 33.694071220199056], [-84.47638374064816, 33.69354222469745], [-84.47701315464252, 33.69306248587522], [-84.47769578485125, 33.692636623033565], [-84.47842505774479, 33.69226873664786], [-84.47851047029495, 33.69223470411273], [-84.47895862237199, 33.691726389587465], [-84.47937149881012, 33.69134327322205], [-84.47928257427746, 33.69105028135469], [-84.47915504571966, 33.69034629602316], [-84.47911067867383, 33.689635251389326], [-84.47914989837275, 33.688923995301714], [-84.47927232505806, 33.68821937747888], [-84.47947677771644, 33.687528183545616], [-84.4797612855293, 33.68685706969239], [-84.48012310692313, 33.68621249858749], [-84.48055875603403, 33.685600677158085], [-84.48106403632941, 33.685027496839055], [-84.4816340810611, 33.68449847686356], [-84.4822634001586, 33.68401871114088], [-84.48286388718527, 33.68364401527003], [-84.48305905701694, 33.683422604127514], [-84.4835880372448, 33.682931665457616], [-84.48361326767791, 33.68288671237785], [-84.4839739252395, 33.68238015067732], [-84.48416160621271, 33.68193735153354], [-84.48452337435126, 33.68129276734081], [-84.48495896763457, 33.68068093023618], [-84.48512324432203, 33.680494551728025], [-84.48509764354881, 33.68008466625084], [-84.48513681023985, 33.67937340747457], [-84.48525917513898, 33.67866878299293], [-84.48546355782868, 33.677977578495245], [-84.48574798816483, 33.67730645027415], [-84.4861097253205, 33.676661861136736], [-84.48654528424328, 33.67605001818429], [-84.4865646394531, 33.676028057091], [-84.48673311349333, 33.67563051277973], [-84.48709483636149, 33.67498592066823], [-84.48753037992834, 33.674374074168554], [-84.48803554867779, 33.6738008649575], [-84.48836007523427, 33.67349961489952], [-84.48838241473172, 33.67309363005172], [-84.48850474466745, 33.67238900184831], [-84.48870908691138, 33.67169779152088], [-84.4889934717094, 33.67102665541846], [-84.48935515867339, 33.67038205642432], [-84.48979066323454, 33.66977020173494], [-84.49029579025247, 33.66919698310618], [-84.49086567445487, 33.66866792014079], [-84.49149482731659, 33.66818810716263], [-84.4916979929053, 33.668061288392224], [-84.49178082116788, 33.667998119816254], [-84.49246318086189, 33.667572175266805], [-84.49319217943656, 33.66720420186169], [-84.49396079718204, 33.66689774263029], [-84.49476163317227, 33.666655748276256], [-84.4950683753492, 33.66659063540409], [-84.49515669907643, 33.666523270175176], [-84.49583903038814, 33.66609730705721], [-84.4965680020298, 33.66572931381542], [-84.49680348458456, 33.66563541469694], [-84.4972215464734, 33.66524723464827], [-84.49785063902823, 33.664767389415566], [-84.49853294314526, 33.664341411469955], [-84.49926188843288, 33.66397340239587], [-84.50003045569379, 33.6636669055661], [-84.5008312444875, 33.6634248720463], [-84.50165654435135, 33.66324963220005], [-84.50249840899609, 33.66314287326755], [-84.50334873276383, 33.663105623132374]], [[-84.47393598372737, 33.71169205913432], [-84.47372651450065, 33.71100190596269], [-84.47359900041725, 33.71029791708045], [-84.47359523258409, 33.71023748618018], [-84.47357701632399, 33.71013691547128], [-84.47356681072993, 33.7099732304452], [-84.47277076019581, 33.70994252656386], [-84.47244882928298, 33.70990343132235], [-84.47240470545704, 33.709905352417614], [-84.47164728338099, 33.70987613139771], [-84.47140408643978, 33.71002780330691], [-84.47067463381627, 33.710395648197306], [-84.46990554620672, 33.71070196308705], [-84.4691042316326, 33.71094379732945], [-84.46827840876811, 33.71111882137706], [-84.467819256746, 33.71117688701138], [-84.46759411954385, 33.7112448287094], [-84.46676829065966, 33.71141984268529], [-84.4659259095542, 33.71152636026898], [-84.46567998388603, 33.71153705415776], [-84.46522029766922, 33.7117688302909], [-84.46445117822476, 33.712075111325674], [-84.4636498353608, 33.71231691028412], [-84.4633413813461, 33.712382268916485], [-84.463333547834, 33.71242729342329], [-84.46312890826495, 33.71311845889099], [-84.4630793999653, 33.71323514781827], [-84.4630319327185, 33.713395465196086], [-84.46274720864945, 33.71406653883661], [-84.46267395972562, 33.71419693085833], [-84.46258776013063, 33.71469234322901], [-84.46258752876466, 33.71469312462428], [-84.46277632866044, 33.714617946583], [-84.46357769534157, 33.71437615325232], [-84.4644035591188, 33.71420116050204], [-84.46459690328132, 33.714176716181996], [-84.46470919817841, 33.7141319991315], [-84.46551055484036, 33.7138901932958], [-84.46633640995097, 33.713715187655254], [-84.46717881187955, 33.713608667195416], [-84.46776373565986, 33.71358322485283], [-84.4681959566842, 33.713411094143666], [-84.4689972967137, 33.71316926574939], [-84.46982313767668, 33.71299423685319], [-84.47066552807856, 33.712887692664424], [-84.47071064684053, 33.71288572894783], [-84.47108314124344, 33.712773309149235], [-84.47190897407938, 33.712598266340855], [-84.47275135792897, 33.71249170795623], [-84.47360218213969, 33.71245465994859], [-84.47429359786065, 33.71248132276735], [-84.47422539259954, 33.71236172962811], [-84.47393598372737, 33.71169205913432]], [[-84.4973624366728, 33.71215328659962], [-84.49744733409435, 33.711664187302794], [-84.49737012261407, 33.7112385784123], [-84.49732559335469, 33.710527543682055], [-84.4973646709308, 33.70981628505475], [-84.49748697695054, 33.709111652274395], [-84.49769133156018, 33.708420431110525], [-84.49797576488277, 33.70774927801641], [-84.49833753605961, 33.70710465603861], [-84.49844211560848, 33.7069577629822], [-84.49841045517535, 33.70691393589348], [-84.49804374167174, 33.70627126886859], [-84.4977541692373, 33.70560165449257], [-84.49774253779704, 33.70556336610919], [-84.49730879475295, 33.705582339934566], [-84.49661828934501, 33.70555583867108], [-84.49663447676359, 33.7056450787434], [-84.49667899746252, 33.70635611433434], [-84.49663991555296, 33.70706737316778], [-84.49651760536193, 33.707772005366905], [-84.4963132428235, 33.708463224709064], [-84.49602879423016, 33.70913437398968], [-84.49566699736657, 33.70977898914942], [-84.49523133520523, 33.71039086154685], [-84.49472600241465, 33.710964097775836], [-84.49415586500072, 33.711493176450674], [-84.49352641346853, 33.7119730014111], [-84.49284370995458, 33.71239895083362], [-84.49212757481958, 33.712760239772095], [-84.49217970775793, 33.71304770309919], [-84.49280311037879, 33.71317645595337], [-84.49303368605248, 33.71324471651635], [-84.49315469456917, 33.713249364079175], [-84.49399785012284, 33.71335160637378], [-84.49482495689107, 33.713522416425405], [-84.49562805121407, 33.71376014962444], [-84.49639940046532, 33.71406251699502], [-84.49661565883378, 33.714170056738695], [-84.49675340118114, 33.714175342917564], [-84.49749296355635, 33.71426500064795], [-84.49736788880023, 33.71357557941849], [-84.49732335818636, 33.71286454496362], [-84.4973624366728, 33.71215328659962]]]}, "properties": {"kind": "walkshed", "buffer_mi": 0.5}}, {"type": "Feature", "geometry": {"type": "Point", "coordinates": [-84.463632, 33.726856]}, "properties": {"kind": "stop", "name": "BEECHER RD SW@MT AIRY DR SW", "mode": "bus"}}, {"type": "Feature", "geometry": {"type": "Point", "coordinates": [-84.46232, 33.72821]}, "properties": {"kind": "stop", "name": "BEECHER RD SW@HIGHVIEW RD SW", "mode": "bus"}}, {"type": "Feature", "geometry": {"type": "Point", "coordinates": [-84.44532, 33.726519]}, "properties": {"kind": "stop", "name": "CASCADE AVE SW@ CASCADE CIR", "mode": "bus"}}, {"type": "Feature", "geometry": {"type": "Point", "coordinates": [-84.462341, 33.728084]}, "properties": {"kind": "stop", "name": "BEECHER RD SW@HIGHVIEW RD SW", "mode": "bus"}}, {"type": "Feature", "geometry": {"type": "Point", "coordinates": [-84.508054, 33.718561]}, "properties": {"kind": "stop", "name": "FAIRBURN RD @ NEWHALEM ST", "mode": "bus"}}, {"type": "Feature", "geometry": {"type": "Point", "coordinates": [-84.506113, 33.710416]}, "properties": {"kind": "stop", "name": "FAIRBURN RD @ 1581", "mode": "bus"}}, {"type": "Feature", "geometry": {"type": "Point", "coordinates": [-84.506189, 33.703326]}, "properties": {"kind": "stop", "name": "FAIRBURN RD SW @ GLENVIEW CIR SW", "mode": "bus"}}, {"type": "Feature", "geometry": {"type": "Point", "coordinates": [-84.506284, 33.701635]}, "properties": {"kind": "stop", "name": "FAIRBURN RD SW @ MT GILEAD RD SW", "mode": "bus"}}, {"type": "Feature", "geometry": {"type": "Point", "coordinates": [-84.50733, 33.698909]}, "properties": {"kind": "stop", "name": "BARGE RD SW @ FAIRBURN RD SW", "mode": "bus"}}, {"type": "Feature", "geometry": {"type": "Point", "coordinates": [-84.506653, 33.700061]}, "properties": {"kind": "stop", "name": "FAIRBURN RD SW @ HILL ACRES RD SW", "mode": "bus"}}, {"type": "Feature", "geometry": {"type": "Point", "coordinates": [-84.506177, 33.701514]}, "properties": {"kind": "stop", "name": "FAIRBURN RD SW @ MT GILEAD RD SW", "mode": "bus"}}, {"type": "Feature", "geometry": {"type": "Point", "coordinates": [-84.506005, 33.712841]}, "properties": {"kind": "stop", "name": "FAIRBURN RD SW @ LANDAU LN SW", "mode": "bus"}}, {"type": "Feature", "geometry": {"type": "Point", "coordinates": [-84.506053, 33.703473]}, "properties": {"kind": "stop", "name": "FAIRBURN RD @ GLENVIEW CIR", "mode": "bus"}}, {"type": "Feature", "geometry": {"type": "Point", "coordinates": [-84.506094, 33.712704]}, "properties": {"kind": "stop", "name": "FAIRBURN RD @ GARRISON DR", "mode": "bus"}}, {"type": "Feature", "geometry": {"type": "Point", "coordinates": [-84.506007, 33.710504]}, "properties": {"kind": "stop", "name": "FAIRBURN RD @ 1624", "mode": "bus"}}, {"type": "Feature", "geometry": {"type": "Point", "coordinates": [-84.48788, 33.71991]}, "properties": {"kind": "stop", "name": "CASCADE RD @ LYNHURST DR", "mode": "bus"}}, {"type": "Feature", "geometry": {"type": "Point", "coordinates": [-84.470487, 33.725326]}, "properties": {"kind": "stop", "name": "BENJAMIN E MAYS DR @ WILLIS MILL RD", "mode": "bus"}}, {"type": "Feature", "geometry": {"type": "Point", "coordinates": [-84.48254, 33.698657]}, "properties": {"kind": "stop", "name": "CAMPBELLTON RD SW @ MAXWELL DR SW", "mode": "bus"}}, {"type": "Feature", "geometry": {"type": "Point", "coordinates": [-84.479286, 33.700771]}, "properties": {"kind": "stop", "name": "CAMPBELLTON RD SW@ 2797", "mode": "bus"}}, {"type": "Feature", "geometry": {"type": "Point", "coordinates": [-84.478218, 33.7015]}, "properties": {"kind": "stop", "name": "CAMPBELLTON RD SW@HARBIN RD SW", "mode": "bus"}}, {"type": "Feature", "geometry": {"type": "Point", "coordinates": [-84.476308, 33.702279]}, "properties": {"kind": "stop", "name": "CAMPBELLTON RD SW @ DODSON DR SW", "mode": "bus"}}, {"type": "Feature", "geometry": {"type": "Point", "coordinates": [-84.474888, 33.702539]}, "properties": {"kind": "stop", "name": "CAMPBELLTON RD SW @ DODSON DR", "mode": "bus"}}, {"type": "Feature", "geometry": {"type": "Point", "coordinates": [-84.472748, 33.702551]}, "properties": {"kind": "stop", "name": "CAMPBELLTON RD SW@SANDRINGHAM DR", "mode": "bus"}}, {"type": "Feature", "geometry": {"type": "Point", "coordinates": [-84.469627, 33.702259]}, "properties": {"kind": "stop", "name": "CAMPBELLTON RD SW@WELLS DR SW", "mode": "bus"}}, {"type": "Feature", "geometry": {"type": "Point", "coordinates": [-84.469304, 33.702734]}, "properties": {"kind": "stop", "name": "CAMPBELLTON RD SW @ WELLS DR SW", "mode": "bus"}}, {"type": "Feature", "geometry": {"type": "Point", "coordinates": [-84.472379, 33.70265]}, "properties": {"kind": "stop", "name": "CAMPBELLTON RD SW@SANDRINGHAM DR SW", "mode": "bus"}}, {"type": "Feature", "geometry": {"type": "Point", "coordinates": [-84.476014, 33.702467]}, "properties": {"kind": "stop", "name": "CAMPBELLTON RD SW @ DODSON RD", "mode": "bus"}}, {"type": "Feature", "geometry": {"type": "Point", "coordinates": [-84.477625, 33.702106]}, "properties": {"kind": "stop", "name": "CAMPBELLTON RD SW @ 2775", "mode": "bus"}}, {"type": "Feature", "geometry": {"type": "Point", "coordinates": [-84.480202, 33.700611]}, "properties": {"kind": "stop", "name": "CAMPBELLTON RD SW@HARBIN RD", "mode": "bus"}}, {"type": "Feature", "geometry": {"type": "Point", "coordinates": [-84.483603, 33.698123]}, "properties": {"kind": "stop", "name": "CAMPBELLTON RD SW@MAXWELL DR SW", "mode": "bus"}}, {"type": "Feature", "geometry": {"type": "Point", "coordinates": [-84.488118, 33.722206]}, "properties": {"kind": "stop", "name": "LYNHURST DR SW@LYNWAY LN SW", "mode": "bus"}}, {"type": "Feature", "geometry": {"type": "Point", "coordinates": [-84.488081, 33.719959]}, "properties": {"kind": "stop", "name": "LYNHURST DR SW@CASCADE RD SW", "mode": "bus"}}, {"type": "Feature", "geometry": {"type": "Point", "coordinates": [-84.493068, 33.720904]}, "properties": {"kind": "stop", "name": "CASCADE RD SW@CASCADE FALLS DR", "mode": "bus"}}, {"type": "Feature", "geometry": {"type": "Point", "coordinates": [-84.495731, 33.721483]}, "properties": {"kind": "stop", "name": "CASCADE RD SW@KINGSDALE DR SW", "mode": "bus"}}, {"type": "Feature", "geometry": {"type": "Point", "coordinates": [-84.49593, 33.721398]}, "properties": {"kind": "stop", "name": "CASCADE RD SW@KINGSDALE DR SW", "mode": "bus"}}, {"type": "Feature", "geometry": {"type": "Point", "coordinates": [-84.492331, 33.720472]}, "properties": {"kind": "stop", "name": "CASCADE RD SW @ CASCADE FALLS DR", "mode": "bus"}}, {"type": "Feature", "geometry": {"type": "Point", "coordinates": [-84.490309, 33.720126]}, "properties": {"kind": "stop", "name": "CASCADE RD SW @ CHILDRESS DR", "mode": "bus"}}, {"type": "Feature", "geometry": {"type": "Point", "coordinates": [-84.484074, 33.715874]}, "properties": {"kind": "stop", "name": "HARBIN RD SW@1455", "mode": "bus"}}, {"type": "Feature", "geometry": {"type": "Point", "coordinates": [-84.483581, 33.713994]}, "properties": {"kind": "stop", "name": "HARBIN RD SW@1521", "mode": "bus"}}, {"type": "Feature", "geometry": {"type": "Point", "coordinates": [-84.483143, 33.712196]}, "properties": {"kind": "stop", "name": "HARBIN RD SW@WRIGHT DR SW", "mode": "bus"}}, {"type": "Feature", "geometry": {"type": "Point", "coordinates": [-84.483009, 33.710513]}, "properties": {"kind": "stop", "name": "HARBIN RD SW@1643", "mode": "bus"}}, {"type": "Feature", "geometry": {"type": "Point", "coordinates": [-84.482214, 33.709404]}, "properties": {"kind": "stop", "name": "HARBIN RD SW@LAURENS  SW", "mode": "bus"}}, {"type": "Feature", "geometry": {"type": "Point", "coordinates": [-84.481719, 33.70637]}, "properties": {"kind": "stop", "name": "HARBIN RD SW@LANDRUM DR SW", "mode": "bus"}}, {"type": "Feature", "geometry": {"type": "Point", "coordinates": [-84.483957, 33.706367]}, "properties": {"kind": "stop", "name": "LANDRUM DR SW @ DEVON DR SW", "mode": "bus"}}, {"type": "Feature", "geometry": {"type": "Point", "coordinates": [-84.486244, 33.706398]}, "properties": {"kind": "stop", "name": "LANDRUM DR @ 2929", "mode": "bus"}}, {"type": "Feature", "geometry": {"type": "Point", "coordinates": [-84.48794, 33.704643]}, "properties": {"kind": "stop", "name": "CHILDRESS DR SW@1860", "mode": "bus"}}, {"type": "Feature", "geometry": {"type": "Point", "coordinates": [-84.487339, 33.702889]}, "properties": {"kind": "stop", "name": "CHILDRESS DR SW@MCMURRAY DR SW", "mode": "bus"}}, {"type": "Feature", "geometry": {"type": "Point", "coordinates": [-84.486334, 33.700098]}, "properties": {"kind": "stop", "name": "CHILDRESS DR SW@2007", "mode": "bus"}}, {"type": "Feature", "geometry": {"type": "Point", "coordinates": [-84.486256, 33.698365]}, "properties": {"kind": "stop", "name": "CHILDRESS DR SW @ PANTHER TRL", "mode": "bus"}}, {"type": "Feature", "geometry": {"type": "Point", "coordinates": [-84.494674, 33.698286]}, "properties": {"kind": "stop", "name": "MT GILEAD RD SW@IMPERIAL CIR SW", "mode": "bus"}}, {"type": "Feature", "geometry": {"type": "Point", "coordinates": [-84.497281, 33.698327]}, "properties": {"kind": "stop", "name": "MT GILEAD RD SW @ MEADOWLANE DR SW", "mode": "bus"}}, {"type": "Feature", "geometry": {"type": "Point", "coordinates": [-84.494228, 33.698207]}, "properties": {"kind": "stop", "name": "MT GILEAD RD@PANTHER TRL", "mode": "bus"}}, {"type": "Feature", "geometry": {"type": "Point", "coordinates": [-84.483948, 33.717995]}, "properties": {"kind": "stop", "name": "HARBIN RD SW@1352", "mode": "bus"}}, {"type": "Feature", "geometry": {"type": "Point", "coordinates": [-84.483056, 33.712303]}, "properties": {"kind": "stop", "name": "HARBIN RD SW@WRIGHT DR SW", "mode": "bus"}}, {"type": "Feature", "geometry": {"type": "Point", "coordinates": [-84.483032, 33.711247]}, "properties": {"kind": "stop", "name": "HARBIN RD SW@1640", "mode": "bus"}}, {"type": "Feature", "geometry": {"type": "Point", "coordinates": [-84.48265, 33.710111]}, "properties": {"kind": "stop", "name": "HARBIN RD SW@1652", "mode": "bus"}}, {"type": "Feature", "geometry": {"type": "Point", "coordinates": [-84.482236, 33.709565]}, "properties": {"kind": "stop", "name": "HARBIN RD@LAURENS WAY SW", "mode": "bus"}}, {"type": "Feature", "geometry": {"type": "Point", "coordinates": [-84.481805, 33.706173]}, "properties": {"kind": "stop", "name": "LANDRUM DR SW@HARBIN RD SW", "mode": "bus"}}, {"type": "Feature", "geometry": {"type": "Point", "coordinates": [-84.484239, 33.706215]}, "properties": {"kind": "stop", "name": "LANDRUM DR SW @ DEVON DR SW", "mode": "bus"}}, {"type": "Feature", "geometry": {"type": "Point", "coordinates": [-84.487998, 33.706379]}, "properties": {"kind": "stop", "name": "LANDRUM DR SW @ CHILDRESS DR SW", "mode": "bus"}}, {"type": "Feature", "geometry": {"type": "Point", "coordinates": [-84.487828, 33.704598]}, "properties": {"kind": "stop", "name": "CHILDRESS DR SW@1860", "mode": "bus"}}, {"type": "Feature", "geometry": {"type": "Point", "coordinates": [-84.487007, 33.702579]}, "properties": {"kind": "stop", "name": "CHILDRESS DR SW@MCMURRAY DR SW", "mode": "bus"}}, {"type": "Feature", "geometry": {"type": "Point", "coordinates": [-84.486415, 33.700626]}, "properties": {"kind": "stop", "name": "CHILDRESS DR SW@2010", "mode": "bus"}}, {"type": "Feature", "geometry": {"type": "Point", "coordinates": [-84.486221, 33.698129]}, "properties": {"kind": "stop", "name": "PANTHER TRL SW@CHILDRESS DR SW", "mode": "bus"}}, {"type": "Feature", "geometry": {"type": "Point", "coordinates": [-84.490502, 33.698114]}, "properties": {"kind": "stop", "name": "PANTHER TRL SW @ STAR MIST DR SW", "mode": "bus"}}, {"type": "Feature", "geometry": {"type": "Point", "coordinates": [-84.496488, 33.698248]}, "properties": {"kind": "stop", "name": "MT GILEAD RD SW @ CASCADE PARC BLVD", "mode": "bus"}}, {"type": "Feature", "geometry": {"type": "Point", "coordinates": [-84.468055, 33.720827]}, "properties": {"kind": "stop", "name": "CASCADE RD SW @ WILLIS MILL RD SW", "mode": "bus"}}, {"type": "Feature", "geometry": {"type": "Point", "coordinates": [-84.471542, 33.720106]}, "properties": {"kind": "stop", "name": "CASCADE RD SW @ DODSON DR SW", "mode": "bus"}}, {"type": "Feature", "geometry": {"type": "Point", "coordinates": [-84.473628, 33.71971]}, "properties": {"kind": "stop", "name": "CASCADE RD SW @ WOODLAND TER SW", "mode": "bus"}}, {"type": "Feature", "geometry": {"type": "Point", "coordinates": [-84.48029, 33.720229]}, "properties": {"kind": "stop", "name": "CASCADE RD SW @ VELTRE CIR SW", "mode": "bus"}}, {"type": "Feature", "geometry": {"type": "Point", "coordinates": [-84.486212, 33.719899]}, "properties": {"kind": "stop", "name": "CASCADE RD SW@LYNWAY LN SW", "mode": "bus"}}, {"type": "Feature", "geometry": {"type": "Point", "coordinates": [-84.48293, 33.720073]}, "properties": {"kind": "stop", "name": "CASCADE RD SW @ HARBIN RD SW", "mode": "bus"}}, {"type": "Feature", "geometry": {"type": "Point", "coordinates": [-84.483354, 33.719921]}, "properties": {"kind": "stop", "name": "CASCADE RD SW @ HARBIN RD SW", "mode": "bus"}}, {"type": "Feature", "geometry": {"type": "Point", "coordinates": [-84.486386, 33.719827]}, "properties": {"kind": "stop", "name": "CASCADE RD SW @ ADAMS DR SW", "mode": "bus"}}, {"type": "Feature", "geometry": {"type": "Point", "coordinates": [-84.49011, 33.720257]}, "properties": {"kind": "stop", "name": "CASCADE RD SW@CHILDRESS DR", "mode": "bus"}}, {"type": "Feature", "geometry": {"type": "Point", "coordinates": [-84.48036, 33.720292]}, "properties": {"kind": "stop", "name": "CASCADE RD SW@VELTRE CIR", "mode": "bus"}}, {"type": "Feature", "geometry": {"type": "Point", "coordinates": [-84.473656, 33.719803]}, "properties": {"kind": "stop", "name": "CASCADE RD SW@WOODLAND TER SW", "mode": "bus"}}, {"type": "Feature", "geometry": {"type": "Point", "coordinates": [-84.468656, 33.72089]}, "properties": {"kind": "stop", "name": "CASCADE RD SW @ AUDUBON CT", "mode": "bus"}}, {"type": "Feature", "geometry": {"type": "Point", "coordinates": [-84.499747, 33.72277]}, "properties": {"kind": "stop", "name": "CASCADE RD @ SHANTER TRL", "mode": "bus"}}, {"type": "Feature", "geometry": {"type": "Point", "coordinates": [-84.489794, 33.698253]}, "properties": {"kind": "stop", "name": "PANTHER TRL@STAR MIST DR", "mode": "bus"}}, {"type": "Feature", "geometry": {"type": "Point", "coordinates": [-84.472281, 33.720025]}, "properties": {"kind": "stop", "name": "CASCADE RD@WILLIS MILL RD", "mode": "bus"}}, {"type": "Feature", "geometry": {"type": "Point", "coordinates": [-84.466473, 33.723138]}, "properties": {"kind": "stop", "name": "BENJAMIN E MAYS DR SW @ FLAMINGO DR NW", "mode": "bus"}}, {"type": "Feature", "geometry": {"type": "Point", "coordinates": [-84.459225, 33.705557]}, "properties": {"kind": "stop", "name": "CAMPBELLTON RD @ 2170", "mode": "bus"}}, {"type": "Feature", "geometry": {"type": "Point", "coordinates": [-84.457223, 33.706608]}, "properties": {"kind": "stop", "name": "CAMPBELLTON RD@DELOWE DR", "mode": "bus"}}, {"type": "Feature", "geometry": {"type": "Point", "coordinates": [-84.464232, 33.723053]}, "properties": {"kind": "stop", "name": "BEECHER RD SW @ BENJAMIN E MAYS DR SW", "mode": "bus"}}, {"type": "Feature", "geometry": {"type": "Point", "coordinates": [-84.463859, 33.725934]}, "properties": {"kind": "stop", "name": "BEECHER RD@MT AIRY DR", "mode": "bus"}}, {"type": "Feature", "geometry": {"type": "Point", "coordinates": [-84.464097, 33.725084]}, "properties": {"kind": "stop", "name": "BEECHER RD SW@2359", "mode": "bus"}}, {"type": "Feature", "geometry": {"type": "Point", "coordinates": [-84.466384, 33.703875]}, "properties": {"kind": "stop", "name": "CAMPBELLTON RD SW @ BENT CREEK WAY SW", "mode": "bus"}}, {"type": "Feature", "geometry": {"type": "Point", "coordinates": [-84.464713, 33.704068]}, "properties": {"kind": "stop", "name": "CAMPBELLTON RD@WILLIS MILL RD", "mode": "bus"}}, {"type": "Feature", "geometry": {"type": "Point", "coordinates": [-84.462715, 33.70454]}, "properties": {"kind": "stop", "name": "CAMPBELLTON RD SW @ 2280", "mode": "bus"}}, {"type": "Feature", "geometry": {"type": "Point", "coordinates": [-84.45079, 33.708794]}, "properties": {"kind": "stop", "name": "CAMPBELLTON RD SW@FORT VALLEY DR SW", "mode": "bus"}}, {"type": "Feature", "geometry": {"type": "Point", "coordinates": [-84.446926, 33.710807]}, "properties": {"kind": "stop", "name": "CAMPBELLTON RD SW @ WILLOWBROOK DR", "mode": "bus"}}, {"type": "Feature", "geometry": {"type": "Point", "coordinates": [-84.434262, 33.714463]}, "properties": {"kind": "stop", "name": "CAMPBELLTON RD SW@VENETIAN DR SW", "mode": "bus"}}, {"type": "Feature", "geometry": {"type": "Point", "coordinates": [-84.437032, 33.713664]}, "properties": {"kind": "stop", "name": "CAMPBELLTON RD SW@1473", "mode": "bus"}}, {"type": "Feature", "geometry": {"type": "Point", "coordinates": [-84.439464, 33.712713]}, "properties": {"kind": "stop", "name": "CAMPBELLTON RD SW@ALMA ST SW", "mode": "bus"}}, {"type": "Feature", "geometry": {"type": "Point", "coordinates": [-84.441931, 33.711914]}, "properties": {"kind": "stop", "name": "CAMPBELLTON RD SW @ RIDGEWOOD LN SW", "mode": "bus"}}, {"type": "Feature", "geometry": {"type": "Point", "coordinates": [-84.44446, 33.711517]}, "properties": {"kind": "stop", "name": "CAMPBELLTON RD SW@STANTON RD SW", "mode": "bus"}}, {"type": "Feature", "geometry": {"type": "Point", "coordinates": [-84.446836, 33.711001]}, "properties": {"kind": "stop", "name": "CAMPBELLTON RD SW @ WILLOWBROOK DR SW", "mode": "bus"}}, {"type": "Feature", "geometry": {"type": "Point", "coordinates": [-84.449141, 33.70974]}, "properties": {"kind": "stop", "name": "CAMPBELLTON RD SW @ 1843", "mode": "bus"}}, {"type": "Feature", "geometry": {"type": "Point", "coordinates": [-84.451497, 33.708797]}, "properties": {"kind": "stop", "name": "CAMPBELLTON RD SW @ TIMOTHY DR SW", "mode": "bus"}}, {"type": "Feature", "geometry": {"type": "Point", "coordinates": [-84.459409, 33.705915]}, "properties": {"kind": "stop", "name": "CAMPBELLTON RD SW@2191", "mode": "bus"}}, {"type": "Feature", "geometry": {"type": "Point", "coordinates": [-84.46505, 33.704308]}, "properties": {"kind": "stop", "name": "CAMPBELLTON RD SW @ WILLIS MILL RD SW", "mode": "bus"}}, {"type": "Feature", "geometry": {"type": "Point", "coordinates": [-84.461106, 33.70538]}, "properties": {"kind": "stop", "name": "CAMPBELLTON RD SW @ 2231", "mode": "bus"}}, {"type": "Feature", "geometry": {"type": "Point", "coordinates": [-84.444652, 33.711136]}, "properties": {"kind": "stop", "name": "CAMPBELLTON RD SW @ STANTON RD SW", "mode": "bus"}}, {"type": "Feature", "geometry": {"type": "Point", "coordinates": [-84.442171, 33.711455]}, "properties": {"kind": "stop", "name": "CAMPBELLTON RD SW @ RIDGEWOOD LN SW", "mode": "bus"}}, {"type": "Feature", "geometry": {"type": "Point", "coordinates": [-84.439666, 33.712264]}, "properties": {"kind": "stop", "name": "CAMPBELLTON RD SW@ALMA ST SW", "mode": "bus"}}, {"type": "Feature", "geometry": {"type": "Point", "coordinates": [-84.436282, 33.713683]}, "properties": {"kind": "stop", "name": "CAMPBELLTON RD SW @ 1469", "mode": "bus"}}, {"type": "Feature", "geometry": {"type": "Point", "coordinates": [-84.43433, 33.71413]}, "properties": {"kind": "stop", "name": "CAMPBELLTON RD SW @ VENETIAN DR SW", "mode": "bus"}}, {"type": "Feature", "geometry": {"type": "Point", "coordinates": [-84.443977, 33.710983]}, "properties": {"kind": "stop", "name": "STANTON RD@CAMPBELLTON RD", "mode": "bus"}}, {"type": "Feature", "geometry": {"type": "Point", "coordinates": [-84.444084, 33.70929]}, "properties": {"kind": "stop", "name": "STANTON RD@1665", "mode": "bus"}}, {"type": "Feature", "geometry": {"type": "Point", "coordinates": [-84.444069, 33.708538]}, "properties": {"kind": "stop", "name": "STANTON RD@MARCEL AVE", "mode": "bus"}}, {"type": "Feature", "geometry": {"type": "Point", "coordinates": [-84.44413, 33.707428]}, "properties": {"kind": "stop", "name": "STANTON RD@LESLIE AVE", "mode": "bus"}}, {"type": "Feature", "geometry": {"type": "Point", "coordinates": [-84.444145, 33.706234]}, "properties": {"kind": "stop", "name": "STANTON RD@LAKE AVE SW", "mode": "bus"}}, {"type": "Feature", "geometry": {"type": "Point", "coordinates": [-84.45118, 33.700165]}, "properties": {"kind": "stop", "name": "ALISON CT@1935", "mode": "bus"}}, {"type": "Feature", "geometry": {"type": "Point", "coordinates": [-84.452583, 33.700661]}, "properties": {"kind": "stop", "name": "ALISON CT@PLAZA LN", "mode": "bus"}}, {"type": "Feature", "geometry": {"type": "Point", "coordinates": [-84.454866, 33.700786]}, "properties": {"kind": "stop", "name": "ALISON CT @ MYRTLE DR SW", "mode": "bus"}}, {"type": "Feature", "geometry": {"type": "Point", "coordinates": [-84.457619, 33.705395]}, "properties": {"kind": "stop", "name": "DELOWE DR @ CAMPBELLTON RD", "mode": "bus"}}, {"type": "Feature", "geometry": {"type": "Point", "coordinates": [-84.454743, 33.700657]}, "properties": {"kind": "stop", "name": "ALISON CT SW@MYRTLE DR SW", "mode": "bus"}}, {"type": "Feature", "geometry": {"type": "Point", "coordinates": [-84.452843, 33.700645]}, "properties": {"kind": "stop", "name": "ALISON CT@PLAZA LN SW", "mode": "bus"}}, {"type": "Feature", "geometry": {"type": "Point", "coordinates": [-84.451515, 33.699852]}, "properties": {"kind": "stop", "name": "ALISON CT @ 1935", "mode": "bus"}}, {"type": "Feature", "geometry": {"type": "Point", "coordinates": [-84.443756, 33.705906]}, "properties": {"kind": "stop", "name": "STANTON RD@LAKE AVE SW", "mode": "bus"}}, {"type": "Feature", "geometry": {"type": "Point", "coordinates": [-84.443726, 33.707214]}, "properties": {"kind": "stop", "name": "STANTON RD@LESLIE AVE", "mode": "bus"}}, {"type": "Feature", "geometry": {"type": "Point", "coordinates": [-84.44371, 33.708378]}, "properties": {"kind": "stop", "name": "STANTON RD@MARCEL AVE", "mode": "bus"}}, {"type": "Feature", "geometry": {"type": "Point", "coordinates": [-84.44368, 33.709765]}, "properties": {"kind": "stop", "name": "STANTON RD@1600", "mode": "bus"}}, {"type": "Feature", "geometry": {"type": "Point", "coordinates": [-84.443624, 33.711436]}, "properties": {"kind": "stop", "name": "STANTON RD@CAMPBELLTON RD", "mode": "bus"}}, {"type": "Feature", "geometry": {"type": "Point", "coordinates": [-84.445198, 33.717468]}, "properties": {"kind": "stop", "name": "SANDTOWN RD SW@LOCKHAVEN CIR", "mode": "bus"}}, {"type": "Feature", "geometry": {"type": "Point", "coordinates": [-84.446937, 33.717879]}, "properties": {"kind": "stop", "name": "WESTRIDGE RD@SANDTOWN RD", "mode": "bus"}}, {"type": "Feature", "geometry": {"type": "Point", "coordinates": [-84.446793, 33.715991]}, "properties": {"kind": "stop", "name": "WESTRIDGE RD SW@BAYBERRY DR SW", "mode": "bus"}}, {"type": "Feature", "geometry": {"type": "Point", "coordinates": [-84.446736, 33.714702]}, "properties": {"kind": "stop", "name": "WESTRIDGE RD SW@VENETIAN DR SW", "mode": "bus"}}, {"type": "Feature", "geometry": {"type": "Point", "coordinates": [-84.448578, 33.714737]}, "properties": {"kind": "stop", "name": "VENETIAN DR SW@ALDER LN SW", "mode": "bus"}}, {"type": "Feature", "geometry": {"type": "Point", "coordinates": [-84.449455, 33.714745]}, "properties": {"kind": "stop", "name": "VENETIAN DR SW@CAHABA DR SW", "mode": "bus"}}, {"type": "Feature", "geometry": {"type": "Point", "coordinates": [-84.451669, 33.714777]}, "properties": {"kind": "stop", "name": "VENETIAN DR SW@PINEHURST DR SW", "mode": "bus"}}, {"type": "Feature", "geometry": {"type": "Point", "coordinates": [-84.453339, 33.714798]}, "properties": {"kind": "stop", "name": "VENETIAN DR SW@CENTRA VILLA DR SW", "mode": "bus"}}, {"type": "Feature", "geometry": {"type": "Point", "coordinates": [-84.443092, 33.716518]}, "properties": {"kind": "stop", "name": "SANDTOWN RD SW@WICHITA DR", "mode": "bus"}}, {"type": "Feature", "geometry": {"type": "Point", "coordinates": [-84.455548, 33.707611]}, "properties": {"kind": "stop", "name": "CENTRA VILLA DR SW @ CAMPBELLTON RD SW", "mode": "bus"}}, {"type": "Feature", "geometry": {"type": "Point", "coordinates": [-84.454814, 33.711032]}, "properties": {"kind": "stop", "name": "CENTRA VILLA DR SW @ HONEYSUCKLE SW", "mode": "bus"}}, {"type": "Feature", "geometry": {"type": "Point", "coordinates": [-84.454197, 33.712482]}, "properties": {"kind": "stop", "name": "CENTRA VILLA DR SW @ E CEDAR LN SW", "mode": "bus"}}, {"type": "Feature", "geometry": {"type": "Point", "coordinates": [-84.451985, 33.714741]}, "properties": {"kind": "stop", "name": "VENETIAN DR SW@PINEHURST DR SW", "mode": "bus"}}, {"type": "Feature", "geometry": {"type": "Point", "coordinates": [-84.449616, 33.714654]}, "properties": {"kind": "stop", "name": "VENETIAN DR SW@CAHABA DR SW", "mode": "bus"}}, {"type": "Feature", "geometry": {"type": "Point", "coordinates": [-84.448323, 33.714655]}, "properties": {"kind": "stop", "name": "VENETIAN DR SW@ALDER  SW", "mode": "bus"}}, {"type": "Feature", "geometry": {"type": "Point", "coordinates": [-84.446736, 33.714603]}, "properties": {"kind": "stop", "name": "VENETIAN DR SW@WILLOWBROOK DR SW", "mode": "bus"}}, {"type": "Feature", "geometry": {"type": "Point", "coordinates": [-84.446658, 33.71605]}, "properties": {"kind": "stop", "name": "WESTRIDGE RD SW@BAYBERRY DR SW", "mode": "bus"}}, {"type": "Feature", "geometry": {"type": "Point", "coordinates": [-84.44673, 33.717459]}, "properties": {"kind": "stop", "name": "WESTRIDGE RD SW@CUMMINGS DR SW", "mode": "bus"}}, {"type": "Feature", "geometry": {"type": "Point", "coordinates": [-84.445179, 33.726555]}, "properties": {"kind": "stop", "name": "CASCADE AVE SW @ CASCADE CIR SW", "mode": "bus"}}, {"type": "Feature", "geometry": {"type": "Point", "coordinates": [-84.447609, 33.72506]}, "properties": {"kind": "stop", "name": "CASCADE AVE SW@1113", "mode": "bus"}}, {"type": "Feature", "geometry": {"type": "Point", "coordinates": [-84.447176, 33.725174]}, "properties": {"kind": "stop", "name": "CASCADE AVE SW@1120", "mode": "bus"}}, {"type": "Feature", "geometry": {"type": "Point", "coordinates": [-84.449977, 33.723471]}, "properties": {"kind": "stop", "name": "CASCADE AVE SW @ CASCADE CIR SW", "mode": "bus"}}, {"type": "Feature", "geometry": {"type": "Point", "coordinates": [-84.45027, 33.723175]}, "properties": {"kind": "stop", "name": "CASCADE AVE SW @ AVON AVE SW", "mode": "bus"}}, {"type": "Feature", "geometry": {"type": "Point", "coordinates": [-84.452029, 33.721938]}, "properties": {"kind": "stop", "name": "CASCADE RD SW @ CENTRA VILLA DR SW", "mode": "bus"}}, {"type": "Feature", "geometry": {"type": "Point", "coordinates": [-84.452011, 33.722118]}, "properties": {"kind": "stop", "name": "CASCADE RD SW@CENTRA VILLA DR SW", "mode": "bus"}}, {"type": "Feature", "geometry": {"type": "Point", "coordinates": [-84.455549, 33.721316]}, "properties": {"kind": "stop", "name": "CASCADE RD SW @ POLLARD DR SW", "mode": "bus"}}, {"type": "Feature", "geometry": {"type": "Point", "coordinates": [-84.455509, 33.721457]}, "properties": {"kind": "stop", "name": "CASCADE RD SW@POLLARD DR SW", "mode": "bus"}}, {"type": "Feature", "geometry": {"type": "Point", "coordinates": [-84.458451, 33.721921]}, "properties": {"kind": "stop", "name": "CASCADE RD SW @ BOULEVARD LORRAINE SW", "mode": "bus"}}, {"type": "Feature", "geometry": {"type": "Point", "coordinates": [-84.466122, 33.721501]}, "properties": {"kind": "stop", "name": "CASCADE RD SW @ VENETIAN DR SW", "mode": "bus"}}, {"type": "Feature", "geometry": {"type": "Point", "coordinates": [-84.46168, 33.722491]}, "properties": {"kind": "stop", "name": "CASCADE RD SW@DOLPHIN DR SW", "mode": "bus"}}, {"type": "Feature", "geometry": {"type": "Point", "coordinates": [-84.446002, 33.717728]}, "properties": {"kind": "stop", "name": "SANDTOWN RD SW@WESTRIDGE RD", "mode": "bus"}}, {"type": "Feature", "geometry": {"type": "Point", "coordinates": [-84.443828, 33.716934]}, "properties": {"kind": "stop", "name": "SANDTOWN RD SW@MORAY ST SW", "mode": "bus"}}, {"type": "Feature", "geometry": {"type": "Point", "coordinates": [-84.442609, 33.716111]}, "properties": {"kind": "stop", "name": "SANDTOWN RD SW@WICHITA DR SW", "mode": "bus"}}, {"type": "Feature", "geometry": {"type": "Point", "coordinates": [-84.442109, 33.715763]}, "properties": {"kind": "stop", "name": "SANDTOWN RD SW@WICHITA DR SW", "mode": "bus"}}, {"type": "Feature", "geometry": {"type": "Point", "coordinates": [-84.441326, 33.715217]}, "properties": {"kind": "stop", "name": "SANDTOWN RD SW@ANIWAKA AVE SW", "mode": "bus"}}, {"type": "Feature", "geometry": {"type": "Point", "coordinates": [-84.440423, 33.714628]}, "properties": {"kind": "stop", "name": "SANDTOWN RD SW@VENETIAN DR SW", "mode": "bus"}}, {"type": "Feature", "geometry": {"type": "Point", "coordinates": [-84.439749, 33.714548]}, "properties": {"kind": "stop", "name": "VENETIAN DR SW@WILLOW TRL SW", "mode": "bus"}}, {"type": "Feature", "geometry": {"type": "Point", "coordinates": [-84.438717, 33.714558]}, "properties": {"kind": "stop", "name": "VENETIAN DR SW@LOCKWOOD DR SW", "mode": "bus"}}, {"type": "Feature", "geometry": {"type": "Point", "coordinates": [-84.437569, 33.714802]}, "properties": {"kind": "stop", "name": "WESTMONT RD SW@VENETIAN DR SW", "mode": "bus"}}, {"type": "Feature", "geometry": {"type": "Point", "coordinates": [-84.437599, 33.716553]}, "properties": {"kind": "stop", "name": "WESTMONT RD SW@1420", "mode": "bus"}}, {"type": "Feature", "geometry": {"type": "Point", "coordinates": [-84.464157, 33.722965]}, "properties": {"kind": "stop", "name": "BEECHER RD SW @ BENJAMIN E MAYS DR SW", "mode": "bus"}}, {"type": "Feature", "geometry": {"type": "Point", "coordinates": [-84.463989, 33.724716]}, "properties": {"kind": "stop", "name": "BEECHER RD SW@2356", "mode": "bus"}}, {"type": "Feature", "geometry": {"type": "Point", "coordinates": [-84.463679, 33.726097]}, "properties": {"kind": "stop", "name": "BEECHER RD SW @ 2320", "mode": "bus"}}, {"type": "Feature", "geometry": {"type": "Point", "coordinates": [-84.466122, 33.721313]}, "properties": {"kind": "stop", "name": "CASCADE RD SW @ VENETIAN DR SW", "mode": "bus"}}, {"type": "Feature", "geometry": {"type": "Point", "coordinates": [-84.443863, 33.717079]}, "properties": {"kind": "stop", "name": "SANDTOWN RD SW@LOCKHAVEN CIR SW", "mode": "bus"}}, {"type": "Feature", "geometry": {"type": "Point", "coordinates": [-84.441994, 33.715782]}, "properties": {"kind": "stop", "name": "SANDTOWN RD SW@WICHITA DR SW", "mode": "bus"}}, {"type": "Feature", "geometry": {"type": "Point", "coordinates": [-84.441399, 33.715347]}, "properties": {"kind": "stop", "name": "SANDTOWN RD SW@ANIWAKA AVE SW", "mode": "bus"}}, {"type": "Feature", "geometry": {"type": "Point", "coordinates": [-84.440358, 33.714708]}, "properties": {"kind": "stop", "name": "SANDTOWN RD SW@VENETIAN DR SW", "mode": "bus"}}, {"type": "Feature", "geometry": {"type": "Point", "coordinates": [-84.439636, 33.714653]}, "properties": {"kind": "stop", "name": "VENETIAN DR SW@WILLOW TRL SW", "mode": "bus"}}, {"type": "Feature", "geometry": {"type": "Point", "coordinates": [-84.43792, 33.714642]}, "properties": {"kind": "stop", "name": "WESTMONT RD SW@VENETIAN DR SW", "mode": "bus"}}, {"type": "Feature", "geometry": {"type": "Point", "coordinates": [-84.437688, 33.716609]}, "properties": {"kind": "stop", "name": "WESTMONT RD SW@1411", "mode": "bus"}}, {"type": "Feature", "geometry": {"type": "Point", "coordinates": [-84.457984, 33.721743]}, "properties": {"kind": "stop", "name": "CASCADE RD SW @ BOULEVARD LORRAINE SW", "mode": "bus"}}, {"type": "Feature", "geometry": {"type": "Point", "coordinates": [-84.455263, 33.707124]}, "properties": {"kind": "stop", "name": "CAMPBELLTON RD SW @ MYRTLE DR SW", "mode": "bus"}}, {"type": "Feature", "geometry": {"type": "Point", "coordinates": [-84.453484, 33.707963]}, "properties": {"kind": "stop", "name": "CAMPBELLTON RD @ HONEYSUCKLE LN", "mode": "bus"}}, {"type": "Feature", "geometry": {"type": "Point", "coordinates": [-84.453212, 33.708192]}, "properties": {"kind": "stop", "name": "CAMPBELLTON RD @ HONEYSUCKLE LN", "mode": "bus"}}, {"type": "Feature", "geometry": {"type": "Point", "coordinates": [-84.457545, 33.706301]}, "properties": {"kind": "stop", "name": "CAMPBELLTON RD@DELOWE DR", "mode": "bus"}}, {"type": "Feature", "geometry": {"type": "Point", "coordinates": [-84.455532, 33.707257]}, "properties": {"kind": "stop", "name": "CAMPBELLTON RD @ CENTRA VILLA DR", "mode": "bus"}}, {"type": "Feature", "geometry": {"type": "Point", "coordinates": [-84.46656, 33.704007]}, "properties": {"kind": "stop", "name": "CAMPBELLTON RD@BENT CREEK WAY", "mode": "bus"}}, {"type": "Feature", "geometry": {"type": "Point", "coordinates": [-84.463556, 33.726758]}, "properties": {"kind": "stop", "name": "BEECHER RD @ MT AIRY DR", "mode": "bus"}}, {"type": "Feature", "geometry": {"type": "Point", "coordinates": [-84.464254, 33.722031]}, "properties": {"kind": "stop", "name": "CASCADE RD SW @ BOULEVARD GRANADA SW", "mode": "bus"}}, {"type": "Feature", "geometry": {"type": "Point", "coordinates": [-84.448274, 33.709861]}, "properties": {"kind": "stop", "name": "CAMPBELLTON RD SW @ 1870", "mode": "bus"}}, {"type": "Feature", "geometry": {"type": "Point", "coordinates": [-84.506289, 33.690096]}, "properties": {"kind": "stop", "name": "CAMPBELLTON RD SW @ BARGE RD SW", "mode": "bus"}}, {"type": "Feature", "geometry": {"type": "Point", "coordinates": [-84.506364, 33.689084]}, "properties": {"kind": "stop", "name": "BARGE RD SW @ CAMPBELLTON RD SW", "mode": "bus"}}, {"type": "Feature", "geometry": {"type": "Point", "coordinates": [-84.506209, 33.688216]}, "properties": {"kind": "stop", "name": "BARGE RD SW @ 2440", "mode": "bus"}}, {"type": "Feature", "geometry": {"type": "Point", "coordinates": [-84.506303, 33.686631]}, "properties": {"kind": "stop", "name": "BARGE RD SW @ MELLWOOD PL SW", "mode": "bus"}}, {"type": "Feature", "geometry": {"type": "Point", "coordinates": [-84.506216, 33.686605]}, "properties": {"kind": "stop", "name": "BARGE RD SW @ MELLWOOD PL SW", "mode": "bus"}}, {"type": "Feature", "geometry": {"type": "Point", "coordinates": [-84.506342, 33.684635]}, "properties": {"kind": "stop", "name": "BARGE RD SW @ BUNKER HILL DR SW", "mode": "bus"}}, {"type": "Feature", "geometry": {"type": "Point", "coordinates": [-84.506238, 33.684403]}, "properties": {"kind": "stop", "name": "BARGE RD SW @ BUNKER HILL DR SW", "mode": "bus"}}, {"type": "Feature", "geometry": {"type": "Point", "coordinates": [-84.505914, 33.682854]}, "properties": {"kind": "stop", "name": "GREENBRIAR PKWY SW @ BARGE RD SW", "mode": "bus"}}, {"type": "Feature", "geometry": {"type": "Point", "coordinates": [-84.503503, 33.682966]}, "properties": {"kind": "stop", "name": "GREENBRIAR PKWY SW @ 3480", "mode": "bus"}}, {"type": "Feature", "geometry": {"type": "Point", "coordinates": [-84.504494, 33.682972]}, "properties": {"kind": "stop", "name": "GREENBRIAR PKWY SW @ 3480", "mode": "bus"}}, {"type": "Feature", "geometry": {"type": "Point", "coordinates": [-84.506088, 33.682926]}, "properties": {"kind": "stop", "name": "GREENBRIAR PKWY SW @ BARGE RD SW", "mode": "bus"}}, {"type": "Feature", "geometry": {"type": "Point", "coordinates": [-84.506295, 33.697457]}, "properties": {"kind": "stop", "name": "BARGE RD SW @ BEN HILL CT", "mode": "bus"}}, {"type": "Feature", "geometry": {"type": "Point", "coordinates": [-84.506303, 33.694445]}, "properties": {"kind": "stop", "name": "BARGE RD @ PINE KNOLL AVE", "mode": "bus"}}, {"type": "Feature", "geometry": {"type": "Point", "coordinates": [-84.506259, 33.693077]}, "properties": {"kind": "stop", "name": "BARGE RD SW @ PACIFIC DR SW", "mode": "bus"}}, {"type": "Feature", "geometry": {"type": "Point", "coordinates": [-84.506289, 33.690332]}, "properties": {"kind": "stop", "name": "BARGE RD SW @ CAMPBELLTON RD SW", "mode": "bus"}}, {"type": "Feature", "geometry": {"type": "Point", "coordinates": [-84.507713, 33.690083]}, "properties": {"kind": "stop", "name": "CAMPBELLTON RD SW@3667", "mode": "bus"}}, {"type": "Feature", "geometry": {"type": "Point", "coordinates": [-84.506859, 33.674229]}, "properties": {"kind": "stop", "name": "HOGAN RD SW @ CAMBRIDGE DR SW", "mode": "bus"}}, {"type": "Feature", "geometry": {"type": "Point", "coordinates": [-84.507864, 33.689986]}, "properties": {"kind": "stop", "name": "CAMPBELLTON RD SW@3660", "mode": "bus"}}, {"type": "Feature", "geometry": {"type": "Point", "coordinates": [-84.506527, 33.674775]}, "properties": {"kind": "stop", "name": "HOGAN RD@CAMBRIDGE DR", "mode": "bus"}}, {"type": "Feature", "geometry": {"type": "Point", "coordinates": [-84.504127, 33.675095]}, "properties": {"kind": "stop", "name": "HOGAN RD@STONE RD", "mode": "bus"}}, {"type": "Feature", "geometry": {"type": "Point", "coordinates": [-84.506268, 33.695401]}, "properties": {"kind": "stop", "name": "BARGE RD @ HIGHWOOD DR", "mode": "bus"}}, {"type": "Feature", "geometry": {"type": "Point", "coordinates": [-84.496483, 33.686172]}, "properties": {"kind": "stop", "name": "GREENBRIAR PKWY SW @ 3268", "mode": "bus"}}, {"type": "Feature", "geometry": {"type": "Point", "coordinates": [-84.493844, 33.68631]}, "properties": {"kind": "stop", "name": "GREENBRIAR PKWY SW @ 3170", "mode": "bus"}}, {"type": "Feature", "geometry": {"type": "Point", "coordinates": [-84.49015, 33.692724]}, "properties": {"kind": "stop", "name": "CAMPBELLTON RD@GREENBRIAR PKY", "mode": "bus"}}, {"type": "Feature", "geometry": {"type": "Point", "coordinates": [-84.488538, 33.694079]}, "properties": {"kind": "stop", "name": "CAMPBELLTON RD SW@STAR MIST DR", "mode": "bus"}}, {"type": "Feature", "geometry": {"type": "Point", "coordinates": [-84.485685, 33.696312]}, "properties": {"kind": "stop", "name": "CAMPBELLTON RD SW @ CHILDRESS DR SW", "mode": "bus"}}, {"type": "Feature", "geometry": {"type": "Point", "coordinates": [-84.487161, 33.695397]}, "properties": {"kind": "stop", "name": "CAMPBELLTON RD SW@CHILDRESS DR SW", "mode": "bus"}}, {"type": "Feature", "geometry": {"type": "Point", "coordinates": [-84.489079, 33.694081]}, "properties": {"kind": "stop", "name": "CAMPBELLTON RD SW@STAR MIST DR", "mode": "bus"}}, {"type": "Feature", "geometry": {"type": "Point", "coordinates": [-84.489695, 33.691526]}, "properties": {"kind": "stop", "name": "GREENBRIAR PKWY SW @ CAMPBELLTON RD SW", "mode": "bus"}}, {"type": "Feature", "geometry": {"type": "Point", "coordinates": [-84.489082, 33.689665]}, "properties": {"kind": "stop", "name": "GREENBRIAR PKWY SW @ HEADLAND DR SW", "mode": "bus"}}, {"type": "Feature", "geometry": {"type": "Point", "coordinates": [-84.489702, 33.688256]}, "properties": {"kind": "stop", "name": "GREENBRIAR PKWY @ THE FONTAINEBLEAU", "mode": "bus"}}, {"type": "Feature", "geometry": {"type": "Point", "coordinates": [-84.491617, 33.686385]}, "properties": {"kind": "stop", "name": "GREENBRIAR PKWY SW @ CONTINENTAL COLONY PKWY SW", "mode": "bus"}}, {"type": "Feature", "geometry": {"type": "Point", "coordinates": [-84.493757, 33.686382]}, "properties": {"kind": "stop", "name": "GREENBRIAR PKWY SW @ 3170", "mode": "bus"}}, {"type": "Feature", "geometry": {"type": "Point", "coordinates": [-84.49757, 33.696608]}, "properties": {"kind": "stop", "name": "MEADOWLANE DR SW@2153", "mode": "bus"}}, {"type": "Feature", "geometry": {"type": "Point", "coordinates": [-84.492166, 33.693984]}, "properties": {"kind": "stop", "name": "DALE LN SW@MT GILEAD RD SW", "mode": "bus"}}, {"type": "Feature", "geometry": {"type": "Point", "coordinates": [-84.495881, 33.694113]}, "properties": {"kind": "stop", "name": "DALE LN SW @ COUNTRY CLUB LN SW", "mode": "bus"}}, {"type": "Feature", "geometry": {"type": "Point", "coordinates": [-84.49118, 33.69318]}, "properties": {"kind": "stop", "name": "MT GILEAD RD SW@CAMPBELLTON RD SW", "mode": "bus"}}, {"type": "Feature", "geometry": {"type": "Point", "coordinates": [-84.49062, 33.69259]}, "properties": {"kind": "stop", "name": "MT GILEAD RD SW @ CAMPBELLTON RD SW", "mode": "bus"}}, {"type": "Feature", "geometry": {"type": "Point", "coordinates": [-84.491747, 33.685884]}, "properties": {"kind": "stop", "name": "CONTINENTAL COLONY PKWY SW @ GREENBRIAR PKWY SW", "mode": "bus"}}, {"type": "Feature", "geometry": {"type": "Point", "coordinates": [-84.492418, 33.68497]}, "properties": {"kind": "stop", "name": "CONTINENTAL COLONY PKY@RIVIERA DR", "mode": "bus"}}, {"type": "Feature", "geometry": {"type": "Point", "coordinates": [-84.49219, 33.684693]}, "properties": {"kind": "stop", "name": "CONTINENTAL COLONY PKWY SW @ RIVIERA DR", "mode": "bus"}}, {"type": "Feature", "geometry": {"type": "Point", "coordinates": [-84.494761, 33.678386]}, "properties": {"kind": "stop", "name": "CONTINENTAL COLONY PKWY SW @ HOGAN RD SW", "mode": "bus"}}, {"type": "Feature", "geometry": {"type": "Point", "coordinates": [-84.497162, 33.676098]}, "properties": {"kind": "stop", "name": "STONE HOGAN RD CONNE@CAMP CREEK", "mode": "bus"}}, {"type": "Feature", "geometry": {"type": "Point", "coordinates": [-84.49696, 33.67602]}, "properties": {"kind": "stop", "name": "STONE HOGAN CONNECTOR SW @ 2950", "mode": "bus"}}, {"type": "Feature", "geometry": {"type": "Point", "coordinates": [-84.497021, 33.673782]}, "properties": {"kind": "stop", "name": "STONE HOGAN CONNECTOR SW @ N CAMP CREEK PKWY", "mode": "bus"}}, {"type": "Feature", "geometry": {"type": "Point", "coordinates": [-84.497307, 33.673592]}, "properties": {"kind": "stop", "name": "STONE HOGAN RD CONNE@CAMP CREEK", "mode": "bus"}}, {"type": "Feature", "geometry": {"type": "Point", "coordinates": [-84.500683, 33.672117]}, "properties": {"kind": "stop", "name": "N CAMP CREEK PKY SW @ STONE RD SW", "mode": "bus"}}, {"type": "Feature", "geometry": {"type": "Point", "coordinates": [-84.500493, 33.672613]}, "properties": {"kind": "stop", "name": "N CAMP CREEK PKWY SW @ STONE RD SW", "mode": "bus"}}, {"type": "Feature", "geometry": {"type": "Point", "coordinates": [-84.503377, 33.670361]}, "properties": {"kind": "stop", "name": "N CAMP CREEK PKY SW @ 3540", "mode": "bus"}}, {"type": "Feature", "geometry": {"type": "Point", "coordinates": [-84.488115, 33.68955]}, "properties": {"kind": "stop", "name": "HEADLAND DR SW @ GREENBRIAR PKY SW", "mode": "bus"}}, {"type": "Feature", "geometry": {"type": "Point", "coordinates": [-84.48779, 33.689613]}, "properties": {"kind": "stop", "name": "HEADLAND DR SW @ GREENBRIAR PKY SW", "mode": "bus"}}, {"type": "Feature", "geometry": {"type": "Point", "coordinates": [-84.491981, 33.693976]}, "properties": {"kind": "stop", "name": "MT GILEAD RD SW@DALE LN", "mode": "bus"}}, {"type": "Feature", "geometry": {"type": "Point", "coordinates": [-84.489785, 33.688008]}, "properties": {"kind": "stop", "name": "GREENBRIAR PKWY @ THE FONTAINEBLEAU SW", "mode": "bus"}}, {"type": "Feature", "geometry": {"type": "Point", "coordinates": [-84.502318, 33.673653]}, "properties": {"kind": "stop", "name": "STONE RD@MEADOWBRIDGE DR", "mode": "bus"}}, {"type": "Feature", "geometry": {"type": "Point", "coordinates": [-84.501997, 33.673815]}, "properties": {"kind": "stop", "name": "STONE RD@MEADOWBRIDGE DR", "mode": "bus"}}, {"type": "Feature", "geometry": {"type": "Point", "coordinates": [-84.493737, 33.682273]}, "properties": {"kind": "stop", "name": "CONTINENTAL COLONY PKWY SW @ 3030", "mode": "bus"}}, {"type": "Feature", "geometry": {"type": "Point", "coordinates": [-84.495357, 33.677974]}, "properties": {"kind": "stop", "name": "STONE HOGAN CONNECTOR SW @ HOGAN RD SW", "mode": "bus"}}, {"type": "Feature", "geometry": {"type": "Point", "coordinates": [-84.488986, 33.690417]}, "properties": {"kind": "stop", "name": "GREENBRIAR PKWY @ HEADLAND DR SW", "mode": "bus"}}, {"type": "Feature", "geometry": {"type": "Point", "coordinates": [-84.493841, 33.682291]}, "properties": {"kind": "stop", "name": "CONTINENTAL COLONY PKY@3033", "mode": "bus"}}, {"type": "Feature", "geometry": {"type": "Point", "coordinates": [-84.496483, 33.686244]}, "properties": {"kind": "stop", "name": "GREENBRIAR PKWY SW @ 3268", "mode": "bus"}}, {"type": "Feature", "geometry": {"type": "Point", "coordinates": [-84.493776, 33.680062]}, "properties": {"kind": "stop", "name": "CONTINENTAL COLONY PKWY SW @ 3060", "mode": "bus"}}, {"type": "Feature", "geometry": {"type": "Point", "coordinates": [-84.493968, 33.68094]}, "properties": {"kind": "stop", "name": "CONTINENTAL COLONY PKY@HOGAN RD", "mode": "bus"}}, {"type": "Feature", "geometry": {"type": "Point", "coordinates": [-84.499324, 33.684019]}, "properties": {"kind": "stop", "name": "GREENBRIAR PKWY SW @ 3350", "mode": "bus"}}, {"type": "Feature", "geometry": {"type": "Point", "coordinates": [-84.497322, 33.694142]}, "properties": {"kind": "stop", "name": "DALE LN @ MEADOWLANE DR", "mode": "bus"}}, {"type": "Feature", "geometry": {"type": "Point", "coordinates": [-84.493457, 33.683455]}, "properties": {"kind": "stop", "name": "CONTINENTAL COLONY PKWY SW @ 2999", "mode": "bus"}}, {"type": "Feature", "geometry": {"type": "Point", "coordinates": [-84.493301, 33.683864]}, "properties": {"kind": "stop", "name": "CONTINENTAL COLONY PKY@2999", "mode": "bus"}}, {"type": "Feature", "geometry": {"type": "Point", "coordinates": [-84.49153, 33.686314]}, "properties": {"kind": "stop", "name": "GREENBRIAR PKWY SW @ CONTINENTAL COLONY PKWY SW", "mode": "bus"}}, {"type": "Feature", "geometry": {"type": "Point", "coordinates": [-84.49128, 33.686287]}, "properties": {"kind": "stop", "name": "CONTINENTAL COLONY PKWY SW @ GREENBRIAR PKWY SW", "mode": "bus"}}, {"type": "Feature", "geometry": {"type": "Point", "coordinates": [-84.457295, 33.706365]}, "properties": {"kind": "stop", "name": "DELOWE DR SW @ CAMPBELLTON RD SW", "mode": "bus"}}, {"type": "Feature", "geometry": {"type": "Point", "coordinates": [-84.45504, 33.702706]}, "properties": {"kind": "stop", "name": "MYRTLE DR @ 1890", "mode": "bus"}}, {"type": "Feature", "geometry": {"type": "Point", "coordinates": [-84.45506, 33.703568]}, "properties": {"kind": "stop", "name": "MYRTLE DR @ 1881", "mode": "bus"}}, {"type": "Feature", "geometry": {"type": "Point", "coordinates": [-84.457448, 33.700842]}, "properties": {"kind": "stop", "name": "DELOWE DR @ ALISON CT", "mode": "bus"}}, {"type": "Feature", "geometry": {"type": "Point", "coordinates": [-84.455055, 33.705419]}, "properties": {"kind": "stop", "name": "MYRTLE DR @ PLAZA LN", "mode": "bus"}}, {"type": "Feature", "geometry": {"type": "Point", "coordinates": [-84.457247, 33.703939]}, "properties": {"kind": "stop", "name": "DELOWE DR SW @ DELOWE PL SW", "mode": "bus"}}, {"type": "Feature", "geometry": {"type": "Point", "coordinates": [-84.507221, 33.688804]}, "properties": {"kind": "stop", "name": "BARGE RD PARK & RIDE", "mode": "bus"}}, {"type": "Feature", "geometry": {"type": "Point", "coordinates": [-84.464113, 33.722192]}, "properties": {"kind": "stop", "name": "CASCADE RD @ BEECHER RD", "mode": "bus"}}, {"type": "Feature", "geometry": {"type": "Point", "coordinates": [-84.483505, 33.71403]}, "properties": {"kind": "stop", "name": "HARBIN RD@1512", "mode": "bus"}}, {"type": "Feature", "geometry": {"type": "Point", "coordinates": [-84.500608, 33.68409]}, "properties": {"kind": "stop", "name": "GREENBRIAR PKWY SW @ 3381", "mode": "bus"}}, {"type": "Feature", "geometry": {"type": "Point", "coordinates": [-84.500573, 33.683991]}, "properties": {"kind": "stop", "name": "GREENBRIAR PKWY SW @ 3378", "mode": "bus"}}, {"type": "Feature", "geometry": {"type": "Point", "coordinates": [-84.461908, 33.722437]}, "properties": {"kind": "stop", "name": "CASCADE RD SW @ DOLPHIN DR SW", "mode": "bus"}}, {"type": "Feature", "geometry": {"type": "Point", "coordinates": [-84.473596, 33.70272]}, "properties": {"kind": "stop", "name": "CAMPBELLTON RD SW@2605", "mode": "bus"}}, {"type": "Feature", "geometry": {"type": "Point", "coordinates": [-84.504148, 33.675302]}, "properties": {"kind": "stop", "name": "HOGAN RD SW@STONE RD SW", "mode": "bus"}}, {"type": "Feature", "geometry": {"type": "Point", "coordinates": [-84.49838, 33.684433]}, "properties": {"kind": "stop", "name": "GREENBRIAR PKWY SW @ 3350", "mode": "bus"}}, {"type": "Feature", "geometry": {"type": "Point", "coordinates": [-84.506149, 33.690544]}, "properties": {"kind": "stop", "name": "BARGE RD SW@CAMPBELLTON RD SW", "mode": "bus"}}, {"type": "Feature", "geometry": {"type": "Point", "coordinates": [-84.506133, 33.692889]}, "properties": {"kind": "stop", "name": "BARGE RD SW@PACIFIC DR SW", "mode": "bus"}}, {"type": "Feature", "geometry": {"type": "Point", "coordinates": [-84.506168, 33.693892]}, "properties": {"kind": "stop", "name": "BARGE RD SW@DALE LN SW", "mode": "bus"}}, {"type": "Feature", "geometry": {"type": "Point", "coordinates": [-84.506149, 33.695261]}, "properties": {"kind": "stop", "name": "BARGE RD SW@HIGHWOOD RD SW", "mode": "bus"}}, {"type": "Feature", "geometry": {"type": "Point", "coordinates": [-84.50731, 33.699037]}, "properties": {"kind": "stop", "name": "BARGE RD SW@FAIRBURN RD SW", "mode": "bus"}}, {"type": "Feature", "geometry": {"type": "Point", "coordinates": [-84.495946, 33.694006]}, "properties": {"kind": "stop", "name": "DALE LN SW @ COUNTRY CLUB LN SW", "mode": "bus"}}, {"type": "Feature", "geometry": {"type": "Point", "coordinates": [-84.497489, 33.694111]}, "properties": {"kind": "stop", "name": "MEADOWLANE DR SW @ DALE LN SW", "mode": "bus"}}, {"type": "Feature", "geometry": {"type": "Point", "coordinates": [-84.500602, 33.67255]}, "properties": {"kind": "stop", "name": "STONE RD SW @ N CAMP CREEK PKY SW", "mode": "bus"}}, {"type": "Feature", "geometry": {"type": "Point", "coordinates": [-84.497354, 33.69677]}, "properties": {"kind": "stop", "name": "MEADOWLANE DR SW @ 2160", "mode": "bus"}}, {"type": "Feature", "geometry": {"type": "Point", "coordinates": [-84.483819, 33.719043]}, "properties": {"kind": "stop", "name": "HARBIN RD @ 1333", "mode": "bus"}}, {"type": "Feature", "geometry": {"type": "Point", "coordinates": [-84.487651, 33.706461]}, "properties": {"kind": "stop", "name": "LANDRUM DR SW @ CHILDRESS DR SW", "mode": "bus"}}, {"type": "Feature", "geometry": {"type": "Point", "coordinates": [-84.454068, 33.713297]}, "properties": {"kind": "stop", "name": "CENTRA VILLA DR @ W CEDAR LN", "mode": "bus"}}, {"type": "Feature", "geometry": {"type": "Point", "coordinates": [-84.487933, 33.721866]}, "properties": {"kind": "stop", "name": "LYNHURST DR SW @ LYNWAY LN SW", "mode": "bus"}}, {"type": "Feature", "geometry": {"type": "Point", "coordinates": [-84.455677, 33.707352]}, "properties": {"kind": "stop", "name": "CENTRA VILLA DR SW @ CAMPBELLTON RD SW", "mode": "bus"}}, {"type": "Feature", "geometry": {"type": "Point", "coordinates": [-84.466538, 33.723058]}, "properties": {"kind": "stop", "name": "BENJAMIN E MAYS DR SW @ FLAMINGO DR SW", "mode": "bus"}}, {"type": "Feature", "geometry": {"type": "Point", "coordinates": [-84.470802, 33.725433]}, "properties": {"kind": "stop", "name": "BENJAMIN E MAYS DR SW @ WILLIS MILL RD SW", "mode": "bus"}}, {"type": "Feature", "geometry": {"type": "Point", "coordinates": [-84.457286, 33.701307]}, "properties": {"kind": "stop", "name": "DELOWE DR SW @ ALISON CT", "mode": "bus"}}, {"type": "Feature", "geometry": {"type": "Point", "coordinates": [-84.473381, 33.726898]}, "properties": {"kind": "stop", "name": "BENJAMIN E MAYS DR @ ORIOLE DR", "mode": "bus"}}, {"type": "Feature", "geometry": {"type": "Point", "coordinates": [-84.472794, 33.726684]}, "properties": {"kind": "stop", "name": "BENJAMIN E MAYS DR @ ORIOLE DR", "mode": "bus"}}, {"type": "Feature", "geometry": {"type": "Point", "coordinates": [-84.454717, 33.711309]}, "properties": {"kind": "stop", "name": "CENTRA VILLA DR @ HONEYSUCKLE LN", "mode": "bus"}}], "properties": {"coverage_pct": 96.6, "rail_coverage_pct": 0.0, "stop_count": 289, "rail_stop_count": 0, "bus_stop_count": 289, "transit_index": 32, "weights": {"rail": 2.0, "bus": 1.0}}}