{"type": "FeatureCollection", "features": [{"type": "Feature", "geometry": {"type": "MultiPolygon", "coordinates": [[[[-84.34751259269073, 33.78592824129416], [-84.34709394498525, 33.78601645476229], [-84.34625068216168, 33.78612215790623], [-84.34539907058016, 33.78615833086884], [-84.34454731378304, 33.78612462519157], [-84.34370361671412, 33.78602136555239], [-84.34287610662146, 33.78584954663614], [-84.34207275471107, 33.78561082354598], [-84.34130129930958, 33.78530749584871], [-84.34056917127799, 33.784942485408244], [-84.33988342239762, 33.78451930822134], [-84.33925065741948, 33.784042040527886], [-84.33867697043353, 33.78351527952328], [-84.33816788617068, 33.78294409905236], [-84.33772830680412, 33.78233400071289], [-84.33736246476117, 33.781690860840776], [-84.33733582053024, 33.78162900284536], [-84.3372731733466, 33.781604366823814], [-84.33668708446106, 33.78131212758124], [-84.33661132698971, 33.78131533996906], [-84.335759621315, 33.78128157344686], [-84.33491598204064, 33.781178253462585], [-84.33408853585732, 33.78100637528265], [-84.33328525335486, 33.780767594581306], [-84.33308480420247, 33.780688758890214], [-84.33266264693474, 33.78077766475772], [-84.33181941726086, 33.78088326926881], [-84.33096785101742, 33.780919342526424], [-84.3308330985192, 33.78091399435067], [-84.33070682901264, 33.780919342621424], [-84.32985512939979, 33.780885535326206], [-84.32901150092717, 33.78078217493643], [-84.3281840701813, 33.78061025710794], [-84.32738080760302, 33.780371437897095], [-84.32660945065741, 33.78006801779692], [-84.32587742925604, 33.779702919561586], [-84.32519179415189, 33.77927966003357], [-84.32455914899894, 33.778802316245866], [-84.32398558673184, 33.778275486126574], [-84.32347663087921, 33.77770424418594], [-84.32303718237655, 33.777094092613304], [-84.32267147238998, 33.77645090825669], [-84.32238302160503, 33.775780885996504], [-84.32217460637047, 33.775090479059955], [-84.32204823202173, 33.77438633685194], [-84.3220051136383, 33.773675240902], [-84.32204566441774, 33.77296403954466], [-84.32216949177538, 33.772259581962714], [-84.32237540120421, 33.77156865222879], [-84.32266140785482, 33.7708979039802], [-84.32302475572082, 33.77025379635593], [-84.32346194424234, 33.76964253181208], [-84.32396876206911, 33.769069996413975], [-84.32454032765588, 33.768541703178734], [-84.32517113629785, 33.76806273901313], [-84.3258551131523, 33.7676377157564], [-84.32658567173526, 33.76727072579825], [-84.3273557773304, 33.76696530269823], [-84.32815801470029, 33.76672438718467], [-84.32898465944913, 33.76655029885927], [-84.3298277523519, 33.766444713879004], [-84.33067917593635, 33.76640864882963], [-84.33081390571427, 33.76641399725389], [-84.33094015393945, 33.76640864892462], [-84.33179171068068, 33.76644244923919], [-84.3326352017964, 33.7665457912767], [-84.3334625059875, 33.766717680035136], [-84.33352885197962, 33.76673740523559], [-84.3331800025971, 33.76641699032166], [-84.33274522988131, 33.765929032899265], [-84.33234455068512, 33.76562670985829], [-84.33177102905246, 33.765099914674835], [-84.33126209993787, 33.76452870354107], [-84.33082266402033, 33.76391857834939], [-84.330456952346, 33.76327541569357], [-84.330168485618, 33.76260541024496], [-84.32996004034014, 33.76191501506893], [-84.32983362213864, 33.76121087945725], [-84.32979796264881, 33.76062357507433], [-84.32967318448459, 33.76061862031628], [-84.32904167817296, 33.7606453670964], [-84.32819017977079, 33.76061154760486], [-84.32743575495958, 33.760519083620515], [-84.3274258371236, 33.760520325606606], [-84.32657447029521, 33.76055636808262], [-84.32572297367108, 33.76052253156598], [-84.32533673443113, 33.76047518588924], [-84.32496791092318, 33.76046052669452], [-84.32412448843164, 33.760357131959644], [-84.32329726378512, 33.760185180204694], [-84.32249420543761, 33.759946327812685], [-84.32172304888545, 33.75964287559599], [-84.32099122210862, 33.75927774661773], [-84.32030577398443, 33.75885445801603], [-84.31967330636516, 33.75837708710328], [-84.31909991047502, 33.7578502320682], [-84.31859110824018, 33.75727896766031], [-84.31815179911686, 33.75666879628464], [-84.31778621292952, 33.7560255949792], [-84.3174978691724, 33.75535555878693], [-84.31744665703057, 33.75518583659518], [-84.31756668330033, 33.75511498466585], [-84.31792985845661, 33.754911847639654], [-84.31826984408556, 33.75473186030894], [-84.3187497673617, 33.75449545905975], [-84.3190997493398, 33.754335470769085], [-84.31939264221771, 33.75420756599937], [-84.31975262192434, 33.75405757720616], [-84.32033782136999, 33.753835930326254], [-84.32071779679866, 33.75370594038859], [-84.32093826303121, 33.75363343503423], [-84.32131823744558, 33.7535134444305], [-84.321899393748, 33.753349268315425], [-84.32229936442532, 33.75324927635665], [-84.3225822488718, 33.753182888425656], [-84.32299221783575, 33.7530928957447], [-84.32346052674248, 33.75300159263668], [-84.32387049436623, 33.75293159842637], [-84.32438441712955, 33.75285720569238], [-84.32480438285008, 33.75280720990294], [-84.32528992862635, 33.752761004622734], [-84.32570989365436, 33.75273100720696], [-84.32620827415433, 33.752707432431706], [-84.32663823798184, 33.75269743336737], [-84.32688001896983, 33.75269462255633], [-84.32729998359058, 33.75269462265974], [-84.3277829489957, 33.752705845862366], [-84.32821291292808, 33.75272584430955], [-84.32892802625362, 33.752783963666474], [-84.32963494394384, 33.75289125041513], [-84.33031787277453, 33.753044511653165], [-84.33035439869737, 33.75305072875717], [-84.33116494611437, 33.75322301750725], [-84.33195190189113, 33.7534596225529], [-84.33244187023473, 33.753629609606726], [-84.33275667893462, 33.7537449795719], [-84.33363662582444, 33.754084954098545], [-84.3339835727336, 33.754226904364735], [-84.33493786734907, 33.7546395656645], [-84.33591860530807, 33.755022572294955], [-84.33595695687148, 33.75503239990395], [-84.33644573789857, 33.754954194130654], [-84.33712587619242, 33.75486852932069], [-84.33758107459838, 33.75482651148822], [-84.33766850336858, 33.75481554105213], [-84.33780075639886, 33.75479998212525], [-84.33804911962, 33.75475191163456], [-84.33891449441107, 33.75462256062712], [-84.33963941808545, 33.7545455790178], [-84.34050629602123, 33.75438335714572], [-84.34052414488947, 33.75348949611008], [-84.34052418621333, 33.753079694362384], [-84.34052487030411, 33.752989245485665], [-84.34053493785359, 33.75231924596235], [-84.34054306692997, 33.75220297784151], [-84.34053457691752, 33.75112817774749], [-84.34053438787848, 33.751079694616806], [-84.34053447594619, 33.750206204286826], [-84.34052499578891, 33.74941271147097], [-84.34052456330481, 33.74933969467198], [-84.34052467621706, 33.748219694309135], [-84.34052469133874, 33.74806969447353], [-84.34052470948464, 33.74788969447063], [-84.3405247205737, 33.74777969448356], [-84.34052473670316, 33.74761969447703], [-84.34052478811496, 33.747109694424175], [-84.34052479819553, 33.74700969449417], [-84.3405248334772, 33.746659694456156], [-84.34052484960577, 33.7464996944899], [-84.34052873428013, 33.74628332646969], [-84.34053488874108, 33.74611148661112], [-84.34053489396193, 33.74605969449491], [-84.34053494940167, 33.745509694435846], [-84.34057591422514, 33.74480644906427], [-84.34069827980966, 33.74410983185157], [-84.34090089190518, 33.743426402721106], [-84.341181840713, 33.74276259725405], [-84.34153847893711, 33.74212466609877], [-84.34196744677263, 33.741518616126704], [-84.34246470359399, 33.74095015388827], [-84.34302556604244, 33.740424631900304], [-84.34364475215295, 33.739946998269964], [-84.34431643110423, 33.73952175012821], [-84.34503427812261, 33.73915289131051], [-84.34579153402352, 33.738843894681764], [-84.34658106883019, 33.73859766945954], [-84.34739544887188, 33.738416533841914], [-84.34822700673146, 33.738302193197114], [-84.34833502758262, 33.738291806791516], [-84.34931449526492, 33.738117380342665], [-84.34966439436869, 33.73804965844704], [-84.35023850534974, 33.73791491904535], [-84.35162906158565, 33.73752382717671], [-84.35165993943018, 33.737515196419366], [-84.35219990117683, 33.73736520836561], [-84.35260812377813, 33.737261047775235], [-84.3533380693134, 33.737091061555454], [-84.35341816164538, 33.73707275404437], [-84.35448808111003, 33.736832773562725], [-84.35517695351983, 33.736703091042635], [-84.35638923769869, 33.73651777624727], [-84.3565683263322, 33.736477227835955], [-84.35754640653614, 33.736305552559436], [-84.35854161614067, 33.73622889551272], [-84.36202132378529, 33.736128904842005], [-84.36288001737272, 33.73613971362282], [-84.36373323549013, 33.736221324325975], [-84.36457263598143, 33.73637293901268], [-84.36539001169054, 33.73659307528943], [-84.36617737064977, 33.736879580791744], [-84.36692701417178, 33.737229654214005], [-84.36763161208414, 33.73763987268082], [-84.36828427437254, 33.73810622519293], [-84.36887861853431, 33.73862415182192], [-84.36940883198415, 33.73918858827139], [-84.36973721059493, 33.73961994241883], [-84.3700824866508, 33.73967228082068], [-84.37089159720729, 33.73986399912554], [-84.37167472066061, 33.740120198780566], [-84.37242451399344, 33.740438477580916], [-84.37313394648774, 33.74081585122204], [-84.37379636561805, 33.74124878126338], [-84.37440555940995, 33.74173320828589], [-84.37495581468062, 33.74226458993344], [-84.3754419706155, 33.74283794348256], [-84.37585946717907, 33.74344789254234], [-84.37620438790508, 33.744088717447696], [-84.37647349666426, 33.74475440887441], [-84.37649265157465, 33.74482311988738], [-84.37702566625536, 33.74539556883522], [-84.37751150426693, 33.74597329381477], [-84.37792782968965, 33.74658773042997], [-84.37839788180717, 33.74736770110886], [-84.37878226860599, 33.748104515143396], [-84.37880157144356, 33.748147937404056], [-84.37882098621711, 33.748186759747945], [-84.37888357466657, 33.748301485889826], [-84.37919349971185, 33.74895077786119], [-84.37942719334221, 33.74962196996529], [-84.37958248476947, 33.750308832635646], [-84.37965793076272, 33.75100499071419], [-84.37965282911163, 33.7517039826143], [-84.37956722521552, 33.75239932029163], [-84.3794019117344, 33.753084549466166], [-84.37915842130239, 33.753753309536606], [-84.37883901236874, 33.754399392630816], [-84.37844664829527, 33.755016801243485], [-84.37798496990202, 33.75559980392598], [-84.37745826171408, 33.756142988510035], [-84.37687141222132, 33.756641312370945], [-84.37622986851883, 33.757090149262226], [-84.37553958574851, 33.75748533228632], [-84.37480697181122, 33.75782319260117], [-84.3740388278627, 33.7581005935023], [-84.37368880426786, 33.758210602142576], [-84.37364449228761, 33.758224413914924], [-84.37360829845146, 33.75823560162556], [-84.37344687793812, 33.75900796700591], [-84.37340508171657, 33.75919364653508], [-84.37333510927651, 33.759483651193904], [-84.37332305061108, 33.75953275240643], [-84.37328306574955, 33.75969275506707], [-84.37310687743391, 33.76027581588597], [-84.37287348293319, 33.76084468697528], [-84.37266351894736, 33.76129470041879], [-84.37236977033642, 33.761853575274415], [-84.37209980216898, 33.76231359197961], [-84.37176870544296, 33.76282486043625], [-84.37144873090996, 33.76327487943453], [-84.37096915905998, 33.763878517864335], [-84.37058917517467, 33.76430853902169], [-84.36982162452323, 33.7650633360761], [-84.3698073745828, 33.76507555113639], [-84.36981305789486, 33.76508176595569], [-84.37041309100313, 33.765821731354066], [-84.3709818669487, 33.766631441337395], [-84.37163193929001, 33.767711400762494], [-84.37211448612348, 33.76868269569138], [-84.37246456085775, 33.76956267236028], [-84.37270274641486, 33.770283644517754], [-84.37297284182343, 33.771303625864576], [-84.37306868762884, 33.7717240167493], [-84.37315873320703, 33.77219401041122], [-84.3732518449283, 33.772900117681445], [-84.37326182527048, 33.773610444685524], [-84.37318857650465, 33.7743181818966], [-84.37303279880621, 33.77501654444993], [-84.37279598362008, 33.775698837191214], [-84.37248039943643, 33.77635851887112], [-84.37208907011032, 33.77698926486998], [-84.3716257459308, 33.77758502785096], [-84.37109486771426, 33.77814009575907], [-84.370501524265, 33.77864914660924], [-84.36985140360898, 33.7791072995371], [-84.36915073846814, 33.779510161621786], [-84.36840624649751, 33.77985387003058], [-84.36762506585869, 33.78013512908037], [-84.36714503338848, 33.78028514087728], [-84.36669066002804, 33.780415292464255], [-84.36646064337545, 33.78047529728565], [-84.36645672333668, 33.78047626063029], [-84.3662238395865, 33.78054791759021], [-84.36588600203564, 33.78064532527776], [-84.36562598339926, 33.78071533088359], [-84.36469690198142, 33.780918882594214], [-84.36374658798402, 33.78103554722137], [-84.36278665835135, 33.78106389860576], [-84.36231129352417, 33.781055976250954], [-84.36109824912864, 33.781064830488305], [-84.36039054905095, 33.78107439410966], [-84.36018161915177, 33.78107511881525], [-84.3587997865019, 33.78106602900474], [-84.3584380045292, 33.781073264539685], [-84.35823000827276, 33.78107534411945], [-84.35807001080086, 33.78107534416646], [-84.35746999170092, 33.781075344342355], [-84.35733002176505, 33.781075344383325], [-84.35622999166962, 33.78107534470419], [-84.35566267829631, 33.78107534501293], [-84.35489530516284, 33.78108459048866], [-84.35477001920493, 33.78108534511526], [-84.35462294649764, 33.781085345320314], [-84.35457326459299, 33.78114686197815], [-84.35434667167335, 33.78141420819048], [-84.35426667499374, 33.78150421263904], [-84.3541181713761, 33.78166647126087], [-84.35362818735237, 33.78218649794192], [-84.35324794936288, 33.782563009357325], [-84.35271795639338, 33.783053036641064], [-84.35257277221426, 33.783183996835376], [-84.35248291005037, 33.78326308109173], [-84.35238817648066, 33.78339338611691], [-84.35187957634994, 33.783959950843965], [-84.35130725289396, 33.78448241819747], [-84.35067665686499, 33.784955811243236], [-84.34999379441365, 33.78537562044223], [-84.34926516987686, 33.785737846632124], [-84.3484977238065, 33.786039039146836], [-84.34789635598193, 33.78621764549774], [-84.34751259269073, 33.78592824129416]]], [[[-84.31440253497074, 33.75741602540787], [-84.31522971547143, 33.75758803696866], [-84.31603273184086, 33.75782693682783], [-84.31680385219707, 33.75813042478239], [-84.31753565154969, 33.75849557872964], [-84.31822108325598, 33.758918882783625], [-84.31885354684593, 33.759396261106374], [-84.31942695156494, 33.759923117129254], [-84.31993577502271, 33.760494377787964], [-84.32037511638424, 33.76110454234642], [-84.32068956499297, 33.76165770517639], [-84.32070815442385, 33.76168352191092], [-84.32107378658895, 33.76232671384414], [-84.32136218169428, 33.76299674078258], [-84.32157056074875, 33.76368715054671], [-84.32169691513234, 33.76439129452148], [-84.32174002600989, 33.765102391670474], [-84.32169947614508, 33.76581359383119], [-84.32157565399753, 33.76651805166297], [-84.32136975006075, 33.767208980612835], [-84.32108374547332, 33.76787972626353], [-84.32072039300975, 33.76852382843438], [-84.32028319063137, 33.76913508341681], [-84.31977634785008, 33.76970760374453], [-84.31920474522623, 33.77023587492175], [-84.31857388738982, 33.770714808562], [-84.31788985003624, 33.77113979142463], [-84.3171592214067, 33.77150672987539], [-84.3163890388173, 33.77181208934185], [-84.31558672084894, 33.77205292838221], [-84.3147599958521, 33.772226927038574], [-84.31391682745769, 33.77233240920036], [-84.31306533781287, 33.77236835876192], [-84.31258527449206, 33.77234923305488], [-84.31227750777354, 33.7721979859263], [-84.31159826899565, 33.77178561860289], [-84.31096988252331, 33.771320408215104], [-84.31039821964073, 33.770806702050216], [-84.30988862127984, 33.77024930049828], [-84.30944584812494, 33.76965341217151], [-84.30938873858051, 33.76955682940868], [-84.30931634086606, 33.7694859198207], [-84.30882174251761, 33.76888992013865], [-84.30840085750278, 33.76825566271329], [-84.30805788901021, 33.76758948408782], [-84.30779626155278, 33.76689803956649], [-84.30761858681889, 33.766188236706554], [-84.30752663765472, 33.76546716629607], [-84.30752133043426, 33.76474203150742], [-84.30760271599055, 33.76402007593504], [-84.30776997919483, 33.763308511236445], [-84.3080214471845, 33.76261444509944], [-84.30832406249911, 33.762006202128056], [-84.30834420266855, 33.76195693708637], [-84.30869068163985, 33.76131865486988], [-84.30910926904635, 33.76071126946206], [-84.30959605835534, 33.760140447240346], [-84.31014650703632, 33.75961151337138], [-84.31075547896828, 33.759129402154095], [-84.31141729237153, 33.75869861101126], [-84.31212577281654, 33.75832315855741], [-84.31215510476687, 33.75830922627703], [-84.31379474489722, 33.75734146146182], [-84.31440253497074, 33.75741602540787]]]]}, "properties": {"kind": "walkshed", "buffer_mi": 0.5}}, {"type": "Feature", "geometry": {"type": "Point", "coordinates": [-84.313053, 33.765113]}, "properties": {"kind": "stop", "name": "East Lake", "mode": "rail"}}, {"type": "Feature", "geometry": {"type": "Point", "coordinates": [-84.339886, 33.761805]}, "properties": {"kind": "stop", "name": "Edgewood/ Candler Park", "mode": "rail"}}, {"type": "Feature", "geometry": {"type": "Point", "coordinates": [-84.352757, 33.757411]}, "properties": {"kind": "stop", "name": "Inman Park/ Reynoldstown", "mode": "rail"}}, {"type": "Feature", "geometry": {"type": "Point", "coordinates": [-84.375546, 33.749808]}, "properties": {"kind": "stop", "name": "King Memorial", "mode": "rail"}}, {"type": "Feature", "geometry": {"type": "Point", "coordinates": [-84.340825, 33.761803]}, "properties": {"kind": "stop", "name": "EDGEWOOD-CANDLER PARK STATION", "mode": "bus"}}, {"type": "Feature", "geometry": {"type": "Point", "coordinates": [-84.340456, 33.761866]}, "properties": {"kind": "stop", "name": "EDGEWOOD-CANDLER PARK STATION", "mode": "bus"}}, {"type": "Feature", "geometry": {"type": "Point", "coordinates": [-84.375675, 33.749951]}, "properties": {"kind": "stop", "name": "KING MEMORIAL STATION", "mode": "bus"}}, {"type": "Feature", "geometry": {"type": "Point", "coordinates": [-84.352762, 33.757451]}, "properties": {"kind": "stop", "name": "INMAN PARK-REYNOLDSTOWN STATION", "mode": "bus"}}, {"type": "Feature", "geometry": {"type": "Point", "coordinates": [-84.353066, 33.757227]}, "properties": {"kind": "stop", "name": "INMAN PARK-REYNOLDSTOWN STATION", "mode": "bus"}}, {"type": "Feature", "geometry": {"type": "Point", "coordinates": [-84.37599, 33.749853]}, "properties": {"kind": "stop", "name": "KING MEMORIAL STATION", "mode": "bus"}}, {"type": "Feature", "geometry": {"type": "Point", "coordinates": [-84.371014, 33.773548]}, "properties": {"kind": "stop", "name": "PONCE DE LEON AVE NE @ BOULEVARD  NE", "mode": "bus"}}, {"type": "Feature", "geometry": {"type": "Point", "coordinates": [-84.369666, 33.773781]}, "properties": {"kind": "stop", "name": "PONCE DE LEON AVE NE @ KENNESAW AVE NE", "mode": "bus"}}, {"type": "Feature", "geometry": {"type": "Point", "coordinates": [-84.367828, 33.773273]}, "properties": {"kind": "stop", "name": "PONCE DE LEON AVE NE@GLEN IRIS DR NE", "mode": "bus"}}, {"type": "Feature", "geometry": {"type": "Point", "coordinates": [-84.365808, 33.773308]}, "properties": {"kind": "stop", "name": "PONCE DE LEON AVE NE @ 675", "mode": "bus"}}, {"type": "Feature", "geometry": {"type": "Point", "coordinates": [-84.363402, 33.773649]}, "properties": {"kind": "stop", "name": "PONCE DE LEON AVE NE @ PONCE DE LEON PL", "mode": "bus"}}, {"type": "Feature", "geometry": {"type": "Point", "coordinates": [-84.361183, 33.773579]}, "properties": {"kind": "stop", "name": "PONCE DE LEON AVE NE @ BONAVENTURE AVE", "mode": "bus"}}, {"type": "Feature", "geometry": {"type": "Point", "coordinates": [-84.372429, 33.773373]}, "properties": {"kind": "stop", "name": "PONCE DE LEON AVE NE @ CHARLES ALLEN DR NE", "mode": "bus"}}, {"type": "Feature", "geometry": {"type": "Point", "coordinates": [-84.370636, 33.773743]}, "properties": {"kind": "stop", "name": "PONCE DE LEON AVE NE @ MONROE DR NE", "mode": "bus"}}, {"type": "Feature", "geometry": {"type": "Point", "coordinates": [-84.368042, 33.773666]}, "properties": {"kind": "stop", "name": "PONCE DE LEON AVE NE @ PONCE DE LEON CT", "mode": "bus"}}, {"type": "Feature", "geometry": {"type": "Point", "coordinates": [-84.365329, 33.77344]}, "properties": {"kind": "stop", "name": "PONCE DE LEON AVE NE @ 680", "mode": "bus"}}, {"type": "Feature", "geometry": {"type": "Point", "coordinates": [-84.371986, 33.771286]}, "properties": {"kind": "stop", "name": "BOULEVARD NE @ NORTH AVE NE", "mode": "bus"}}, {"type": "Feature", "geometry": {"type": "Point", "coordinates": [-84.37072, 33.776421]}, "properties": {"kind": "stop", "name": "MONROE DR NE @ SAINT CHARLES AVE NE", "mode": "bus"}}, {"type": "Feature", "geometry": {"type": "Point", "coordinates": [-84.370309, 33.776878]}, "properties": {"kind": "stop", "name": "MONROE DR NE @ GREENWOOD AVE NE", "mode": "bus"}}, {"type": "Feature", "geometry": {"type": "Point", "coordinates": [-84.369853, 33.778149]}, "properties": {"kind": "stop", "name": "MONROE DR NE @ SEAL PL NE", "mode": "bus"}}, {"type": "Feature", "geometry": {"type": "Point", "coordinates": [-84.369736, 33.777752]}, "properties": {"kind": "stop", "name": "MONROE DR NE @ SEAL PL NE", "mode": "bus"}}, {"type": "Feature", "geometry": {"type": "Point", "coordinates": [-84.370079, 33.776447]}, "properties": {"kind": "stop", "name": "MONROE DR NE @ GREENWOOD AVE NE", "mode": "bus"}}, {"type": "Feature", "geometry": {"type": "Point", "coordinates": [-84.370598, 33.775192]}, "properties": {"kind": "stop", "name": "MONROE DR NE @ SAINT CHARLES AVE NE", "mode": "bus"}}, {"type": "Feature", "geometry": {"type": "Point", "coordinates": [-84.37067, 33.77403]}, "properties": {"kind": "stop", "name": "MONROE DR NE @ PONCE DE LEON AVE NE", "mode": "bus"}}, {"type": "Feature", "geometry": {"type": "Point", "coordinates": [-84.371068, 33.773109]}, "properties": {"kind": "stop", "name": "BOULEVARD NE @ PONCE DE LEON AVE NE", "mode": "bus"}}, {"type": "Feature", "geometry": {"type": "Point", "coordinates": [-84.372206, 33.771048]}, "properties": {"kind": "stop", "name": "NORTH AVE NE @ BOULEVARD NE", "mode": "bus"}}, {"type": "Feature", "geometry": {"type": "Point", "coordinates": [-84.347496, 33.776691]}, "properties": {"kind": "stop", "name": "BRIARCLIFF RD NE@BRIARCLIFF PL NE", "mode": "bus"}}, {"type": "Feature", "geometry": {"type": "Point", "coordinates": [-84.36362, 33.773699]}, "properties": {"kind": "stop", "name": "PONCE DE LEON AVE NE @ PONCE DE LEON PL", "mode": "bus"}}, {"type": "Feature", "geometry": {"type": "Point", "coordinates": [-84.360657, 33.77396]}, "properties": {"kind": "stop", "name": "PONCE DE LEON AVE NE @ BONAVENTURE AVE", "mode": "bus"}}, {"type": "Feature", "geometry": {"type": "Point", "coordinates": [-84.358505, 33.773975]}, "properties": {"kind": "stop", "name": "PONCE DE LEON AVE NE @ BARNETT ST NE", "mode": "bus"}}, {"type": "Feature", "geometry": {"type": "Point", "coordinates": [-84.359401, 33.77374]}, "properties": {"kind": "stop", "name": "PONCE DE LEON AVE NE @ FREEDOM PKY NE", "mode": "bus"}}, {"type": "Feature", "geometry": {"type": "Point", "coordinates": [-84.3558, 33.77363]}, "properties": {"kind": "stop", "name": "PONCE DE LEON AVE NE @ FREDERICA ST NE", "mode": "bus"}}, {"type": "Feature", "geometry": {"type": "Point", "coordinates": [-84.351974, 33.77376]}, "properties": {"kind": "stop", "name": "PONCE DE LEON AVE NE @ N HIGHLAND AVE NE", "mode": "bus"}}, {"type": "Feature", "geometry": {"type": "Point", "coordinates": [-84.355507, 33.773941]}, "properties": {"kind": "stop", "name": "PONCE DE LEON AVE NE @ FREDERICA ST NE", "mode": "bus"}}, {"type": "Feature", "geometry": {"type": "Point", "coordinates": [-84.352322, 33.773849]}, "properties": {"kind": "stop", "name": "PONCE DE LEON AVE @ N HIGHLAND AVE NE", "mode": "bus"}}, {"type": "Feature", "geometry": {"type": "Point", "coordinates": [-84.349245, 33.773921]}, "properties": {"kind": "stop", "name": "PONCE DE LEON AVE NE @ BRIARCLIFF RD", "mode": "bus"}}, {"type": "Feature", "geometry": {"type": "Point", "coordinates": [-84.349186, 33.773728]}, "properties": {"kind": "stop", "name": "PONCE DE LEON AVE NE @ MORELAND AVE NE", "mode": "bus"}}, {"type": "Feature", "geometry": {"type": "Point", "coordinates": [-84.34885, 33.7721]}, "properties": {"kind": "stop", "name": "MORELAND AVE NE@FAIRVIEW RD NE", "mode": "bus"}}, {"type": "Feature", "geometry": {"type": "Point", "coordinates": [-84.349005, 33.772462]}, "properties": {"kind": "stop", "name": "MORELAND AVE NE@BLUE RIDGE AVE NE", "mode": "bus"}}, {"type": "Feature", "geometry": {"type": "Point", "coordinates": [-84.348824, 33.773529]}, "properties": {"kind": "stop", "name": "MORELAND AVE NE@PONCE DE LEON AVE N", "mode": "bus"}}, {"type": "Feature", "geometry": {"type": "Point", "coordinates": [-84.348983, 33.773903]}, "properties": {"kind": "stop", "name": "BRIARCLIFF RD NE @ PONCE DE LEON AVE", "mode": "bus"}}, {"type": "Feature", "geometry": {"type": "Point", "coordinates": [-84.347995, 33.77632]}, "properties": {"kind": "stop", "name": "BRIARCLIFF RD NE@SAINT LOUIS PL NE", "mode": "bus"}}, {"type": "Feature", "geometry": {"type": "Point", "coordinates": [-84.347386, 33.77709]}, "properties": {"kind": "stop", "name": "BRIARCLIFF RD NE@BRIARCLIFF PL NE", "mode": "bus"}}, {"type": "Feature", "geometry": {"type": "Point", "coordinates": [-84.345625, 33.778791]}, "properties": {"kind": "stop", "name": "BRIARCLIFF RD NE @ VIRGINIA AVE", "mode": "bus"}}, {"type": "Feature", "geometry": {"type": "Point", "coordinates": [-84.346331, 33.778156]}, "properties": {"kind": "stop", "name": "BRIARCLIFF RD NE@869", "mode": "bus"}}, {"type": "Feature", "geometry": {"type": "Point", "coordinates": [-84.346331, 33.778039]}, "properties": {"kind": "stop", "name": "BRIARCLIFF RD NE@869", "mode": "bus"}}, {"type": "Feature", "geometry": {"type": "Point", "coordinates": [-84.352572, 33.774547]}, "properties": {"kind": "stop", "name": "N HIGHLAND AVE NE @ ST AUGUSTINE PL", "mode": "bus"}}, {"type": "Feature", "geometry": {"type": "Point", "coordinates": [-84.348386, 33.77573]}, "properties": {"kind": "stop", "name": "BRIARCLIFF RD @SAINT CHARLES PL NE", "mode": "bus"}}, {"type": "Feature", "geometry": {"type": "Point", "coordinates": [-84.353553, 33.780311]}, "properties": {"kind": "stop", "name": "N HIGHLAND AVE NE @ ADAIR AVE NE", "mode": "bus"}}, {"type": "Feature", "geometry": {"type": "Point", "coordinates": [-84.353379, 33.779747]}, "properties": {"kind": "stop", "name": "N HIGHLAND AVE NE @ ROSEDALE DR", "mode": "bus"}}, {"type": "Feature", "geometry": {"type": "Point", "coordinates": [-84.352932, 33.778494]}, "properties": {"kind": "stop", "name": "N HIGHLAND AVE NE @ DREWRY ST", "mode": "bus"}}, {"type": "Feature", "geometry": {"type": "Point", "coordinates": [-84.3526, 33.776974]}, "properties": {"kind": "stop", "name": "N HIGHLAND AVE NE @ BRIARCLIFF PL", "mode": "bus"}}, {"type": "Feature", "geometry": {"type": "Point", "coordinates": [-84.352528, 33.772471]}, "properties": {"kind": "stop", "name": "N HIGHLAND AVE NE @ BLUE RIDGE AVE NE", "mode": "bus"}}, {"type": "Feature", "geometry": {"type": "Point", "coordinates": [-84.352298, 33.770857]}, "properties": {"kind": "stop", "name": "N HIGHLAND AVE @ NORTH AVE", "mode": "bus"}}, {"type": "Feature", "geometry": {"type": "Point", "coordinates": [-84.352325, 33.772171]}, "properties": {"kind": "stop", "name": "N HIGHLAND AVE NE @ BLUE RIDGE AVE", "mode": "bus"}}, {"type": "Feature", "geometry": {"type": "Point", "coordinates": [-84.352341, 33.77364]}, "properties": {"kind": "stop", "name": "N HIGHLAND AVE @ PONCE DE LEON AVE", "mode": "bus"}}, {"type": "Feature", "geometry": {"type": "Point", "coordinates": [-84.352386, 33.775154]}, "properties": {"kind": "stop", "name": "N HIGHLAND AVE NE @ ST CHARLES PL", "mode": "bus"}}, {"type": "Feature", "geometry": {"type": "Point", "coordinates": [-84.352442, 33.777188]}, "properties": {"kind": "stop", "name": "N HIGHLAND AVE NE @ BRIARCLIFF PL", "mode": "bus"}}, {"type": "Feature", "geometry": {"type": "Point", "coordinates": [-84.353618, 33.780768]}, "properties": {"kind": "stop", "name": "N HIGHLAND AVE NE @ HUDSON DR NE", "mode": "bus"}}, {"type": "Feature", "geometry": {"type": "Point", "coordinates": [-84.352878, 33.778772]}, "properties": {"kind": "stop", "name": "N HIGHLAND AVE NE @ HIGHLAND VW NE", "mode": "bus"}}, {"type": "Feature", "geometry": {"type": "Point", "coordinates": [-84.348668, 33.775479]}, "properties": {"kind": "stop", "name": "BRIARCLIFF RD @SAINT CHARLES PL NE", "mode": "bus"}}, {"type": "Feature", "geometry": {"type": "Point", "coordinates": [-84.352519, 33.777931]}, "properties": {"kind": "stop", "name": "N HIGHLAND AVE NE @ DREWRY ST NE", "mode": "bus"}}, {"type": "Feature", "geometry": {"type": "Point", "coordinates": [-84.353281, 33.779729]}, "properties": {"kind": "stop", "name": "N HIGHLAND AVE NE@ ROSEDALE DR", "mode": "bus"}}, {"type": "Feature", "geometry": {"type": "Point", "coordinates": [-84.352642, 33.775618]}, "properties": {"kind": "stop", "name": "N HIGHLAND AVE N@SAINT CHARLES AVE", "mode": "bus"}}, {"type": "Feature", "geometry": {"type": "Point", "coordinates": [-84.35256, 33.77111]}, "properties": {"kind": "stop", "name": "N HIGHLAND AVE @ NORTH AVE", "mode": "bus"}}, {"type": "Feature", "geometry": {"type": "Point", "coordinates": [-84.345384, 33.778903]}, "properties": {"kind": "stop", "name": "BRIARCLIFF RD NE@VIRGINIA CT", "mode": "bus"}}, {"type": "Feature", "geometry": {"type": "Point", "coordinates": [-84.345058, 33.774647]}, "properties": {"kind": "stop", "name": "PONCE DE LEON AVE @ SPRINGDALE RD", "mode": "bus"}}, {"type": "Feature", "geometry": {"type": "Point", "coordinates": [-84.341611, 33.775122]}, "properties": {"kind": "stop", "name": "PONCE DE LEON AVE NE @ OAKDALE RD NE", "mode": "bus"}}, {"type": "Feature", "geometry": {"type": "Point", "coordinates": [-84.344826, 33.774918]}, "properties": {"kind": "stop", "name": "PONCE DE LEON AVE @ SPRINGDALE RD", "mode": "bus"}}, {"type": "Feature", "geometry": {"type": "Point", "coordinates": [-84.341356, 33.7752]}, "properties": {"kind": "stop", "name": "PONCE DE LEON AVE @ OAKDALE RD NE", "mode": "bus"}}, {"type": "Feature", "geometry": {"type": "Point", "coordinates": [-84.336597, 33.77406]}, "properties": {"kind": "stop", "name": "PONCE DE LEON AVE @ LULLWATER RD NE", "mode": "bus"}}, {"type": "Feature", "geometry": {"type": "Point", "coordinates": [-84.330954, 33.773664]}, "properties": {"kind": "stop", "name": "PONCE DE LEON AVE NE @ CLIFTON RD", "mode": "bus"}}, {"type": "Feature", "geometry": {"type": "Point", "coordinates": [-84.337326, 33.773852]}, "properties": {"kind": "stop", "name": "PONCE DE LEON AVE NE @ FAIRVIEW RD NE", "mode": "bus"}}, {"type": "Feature", "geometry": {"type": "Point", "coordinates": [-84.330693, 33.773664]}, "properties": {"kind": "stop", "name": "PONCE DE LEON AVE @ CLIFTON RD", "mode": "bus"}}, {"type": "Feature", "geometry": {"type": "Point", "coordinates": [-84.338585, 33.756746]}, "properties": {"kind": "stop", "name": "MAYSON AVE NE@WATSON ST NE", "mode": "bus"}}, {"type": "Feature", "geometry": {"type": "Point", "coordinates": [-84.338531, 33.75791]}, "properties": {"kind": "stop", "name": "MAYSON AVE NE@2ND ST NE", "mode": "bus"}}, {"type": "Feature", "geometry": {"type": "Point", "coordinates": [-84.338387, 33.75938]}, "properties": {"kind": "stop", "name": "MAYSON AVE NE@1ST ST NE", "mode": "bus"}}, {"type": "Feature", "geometry": {"type": "Point", "coordinates": [-84.338477, 33.760488]}, "properties": {"kind": "stop", "name": "MAYSON AVE NE@LA FRANCE ST NE", "mode": "bus"}}, {"type": "Feature", "geometry": {"type": "Point", "coordinates": [-84.345185, 33.75851]}, "properties": {"kind": "stop", "name": "MARION PL NE @ CAROLINE ST NE", "mode": "bus"}}, {"type": "Feature", "geometry": {"type": "Point", "coordinates": [-84.345009, 33.760204]}, "properties": {"kind": "stop", "name": "MARION PL NE @ LA FRANCE ST NE", "mode": "bus"}}, {"type": "Feature", "geometry": {"type": "Point", "coordinates": [-84.344967, 33.760523]}, "properties": {"kind": "stop", "name": "LA FRANCE ST NE @ MARION PL NE", "mode": "bus"}}, {"type": "Feature", "geometry": {"type": "Point", "coordinates": [-84.343971, 33.760151]}, "properties": {"kind": "stop", "name": "LA FRANCE ST NE @ FLORA AVE NE", "mode": "bus"}}, {"type": "Feature", "geometry": {"type": "Point", "coordinates": [-84.343761, 33.760407]}, "properties": {"kind": "stop", "name": "LA FRANCE ST NE @ FLORA AVE NE", "mode": "bus"}}, {"type": "Feature", "geometry": {"type": "Point", "coordinates": [-84.341074, 33.76073]}, "properties": {"kind": "stop", "name": "LA FRANCE ST NE @ WHITEFOORD AVE", "mode": "bus"}}, {"type": "Feature", "geometry": {"type": "Point", "coordinates": [-84.342117, 33.760246]}, "properties": {"kind": "stop", "name": "LA FRANCE ST NE @ WHITEFOORD AVE NE", "mode": "bus"}}, {"type": "Feature", "geometry": {"type": "Point", "coordinates": [-84.338564, 33.759646]}, "properties": {"kind": "stop", "name": "MAYSON AVE NE@1ST ST NE", "mode": "bus"}}, {"type": "Feature", "geometry": {"type": "Point", "coordinates": [-84.338607, 33.757982]}, "properties": {"kind": "stop", "name": "MAYSON AVE NE@2ND ST NE", "mode": "bus"}}, {"type": "Feature", "geometry": {"type": "Point", "coordinates": [-84.345365, 33.758235]}, "properties": {"kind": "stop", "name": "CAROLINE ST @ MARION PL", "mode": "bus"}}, {"type": "Feature", "geometry": {"type": "Point", "coordinates": [-84.338683, 33.757006]}, "properties": {"kind": "stop", "name": "MAYSON AVE NE @ CHIPLEY ST NE", "mode": "bus"}}, {"type": "Feature", "geometry": {"type": "Point", "coordinates": [-84.340671, 33.762363]}, "properties": {"kind": "stop", "name": "EDGEWOOD/CANDLER PARK STATION - NORTH LOOP", "mode": "bus"}}, {"type": "Feature", "geometry": {"type": "Point", "coordinates": [-84.31272, 33.764534]}, "properties": {"kind": "stop", "name": "EAST LAKE STATION - SOUTH LOOP", "mode": "bus"}}, {"type": "Feature", "geometry": {"type": "Point", "coordinates": [-84.372648, 33.771277]}, "properties": {"kind": "stop", "name": "NORTH AVE NE @ PARKWAY DR NE", "mode": "bus"}}, {"type": "Feature", "geometry": {"type": "Point", "coordinates": [-84.371892, 33.769725]}, "properties": {"kind": "stop", "name": "BOULEVARD NE @ BOULEVARD PL NE", "mode": "bus"}}, {"type": "Feature", "geometry": {"type": "Point", "coordinates": [-84.371983, 33.768699]}, "properties": {"kind": "stop", "name": "BOULEVARD NE @ MORGAN ST NE", "mode": "bus"}}, {"type": "Feature", "geometry": {"type": "Point", "coordinates": [-84.372098, 33.759818]}, "properties": {"kind": "stop", "name": "BOULEVARD NE @ CAIN ST NE", "mode": "bus"}}, {"type": "Feature", "geometry": {"type": "Point", "coordinates": [-84.374364, 33.757462]}, "properties": {"kind": "stop", "name": "JACKSON ST NE @ IRWIN ST NE", "mode": "bus"}}, {"type": "Feature", "geometry": {"type": "Point", "coordinates": [-84.372073, 33.761696]}, "properties": {"kind": "stop", "name": "BOULEVARD NE @ HIGHLAND AVE NE", "mode": "bus"}}, {"type": "Feature", "geometry": {"type": "Point", "coordinates": [-84.374394, 33.753648]}, "properties": {"kind": "stop", "name": "JACKSON ST SE @ CHAMBERLAIN ST SE", "mode": "bus"}}, {"type": "Feature", "geometry": {"type": "Point", "coordinates": [-84.374255, 33.757435]}, "properties": {"kind": "stop", "name": "JACKSON ST NE @ IRWIN ST NE", "mode": "bus"}}, {"type": "Feature", "geometry": {"type": "Point", "coordinates": [-84.371857, 33.761139]}, "properties": {"kind": "stop", "name": "BOULEVARD NE @ HIGHLAND AVE NE", "mode": "bus"}}, {"type": "Feature", "geometry": {"type": "Point", "coordinates": [-84.371626, 33.768616]}, "properties": {"kind": "stop", "name": "BOULEVARD NE @ MORGAN ST NE", "mode": "bus"}}, {"type": "Feature", "geometry": {"type": "Point", "coordinates": [-84.369659, 33.763901]}, "properties": {"kind": "stop", "name": "RALPH MCGILL BLVD@542", "mode": "bus"}}, {"type": "Feature", "geometry": {"type": "Point", "coordinates": [-84.369486, 33.763989]}, "properties": {"kind": "stop", "name": "RALPH MCGILL BLVD NE@530", "mode": "bus"}}, {"type": "Feature", "geometry": {"type": "Point", "coordinates": [-84.367834, 33.763918]}, "properties": {"kind": "stop", "name": "RALPH MCGILL BLVD NE @ GLEN IRIS DR NE", "mode": "bus"}}, {"type": "Feature", "geometry": {"type": "Point", "coordinates": [-84.368192, 33.763989]}, "properties": {"kind": "stop", "name": "RALPH MCGILL BLVD NE@GLEN IRIS DR N", "mode": "bus"}}, {"type": "Feature", "geometry": {"type": "Point", "coordinates": [-84.366447, 33.764041]}, "properties": {"kind": "stop", "name": "RALPH MCGILL BLVD NE @ FORTUNE ST NE", "mode": "bus"}}, {"type": "Feature", "geometry": {"type": "Point", "coordinates": [-84.364942, 33.764957]}, "properties": {"kind": "stop", "name": "RALPH MCGILL BLVD NE@680", "mode": "bus"}}, {"type": "Feature", "geometry": {"type": "Point", "coordinates": [-84.366475, 33.763999]}, "properties": {"kind": "stop", "name": "RALPH MCGILL BLVD NE@WILLOUGHBY WAY", "mode": "bus"}}, {"type": "Feature", "geometry": {"type": "Point", "coordinates": [-84.365148, 33.76476]}, "properties": {"kind": "stop", "name": "RALPH MCGILL BLVD NE @ 697", "mode": "bus"}}, {"type": "Feature", "geometry": {"type": "Point", "coordinates": [-84.363518, 33.765853]}, "properties": {"kind": "stop", "name": "RALPH MCGILL BLVD NE @ ASHLEY AVE NE", "mode": "bus"}}, {"type": "Feature", "geometry": {"type": "Point", "coordinates": [-84.368549, 33.757564]}, "properties": {"kind": "stop", "name": "IRWIN ST NE @ RANDOLPH ST NE", "mode": "bus"}}, {"type": "Feature", "geometry": {"type": "Point", "coordinates": [-84.371704, 33.769695]}, "properties": {"kind": "stop", "name": "BOULEVARD NE @ BOULEVARD PL NE", "mode": "bus"}}, {"type": "Feature", "geometry": {"type": "Point", "coordinates": [-84.371646, 33.757561]}, "properties": {"kind": "stop", "name": "IRWIN ST NE @ BOULEVARD NE", "mode": "bus"}}, {"type": "Feature", "geometry": {"type": "Point", "coordinates": [-84.368175, 33.771177]}, "properties": {"kind": "stop", "name": "NORTH AVE @ GLEN IRIS DR", "mode": "bus"}}, {"type": "Feature", "geometry": {"type": "Point", "coordinates": [-84.371762, 33.759951]}, "properties": {"kind": "stop", "name": "BOULEVARD NE @ FREEDOM PKWY NE", "mode": "bus"}}, {"type": "Feature", "geometry": {"type": "Point", "coordinates": [-84.349239, 33.756601]}, "properties": {"kind": "stop", "name": "MORELAND AVE NE @ WADE ST NE", "mode": "bus"}}, {"type": "Feature", "geometry": {"type": "Point", "coordinates": [-84.349892, 33.758418]}, "properties": {"kind": "stop", "name": "SEABOARD AVE NE @ BRANTLEY ST NE", "mode": "bus"}}, {"type": "Feature", "geometry": {"type": "Point", "coordinates": [-84.34925, 33.758526]}, "properties": {"kind": "stop", "name": "MORELAND AVE NE @ SEABOARD AVE", "mode": "bus"}}, {"type": "Feature", "geometry": {"type": "Point", "coordinates": [-84.349315, 33.753722]}, "properties": {"kind": "stop", "name": "MORELAND AVE NE @ BOULEVARD DR NE", "mode": "bus"}}, {"type": "Feature", "geometry": {"type": "Point", "coordinates": [-84.349248, 33.752162]}, "properties": {"kind": "stop", "name": "MORELAND AVE NE @ WYLIE ST SE", "mode": "bus"}}, {"type": "Feature", "geometry": {"type": "Point", "coordinates": [-84.349318, 33.749798]}, "properties": {"kind": "stop", "name": "MORELAND AVE SE @ KIRKWOOD AVE SE", "mode": "bus"}}, {"type": "Feature", "geometry": {"type": "Point", "coordinates": [-84.349311, 33.747774]}, "properties": {"kind": "stop", "name": "MORELAND AVE SE @ MEMORIAL DR SE", "mode": "bus"}}, {"type": "Feature", "geometry": {"type": "Point", "coordinates": [-84.349323, 33.743426]}, "properties": {"kind": "stop", "name": "MORELAND AVE SE @ FAITH AVE SE", "mode": "bus"}}, {"type": "Feature", "geometry": {"type": "Point", "coordinates": [-84.363435, 33.766155]}, "properties": {"kind": "stop", "name": "RALPH MCGILL BLVD @ ASHLEY AVE", "mode": "bus"}}, {"type": "Feature", "geometry": {"type": "Point", "coordinates": [-84.362442, 33.766981]}, "properties": {"kind": "stop", "name": "RALPH MCGILL BLVD NE@760", "mode": "bus"}}, {"type": "Feature", "geometry": {"type": "Point", "coordinates": [-84.361138, 33.767339]}, "properties": {"kind": "stop", "name": "RALPH MCGILL BLVD@828", "mode": "bus"}}, {"type": "Feature", "geometry": {"type": "Point", "coordinates": [-84.358681, 33.768128]}, "properties": {"kind": "stop", "name": "RALPH MCGILL BLVD NE @ JOHN LEWIS FREEDOM PKWY NE", "mode": "bus"}}, {"type": "Feature", "geometry": {"type": "Point", "coordinates": [-84.359406, 33.76802]}, "properties": {"kind": "stop", "name": "RALPH MCGILL BLVD NE @ JOHN LEWIS FREEDOM PKWY NE", "mode": "bus"}}, {"type": "Feature", "geometry": {"type": "Point", "coordinates": [-84.35493, 33.766485]}, "properties": {"kind": "stop", "name": "JOHN LEWIS FREEDOM PKWY NE @ 441", "mode": "bus"}}, {"type": "Feature", "geometry": {"type": "Point", "coordinates": [-84.354698, 33.76878]}, "properties": {"kind": "stop", "name": "JOHN LEWIS FREEDOM PKWY NE @ CARTER CENTER ENTR", "mode": "bus"}}, {"type": "Feature", "geometry": {"type": "Point", "coordinates": [-84.349945, 33.759811]}, "properties": {"kind": "stop", "name": "DEKALB AVE NE @ HARALSON AVE NE", "mode": "bus"}}, {"type": "Feature", "geometry": {"type": "Point", "coordinates": [-84.352753, 33.769138]}, "properties": {"kind": "stop", "name": "N HIGHLAND AVE NE @ JOHN LEWIS FREEDOM PKWY NE", "mode": "bus"}}, {"type": "Feature", "geometry": {"type": "Point", "coordinates": [-84.352371, 33.769516]}, "properties": {"kind": "stop", "name": "N HIGHLAND AVE NE @ JOHN LEWIS FREEDOM PKWY NE", "mode": "bus"}}, {"type": "Feature", "geometry": {"type": "Point", "coordinates": [-84.351392, 33.758713]}, "properties": {"kind": "stop", "name": "DEKALB AVE NE @ DEGRESS AVE NE", "mode": "bus"}}, {"type": "Feature", "geometry": {"type": "Point", "coordinates": [-84.372228, 33.756034]}, "properties": {"kind": "stop", "name": "BOULEVARD NE @ OLD WHEAT ST NE", "mode": "bus"}}, {"type": "Feature", "geometry": {"type": "Point", "coordinates": [-84.353409, 33.757726]}, "properties": {"kind": "stop", "name": "INMAN PARK/REYNOLDSTOWN STATION - NORTH LOOP", "mode": "bus"}}, {"type": "Feature", "geometry": {"type": "Point", "coordinates": [-84.353111, 33.756635]}, "properties": {"kind": "stop", "name": "INMAN PARK/REYNOLDSTOWN STATION - SOUTH LOOP", "mode": "bus"}}, {"type": "Feature", "geometry": {"type": "Point", "coordinates": [-84.374122, 33.752351]}, "properties": {"kind": "stop", "name": "JACKSON ST SE @ LUCY ST", "mode": "bus"}}, {"type": "Feature", "geometry": {"type": "Point", "coordinates": [-84.373631, 33.750722]}, "properties": {"kind": "stop", "name": "JACKSON ST SE @ DECATUR ST SE", "mode": "bus"}}, {"type": "Feature", "geometry": {"type": "Point", "coordinates": [-84.37208, 33.755851]}, "properties": {"kind": "stop", "name": "BOULEVARD NE @ OLD WHEAT ST NE", "mode": "bus"}}, {"type": "Feature", "geometry": {"type": "Point", "coordinates": [-84.365607, 33.746697]}, "properties": {"kind": "stop", "name": "MEMORIAL DR SE@POWELL ST SE", "mode": "bus"}}, {"type": "Feature", "geometry": {"type": "Point", "coordinates": [-84.366531, 33.746697]}, "properties": {"kind": "stop", "name": "MEMORIAL DR SE@BEREAN AVE SE", "mode": "bus"}}, {"type": "Feature", "geometry": {"type": "Point", "coordinates": [-84.365226, 33.746625]}, "properties": {"kind": "stop", "name": "MEMORIAL DR SE@CAMERON ST SE", "mode": "bus"}}, {"type": "Feature", "geometry": {"type": "Point", "coordinates": [-84.36802, 33.746812]}, "properties": {"kind": "stop", "name": "MEMORIAL DR SE@BOULEVARD SE", "mode": "bus"}}, {"type": "Feature", "geometry": {"type": "Point", "coordinates": [-84.366961, 33.7466]}, "properties": {"kind": "stop", "name": "MEMORIAL DR SE@BEREAN AVE SE", "mode": "bus"}}, {"type": "Feature", "geometry": {"type": "Point", "coordinates": [-84.368139, 33.746669]}, "properties": {"kind": "stop", "name": "MEMORIAL DR SE@BOULEVARD  SE", "mode": "bus"}}, {"type": "Feature", "geometry": {"type": "Point", "coordinates": [-84.369716, 33.746686]}, "properties": {"kind": "stop", "name": "MEMORIAL DR SE@PARK AVE SE", "mode": "bus"}}, {"type": "Feature", "geometry": {"type": "Point", "coordinates": [-84.376613, 33.755447]}, "properties": {"kind": "stop", "name": "AUBURN AVE NE @ HILLIARD ST NE", "mode": "bus"}}, {"type": "Feature", "geometry": {"type": "Point", "coordinates": [-84.37002, 33.746758]}, "properties": {"kind": "stop", "name": "MEMORIAL DR@ PARK AVE", "mode": "bus"}}, {"type": "Feature", "geometry": {"type": "Point", "coordinates": [-84.375825, 33.746836]}, "properties": {"kind": "stop", "name": "MEMORIAL DR @ GEORGE ST", "mode": "bus"}}, {"type": "Feature", "geometry": {"type": "Point", "coordinates": [-84.373643, 33.751438]}, "properties": {"kind": "stop", "name": "JACKSON ST SE @ TODD ST SE", "mode": "bus"}}, {"type": "Feature", "geometry": {"type": "Point", "coordinates": [-84.374187, 33.752798]}, "properties": {"kind": "stop", "name": "JACKSON ST SE @ GARTRELL ST SE", "mode": "bus"}}, {"type": "Feature", "geometry": {"type": "Point", "coordinates": [-84.374264, 33.753756]}, "properties": {"kind": "stop", "name": "JACKSON ST SE @ CHAMBERLAIN ST SE", "mode": "bus"}}, {"type": "Feature", "geometry": {"type": "Point", "coordinates": [-84.375167, 33.755465]}, "properties": {"kind": "stop", "name": "AUBURN AVE @ WILLIAM H BORDERS SR DR", "mode": "bus"}}, {"type": "Feature", "geometry": {"type": "Point", "coordinates": [-84.375944, 33.746729]}, "properties": {"kind": "stop", "name": "MEMORIAL DR @ GRANT ST SE", "mode": "bus"}}, {"type": "Feature", "geometry": {"type": "Point", "coordinates": [-84.376695, 33.747015]}, "properties": {"kind": "stop", "name": "GRANT ST @ MEMORIAL DR", "mode": "bus"}}, {"type": "Feature", "geometry": {"type": "Point", "coordinates": [-84.373539, 33.746719]}, "properties": {"kind": "stop", "name": "MEMORIAL DR@CHEROKEE AVE", "mode": "bus"}}, {"type": "Feature", "geometry": {"type": "Point", "coordinates": [-84.375881, 33.749978]}, "properties": {"kind": "stop", "name": "KING MEMORIAL STATION", "mode": "bus"}}, {"type": "Feature", "geometry": {"type": "Point", "coordinates": [-84.349267, 33.741948]}, "properties": {"kind": "stop", "name": "MORELAND AVE SE @ SANDERS AVE SE", "mode": "bus"}}, {"type": "Feature", "geometry": {"type": "Point", "coordinates": [-84.349403, 33.740623]}, "properties": {"kind": "stop", "name": "MORELAND AVE SE @ GLENWOOD AVE", "mode": "bus"}}, {"type": "Feature", "geometry": {"type": "Point", "coordinates": [-84.348541, 33.747641]}, "properties": {"kind": "stop", "name": "MEMORIAL DR SE@MORELAND AVE SE", "mode": "bus"}}, {"type": "Feature", "geometry": {"type": "Point", "coordinates": [-84.348269, 33.74757]}, "properties": {"kind": "stop", "name": "MEMORIAL DR SE@MORELAND AVE SE", "mode": "bus"}}, {"type": "Feature", "geometry": {"type": "Point", "coordinates": [-84.350372, 33.747425]}, "properties": {"kind": "stop", "name": "MEMORIAL DR SE@FLAT SHOALS AVE SE", "mode": "bus"}}, {"type": "Feature", "geometry": {"type": "Point", "coordinates": [-84.350682, 33.747238]}, "properties": {"kind": "stop", "name": "MEMORIAL DR SE@HOWELL DR SE", "mode": "bus"}}, {"type": "Feature", "geometry": {"type": "Point", "coordinates": [-84.352554, 33.747028]}, "properties": {"kind": "stop", "name": "MEMORIAL DR SE@WILBUR AVE SE", "mode": "bus"}}, {"type": "Feature", "geometry": {"type": "Point", "coordinates": [-84.353043, 33.746651]}, "properties": {"kind": "stop", "name": "MEMORIAL DR SE@WILBUR AVE SE", "mode": "bus"}}, {"type": "Feature", "geometry": {"type": "Point", "coordinates": [-84.354233, 33.746696]}, "properties": {"kind": "stop", "name": "MEMORIAL DR SE@STOVALL ST SE", "mode": "bus"}}, {"type": "Feature", "geometry": {"type": "Point", "coordinates": [-84.354568, 33.746346]}, "properties": {"kind": "stop", "name": "MEMORIAL DR SE@STOVALL ST SE", "mode": "bus"}}, {"type": "Feature", "geometry": {"type": "Point", "coordinates": [-84.355378, 33.746467]}, "properties": {"kind": "stop", "name": "MEMORIAL DR SE @ GIBSON ST SE", "mode": "bus"}}, {"type": "Feature", "geometry": {"type": "Point", "coordinates": [-84.356575, 33.746719]}, "properties": {"kind": "stop", "name": "MEMORIAL DR SE@HOLTZCLAW ST SE", "mode": "bus"}}, {"type": "Feature", "geometry": {"type": "Point", "coordinates": [-84.359052, 33.746627]}, "properties": {"kind": "stop", "name": "MEMORIAL DR SE @ CHESTER AVE SE", "mode": "bus"}}, {"type": "Feature", "geometry": {"type": "Point", "coordinates": [-84.358497, 33.746556]}, "properties": {"kind": "stop", "name": "MEMORIAL DR SE @ BILL KENNEDY WAY", "mode": "bus"}}, {"type": "Feature", "geometry": {"type": "Point", "coordinates": [-84.362193, 33.746653]}, "properties": {"kind": "stop", "name": "MEMORIAL DR SE@PEARL ST SE", "mode": "bus"}}, {"type": "Feature", "geometry": {"type": "Point", "coordinates": [-84.361791, 33.746591]}, "properties": {"kind": "stop", "name": "MEMORIAL DR SE @ PEARL ST SE", "mode": "bus"}}, {"type": "Feature", "geometry": {"type": "Point", "coordinates": [-84.325806, 33.753239]}, "properties": {"kind": "stop", "name": "HOSEA L WILLIAMS DR @ WARREN ST NE", "mode": "bus"}}, {"type": "Feature", "geometry": {"type": "Point", "coordinates": [-84.329028, 33.75339]}, "properties": {"kind": "stop", "name": "HOSEA L WILLIAMS DR @ ROGERS ST NE", "mode": "bus"}}, {"type": "Feature", "geometry": {"type": "Point", "coordinates": [-84.330333, 33.75339]}, "properties": {"kind": "stop", "name": "HOSEA L WILLIAMS DR NE @ CLAY ST NE", "mode": "bus"}}, {"type": "Feature", "geometry": {"type": "Point", "coordinates": [-84.331616, 33.753399]}, "properties": {"kind": "stop", "name": "HOSEA L WILLIAMS DR @ CLIFTON ST NE", "mode": "bus"}}, {"type": "Feature", "geometry": {"type": "Point", "coordinates": [-84.338595, 33.755368]}, "properties": {"kind": "stop", "name": "MAYSON AVE NE@HARDEE ST NE", "mode": "bus"}}, {"type": "Feature", "geometry": {"type": "Point", "coordinates": [-84.338748, 33.755439]}, "properties": {"kind": "stop", "name": "MAYSON AVE NE@HARDEE ST NE", "mode": "bus"}}, {"type": "Feature", "geometry": {"type": "Point", "coordinates": [-84.345855, 33.747552]}, "properties": {"kind": "stop", "name": "MEMORIAL DR SE@TRENTON ST SE", "mode": "bus"}}, {"type": "Feature", "geometry": {"type": "Point", "coordinates": [-84.344388, 33.747535]}, "properties": {"kind": "stop", "name": "MEMORIAL DR SE@HAAS AVE SE", "mode": "bus"}}, {"type": "Feature", "geometry": {"type": "Point", "coordinates": [-84.343247, 33.747535]}, "properties": {"kind": "stop", "name": "MEMORIAL DR SE@PATTERSON AVE SE", "mode": "bus"}}, {"type": "Feature", "geometry": {"type": "Point", "coordinates": [-84.342344, 33.747535]}, "properties": {"kind": "stop", "name": "MEMORIAL DR SE@MEMORIAL TER SE", "mode": "bus"}}, {"type": "Feature", "geometry": {"type": "Point", "coordinates": [-84.343185, 33.747643]}, "properties": {"kind": "stop", "name": "MEMORIAL DR SE@PATTERSON AVE SE", "mode": "bus"}}, {"type": "Feature", "geometry": {"type": "Point", "coordinates": [-84.344353, 33.747612]}, "properties": {"kind": "stop", "name": "MEMORIAL DR SE@HAAS AVE SE", "mode": "bus"}}, {"type": "Feature", "geometry": {"type": "Point", "coordinates": [-84.345329, 33.747612]}, "properties": {"kind": "stop", "name": "MEMORIAL DR SE@DAHLGREEN ST SE", "mode": "bus"}}, {"type": "Feature", "geometry": {"type": "Point", "coordinates": [-84.342532, 33.760443]}, "properties": {"kind": "stop", "name": "LA FRANCE ST @ WHITEFOORD AVE", "mode": "bus"}}, {"type": "Feature", "geometry": {"type": "Point", "coordinates": [-84.33042, 33.753328]}, "properties": {"kind": "stop", "name": "HOSEA L WILLIAMS DR @ CLAY ST NE", "mode": "bus"}}, {"type": "Feature", "geometry": {"type": "Point", "coordinates": [-84.329268, 33.753319]}, "properties": {"kind": "stop", "name": "HOSEA L WILLIAMS DR @ ROGERS ST SE", "mode": "bus"}}, {"type": "Feature", "geometry": {"type": "Point", "coordinates": [-84.326561, 33.753301]}, "properties": {"kind": "stop", "name": "HOSEA L WILLIAMS DR SE @ WARREN ST SE", "mode": "bus"}}, {"type": "Feature", "geometry": {"type": "Point", "coordinates": [-84.341214, 33.747517]}, "properties": {"kind": "stop", "name": "MEMORIAL DR SE@1422", "mode": "bus"}}, {"type": "Feature", "geometry": {"type": "Point", "coordinates": [-84.343658, 33.740079]}, "properties": {"kind": "stop", "name": "GLENWOOD AVE SE@PATTERSON AVE SE", "mode": "bus"}}, {"type": "Feature", "geometry": {"type": "Point", "coordinates": [-84.345593, 33.740105]}, "properties": {"kind": "stop", "name": "GLENWOOD AVE SE@FLAT SHOALS AVE SE", "mode": "bus"}}, {"type": "Feature", "geometry": {"type": "Point", "coordinates": [-84.345011, 33.739864]}, "properties": {"kind": "stop", "name": "FLAT SHOALS AVE @ GLENWOOD AVE", "mode": "bus"}}, {"type": "Feature", "geometry": {"type": "Point", "coordinates": [-84.34531, 33.740168]}, "properties": {"kind": "stop", "name": "GLENWOOD AVE SE@FLAT SHOALS AVE SE", "mode": "bus"}}, {"type": "Feature", "geometry": {"type": "Point", "coordinates": [-84.368222, 33.73855]}, "properties": {"kind": "stop", "name": "BOULEVARD SE@ ROSALIA ST", "mode": "bus"}}, {"type": "Feature", "geometry": {"type": "Point", "coordinates": [-84.36806, 33.740591]}, "properties": {"kind": "stop", "name": "BOULEVARD SE @ HANSELL ST SE", "mode": "bus"}}, {"type": "Feature", "geometry": {"type": "Point", "coordinates": [-84.348179, 33.740123]}, "properties": {"kind": "stop", "name": "GLENWOOD AVE SE @ BROWNWOOD AVE SE", "mode": "bus"}}, {"type": "Feature", "geometry": {"type": "Point", "coordinates": [-84.3494, 33.739231]}, "properties": {"kind": "stop", "name": "MORELAND AVE SE @ PORTLAND AVE SE", "mode": "bus"}}, {"type": "Feature", "geometry": {"type": "Point", "coordinates": [-84.351166, 33.74049]}, "properties": {"kind": "stop", "name": "GLENWOOD AVE SE@HEMLOCK CIR SE", "mode": "bus"}}, {"type": "Feature", "geometry": {"type": "Point", "coordinates": [-84.354172, 33.740005]}, "properties": {"kind": "stop", "name": "GLENWOOD AVE SE@STOVALL ST SE", "mode": "bus"}}, {"type": "Feature", "geometry": {"type": "Point", "coordinates": [-84.35508, 33.739857]}, "properties": {"kind": "stop", "name": "GLENWOOD AVE SE@GLENWOOD PL SE", "mode": "bus"}}, {"type": "Feature", "geometry": {"type": "Point", "coordinates": [-84.357604, 33.739814]}, "properties": {"kind": "stop", "name": "GLENWOOD AVE SE @ BILL KENNEDY WAY SE", "mode": "bus"}}, {"type": "Feature", "geometry": {"type": "Point", "coordinates": [-84.356321, 33.739709]}, "properties": {"kind": "stop", "name": "GLENWOOD AVE SE@HAMILTON ST SE", "mode": "bus"}}, {"type": "Feature", "geometry": {"type": "Point", "coordinates": [-84.355043, 33.739717]}, "properties": {"kind": "stop", "name": "GLENWOOD AVE SE@GLENWOOD PL SE", "mode": "bus"}}, {"type": "Feature", "geometry": {"type": "Point", "coordinates": [-84.354234, 33.739888]}, "properties": {"kind": "stop", "name": "GLENWOOD AVE SE@STOVALL ST SE", "mode": "bus"}}, {"type": "Feature", "geometry": {"type": "Point", "coordinates": [-84.351332, 33.74039]}, "properties": {"kind": "stop", "name": "GLENWOOD AVE SE@HEMLOCK CIR SE", "mode": "bus"}}, {"type": "Feature", "geometry": {"type": "Point", "coordinates": [-84.348364, 33.740208]}, "properties": {"kind": "stop", "name": "GLENWOOD AVE SE @ BROWNWOOD AVE", "mode": "bus"}}, {"type": "Feature", "geometry": {"type": "Point", "coordinates": [-84.349386, 33.740337]}, "properties": {"kind": "stop", "name": "GLENWOOD AVE SE @ MORELAND AVE SE", "mode": "bus"}}, {"type": "Feature", "geometry": {"type": "Point", "coordinates": [-84.349197, 33.738838]}, "properties": {"kind": "stop", "name": "MORELAND AVE SE@PORTLAND AVE", "mode": "bus"}}, {"type": "Feature", "geometry": {"type": "Point", "coordinates": [-84.349152, 33.739948]}, "properties": {"kind": "stop", "name": "MORELAND AVE SE@GLENWOOD AVE SE", "mode": "bus"}}, {"type": "Feature", "geometry": {"type": "Point", "coordinates": [-84.34914, 33.74122]}, "properties": {"kind": "stop", "name": "MORELAND AVE SE @ METROPOLITAN AVE SE", "mode": "bus"}}, {"type": "Feature", "geometry": {"type": "Point", "coordinates": [-84.349159, 33.743032]}, "properties": {"kind": "stop", "name": "MORELAND AVE SE @ MCPHERSON AVE SE", "mode": "bus"}}, {"type": "Feature", "geometry": {"type": "Point", "coordinates": [-84.34916, 33.747543]}, "properties": {"kind": "stop", "name": "MORELAND AVE SE @ MEMORIAL DR SE", "mode": "bus"}}, {"type": "Feature", "geometry": {"type": "Point", "coordinates": [-84.349139, 33.749655]}, "properties": {"kind": "stop", "name": "MORELAND AVE SE @ MERLIN AVE SE", "mode": "bus"}}, {"type": "Feature", "geometry": {"type": "Point", "coordinates": [-84.349162, 33.752341]}, "properties": {"kind": "stop", "name": "MORELAND AVE SE @ WYLIE ST SE", "mode": "bus"}}, {"type": "Feature", "geometry": {"type": "Point", "coordinates": [-84.349173, 33.753504]}, "properties": {"kind": "stop", "name": "MORELAND AVE SE @ HOSEA L WILLIAMS DR NE", "mode": "bus"}}, {"type": "Feature", "geometry": {"type": "Point", "coordinates": [-84.349119, 33.755599]}, "properties": {"kind": "stop", "name": "MORELAND AVE NE @ HARDEE ST NE", "mode": "bus"}}, {"type": "Feature", "geometry": {"type": "Point", "coordinates": [-84.372059, 33.757588]}, "properties": {"kind": "stop", "name": "BOULEVARD NE @ IRWIN ST NE", "mode": "bus"}}, {"type": "Feature", "geometry": {"type": "Point", "coordinates": [-84.370245, 33.759379]}, "properties": {"kind": "stop", "name": "JOHN WESLEY DOBBS AVE @ HOWELL ST", "mode": "bus"}}, {"type": "Feature", "geometry": {"type": "Point", "coordinates": [-84.372135, 33.757686]}, "properties": {"kind": "stop", "name": "BOULEVARD NE @ IRWIN ST NE", "mode": "bus"}}, {"type": "Feature", "geometry": {"type": "Point", "coordinates": [-84.347065, 33.758437]}, "properties": {"kind": "stop", "name": "CAROLINE ST @ 1270", "mode": "bus"}}, {"type": "Feature", "geometry": {"type": "Point", "coordinates": [-84.349566, 33.758374]}, "properties": {"kind": "stop", "name": "SEABOARD AVE NE @ MORELAND AVE NE", "mode": "bus"}}, {"type": "Feature", "geometry": {"type": "Point", "coordinates": [-84.347739, 33.758338]}, "properties": {"kind": "stop", "name": "CAROLINE ST @ 1245", "mode": "bus"}}, {"type": "Feature", "geometry": {"type": "Point", "coordinates": [-84.349026, 33.771138]}, "properties": {"kind": "stop", "name": "MORELAND AVE@NORTH AVE", "mode": "bus"}}, {"type": "Feature", "geometry": {"type": "Point", "coordinates": [-84.349058, 33.769043]}, "properties": {"kind": "stop", "name": "MORELAND AVE @ DRUID PL", "mode": "bus"}}, {"type": "Feature", "geometry": {"type": "Point", "coordinates": [-84.349068, 33.767871]}, "properties": {"kind": "stop", "name": "MORELAND AVE @ MANSFIELD AVE", "mode": "bus"}}, {"type": "Feature", "geometry": {"type": "Point", "coordinates": [-84.349242, 33.765158]}, "properties": {"kind": "stop", "name": "MORELAND AVE @ EUCLID AVE", "mode": "bus"}}, {"type": "Feature", "geometry": {"type": "Point", "coordinates": [-84.349263, 33.762357]}, "properties": {"kind": "stop", "name": "MORELAND AVE @ 299", "mode": "bus"}}, {"type": "Feature", "geometry": {"type": "Point", "coordinates": [-84.349154, 33.762357]}, "properties": {"kind": "stop", "name": "MORELAND AVE @ 299", "mode": "bus"}}, {"type": "Feature", "geometry": {"type": "Point", "coordinates": [-84.349122, 33.764899]}, "properties": {"kind": "stop", "name": "MORELAND AVE @ MCLENDON AVE", "mode": "bus"}}, {"type": "Feature", "geometry": {"type": "Point", "coordinates": [-84.34896, 33.767701]}, "properties": {"kind": "stop", "name": "MORELAND AVE @ MANSFIELD AVE", "mode": "bus"}}, {"type": "Feature", "geometry": {"type": "Point", "coordinates": [-84.348927, 33.768936]}, "properties": {"kind": "stop", "name": "MORELAND AVE @ DRUID PL", "mode": "bus"}}, {"type": "Feature", "geometry": {"type": "Point", "coordinates": [-84.348895, 33.770994]}, "properties": {"kind": "stop", "name": "MORELAND AVE@NORTH AVE", "mode": "bus"}}, {"type": "Feature", "geometry": {"type": "Point", "coordinates": [-84.357864, 33.7397]}, "properties": {"kind": "stop", "name": "GLENWOOD AVE SE @ BILL KENNEDY WAY SE", "mode": "bus"}}, {"type": "Feature", "geometry": {"type": "Point", "coordinates": [-84.356234, 33.73979]}, "properties": {"kind": "stop", "name": "GLENWOOD AVE@HAMILTON ST SE", "mode": "bus"}}, {"type": "Feature", "geometry": {"type": "Point", "coordinates": [-84.374276, 33.755895]}, "properties": {"kind": "stop", "name": "JACKSON ST NE @ OLD WHEAT ST NE", "mode": "bus"}}, {"type": "Feature", "geometry": {"type": "Point", "coordinates": [-84.358202, 33.741919]}, "properties": {"kind": "stop", "name": "BILL KENNEDY WAY SE @ FAITH AVE SE", "mode": "bus"}}, {"type": "Feature", "geometry": {"type": "Point", "coordinates": [-84.371665, 33.771077]}, "properties": {"kind": "stop", "name": "BOULEVARD NE @ NORTH AVE NE", "mode": "bus"}}, {"type": "Feature", "geometry": {"type": "Point", "coordinates": [-84.353067, 33.773916]}, "properties": {"kind": "stop", "name": "PONCE DE LEON AVE @ N HIGHLAND AVE", "mode": "bus"}}, {"type": "Feature", "geometry": {"type": "Point", "coordinates": [-84.37209, 33.753766]}, "properties": {"kind": "stop", "name": "BOULEVARD SE @ CHAMBERLAIN ST SE", "mode": "bus"}}, {"type": "Feature", "geometry": {"type": "Point", "coordinates": [-84.37209, 33.754267]}, "properties": {"kind": "stop", "name": "BOULEVARD SE @ EDGEWOOD AVE SE", "mode": "bus"}}, {"type": "Feature", "geometry": {"type": "Point", "coordinates": [-84.371284, 33.751609]}, "properties": {"kind": "stop", "name": "BOULEVARD SE @ DECATUR ST SE", "mode": "bus"}}, {"type": "Feature", "geometry": {"type": "Point", "coordinates": [-84.370838, 33.751761]}, "properties": {"kind": "stop", "name": "BOULEVARD SE @ DECATUR ST SE", "mode": "bus"}}, {"type": "Feature", "geometry": {"type": "Point", "coordinates": [-84.377654, 33.751284]}, "properties": {"kind": "stop", "name": "AUBURN POINTE DR @ VERANDA CIR", "mode": "bus"}}, {"type": "Feature", "geometry": {"type": "Point", "coordinates": [-84.377697, 33.751212]}, "properties": {"kind": "stop", "name": "AUBURN POINTE DR @ VERANDA CIR", "mode": "bus"}}, {"type": "Feature", "geometry": {"type": "Point", "coordinates": [-84.374374, 33.75594]}, "properties": {"kind": "stop", "name": "JACKSON ST NE @ OLD WHEAT ST NE", "mode": "bus"}}, {"type": "Feature", "geometry": {"type": "Point", "coordinates": [-84.374961, 33.755506]}, "properties": {"kind": "stop", "name": "KING HISTORIC DISTRICT", "mode": "bus"}}, {"type": "Feature", "geometry": {"type": "Point", "coordinates": [-84.376378, 33.754408]}, "properties": {"kind": "stop", "name": "EDGEWOOD AVE @ HILLIARD ST", "mode": "bus"}}, {"type": "Feature", "geometry": {"type": "Point", "coordinates": [-84.349285, 33.76344]}, "properties": {"kind": "stop", "name": "MORELAND AVE NE @ 326", "mode": "bus"}}, {"type": "Feature", "geometry": {"type": "Point", "coordinates": [-84.361801, 33.767115]}, "properties": {"kind": "stop", "name": "RALPH MCGILL BLVD @ 760", "mode": "bus"}}, {"type": "Feature", "geometry": {"type": "Point", "coordinates": [-84.358126, 33.741919]}, "properties": {"kind": "stop", "name": "BILL KENNEDY WAY SE @ FAITH AVE SE", "mode": "bus"}}, {"type": "Feature", "geometry": {"type": "Point", "coordinates": [-84.371134, 33.77336]}, "properties": {"kind": "stop", "name": "BOULEVARD NE @ PONCE DE LEON AVE", "mode": "bus"}}, {"type": "Feature", "geometry": {"type": "Point", "coordinates": [-84.374438, 33.75457]}, "properties": {"kind": "stop", "name": "JACKSON ST @ EDGEWOOD AVE", "mode": "bus"}}, {"type": "Feature", "geometry": {"type": "Point", "coordinates": [-84.352594, 33.773411]}, "properties": {"kind": "stop", "name": "N HIGHLAND AVE NE @ PONCE DE LEON AVE NE", "mode": "bus"}}, {"type": "Feature", "geometry": {"type": "Point", "coordinates": [-84.376895, 33.754435]}, "properties": {"kind": "stop", "name": "EDGEWOOD AVE @ HILLIARD ST", "mode": "bus"}}, {"type": "Feature", "geometry": {"type": "Point", "coordinates": [-84.376564, 33.7474]}, "properties": {"kind": "stop", "name": "GRANT ST @ MLK JR DR", "mode": "bus"}}, {"type": "Feature", "geometry": {"type": "Point", "coordinates": [-84.367715, 33.765986]}, "properties": {"kind": "stop", "name": "GLEN IRIS DR @ ANGIER AVE", "mode": "bus"}}, {"type": "Feature", "geometry": {"type": "Point", "coordinates": [-84.367791, 33.766084]}, "properties": {"kind": "stop", "name": "GLEN IRIS DR @ ANGIER AVE", "mode": "bus"}}, {"type": "Feature", "geometry": {"type": "Point", "coordinates": [-84.367792, 33.767964]}, "properties": {"kind": "stop", "name": "GLEN IRIS DR @ DALLAS ST", "mode": "bus"}}, {"type": "Feature", "geometry": {"type": "Point", "coordinates": [-84.367695, 33.768733]}, "properties": {"kind": "stop", "name": "GLEN IRIS DR @ WINTON TER", "mode": "bus"}}, {"type": "Feature", "geometry": {"type": "Point", "coordinates": [-84.367946, 33.771105]}, "properties": {"kind": "stop", "name": "NORTH AVE @ GLEN IRIS DR", "mode": "bus"}}, {"type": "Feature", "geometry": {"type": "Point", "coordinates": [-84.349088, 33.759028]}, "properties": {"kind": "stop", "name": "MORELAND AVE @ CAROLINE ST", "mode": "bus"}}, {"type": "Feature", "geometry": {"type": "Point", "coordinates": [-84.340825, 33.761803]}, "properties": {"kind": "stop", "name": "EDGEWOOD-CANDLER PARK STATION", "mode": "bus"}}, {"type": "Feature", "geometry": {"type": "Point", "coordinates": [-84.340456, 33.761866]}, "properties": {"kind": "stop", "name": "EDGEWOOD-CANDLER PARK STATION", "mode": "bus"}}, {"type": "Feature", "geometry": {"type": "Point", "coordinates": [-84.375675, 33.749951]}, "properties": {"kind": "stop", "name": "KING MEMORIAL STATION", "mode": "bus"}}, {"type": "Feature", "geometry": {"type": "Point", "coordinates": [-84.352762, 33.757451]}, "properties": {"kind": "stop", "name": "INMAN PARK-REYNOLDSTOWN STATION", "mode": "bus"}}, {"type": "Feature", "geometry": {"type": "Point", "coordinates": [-84.353066, 33.757227]}, "properties": {"kind": "stop", "name": "INMAN PARK-REYNOLDSTOWN STATION", "mode": "bus"}}, {"type": "Feature", "geometry": {"type": "Point", "coordinates": [-84.37599, 33.749853]}, "properties": {"kind": "stop", "name": "KING MEMORIAL STATION", "mode": "bus"}}], "properties": {"coverage_pct": 92.5, "rail_coverage_pct": 32.8, "stop_count": 274, "rail_stop_count": 4, "bus_stop_count": 270, "transit_index": 53, "weights": {"rail": 2.0, "bus": 1.0}}}