{"type": "FeatureCollection", "features": [{"type": "Feature", "geometry": {"type": "Polygon", "coordinates": [[[-84.49425957123304, 33.80548981890178], [-84.49402433605037, 33.80581982346771], [-84.49351844034514, 33.80639304928218], [-84.49294766833657, 33.806922118007044], [-84.49231751664027, 33.80740193357482], [-84.49163405413668, 33.807827874249384], [-84.49090386351777, 33.80819583716839], [-84.49013397787003, 33.80850227788782], [-84.49005513506172, 33.808526060482855], [-84.48970543800296, 33.808922255626506], [-84.4892670077717, 33.80932861068627], [-84.48925556478791, 33.809394425963674], [-84.48905090947476, 33.81008562367417], [-84.48876607497998, 33.81075674748802], [-84.48840380279702, 33.811401333588854], [-84.48796758046977, 33.812013173612314], [-84.48746160805703, 33.812586374460935], [-84.48689075772208, 33.81311541508652], [-84.48626052683532, 33.81359519969199], [-84.48557698504041, 33.81402110683918], [-84.48491614751747, 33.8143540529434], [-84.48474764983744, 33.81459036059415], [-84.48424164080785, 33.81516354820657], [-84.48367075353906, 33.81569257392178], [-84.48304048575736, 33.81617234208613], [-84.48235690746208, 33.81659823141977], [-84.48162660246128, 33.816966139554744], [-84.48085660494415, 33.81727252257455], [-84.4800543317012, 33.81751442917325], [-84.47922751064682, 33.81768952910402], [-84.47838410633437, 33.81779613564187], [-84.47753224318333, 33.81783322184385], [-84.47668012716083, 33.81780043044921], [-84.47635114832008, 33.81776054300145], [-84.47613815256189, 33.817922652092385], [-84.47545452589209, 33.81834850332138], [-84.47533594141662, 33.81840823324933], [-84.47531245711681, 33.818429991085026], [-84.47468212236645, 33.81890971670043], [-84.47455494697601, 33.81898893536342], [-84.47408944651824, 33.819516100495356], [-84.47351846766342, 33.8200450793596], [-84.4732056697231, 33.820283127136435], [-84.47279147521132, 33.82075217030802], [-84.47222048016333, 33.8212811431471], [-84.47159010723223, 33.821760852949915], [-84.47090642743102, 33.822186678998534], [-84.47058180665516, 33.82235016345367], [-84.47008407254107, 33.822728919843634], [-84.46972357683194, 33.82295344414575], [-84.4694754952466, 33.82323434946], [-84.46890446328335, 33.82376330693668], [-84.46827405359826, 33.82424299979863], [-84.46759033755858, 33.824668807491044], [-84.46745314835232, 33.824737891425116], [-84.46711145045484, 33.825054395563484], [-84.46648102126733, 33.82553407926565], [-84.46579728603605, 33.82595987703236], [-84.46506683008211, 33.82632768737744], [-84.46429668905014, 33.82663396732632], [-84.46420443893776, 33.8266617664975], [-84.46415394621344, 33.826700183038376], [-84.4634701901096, 33.82712596793481], [-84.46273971420675, 33.82749376453343], [-84.46196955434185, 33.82780002999208], [-84.46116712887085, 33.82804181413742], [-84.46034016717604, 33.82821678790244], [-84.45949663516693, 33.828323265777954], [-84.45864465849431, 33.82836022206097], [-84.45850605448018, 33.82835486814514], [-84.45795797546478, 33.8284708218505], [-84.45711443788643, 33.82857728345542], [-84.45626245754548, 33.82861422329738], [-84.45541024153896, 33.82858128552632], [-84.45456599923826, 33.82847878741896], [-84.45373786314917, 33.82830771632081], [-84.45293381051466, 33.82806972012846], [-84.45267644411611, 33.82796886098067], [-84.45213710858069, 33.827992226660115], [-84.45128490011695, 33.82795926033626], [-84.45044066864885, 33.827856733919056], [-84.45019730191864, 33.827806452394384], [-84.4499916795048, 33.82745222227492], [-84.44984212054943, 33.82715903426223], [-84.44939391369401, 33.82692260978497], [-84.44849206355579, 33.82645206692408], [-84.44823267888457, 33.82630234226948], [-84.44812438176164, 33.82624326944093], [-84.44792536042354, 33.826131407157575], [-84.44773536199341, 33.8260214046004], [-84.44763519449945, 33.8259634111381], [-84.44710653855617, 33.82567349439872], [-84.4470098331853, 33.825619684441655], [-84.4467934020925, 33.82549750260372], [-84.44664192205637, 33.82558518201422], [-84.44594004170494, 33.825912424508765], [-84.44553330600228, 33.82636921946186], [-84.44495752198272, 33.82689802334294], [-84.44432219804251, 33.82737699085817], [-84.44363349653786, 33.82780147552991], [-84.44289809795107, 33.82816735935412], [-84.44212313607166, 33.828471092773874], [-84.44131612876583, 33.828709729136904], [-84.44118979330365, 33.828735753441784], [-84.4409758512217, 33.828672403946925], [-84.4403299270552, 33.82841919705917], [-84.43961146054926, 33.8285710852284], [-84.43876789834007, 33.82867742145341], [-84.43791590820275, 33.82871423458548], [-84.43706369732887, 33.828681169995725], [-84.43621947504028, 33.82857854618322], [-84.43539137364955, 33.828407351705046], [-84.4350316856445, 33.82830082626506], [-84.43457416629282, 33.82813878621678], [-84.4344977228968, 33.82811135090323], [-84.43438771595285, 33.82807134788291], [-84.4342972113701, 33.82803792375417], [-84.43421720641865, 33.82800792149917], [-84.43406942061203, 33.82795110767973], [-84.43381299346684, 33.8278500895422], [-84.43380722261838, 33.82784792544286], [-84.43372722084284, 33.82781792437876], [-84.43367700865487, 33.827797766492054], [-84.43308232781278, 33.82750203618345], [-84.43239578585491, 33.827079379669485], [-84.4322455740337, 33.82696634381089], [-84.43184320535897, 33.826847164326935], [-84.4310710656613, 33.82654440305528], [-84.43033820742683, 33.826179931015844], [-84.42965168947785, 33.82575725901909], [-84.42901812398057, 33.82528045843952], [-84.42844361274233, 33.82475412197479], [-84.42793368843934, 33.82418331938295], [-84.42759457507461, 33.82371381827683], [-84.4273211388512, 33.823577816197755], [-84.42663465651478, 33.823155127058435], [-84.42600112694643, 33.822678310608225], [-84.42579537836923, 33.82248979887297], [-84.42577212777579, 33.82247229939179], [-84.42519765521844, 33.821945947383725], [-84.42468776918558, 33.821375130930925], [-84.42428631075975, 33.82081925436999], [-84.42423904126795, 33.820805249011656], [-84.42414162034531, 33.820793395323584], [-84.4233136176234, 33.82062211906045], [-84.42265163869708, 33.820425974581255], [-84.42246038932295, 33.82064232756451], [-84.42227242525918, 33.820491598852996], [-84.4222024254368, 33.82043159536674], [-84.42186635136957, 33.82012052566649], [-84.42163884045192, 33.82000477023264], [-84.42124924273635, 33.819780744589956], [-84.4211896780658, 33.81974670658048], [-84.42067534621322, 33.81942896715975], [-84.42055534327639, 33.81934896196881], [-84.42056345104538, 33.819340489794584], [-84.42010039926784, 33.819036673954635], [-84.42002039824989, 33.81897667024343], [-84.4191568941427, 33.818229090295304], [-84.41904689665455, 33.818119084414946], [-84.41858427090312, 33.8176128157514], [-84.41853427343656, 33.817552812887186], [-84.41845790931977, 33.8174506289087], [-84.41760784066543, 33.81739347048443], [-84.41674900577681, 33.817262375043896], [-84.41591026250583, 33.81706002307325], [-84.41510007464754, 33.81678845653955], [-84.41432661763474, 33.816450415847186], [-84.41359769599265, 33.816049312165546], [-84.41292066454949, 33.81558919298419], [-84.4123023541993, 33.81507470124491], [-84.41174900296797, 33.81451102846415], [-84.41126619307826, 33.81390386231992], [-84.41085879464922, 33.81325932923389], [-84.41069644457845, 33.81296788554892], [-84.41064162992255, 33.812894790746306], [-84.41059867463603, 33.81284011463808], [-84.41038577396245, 33.81266477391494], [-84.41024741106887, 33.812534603148904], [-84.40982079191643, 33.81219642369669], [-84.40960880152134, 33.81205862462256], [-84.4092196654673, 33.81182036941065], [-84.40884567331986, 33.811578035290914], [-84.40838688051525, 33.81126366667954], [-84.4072043918338, 33.81072067121848], [-84.40605183891992, 33.8102153116807], [-84.40536239884322, 33.80992686818753], [-84.4047601089374, 33.80970901559697], [-84.40460701361735, 33.809657983206186], [-84.40406320371068, 33.80945004129616], [-84.40411408036768, 33.80915911298427], [-84.40398752984532, 33.808458084791816], [-84.40394371556054, 33.80774702411799], [-84.4039836031997, 33.80703580234482], [-84.40405044935403, 33.80665354671835], [-84.40397397526094, 33.80662353272702], [-84.40324140134481, 33.8062588972401], [-84.40255517547222, 33.805836071760986], [-84.40192190699365, 33.8053591291421], [-84.40134769485357, 33.8048326634485], [-84.40083806884554, 33.80426174568204], [-84.40039793636457, 33.80365187491212], [-84.40003153516844, 33.803008925285205], [-84.3997423926028, 33.8023390894244], [-84.3995332916808, 33.80164881876558], [-84.39940624434216, 33.800944761405276], [-84.39936247214698, 33.800233698060204], [-84.39940239458737, 33.799522476755094], [-84.39946636138782, 33.799156769152475], [-84.39929817208451, 33.79860152670653], [-84.39915574765064, 33.79859595436054], [-84.39915995835582, 33.79851118481842], [-84.39914963556521, 33.79837969403611], [-84.39914968811708, 33.797859693811745], [-84.39915059884562, 33.79775526873628], [-84.39916065744978, 33.7971752691806], [-84.39916349460636, 33.79706724588752], [-84.39919619846455, 33.79613786390051], [-84.39919346921354, 33.796058482917374], [-84.39919063661175, 33.795945331461624], [-84.39916082852235, 33.794045328558575], [-84.3991600832276, 33.79394969401834], [-84.39916010444598, 33.79373969392771], [-84.39916101521722, 33.79363526364233], [-84.39917107380943, 33.79305526408655], [-84.39917757014511, 33.7928608051034], [-84.39920099984839, 33.792387323439236], [-84.39919509493295, 33.792271868059295], [-84.39917514534646, 33.79177186645573], [-84.39917032773508, 33.79152969408604], [-84.39917036713574, 33.79113969391773], [-84.39917038329989, 33.790979693970456], [-84.3991704014844, 33.790799693968204], [-84.39917043056603, 33.790511798990295], [-84.39916139954707, 33.79040329526874], [-84.39916026905122, 33.79033752867334], [-84.39913377373963, 33.790109471958765], [-84.39904038041774, 33.78949776856464], [-84.39897430558172, 33.78879143678866], [-84.39899105436142, 33.78808309165718], [-84.39909046501074, 33.787379487612775], [-84.39927158760894, 33.78668733372667], [-84.3995326931941, 33.78601322973123], [-84.39987129032048, 33.78536360310083], [-84.40028414887878, 33.78474464778074], [-84.40076733095022, 33.78416226514747], [-84.40131622839783, 33.783622007762936], [-84.40192560683526, 33.78312902645731], [-84.40258965555246, 33.78268802124447], [-84.40283964739915, 33.7825380314096], [-84.40286993952252, 33.782519938777696], [-84.40308894144994, 33.782389726194936], [-84.40354266205728, 33.78209481903407], [-84.40372510809888, 33.781979422478834], [-84.40398510017086, 33.78181943322395], [-84.40418919892018, 33.781697595115844], [-84.4045691854362, 33.78147761020875], [-84.40505621522841, 33.781215291531275], [-84.40521620787582, 33.78113529727084], [-84.40534976709377, 33.78106986213215], [-84.40608043963631, 33.780719147833416], [-84.40641118888058, 33.780558502097804], [-84.40719057707416, 33.78022270452615], [-84.407704261991, 33.780028130412084], [-84.40780052554572, 33.77998802126504], [-84.40845870056368, 33.779741720143406], [-84.40869046065859, 33.77966446787294], [-84.40981483483769, 33.779262911018414], [-84.41037664511767, 33.77905691687084], [-84.41043016581627, 33.779037471510634], [-84.41062446978424, 33.77896752315313], [-84.4117190595078, 33.77855824776343], [-84.41236791657226, 33.77834134933674], [-84.41303554855448, 33.77816870064303], [-84.4138454874185, 33.7779887153815], [-84.41500451141233, 33.777800476447815], [-84.41596443245002, 33.77770048505652], [-84.41684881006704, 33.77764643701648], [-84.41773517868305, 33.777667940662774], [-84.41861430760805, 33.77776477204396], [-84.41900427630138, 33.77782476728098], [-84.41931118257571, 33.777876775039275], [-84.41958116138917, 33.77792677107769], [-84.41973867272678, 33.777957226247224], [-84.42102857287263, 33.77821720569179], [-84.42162963718664, 33.77835760283954], [-84.42467964034616, 33.77916967619568], [-84.4258772750867, 33.779441305971794], [-84.42792166492025, 33.77966758920965], [-84.42801162430094, 33.779677945307796], [-84.42880832921081, 33.77977320418838], [-84.42926285572288, 33.779816492478766], [-84.42958187020211, 33.77984364284684], [-84.43100240482586, 33.7799370991291], [-84.43164231798612, 33.77999919877314], [-84.43234226092665, 33.78008919165122], [-84.43302027214634, 33.780199561114564], [-84.43383020921569, 33.78035954847154], [-84.43457273678737, 33.78053563674399], [-84.43547267246517, 33.780785617330565], [-84.4361083402794, 33.78098555236297], [-84.43715827282823, 33.781355524345166], [-84.4375190618197, 33.78149081344531], [-84.43854900079356, 33.781900782968016], [-84.43894627327722, 33.78206948919362], [-84.44071617962983, 33.78286943114862], [-84.44136189461624, 33.783192209404724], [-84.44197174301794, 33.78356043111342], [-84.44254115016172, 33.7839713344026], [-84.46149752277113, 33.798891951295644], [-84.46257471299857, 33.799727041013895], [-84.46948581633548, 33.79923137610608], [-84.47034832773352, 33.79920540081243], [-84.4705805924631, 33.799208040905654], [-84.47266855614707, 33.79897094157627], [-84.47321396421351, 33.79892357776194], [-84.47520379776225, 33.798803588652746], [-84.47527027930286, 33.798799793032856], [-84.4784084195843, 33.798630675642606], [-84.4803574842681, 33.798449366593886], [-84.48103981722068, 33.798408503989315], [-84.48172388585141, 33.798412571794266], [-84.48275379916387, 33.79845256896597], [-84.48351415252542, 33.79851012099557], [-84.48426552297597, 33.798623161012124], [-84.48500211272267, 33.798790816761404], [-84.48657199895462, 33.79921078413473], [-84.48740884701269, 33.79947501885094], [-84.48820872452235, 33.79980968020957], [-84.48896315485382, 33.800211221842446], [-84.49012311481147, 33.80090117531041], [-84.49078360880111, 33.801335740118], [-84.49139070583861, 33.80182156237444], [-84.49193872132314, 33.8023540937819], [-84.49303875741988, 33.803534033255424], [-84.49353774488154, 33.804128353824865], [-84.49396311551321, 33.804761317078174], [-84.49431061162903, 33.805426589918184], [-84.49431222521314, 33.80543015608422], [-84.49425957123304, 33.80548981890178]], [[-84.4524539963279, 33.80817442573182], [-84.45208474530492, 33.8078966060085], [-84.45151021054616, 33.80737037563034], [-84.45100023769739, 33.80679966704586], [-84.45055973749784, 33.80618997731081], [-84.45025616120654, 33.80565795601335], [-84.44972872891773, 33.80539569477635], [-84.44904228313618, 33.804973128927685], [-84.44840876481562, 33.804496426115115], [-84.44783427531053, 33.80397017809392], [-84.44732434708965, 33.8033994537699], [-84.44688389046225, 33.80278975035014], [-84.44651714631141, 33.80214694037059], [-84.44622764528876, 33.801477215111056], [-84.44618289063396, 33.80132975338767], [-84.44574326502891, 33.801199554330125], [-84.44497130803295, 33.800896877909814], [-84.44483600267193, 33.800829587152016], [-84.44495655415705, 33.801495653035566], [-84.44498065220147, 33.80188375995146], [-84.44511073127008, 33.80206383284677], [-84.4454774645771, 33.802706647071204], [-84.44576696397843, 33.80337637396632], [-84.44597643985162, 33.80406656424815], [-84.44610387301512, 33.80477057142197], [-84.44614803424378, 33.80548161577561], [-84.44610849618279, 33.806192849661855], [-84.4460624764604, 33.8064567664301], [-84.44634710613119, 33.80685075693], [-84.44641398624583, 33.806967975602696], [-84.44647811911803, 33.8070567488501], [-84.44684488419198, 33.80769955832871], [-84.4471344113214, 33.80836928133267], [-84.44726433108693, 33.80879729832259], [-84.4475624791213, 33.80891418211129], [-84.44829526190759, 33.809278553198396], [-84.448620277654, 33.809478621824674], [-84.44912630200413, 33.809628457094654], [-84.44989835207521, 33.809931106608566], [-84.44991454755164, 33.809939159262775], [-84.45012823773577, 33.810002430986145], [-84.45090029465736, 33.810305074175076], [-84.45163310334839, 33.810669425217064], [-84.45231960745822, 33.81109197595661], [-84.45293847629459, 33.811557583354094], [-84.45329404510443, 33.81173436179473], [-84.45398056585644, 33.81215690313032], [-84.45461417164297, 33.812633576280575], [-84.45481282141402, 33.81281550303291], [-84.45512010229804, 33.81293593842972], [-84.45585295120594, 33.81330026403541], [-84.45620005079743, 33.81351388356278], [-84.45644029609004, 33.813291369670246], [-84.45707069242478, 33.81281173651923], [-84.45775436714904, 33.812385986549735], [-84.45789811990029, 33.812313602444824], [-84.4580313535956, 33.81216275719985], [-84.45798780885511, 33.81214986751117], [-84.45721571069019, 33.81184726899264], [-84.45648286850268, 33.81148295136307], [-84.45579634096156, 33.81106042394479], [-84.45516274032705, 33.810583756719055], [-84.45508763943059, 33.810514976839016], [-84.45495832551713, 33.81043538726486], [-84.45432473413143, 33.80995871563779], [-84.45375017185954, 33.80943249601192], [-84.45337613053084, 33.80901393811735], [-84.45316974249641, 33.80885865912664], [-84.45259519465884, 33.80833243395198], [-84.4524539963279, 33.80817442573182]]]}, "properties": {"kind": "walkshed", "buffer_mi": 0.5}}, {"type": "Feature", "geometry": {"type": "Point", "coordinates": [-84.414774, 33.81354]}, "properties": {"kind": "stop", "name": "HOWELL MILL RD @ KIPLING DR", "mode": "bus"}}, {"type": "Feature", "geometry": {"type": "Point", "coordinates": [-84.448485, 33.817778]}, "properties": {"kind": "stop", "name": "MARIETTA BLVD @ CORONET WAY", "mode": "bus"}}, {"type": "Feature", "geometry": {"type": "Point", "coordinates": [-84.451044, 33.819344]}, "properties": {"kind": "stop", "name": "MARIETTA BLVD NW @ MOORES MILL RD NW", "mode": "bus"}}, {"type": "Feature", "geometry": {"type": "Point", "coordinates": [-84.452113, 33.820737]}, "properties": {"kind": "stop", "name": "BOLTON RD NW @ MOORES MILL RD", "mode": "bus"}}, {"type": "Feature", "geometry": {"type": "Point", "coordinates": [-84.449893, 33.820318]}, "properties": {"kind": "stop", "name": "BOLTON RD NW @ CORONET WAY NW", "mode": "bus"}}, {"type": "Feature", "geometry": {"type": "Point", "coordinates": [-84.456238, 33.821359]}, "properties": {"kind": "stop", "name": "BOLTON RD NW@MARIETTA BLVD NW", "mode": "bus"}}, {"type": "Feature", "geometry": {"type": "Point", "coordinates": [-84.460947, 33.819939]}, "properties": {"kind": "stop", "name": "BOLTON RD NW@2356", "mode": "bus"}}, {"type": "Feature", "geometry": {"type": "Point", "coordinates": [-84.467949, 33.814087]}, "properties": {"kind": "stop", "name": "BOLTON RD NW@HOLLYWOOD RD", "mode": "bus"}}, {"type": "Feature", "geometry": {"type": "Point", "coordinates": [-84.464951, 33.81654]}, "properties": {"kind": "stop", "name": "BOLTON RD NW@COLLINS RD NW", "mode": "bus"}}, {"type": "Feature", "geometry": {"type": "Point", "coordinates": [-84.446824, 33.816713]}, "properties": {"kind": "stop", "name": "MARIETTA BLVD NW @ CORONET WAY NW", "mode": "bus"}}, {"type": "Feature", "geometry": {"type": "Point", "coordinates": [-84.460182, 33.820168]}, "properties": {"kind": "stop", "name": "BOLTON RD NW@2353", "mode": "bus"}}, {"type": "Feature", "geometry": {"type": "Point", "coordinates": [-84.458544, 33.821052]}, "properties": {"kind": "stop", "name": "BOLTON RD@BARNETT DR", "mode": "bus"}}, {"type": "Feature", "geometry": {"type": "Point", "coordinates": [-84.45862, 33.821105]}, "properties": {"kind": "stop", "name": "BOLTON RD NW@BARNETT DR NW", "mode": "bus"}}, {"type": "Feature", "geometry": {"type": "Point", "coordinates": [-84.46274, 33.818648]}, "properties": {"kind": "stop", "name": "BOLTON RD NW @ MARIETTA RD NW", "mode": "bus"}}, {"type": "Feature", "geometry": {"type": "Point", "coordinates": [-84.467354, 33.81493]}, "properties": {"kind": "stop", "name": "BOLTON RD NW @ PAUL AVE NW", "mode": "bus"}}, {"type": "Feature", "geometry": {"type": "Point", "coordinates": [-84.447804, 33.820571]}, "properties": {"kind": "stop", "name": "DEFOORS FERRY RD@PINE GROVE", "mode": "bus"}}, {"type": "Feature", "geometry": {"type": "Point", "coordinates": [-84.466551, 33.815223]}, "properties": {"kind": "stop", "name": "BOLTON RD @ PAUL AVE", "mode": "bus"}}, {"type": "Feature", "geometry": {"type": "Point", "coordinates": [-84.46455, 33.817134]}, "properties": {"kind": "stop", "name": "BOLTON RD@COLLINS RD", "mode": "bus"}}, {"type": "Feature", "geometry": {"type": "Point", "coordinates": [-84.455792, 33.821198]}, "properties": {"kind": "stop", "name": "BOLTON RD NW @ MARIETTA BLVD NW", "mode": "bus"}}, {"type": "Feature", "geometry": {"type": "Point", "coordinates": [-84.466056, 33.816166]}, "properties": {"kind": "stop", "name": "BOLTON RD@COLLINS DR", "mode": "bus"}}, {"type": "Feature", "geometry": {"type": "Point", "coordinates": [-84.462604, 33.818407]}, "properties": {"kind": "stop", "name": "BOLTON RD@MARIETTA RD", "mode": "bus"}}, {"type": "Feature", "geometry": {"type": "Point", "coordinates": [-84.42981, 33.814512]}, "properties": {"kind": "stop", "name": "DEFOORS FERRY RD@HILLS AVE", "mode": "bus"}}, {"type": "Feature", "geometry": {"type": "Point", "coordinates": [-84.437893, 33.821459]}, "properties": {"kind": "stop", "name": "DEFOORS FERRY RD @ WESTOVER PLANTATION RD", "mode": "bus"}}, {"type": "Feature", "geometry": {"type": "Point", "coordinates": [-84.437911, 33.821371]}, "properties": {"kind": "stop", "name": "DEFOORS FERRY RD @ WESTOVER PLANTATION RD", "mode": "bus"}}, {"type": "Feature", "geometry": {"type": "Point", "coordinates": [-84.4298, 33.814476]}, "properties": {"kind": "stop", "name": "DEFOORS FERRY RD@HILLS AVE", "mode": "bus"}}, {"type": "Feature", "geometry": {"type": "Point", "coordinates": [-84.427416, 33.814057]}, "properties": {"kind": "stop", "name": "DEFOORS FERRY RD@BOHLER RD", "mode": "bus"}}, {"type": "Feature", "geometry": {"type": "Point", "coordinates": [-84.415514, 33.816295]}, "properties": {"kind": "stop", "name": "HOWELL MILL RD NW @ LONGWOOD DR NW", "mode": "bus"}}, {"type": "Feature", "geometry": {"type": "Point", "coordinates": [-84.454537, 33.799352]}, "properties": {"kind": "stop", "name": "PERRY BLVD NW @ MCCALLIE BLVD NW", "mode": "bus"}}, {"type": "Feature", "geometry": {"type": "Point", "coordinates": [-84.458213, 33.802752]}, "properties": {"kind": "stop", "name": "PERRY BLVD NW @ MARY GEORGE AVE NW", "mode": "bus"}}, {"type": "Feature", "geometry": {"type": "Point", "coordinates": [-84.459298, 33.803714]}, "properties": {"kind": "stop", "name": "PERRY BLVD NW @ 2210", "mode": "bus"}}, {"type": "Feature", "geometry": {"type": "Point", "coordinates": [-84.460453, 33.804814]}, "properties": {"kind": "stop", "name": "PERRY BLVD NW @ 2250", "mode": "bus"}}, {"type": "Feature", "geometry": {"type": "Point", "coordinates": [-84.463305, 33.805974]}, "properties": {"kind": "stop", "name": "PERRY BLVD NW @ 2245", "mode": "bus"}}, {"type": "Feature", "geometry": {"type": "Point", "coordinates": [-84.47065, 33.803912]}, "properties": {"kind": "stop", "name": "BROWNTOWN RD NW @ HOLLYWOOD RD NW", "mode": "bus"}}, {"type": "Feature", "geometry": {"type": "Point", "coordinates": [-84.47277, 33.80387]}, "properties": {"kind": "stop", "name": "BROWNTOWN RD NW @ 2571", "mode": "bus"}}, {"type": "Feature", "geometry": {"type": "Point", "coordinates": [-84.476243, 33.801957]}, "properties": {"kind": "stop", "name": "BROWNTOWN RD NW@AUDREY PL", "mode": "bus"}}, {"type": "Feature", "geometry": {"type": "Point", "coordinates": [-84.477863, 33.80165]}, "properties": {"kind": "stop", "name": "BROWNTOWN RD NW@2741", "mode": "bus"}}, {"type": "Feature", "geometry": {"type": "Point", "coordinates": [-84.479364, 33.801514]}, "properties": {"kind": "stop", "name": "BROWNTOWN RD NW@2783", "mode": "bus"}}, {"type": "Feature", "geometry": {"type": "Point", "coordinates": [-84.454983, 33.799485]}, "properties": {"kind": "stop", "name": "PERRY BLVD NW @ MCCALLIE BLVD NW", "mode": "bus"}}, {"type": "Feature", "geometry": {"type": "Point", "coordinates": [-84.454863, 33.799342]}, "properties": {"kind": "stop", "name": "MCCALLIE BLVD NW@PERRY BLVD NW", "mode": "bus"}}, {"type": "Feature", "geometry": {"type": "Point", "coordinates": [-84.457377, 33.800038]}, "properties": {"kind": "stop", "name": "MCCALLIE BLVD NW @ ABNER PL NW", "mode": "bus"}}, {"type": "Feature", "geometry": {"type": "Point", "coordinates": [-84.457551, 33.799867]}, "properties": {"kind": "stop", "name": "MCCALLIE BLVD NW@ABNER PL NW", "mode": "bus"}}, {"type": "Feature", "geometry": {"type": "Point", "coordinates": [-84.458886, 33.798461]}, "properties": {"kind": "stop", "name": "AJAX DR NW@MCCALLIE BLVD NW", "mode": "bus"}}, {"type": "Feature", "geometry": {"type": "Point", "coordinates": [-84.459878, 33.799301]}, "properties": {"kind": "stop", "name": "AJAX DR@2208", "mode": "bus"}}, {"type": "Feature", "geometry": {"type": "Point", "coordinates": [-84.461989, 33.799701]}, "properties": {"kind": "stop", "name": "AJAX DR NW @ ADDISON PL", "mode": "bus"}}, {"type": "Feature", "geometry": {"type": "Point", "coordinates": [-84.462294, 33.800094]}, "properties": {"kind": "stop", "name": "AJAX DR NW @ ABNER TER NW", "mode": "bus"}}, {"type": "Feature", "geometry": {"type": "Point", "coordinates": [-84.462002, 33.800945]}, "properties": {"kind": "stop", "name": "ABNER TER NW @ MARY GEORGE AVE NW", "mode": "bus"}}, {"type": "Feature", "geometry": {"type": "Point", "coordinates": [-84.459186, 33.801826]}, "properties": {"kind": "stop", "name": "MARY GEORGE AVE NW @ ABNER PL NW", "mode": "bus"}}, {"type": "Feature", "geometry": {"type": "Point", "coordinates": [-84.458397, 33.80249]}, "properties": {"kind": "stop", "name": "PERRY BLVD NW @ MARY GEORGE AVE NW", "mode": "bus"}}, {"type": "Feature", "geometry": {"type": "Point", "coordinates": [-84.459396, 33.803696]}, "properties": {"kind": "stop", "name": "PERRY BLVD NW @ 2210", "mode": "bus"}}, {"type": "Feature", "geometry": {"type": "Point", "coordinates": [-84.460485, 33.80476]}, "properties": {"kind": "stop", "name": "PERRY BLVD NW @ 2250", "mode": "bus"}}, {"type": "Feature", "geometry": {"type": "Point", "coordinates": [-84.461291, 33.805439]}, "properties": {"kind": "stop", "name": "PERRY BLVD NW @ 2221", "mode": "bus"}}, {"type": "Feature", "geometry": {"type": "Point", "coordinates": [-84.463229, 33.805911]}, "properties": {"kind": "stop", "name": "PERRY BLVD NW @ 2245", "mode": "bus"}}, {"type": "Feature", "geometry": {"type": "Point", "coordinates": [-84.470362, 33.804259]}, "properties": {"kind": "stop", "name": "HOLLYWOOD RD NW@BROWNTOWN RD NW", "mode": "bus"}}, {"type": "Feature", "geometry": {"type": "Point", "coordinates": [-84.472084, 33.809219]}, "properties": {"kind": "stop", "name": "HOLLYWOOD RD NW@FELKER WARD ST NW", "mode": "bus"}}, {"type": "Feature", "geometry": {"type": "Point", "coordinates": [-84.471542, 33.810322]}, "properties": {"kind": "stop", "name": "HOLLYWOOD RD NW @ MAIN ST NW", "mode": "bus"}}, {"type": "Feature", "geometry": {"type": "Point", "coordinates": [-84.470581, 33.811722]}, "properties": {"kind": "stop", "name": "HOLLYWOOD RD NW@SPINK ST NW", "mode": "bus"}}, {"type": "Feature", "geometry": {"type": "Point", "coordinates": [-84.469994, 33.812359]}, "properties": {"kind": "stop", "name": "HOLLYWOOD RD NW@2081", "mode": "bus"}}, {"type": "Feature", "geometry": {"type": "Point", "coordinates": [-84.468697, 33.813374]}, "properties": {"kind": "stop", "name": "HOLLYWOOD RD NW@BOLTON RD", "mode": "bus"}}, {"type": "Feature", "geometry": {"type": "Point", "coordinates": [-84.47023, 33.801231]}, "properties": {"kind": "stop", "name": "HOLLYWOOD RD NW@1730", "mode": "bus"}}, {"type": "Feature", "geometry": {"type": "Point", "coordinates": [-84.481819, 33.800739]}, "properties": {"kind": "stop", "name": "MALDO DR NW@CARDO DR NW", "mode": "bus"}}, {"type": "Feature", "geometry": {"type": "Point", "coordinates": [-84.482493, 33.799881]}, "properties": {"kind": "stop", "name": "MALDO DR NW@ARGYLE DR NW", "mode": "bus"}}, {"type": "Feature", "geometry": {"type": "Point", "coordinates": [-84.480055, 33.799266]}, "properties": {"kind": "stop", "name": "ARGYLE DR NW@CARDO DR NW", "mode": "bus"}}, {"type": "Feature", "geometry": {"type": "Point", "coordinates": [-84.478381, 33.799492]}, "properties": {"kind": "stop", "name": "ARGYLE DR NW @ MARCO DR NW", "mode": "bus"}}, {"type": "Feature", "geometry": {"type": "Point", "coordinates": [-84.476717, 33.79953]}, "properties": {"kind": "stop", "name": "BRIDGEPORT DR NW@ARGYLE DR", "mode": "bus"}}, {"type": "Feature", "geometry": {"type": "Point", "coordinates": [-84.470324, 33.801856]}, "properties": {"kind": "stop", "name": "HOLLYWOOD RD NW@1730", "mode": "bus"}}, {"type": "Feature", "geometry": {"type": "Point", "coordinates": [-84.470146, 33.799405]}, "properties": {"kind": "stop", "name": "HOLLYWOOD RD NW @ ARNO DR NW", "mode": "bus"}}, {"type": "Feature", "geometry": {"type": "Point", "coordinates": [-84.470636, 33.805499]}, "properties": {"kind": "stop", "name": "HOLLYWOOD RD NW@PERRY BLVD NW", "mode": "bus"}}, {"type": "Feature", "geometry": {"type": "Point", "coordinates": [-84.469148, 33.813315]}, "properties": {"kind": "stop", "name": "HOLLYWOOD RD NW@BOLTON RD NW", "mode": "bus"}}, {"type": "Feature", "geometry": {"type": "Point", "coordinates": [-84.470604, 33.812328]}, "properties": {"kind": "stop", "name": "HOLLYWOOD RD NW@SPINK ST NW", "mode": "bus"}}, {"type": "Feature", "geometry": {"type": "Point", "coordinates": [-84.471332, 33.810913]}, "properties": {"kind": "stop", "name": "HOLLYWOOD RD NW@MAIN ST NW", "mode": "bus"}}, {"type": "Feature", "geometry": {"type": "Point", "coordinates": [-84.470701, 33.805356]}, "properties": {"kind": "stop", "name": "HOLLYWOOD RD NW@PERRY BLVD NW", "mode": "bus"}}, {"type": "Feature", "geometry": {"type": "Point", "coordinates": [-84.475876, 33.801048]}, "properties": {"kind": "stop", "name": "JAMES JACKSON PKY NW@BROWNTOWN RD N", "mode": "bus"}}, {"type": "Feature", "geometry": {"type": "Point", "coordinates": [-84.475552, 33.799317]}, "properties": {"kind": "stop", "name": "JAMES JACKSON PKWY @ JAMES JACKSON CT", "mode": "bus"}}, {"type": "Feature", "geometry": {"type": "Point", "coordinates": [-84.486783, 33.801808]}, "properties": {"kind": "stop", "name": "BOLTON RD NW@PARROTT AVE", "mode": "bus"}}, {"type": "Feature", "geometry": {"type": "Point", "coordinates": [-84.484501, 33.802832]}, "properties": {"kind": "stop", "name": "BOLTON RD NW@SAM ST", "mode": "bus"}}, {"type": "Feature", "geometry": {"type": "Point", "coordinates": [-84.472188, 33.809346]}, "properties": {"kind": "stop", "name": "HOLLYWOOD RD NW@SMITH ST NW", "mode": "bus"}}, {"type": "Feature", "geometry": {"type": "Point", "coordinates": [-84.477596, 33.79876]}, "properties": {"kind": "stop", "name": "BRIDGEPORT DR NW@MARCO DR NW", "mode": "bus"}}, {"type": "Feature", "geometry": {"type": "Point", "coordinates": [-84.470552, 33.803436]}, "properties": {"kind": "stop", "name": "HOLLYWOOD RD NW @ BROWNTOWN RD NW", "mode": "bus"}}, {"type": "Feature", "geometry": {"type": "Point", "coordinates": [-84.480726, 33.808001]}, "properties": {"kind": "stop", "name": "BOLTON RD@PEYTON RD", "mode": "bus"}}, {"type": "Feature", "geometry": {"type": "Point", "coordinates": [-84.462218, 33.800256]}, "properties": {"kind": "stop", "name": "AJAX DR NW @ ABNER TER NW", "mode": "bus"}}, {"type": "Feature", "geometry": {"type": "Point", "coordinates": [-84.485696, 33.802159]}, "properties": {"kind": "stop", "name": "BOLTON RD@REY ST", "mode": "bus"}}, {"type": "Feature", "geometry": {"type": "Point", "coordinates": [-84.476718, 33.800166]}, "properties": {"kind": "stop", "name": "BRIDGEPORT DR@MARCO DR", "mode": "bus"}}, {"type": "Feature", "geometry": {"type": "Point", "coordinates": [-84.42887, 33.786346]}, "properties": {"kind": "stop", "name": "MARIETTA ST NW @ MARIETTA BLVD NW", "mode": "bus"}}, {"type": "Feature", "geometry": {"type": "Point", "coordinates": [-84.437008, 33.788638]}, "properties": {"kind": "stop", "name": "PERRY BLVD NW @ JOHNSON RD NW", "mode": "bus"}}, {"type": "Feature", "geometry": {"type": "Point", "coordinates": [-84.447436, 33.793676]}, "properties": {"kind": "stop", "name": "PERRY BLVD @ W HIGHLANDS BLVD NW", "mode": "bus"}}, {"type": "Feature", "geometry": {"type": "Point", "coordinates": [-84.428076, 33.786266]}, "properties": {"kind": "stop", "name": "MARIETTA ST NW@MARIETTA BLVD NW", "mode": "bus"}}, {"type": "Feature", "geometry": {"type": "Point", "coordinates": [-84.4337, 33.786905]}, "properties": {"kind": "stop", "name": "MARIETTA ST NW@ROCKDALE ST NW", "mode": "bus"}}, {"type": "Feature", "geometry": {"type": "Point", "coordinates": [-84.436714, 33.78837]}, "properties": {"kind": "stop", "name": "PERRY BLVD NW @ JOHNSON RD NW", "mode": "bus"}}, {"type": "Feature", "geometry": {"type": "Point", "coordinates": [-84.447294, 33.793506]}, "properties": {"kind": "stop", "name": "PERRY BLVD NW @ W HIGHLANDS BLVD NW", "mode": "bus"}}, {"type": "Feature", "geometry": {"type": "Point", "coordinates": [-84.425532, 33.812752]}, "properties": {"kind": "stop", "name": "DEFOORS FERRY RD NW @ GLENN AVE NW", "mode": "bus"}}, {"type": "Feature", "geometry": {"type": "Point", "coordinates": [-84.426369, 33.8116]}, "properties": {"kind": "stop", "name": "DEFOOR AVE NW @ COLLIER RD NW", "mode": "bus"}}, {"type": "Feature", "geometry": {"type": "Point", "coordinates": [-84.426911, 33.810012]}, "properties": {"kind": "stop", "name": "DEFOOR AVE NW@1990", "mode": "bus"}}, {"type": "Feature", "geometry": {"type": "Point", "coordinates": [-84.425015, 33.807678]}, "properties": {"kind": "stop", "name": "DEFOOR AVE NW@RHOMBOID ST NW", "mode": "bus"}}, {"type": "Feature", "geometry": {"type": "Point", "coordinates": [-84.424697, 33.805852]}, "properties": {"kind": "stop", "name": "DEFOOR AVE NW@MANTISSA ST NW", "mode": "bus"}}, {"type": "Feature", "geometry": {"type": "Point", "coordinates": [-84.422433, 33.804727]}, "properties": {"kind": "stop", "name": "DEFOOR AVE NW@CLAREMONT ST NW", "mode": "bus"}}, {"type": "Feature", "geometry": {"type": "Point", "coordinates": [-84.420025, 33.801936]}, "properties": {"kind": "stop", "name": "DEFOOR AVE NW@TAYLOR ST NW", "mode": "bus"}}, {"type": "Feature", "geometry": {"type": "Point", "coordinates": [-84.418936, 33.801194]}, "properties": {"kind": "stop", "name": "DEFOOR AVE NW@MARVIN ST NW", "mode": "bus"}}, {"type": "Feature", "geometry": {"type": "Point", "coordinates": [-84.41332, 33.80037]}, "properties": {"kind": "stop", "name": "BELLEMEADE AVE NW@BUCHANAN ST NW", "mode": "bus"}}, {"type": "Feature", "geometry": {"type": "Point", "coordinates": [-84.417163, 33.800488]}, "properties": {"kind": "stop", "name": "DEFOOR AVE NW@SPRINGER ST NW", "mode": "bus"}}, {"type": "Feature", "geometry": {"type": "Point", "coordinates": [-84.419013, 33.801328]}, "properties": {"kind": "stop", "name": "DEFOOR AVE NW@MARVIN ST NW", "mode": "bus"}}, {"type": "Feature", "geometry": {"type": "Point", "coordinates": [-84.420036, 33.802026]}, "properties": {"kind": "stop", "name": "DEFOOR AVE NW@TAYLOR ST NW", "mode": "bus"}}, {"type": "Feature", "geometry": {"type": "Point", "coordinates": [-84.421649, 33.80462]}, "properties": {"kind": "stop", "name": "DEFOOR AVE NW@HARPER ST NW", "mode": "bus"}}, {"type": "Feature", "geometry": {"type": "Point", "coordinates": [-84.42473, 33.806255]}, "properties": {"kind": "stop", "name": "DEFOOR AVE NW@MANTISSA ST NW", "mode": "bus"}}, {"type": "Feature", "geometry": {"type": "Point", "coordinates": [-84.426497, 33.809726]}, "properties": {"kind": "stop", "name": "DEFOOR AVE NW@1981", "mode": "bus"}}, {"type": "Feature", "geometry": {"type": "Point", "coordinates": [-84.426689, 33.810989]}, "properties": {"kind": "stop", "name": "DEFOOR AVE NW @ COLLIER RD NW", "mode": "bus"}}, {"type": "Feature", "geometry": {"type": "Point", "coordinates": [-84.425424, 33.812797]}, "properties": {"kind": "stop", "name": "DEFOORS FERRY RD @ GLENN AVE", "mode": "bus"}}, {"type": "Feature", "geometry": {"type": "Point", "coordinates": [-84.426788, 33.785946]}, "properties": {"kind": "stop", "name": "W MARIETTA ST NW @ RICE ST NW", "mode": "bus"}}, {"type": "Feature", "geometry": {"type": "Point", "coordinates": [-84.424187, 33.785328]}, "properties": {"kind": "stop", "name": "W MARIETTA ST NW @ LONGLEY AVE NW", "mode": "bus"}}, {"type": "Feature", "geometry": {"type": "Point", "coordinates": [-84.421493, 33.785076]}, "properties": {"kind": "stop", "name": "W MARIETTA ST NW @ HERNDON ST NW", "mode": "bus"}}, {"type": "Feature", "geometry": {"type": "Point", "coordinates": [-84.419086, 33.789554]}, "properties": {"kind": "stop", "name": "HUFF RD NW@BOYD AVE NW", "mode": "bus"}}, {"type": "Feature", "geometry": {"type": "Point", "coordinates": [-84.420521, 33.789629]}, "properties": {"kind": "stop", "name": "HUFF RD NW@ENGLISH ST NW", "mode": "bus"}}, {"type": "Feature", "geometry": {"type": "Point", "coordinates": [-84.422022, 33.789627]}, "properties": {"kind": "stop", "name": "HUFF RD NW@FAIRMONT AVE NW", "mode": "bus"}}, {"type": "Feature", "geometry": {"type": "Point", "coordinates": [-84.423925, 33.789259]}, "properties": {"kind": "stop", "name": "HUFF RD NW@MENLO DR NW", "mode": "bus"}}, {"type": "Feature", "geometry": {"type": "Point", "coordinates": [-84.426328, 33.788908]}, "properties": {"kind": "stop", "name": "HUFF RD NW@ELLSWORTH IND BLVD", "mode": "bus"}}, {"type": "Feature", "geometry": {"type": "Point", "coordinates": [-84.427208, 33.791051]}, "properties": {"kind": "stop", "name": "ELLSWORTH INDUSTRIAL BLVD @ 1320", "mode": "bus"}}, {"type": "Feature", "geometry": {"type": "Point", "coordinates": [-84.426788, 33.792651]}, "properties": {"kind": "stop", "name": "ELLSWORTH INDUSTRIAL BLVD @ ELAINE AVE NW", "mode": "bus"}}, {"type": "Feature", "geometry": {"type": "Point", "coordinates": [-84.426757, 33.793823]}, "properties": {"kind": "stop", "name": "ELLSWORTH INDUSTRIAL BLVD @ 1425", "mode": "bus"}}, {"type": "Feature", "geometry": {"type": "Point", "coordinates": [-84.426957, 33.795799]}, "properties": {"kind": "stop", "name": "ELLSWORTH INDUSTRIAL BLVD @ 1455", "mode": "bus"}}, {"type": "Feature", "geometry": {"type": "Point", "coordinates": [-84.426915, 33.797309]}, "properties": {"kind": "stop", "name": "ELLSWORTH INDUSTRIAL BLVD @ 1611", "mode": "bus"}}, {"type": "Feature", "geometry": {"type": "Point", "coordinates": [-84.426944, 33.800198]}, "properties": {"kind": "stop", "name": "ELLSWORTH INDUSTRIAL BLVD @ CHATTAHOOCHEE AVE", "mode": "bus"}}, {"type": "Feature", "geometry": {"type": "Point", "coordinates": [-84.432123, 33.803268]}, "properties": {"kind": "stop", "name": "CHATTAHOOCHEE AVE NW@CARROLL DR NW", "mode": "bus"}}, {"type": "Feature", "geometry": {"type": "Point", "coordinates": [-84.433268, 33.804464]}, "properties": {"kind": "stop", "name": "CHATTAHOOCHEE AVE@1391", "mode": "bus"}}, {"type": "Feature", "geometry": {"type": "Point", "coordinates": [-84.433932, 33.805316]}, "properties": {"kind": "stop", "name": "CHATTAHOOCHEE AVE NW@LOGAN CIR NW", "mode": "bus"}}, {"type": "Feature", "geometry": {"type": "Point", "coordinates": [-84.43504, 33.808054]}, "properties": {"kind": "stop", "name": "CHATTAHOOCHEE AVE NW @ COLLIER RD NW", "mode": "bus"}}, {"type": "Feature", "geometry": {"type": "Point", "coordinates": [-84.43706, 33.809388]}, "properties": {"kind": "stop", "name": "CHATTAHOOCHEE AVE@1495", "mode": "bus"}}, {"type": "Feature", "geometry": {"type": "Point", "coordinates": [-84.438541, 33.810288]}, "properties": {"kind": "stop", "name": "CHATTAHOOCHEE AVE NW@MARIETTA BLVD", "mode": "bus"}}, {"type": "Feature", "geometry": {"type": "Point", "coordinates": [-84.439287, 33.812825]}, "properties": {"kind": "stop", "name": "MARIETTA BLVD@2095", "mode": "bus"}}, {"type": "Feature", "geometry": {"type": "Point", "coordinates": [-84.440842, 33.814527]}, "properties": {"kind": "stop", "name": "MARIETTA BLVD @ BOLTON PL", "mode": "bus"}}, {"type": "Feature", "geometry": {"type": "Point", "coordinates": [-84.419208, 33.789292]}, "properties": {"kind": "stop", "name": "HUFF RD NW@BOYD AVE NW", "mode": "bus"}}, {"type": "Feature", "geometry": {"type": "Point", "coordinates": [-84.420391, 33.789557]}, "properties": {"kind": "stop", "name": "HUFF RD NW@ENGLISH ST NW", "mode": "bus"}}, {"type": "Feature", "geometry": {"type": "Point", "coordinates": [-84.425991, 33.788863]}, "properties": {"kind": "stop", "name": "HUFF RD NW @ ELLSWORTH INDUSTRIAL BLVD NW", "mode": "bus"}}, {"type": "Feature", "geometry": {"type": "Point", "coordinates": [-84.422297, 33.789456]}, "properties": {"kind": "stop", "name": "HUFF RD NW@FAIRMONT AVE NW", "mode": "bus"}}, {"type": "Feature", "geometry": {"type": "Point", "coordinates": [-84.426963, 33.792049]}, "properties": {"kind": "stop", "name": "ELLSWORTH INDUSTRIAL BLVD @ ELAINE AVE NW", "mode": "bus"}}, {"type": "Feature", "geometry": {"type": "Point", "coordinates": [-84.427168, 33.796312]}, "properties": {"kind": "stop", "name": "ELLSWORTH INDUSTRIAL BLVD @ 1510", "mode": "bus"}}, {"type": "Feature", "geometry": {"type": "Point", "coordinates": [-84.427144, 33.797324]}, "properties": {"kind": "stop", "name": "ELLSWORTH INDUSTRIAL BLVD @ 1530", "mode": "bus"}}, {"type": "Feature", "geometry": {"type": "Point", "coordinates": [-84.427029, 33.80074]}, "properties": {"kind": "stop", "name": "CHATTAHOOCHEE AVE NW @ ELLSWORTH INDUSTRIAL BLVD", "mode": "bus"}}, {"type": "Feature", "geometry": {"type": "Point", "coordinates": [-84.43018, 33.801638]}, "properties": {"kind": "stop", "name": "CHATTAHOOCHEE AVE NW @ SOUTHLAND CIR NW", "mode": "bus"}}, {"type": "Feature", "geometry": {"type": "Point", "coordinates": [-84.432156, 33.803187]}, "properties": {"kind": "stop", "name": "CHATTAHOOCHEE AVE NW@CARROLL DR NW", "mode": "bus"}}, {"type": "Feature", "geometry": {"type": "Point", "coordinates": [-84.433423, 33.804282]}, "properties": {"kind": "stop", "name": "CHATTAHOOCHEE AVE NW@1396", "mode": "bus"}}, {"type": "Feature", "geometry": {"type": "Point", "coordinates": [-84.433995, 33.805182]}, "properties": {"kind": "stop", "name": "CHATTAHOOCHEE AVE NW@LOGAN CIR NW", "mode": "bus"}}, {"type": "Feature", "geometry": {"type": "Point", "coordinates": [-84.435925, 33.808485]}, "properties": {"kind": "stop", "name": "CHATTAHOOCHEE AVE NW@COLLIER RD NW", "mode": "bus"}}, {"type": "Feature", "geometry": {"type": "Point", "coordinates": [-84.43792, 33.809796]}, "properties": {"kind": "stop", "name": "CHATTAHOOCHEE AVE NW@MARIETTA BLVD", "mode": "bus"}}, {"type": "Feature", "geometry": {"type": "Point", "coordinates": [-84.439754, 33.813256]}, "properties": {"kind": "stop", "name": "MARIETTA BLVD NW @ 2130", "mode": "bus"}}, {"type": "Feature", "geometry": {"type": "Point", "coordinates": [-84.416203, 33.797961]}, "properties": {"kind": "stop", "name": "HOWELL MILL RD NW@GARRAUX ST NW", "mode": "bus"}}, {"type": "Feature", "geometry": {"type": "Point", "coordinates": [-84.423791, 33.785523]}, "properties": {"kind": "stop", "name": "W MARIETTA ST NW @ LONGLEY AVE NW", "mode": "bus"}}, {"type": "Feature", "geometry": {"type": "Point", "coordinates": [-84.421812, 33.785249]}, "properties": {"kind": "stop", "name": "W MARIETTA ST NW @ HERNDON ST", "mode": "bus"}}, {"type": "Feature", "geometry": {"type": "Point", "coordinates": [-84.440459, 33.790342]}, "properties": {"kind": "stop", "name": "PERRY BLVD@1600", "mode": "bus"}}, {"type": "Feature", "geometry": {"type": "Point", "coordinates": [-84.440622, 33.790317]}, "properties": {"kind": "stop", "name": "PERRY BLVD@1600", "mode": "bus"}}, {"type": "Feature", "geometry": {"type": "Point", "coordinates": [-84.416249, 33.800328]}, "properties": {"kind": "stop", "name": "DEFOOR AVE@HOWELL MILL RD", "mode": "bus"}}, {"type": "Feature", "geometry": {"type": "Point", "coordinates": [-84.424917, 33.807624]}, "properties": {"kind": "stop", "name": "DEFOOR AVE@RHOMBOID ST", "mode": "bus"}}, {"type": "Feature", "geometry": {"type": "Point", "coordinates": [-84.427901, 33.78558]}, "properties": {"kind": "stop", "name": "MARIETTA BLVD NW @ W MARIETTA ST NW", "mode": "bus"}}, {"type": "Feature", "geometry": {"type": "Point", "coordinates": [-84.416702, 33.788352]}, "properties": {"kind": "stop", "name": "HUFF RD@BOOTH ST", "mode": "bus"}}, {"type": "Feature", "geometry": {"type": "Point", "coordinates": [-84.416485, 33.7882]}, "properties": {"kind": "stop", "name": "HUFF RD @ N ASHBY ST", "mode": "bus"}}, {"type": "Feature", "geometry": {"type": "Point", "coordinates": [-84.413418, 33.78761]}, "properties": {"kind": "stop", "name": "HUFF RD@FOSTER ST", "mode": "bus"}}, {"type": "Feature", "geometry": {"type": "Point", "coordinates": [-84.430817, 33.802303]}, "properties": {"kind": "stop", "name": "CHATTAHOOCHEE AVE@ SOUTHLAND CIR", "mode": "bus"}}, {"type": "Feature", "geometry": {"type": "Point", "coordinates": [-84.425816, 33.813674]}, "properties": {"kind": "stop", "name": "DEFOORS FERRY RD @ NOBLE CREEK DR", "mode": "bus"}}, {"type": "Feature", "geometry": {"type": "Point", "coordinates": [-84.423675, 33.789129]}, "properties": {"kind": "stop", "name": "HUFF RD@1088", "mode": "bus"}}, {"type": "Feature", "geometry": {"type": "Point", "coordinates": [-84.411267, 33.800296]}, "properties": {"kind": "stop", "name": "BELLEMEADE AVE NW@TALLULAH ST NW", "mode": "bus"}}, {"type": "Feature", "geometry": {"type": "Point", "coordinates": [-84.4131, 33.80045]}, "properties": {"kind": "stop", "name": "BELLEMEADE AVE NW@BUCHANAN ST NW", "mode": "bus"}}, {"type": "Feature", "geometry": {"type": "Point", "coordinates": [-84.412134, 33.787729]}, "properties": {"kind": "stop", "name": "HUFF RD NW @ HOWELL MILL RD NW", "mode": "bus"}}, {"type": "Feature", "geometry": {"type": "Point", "coordinates": [-84.407928, 33.790614]}, "properties": {"kind": "stop", "name": "NORTHSIDE DR NW @ 17TH ST NW", "mode": "bus"}}, {"type": "Feature", "geometry": {"type": "Point", "coordinates": [-84.416088, 33.796501]}, "properties": {"kind": "stop", "name": "HOWELL MILL RD NW @ MORRIS ST NW", "mode": "bus"}}, {"type": "Feature", "geometry": {"type": "Point", "coordinates": [-84.411858, 33.788155]}, "properties": {"kind": "stop", "name": "HOWELL MILL RD NW @ HUFF RD NW", "mode": "bus"}}, {"type": "Feature", "geometry": {"type": "Point", "coordinates": [-84.4122, 33.790556]}, "properties": {"kind": "stop", "name": "HOWELL MILL RD NW @ 17TH ST", "mode": "bus"}}, {"type": "Feature", "geometry": {"type": "Point", "coordinates": [-84.41417, 33.793335]}, "properties": {"kind": "stop", "name": "HOWELL MILL RD NW@TRABERT AVE NW", "mode": "bus"}}, {"type": "Feature", "geometry": {"type": "Point", "coordinates": [-84.414374, 33.793488]}, "properties": {"kind": "stop", "name": "HOWELL MILL RD NW @ TRABERT AVE NW", "mode": "bus"}}, {"type": "Feature", "geometry": {"type": "Point", "coordinates": [-84.4158, 33.796032]}, "properties": {"kind": "stop", "name": "HOWELL MILL RD NW @ FORREST ST NW", "mode": "bus"}}, {"type": "Feature", "geometry": {"type": "Point", "coordinates": [-84.4161, 33.79781]}, "properties": {"kind": "stop", "name": "HOWELL MILL RD NW @ ANTONE ST NW", "mode": "bus"}}, {"type": "Feature", "geometry": {"type": "Point", "coordinates": [-84.415734, 33.801059]}, "properties": {"kind": "stop", "name": "HOWELL MILL RD NW @ BELLEMEADE AVE NW", "mode": "bus"}}, {"type": "Feature", "geometry": {"type": "Point", "coordinates": [-84.415643, 33.801454]}, "properties": {"kind": "stop", "name": "HOWELL MILL RD NW @ WHITE ST NW", "mode": "bus"}}, {"type": "Feature", "geometry": {"type": "Point", "coordinates": [-84.41613, 33.798867]}, "properties": {"kind": "stop", "name": "HOWELL MILL RD NW @ VERNER ST NW", "mode": "bus"}}, {"type": "Feature", "geometry": {"type": "Point", "coordinates": [-84.414422, 33.803003]}, "properties": {"kind": "stop", "name": "HOWELL MILL RD NW @ 1775", "mode": "bus"}}, {"type": "Feature", "geometry": {"type": "Point", "coordinates": [-84.412635, 33.80773]}, "properties": {"kind": "stop", "name": "HOWELL MILL RD NW@ CHANNING DR", "mode": "bus"}}, {"type": "Feature", "geometry": {"type": "Point", "coordinates": [-84.412703, 33.810212]}, "properties": {"kind": "stop", "name": "HOWELL MILL RD NW @ COLLIER RD NW", "mode": "bus"}}, {"type": "Feature", "geometry": {"type": "Point", "coordinates": [-84.414141, 33.812502]}, "properties": {"kind": "stop", "name": "HOWELL MILL RD NW@SPRING LAKE PL NW", "mode": "bus"}}, {"type": "Feature", "geometry": {"type": "Point", "coordinates": [-84.411605, 33.786304]}, "properties": {"kind": "stop", "name": "HOWELL MILL RD NW@14TH ST NW", "mode": "bus"}}, {"type": "Feature", "geometry": {"type": "Point", "coordinates": [-84.411742, 33.787646]}, "properties": {"kind": "stop", "name": "HOWELL MILL RD NW@HUFF RD NW", "mode": "bus"}}, {"type": "Feature", "geometry": {"type": "Point", "coordinates": [-84.407811, 33.797148]}, "properties": {"kind": "stop", "name": "NORTHSIDE DR NW@NORTHSIDE CIR NW", "mode": "bus"}}, {"type": "Feature", "geometry": {"type": "Point", "coordinates": [-84.40851, 33.80035]}, "properties": {"kind": "stop", "name": "BELLEMEADE AVE @ NORTHSIDE DR NW", "mode": "bus"}}, {"type": "Feature", "geometry": {"type": "Point", "coordinates": [-84.41111, 33.800419]}, "properties": {"kind": "stop", "name": "BELLEMEADE AVE NW@COMMERCE DR NW", "mode": "bus"}}, {"type": "Feature", "geometry": {"type": "Point", "coordinates": [-84.415857, 33.800498]}, "properties": {"kind": "stop", "name": "BELLEMEADE AVE NW@HOWELL MILL RD NW", "mode": "bus"}}, {"type": "Feature", "geometry": {"type": "Point", "coordinates": [-84.411749, 33.785957]}, "properties": {"kind": "stop", "name": "HOWELL MILL RD NW @ 14TH ST NW", "mode": "bus"}}, {"type": "Feature", "geometry": {"type": "Point", "coordinates": [-84.412922, 33.809113]}, "properties": {"kind": "stop", "name": "HOWELL MILL RD NW @ COLLIER RD NW", "mode": "bus"}}, {"type": "Feature", "geometry": {"type": "Point", "coordinates": [-84.412767, 33.807095]}, "properties": {"kind": "stop", "name": "HOWELL MILL RD NW@BECK ST NW", "mode": "bus"}}, {"type": "Feature", "geometry": {"type": "Point", "coordinates": [-84.414102, 33.803863]}, "properties": {"kind": "stop", "name": "HOWELL MILL RD NW @ SPRING GROVE AVE", "mode": "bus"}}, {"type": "Feature", "geometry": {"type": "Point", "coordinates": [-84.415081, 33.802241]}, "properties": {"kind": "stop", "name": "HOWELL MILL RD NW @ RIDGEWAY AVE NW", "mode": "bus"}}, {"type": "Feature", "geometry": {"type": "Point", "coordinates": [-84.41333, 33.787799]}, "properties": {"kind": "stop", "name": "HUFF RD NW@FOSTER ST NW", "mode": "bus"}}, {"type": "Feature", "geometry": {"type": "Point", "coordinates": [-84.408053, 33.800217]}, "properties": {"kind": "stop", "name": "BELLEMEADE AVE @ NORTHSIDE DR", "mode": "bus"}}, {"type": "Feature", "geometry": {"type": "Point", "coordinates": [-84.429801, 33.782658]}, "properties": {"kind": "stop", "name": "MARIETTA BLVD NW @ 930", "mode": "bus"}}, {"type": "Feature", "geometry": {"type": "Point", "coordinates": [-84.429201, 33.783307]}, "properties": {"kind": "stop", "name": "MARIETTA BLVD NW @ 1079", "mode": "bus"}}, {"type": "Feature", "geometry": {"type": "Point", "coordinates": [-84.411986, 33.790316]}, "properties": {"kind": "stop", "name": "HOWELL MILL RD NW @ 17TH ST", "mode": "bus"}}, {"type": "Feature", "geometry": {"type": "Point", "coordinates": [-84.404656, 33.781558]}, "properties": {"kind": "stop", "name": "10TH ST NW@HEMPHILL AVE NW", "mode": "bus"}}, {"type": "Feature", "geometry": {"type": "Point", "coordinates": [-84.412597, 33.783683]}, "properties": {"kind": "stop", "name": "BRADY AVE@HOWELL MILL RD", "mode": "bus"}}, {"type": "Feature", "geometry": {"type": "Point", "coordinates": [-84.407777, 33.781501]}, "properties": {"kind": "stop", "name": "10TH ST NW @ NORTHSIDE DR NW", "mode": "bus"}}, {"type": "Feature", "geometry": {"type": "Point", "coordinates": [-84.407092, 33.781565]}, "properties": {"kind": "stop", "name": "10TH ST@NORTHSIDE DR", "mode": "bus"}}, {"type": "Feature", "geometry": {"type": "Point", "coordinates": [-84.41254, 33.78367]}, "properties": {"kind": "stop", "name": "BRADY AVE @ HOWELL MILL RD", "mode": "bus"}}, {"type": "Feature", "geometry": {"type": "Point", "coordinates": [-84.410169, 33.781581]}, "properties": {"kind": "stop", "name": "10TH ST @ IMAGE AVE", "mode": "bus"}}, {"type": "Feature", "geometry": {"type": "Point", "coordinates": [-84.410336, 33.781514]}, "properties": {"kind": "stop", "name": "10TH ST NW @ IMAGE AVE", "mode": "bus"}}, {"type": "Feature", "geometry": {"type": "Point", "coordinates": [-84.413197, 33.781625]}, "properties": {"kind": "stop", "name": "10TH ST@BRADY AVE", "mode": "bus"}}, {"type": "Feature", "geometry": {"type": "Point", "coordinates": [-84.412936, 33.781531]}, "properties": {"kind": "stop", "name": "10TH ST@BRADY AVE", "mode": "bus"}}, {"type": "Feature", "geometry": {"type": "Point", "coordinates": [-84.477506, 33.810578]}, "properties": {"kind": "stop", "name": "BOLTON RD @ PARROTT AVE", "mode": "bus"}}, {"type": "Feature", "geometry": {"type": "Point", "coordinates": [-84.476603, 33.80806]}, "properties": {"kind": "stop", "name": "PEYTON RD@JAMES JACKSON PKWY", "mode": "bus"}}, {"type": "Feature", "geometry": {"type": "Point", "coordinates": [-84.478126, 33.808058]}, "properties": {"kind": "stop", "name": "PEYTONRD@2770", "mode": "bus"}}, {"type": "Feature", "geometry": {"type": "Point", "coordinates": [-84.407801, 33.793899]}, "properties": {"kind": "stop", "name": "NORTHSIDE DR@TRABERT AVE", "mode": "bus"}}, {"type": "Feature", "geometry": {"type": "Point", "coordinates": [-84.407909, 33.793192]}, "properties": {"kind": "stop", "name": "NORTHSIDE DR NW @ GREEN ST NW", "mode": "bus"}}, {"type": "Feature", "geometry": {"type": "Point", "coordinates": [-84.407945, 33.79628]}, "properties": {"kind": "stop", "name": "NORTHSIDE DR NW @ DEERING RD NW", "mode": "bus"}}, {"type": "Feature", "geometry": {"type": "Point", "coordinates": [-84.407749, 33.796101]}, "properties": {"kind": "stop", "name": "NORTHSIDE DR@DEERING RD", "mode": "bus"}}, {"type": "Feature", "geometry": {"type": "Point", "coordinates": [-84.40429, 33.786177]}, "properties": {"kind": "stop", "name": "14TH ST @ MCMILLAN ST", "mode": "bus"}}, {"type": "Feature", "geometry": {"type": "Point", "coordinates": [-84.401267, 33.786143]}, "properties": {"kind": "stop", "name": "14TH ST @ SNYDER ST", "mode": "bus"}}, {"type": "Feature", "geometry": {"type": "Point", "coordinates": [-84.401833, 33.786241]}, "properties": {"kind": "stop", "name": "14TH ST @ SNYDER ST", "mode": "bus"}}, {"type": "Feature", "geometry": {"type": "Point", "coordinates": [-84.404236, 33.786249]}, "properties": {"kind": "stop", "name": "14TH ST @ MCMILLAN ST", "mode": "bus"}}, {"type": "Feature", "geometry": {"type": "Point", "coordinates": [-84.406923, 33.786274]}, "properties": {"kind": "stop", "name": "14TH ST @ HEMPHILL AVE", "mode": "bus"}}, {"type": "Feature", "geometry": {"type": "Point", "coordinates": [-84.405732, 33.791573]}, "properties": {"kind": "stop", "name": "17TH ST NW @ BISHOP ST NW", "mode": "bus"}}, {"type": "Feature", "geometry": {"type": "Point", "coordinates": [-84.402902, 33.789517]}, "properties": {"kind": "stop", "name": "17TH ST NW @ VILLAGE ST", "mode": "bus"}}, {"type": "Feature", "geometry": {"type": "Point", "coordinates": [-84.402684, 33.789758]}, "properties": {"kind": "stop", "name": "17TH ST NW @ VILLAGE ST", "mode": "bus"}}, {"type": "Feature", "geometry": {"type": "Point", "coordinates": [-84.40546, 33.791681]}, "properties": {"kind": "stop", "name": "17TH ST NW @ BISHOP ST NW", "mode": "bus"}}, {"type": "Feature", "geometry": {"type": "Point", "coordinates": [-84.447826, 33.820679]}, "properties": {"kind": "stop", "name": "DEFOORS FERRY RD @ 2788", "mode": "bus"}}, {"type": "Feature", "geometry": {"type": "Point", "coordinates": [-84.429714, 33.791205]}, "properties": {"kind": "stop", "name": "MARIETTA BLVD NW @ ELAINE AVE NW", "mode": "bus"}}, {"type": "Feature", "geometry": {"type": "Point", "coordinates": [-84.431938, 33.794828]}, "properties": {"kind": "stop", "name": "MARIETTA BLVD @ TACOMA DR", "mode": "bus"}}, {"type": "Feature", "geometry": {"type": "Point", "coordinates": [-84.433944, 33.798165]}, "properties": {"kind": "stop", "name": "MARIETTA BLVD @ 1595", "mode": "bus"}}, {"type": "Feature", "geometry": {"type": "Point", "coordinates": [-84.436256, 33.802324]}, "properties": {"kind": "stop", "name": "MARIETTA BLVD @ CARROLL DR", "mode": "bus"}}, {"type": "Feature", "geometry": {"type": "Point", "coordinates": [-84.43725, 33.805545]}, "properties": {"kind": "stop", "name": "MARIETTA BLVD @ PLYMOUTH RD", "mode": "bus"}}, {"type": "Feature", "geometry": {"type": "Point", "coordinates": [-84.437457, 33.805501]}, "properties": {"kind": "stop", "name": "MARIETTA BLVD @ PLYMOUTH RD", "mode": "bus"}}, {"type": "Feature", "geometry": {"type": "Point", "coordinates": [-84.43631, 33.802226]}, "properties": {"kind": "stop", "name": "MARIETTA BLVD @ CARROLL DR", "mode": "bus"}}, {"type": "Feature", "geometry": {"type": "Point", "coordinates": [-84.434183, 33.798272]}, "properties": {"kind": "stop", "name": "MARIETTA BLVD @ 1594", "mode": "bus"}}, {"type": "Feature", "geometry": {"type": "Point", "coordinates": [-84.432112, 33.794935]}, "properties": {"kind": "stop", "name": "MARIETTA BLVD @ TACOMA DR", "mode": "bus"}}, {"type": "Feature", "geometry": {"type": "Point", "coordinates": [-84.430271, 33.791786]}, "properties": {"kind": "stop", "name": "MARIETTA BLVD @ ELAINE AVE", "mode": "bus"}}, {"type": "Feature", "geometry": {"type": "Point", "coordinates": [-84.438824, 33.810494]}, "properties": {"kind": "stop", "name": "MARIETTA BLVD @ CHATTAHOOCHEE AVE", "mode": "bus"}}, {"type": "Feature", "geometry": {"type": "Point", "coordinates": [-84.438693, 33.810288]}, "properties": {"kind": "stop", "name": "MARIETTA BLVD @ CHATTAHOOCHEE AVE", "mode": "bus"}}, {"type": "Feature", "geometry": {"type": "Point", "coordinates": [-84.472548, 33.803814]}, "properties": {"kind": "stop", "name": "BROWNTOWN RD NW@2571", "mode": "bus"}}, {"type": "Feature", "geometry": {"type": "Point", "coordinates": [-84.449047, 33.794489]}, "properties": {"kind": "stop", "name": "PERRY BLVD NW @ ODESSA DR", "mode": "bus"}}, {"type": "Feature", "geometry": {"type": "Point", "coordinates": [-84.44921, 33.794408]}, "properties": {"kind": "stop", "name": "PERRY BLVD NW @ ODESSA DR NW", "mode": "bus"}}, {"type": "Feature", "geometry": {"type": "Point", "coordinates": [-84.460813, 33.79938]}, "properties": {"kind": "stop", "name": "AJAX DR NW @ 2223", "mode": "bus"}}, {"type": "Feature", "geometry": {"type": "Point", "coordinates": [-84.461793, 33.799665]}, "properties": {"kind": "stop", "name": "AJAX DR NW @ ADDISON PL NW", "mode": "bus"}}, {"type": "Feature", "geometry": {"type": "Point", "coordinates": [-84.407417, 33.791357]}, "properties": {"kind": "stop", "name": "17TH ST NW @ NORTHSIDE DR NW", "mode": "bus"}}, {"type": "Feature", "geometry": {"type": "Point", "coordinates": [-84.415483, 33.815857]}, "properties": {"kind": "stop", "name": "HOWELL MILL RD NW @ GLENBROOK DR NW", "mode": "bus"}}, {"type": "Feature", "geometry": {"type": "Point", "coordinates": [-84.407889, 33.794839]}, "properties": {"kind": "stop", "name": "NORTHSIDE DR NW @ TRABERT AVE NW", "mode": "bus"}}, {"type": "Feature", "geometry": {"type": "Point", "coordinates": [-84.461893, 33.801285]}, "properties": {"kind": "stop", "name": "ABNER TER NW @ MARY GEORGE AVE NW", "mode": "bus"}}, {"type": "Feature", "geometry": {"type": "Point", "coordinates": [-84.431903, 33.817329]}, "properties": {"kind": "stop", "name": "DEFOORS FERRY RD @ GLENDEVEN CT", "mode": "bus"}}, {"type": "Feature", "geometry": {"type": "Point", "coordinates": [-84.432132, 33.817535]}, "properties": {"kind": "stop", "name": "DEFOORS FERRY RD @ GLENDEVEN CT", "mode": "bus"}}, {"type": "Feature", "geometry": {"type": "Point", "coordinates": [-84.487336, 33.801118]}, "properties": {"kind": "stop", "name": "NORTHWEST DR @ BOLTON RD", "mode": "bus"}}, {"type": "Feature", "geometry": {"type": "Point", "coordinates": [-84.435491, 33.800293]}, "properties": {"kind": "stop", "name": "MARIETTA BLVD @ 1650", "mode": "bus"}}, {"type": "Feature", "geometry": {"type": "Point", "coordinates": [-84.435525, 33.800705]}, "properties": {"kind": "stop", "name": "MARIETTA BLVD @ 1695", "mode": "bus"}}, {"type": "Feature", "geometry": {"type": "Point", "coordinates": [-84.399477, 33.791354]}, "properties": {"kind": "stop", "name": "17TH ST NW @ STATE ST NW", "mode": "bus"}}, {"type": "Feature", "geometry": {"type": "Point", "coordinates": [-84.417833, 33.783371]}, "properties": {"kind": "stop", "name": "W MARIETTA ST NW @ JOSEPH E LOWERY BLVD NW", "mode": "bus"}}, {"type": "Feature", "geometry": {"type": "Point", "coordinates": [-84.407667, 33.781825]}, "properties": {"kind": "stop", "name": "NORTHSIDE DR NW @ 10TH ST NW", "mode": "bus"}}, {"type": "Feature", "geometry": {"type": "Point", "coordinates": [-84.444107, 33.821757]}, "properties": {"kind": "stop", "name": "DEFOORS FERRY RD @ WARREN CT", "mode": "bus"}}, {"type": "Feature", "geometry": {"type": "Point", "coordinates": [-84.444281, 33.821962]}, "properties": {"kind": "stop", "name": "DEFOORS FERRY RD @ WARREN CT", "mode": "bus"}}, {"type": "Feature", "geometry": {"type": "Point", "coordinates": [-84.471499, 33.80727]}, "properties": {"kind": "stop", "name": "HOLLYWOOD RD @ BURTZ ST", "mode": "bus"}}, {"type": "Feature", "geometry": {"type": "Point", "coordinates": [-84.471466, 33.807315]}, "properties": {"kind": "stop", "name": "HOLLYWOOD RD @ BURTZ ST", "mode": "bus"}}, {"type": "Feature", "geometry": {"type": "Point", "coordinates": [-84.407361, 33.782028]}, "properties": {"kind": "stop", "name": "NORTHSIDE DR NW @ 10TH ST NW", "mode": "bus"}}, {"type": "Feature", "geometry": {"type": "Point", "coordinates": [-84.407369, 33.786488]}, "properties": {"kind": "stop", "name": "NORTHSIDE DR NW @ 14TH ST NW", "mode": "bus"}}, {"type": "Feature", "geometry": {"type": "Point", "coordinates": [-84.407509, 33.785674]}, "properties": {"kind": "stop", "name": "NORTHSIDE DR NW @ 14TH ST NW", "mode": "bus"}}, {"type": "Feature", "geometry": {"type": "Point", "coordinates": [-84.407799, 33.792261]}, "properties": {"kind": "stop", "name": "NORTHSIDE DR NW @ HOKE ST", "mode": "bus"}}, {"type": "Feature", "geometry": {"type": "Point", "coordinates": [-84.407399, 33.784492]}, "properties": {"kind": "stop", "name": "NORTHSIDE DR @ ETHEL ST", "mode": "bus"}}, {"type": "Feature", "geometry": {"type": "Point", "coordinates": [-84.436064, 33.820395]}, "properties": {"kind": "stop", "name": "DEFOORS FERRY RD @ HYDE MANOR DR", "mode": "bus"}}, {"type": "Feature", "geometry": {"type": "Point", "coordinates": [-84.435149, 33.820137]}, "properties": {"kind": "stop", "name": "DEFOORS FERRY RD @ HYDE MANOR DR", "mode": "bus"}}, {"type": "Feature", "geometry": {"type": "Point", "coordinates": [-84.449011, 33.820248]}, "properties": {"kind": "stop", "name": "DEFOORS FERRY RD @ CORONET WAY", "mode": "bus"}}, {"type": "Feature", "geometry": {"type": "Point", "coordinates": [-84.482265, 33.800096]}, "properties": {"kind": "stop", "name": "MALDO DR NW @ ARGYLE DR NW", "mode": "bus"}}, {"type": "Feature", "geometry": {"type": "Point", "coordinates": [-84.411349, 33.78585]}, "properties": {"kind": "stop", "name": "14TH ST NW @ HOWELL MILL RD NW", "mode": "bus"}}, {"type": "Feature", "geometry": {"type": "Point", "coordinates": [-84.409045, 33.786069]}, "properties": {"kind": "stop", "name": "14TH ST NW @ HOWELL MILL RD NW", "mode": "bus"}}, {"type": "Feature", "geometry": {"type": "Point", "coordinates": [-84.417253, 33.782343]}, "properties": {"kind": "stop", "name": "JOSEPH E LOWERY BLVD NW @ W MARIETTA ST NW", "mode": "bus"}}, {"type": "Feature", "geometry": {"type": "Point", "coordinates": [-84.417278, 33.779969]}, "properties": {"kind": "stop", "name": "JOSEPH E LOWERY BLVD @ 841", "mode": "bus"}}, {"type": "Feature", "geometry": {"type": "Point", "coordinates": [-84.417391, 33.779559]}, "properties": {"kind": "stop", "name": "JOSEPH E LOWERY BLVD @ 841", "mode": "bus"}}, {"type": "Feature", "geometry": {"type": "Point", "coordinates": [-84.407521, 33.786175]}, "properties": {"kind": "stop", "name": "14TH ST @ NORTHSIDE DR", "mode": "bus"}}, {"type": "Feature", "geometry": {"type": "Point", "coordinates": [-84.414644, 33.780107]}, "properties": {"kind": "stop", "name": "W MARIETTA ST @ 800", "mode": "bus"}}, {"type": "Feature", "geometry": {"type": "Point", "coordinates": [-84.467274, 33.804931]}, "properties": {"kind": "stop", "name": "PERRY BLVD @ MOORE ST", "mode": "bus"}}, {"type": "Feature", "geometry": {"type": "Point", "coordinates": [-84.467252, 33.804859]}, "properties": {"kind": "stop", "name": "PERRY BLVD @ MOORE ST", "mode": "bus"}}, {"type": "Feature", "geometry": {"type": "Point", "coordinates": [-84.474949, 33.807982]}, "properties": {"kind": "stop", "name": "PEYTON RD @ JAMES JACKSON PKWY", "mode": "bus"}}, {"type": "Feature", "geometry": {"type": "Point", "coordinates": [-84.411766, 33.779754]}, "properties": {"kind": "stop", "name": "W MARIETTA ST @ 8TH ST", "mode": "bus"}}, {"type": "Feature", "geometry": {"type": "Point", "coordinates": [-84.412298, 33.779786]}, "properties": {"kind": "stop", "name": "W MARIETTA ST @ BRADY AVE", "mode": "bus"}}, {"type": "Feature", "geometry": {"type": "Point", "coordinates": [-84.416724, 33.782203]}, "properties": {"kind": "stop", "name": "W MARIETTA ST @ 887", "mode": "bus"}}, {"type": "Feature", "geometry": {"type": "Point", "coordinates": [-84.416523, 33.781715]}, "properties": {"kind": "stop", "name": "W MARIETTA ST @ 887", "mode": "bus"}}, {"type": "Feature", "geometry": {"type": "Point", "coordinates": [-84.428482, 33.789237]}, "properties": {"kind": "stop", "name": "MARIETTA BLVD @ HUFF RD", "mode": "bus"}}, {"type": "Feature", "geometry": {"type": "Point", "coordinates": [-84.482349, 33.803631]}, "properties": {"kind": "stop", "name": "BROWNTOWN RD @ REY ST", "mode": "bus"}}, {"type": "Feature", "geometry": {"type": "Point", "coordinates": [-84.48297, 33.804337]}, "properties": {"kind": "stop", "name": "BROWNTOWN RD @ BOLTON RD", "mode": "bus"}}, {"type": "Feature", "geometry": {"type": "Point", "coordinates": [-84.480801, 33.802219]}, "properties": {"kind": "stop", "name": "BROWNTOWN RD @ MALDO RD", "mode": "bus"}}, {"type": "Feature", "geometry": {"type": "Point", "coordinates": [-84.480714, 33.802031]}, "properties": {"kind": "stop", "name": "BROWNTOWN RD @ MALDO RD", "mode": "bus"}}, {"type": "Feature", "geometry": {"type": "Point", "coordinates": [-84.475786, 33.80202]}, "properties": {"kind": "stop", "name": "BROWNTOWN RD @ JAMES JACKSON PKWY", "mode": "bus"}}, {"type": "Feature", "geometry": {"type": "Point", "coordinates": [-84.480099, 33.799293]}, "properties": {"kind": "stop", "name": "ARGYLE DR @ CARDO DR", "mode": "bus"}}, {"type": "Feature", "geometry": {"type": "Point", "coordinates": [-84.477705, 33.798768]}, "properties": {"kind": "stop", "name": "BRIDGEPORT DR @ MARCO DR", "mode": "bus"}}, {"type": "Feature", "geometry": {"type": "Point", "coordinates": [-84.476478, 33.800447]}, "properties": {"kind": "stop", "name": "MARCO DR @ 1659", "mode": "bus"}}, {"type": "Feature", "geometry": {"type": "Point", "coordinates": [-84.478506, 33.801439]}, "properties": {"kind": "stop", "name": "BROWNTOWN RD @ 2765", "mode": "bus"}}, {"type": "Feature", "geometry": {"type": "Point", "coordinates": [-84.443486, 33.815322]}, "properties": {"kind": "stop", "name": "MARIETTA BLVD @ 2210", "mode": "bus"}}, {"type": "Feature", "geometry": {"type": "Point", "coordinates": [-84.476545, 33.810454]}, "properties": {"kind": "stop", "name": "JAMES JACKSON PKWY @ BOLTON RD", "mode": "bus"}}, {"type": "Feature", "geometry": {"type": "Point", "coordinates": [-84.407785, 33.789683]}, "properties": {"kind": "stop", "name": "NORTHSIDE DR @ 17TH ST", "mode": "bus"}}, {"type": "Feature", "geometry": {"type": "Point", "coordinates": [-84.442954, 33.791456]}, "properties": {"kind": "stop", "name": "PERRY BLVD NW @ HABERSHAL DR NW", "mode": "bus"}}, {"type": "Feature", "geometry": {"type": "Point", "coordinates": [-84.445822, 33.816339]}, "properties": {"kind": "stop", "name": "MARIETTA BLVD @ BOLTON DR", "mode": "bus"}}, {"type": "Feature", "geometry": {"type": "Point", "coordinates": [-84.443528, 33.791827]}, "properties": {"kind": "stop", "name": "PERRY BLVD @ HABERSHAL DR", "mode": "bus"}}, {"type": "Feature", "geometry": {"type": "Point", "coordinates": [-84.44766, 33.818389]}, "properties": {"kind": "stop", "name": "CORONET WAY @ PINE GROVE DR", "mode": "bus"}}], "properties": {"coverage_pct": 94.3, "rail_coverage_pct": 0.0, "stop_count": 290, "rail_stop_count": 0, "bus_stop_count": 290, "transit_index": 31, "weights": {"rail": 2.0, "bus": 1.0}}}