{"type": "FeatureCollection", "features": [{"type": "Feature", "geometry": {"type": "LineString", "coordinates": [[-84.433602, 33.786916], [-84.4336642, 33.7868581], [-84.433805, 33.786727], [-84.433934, 33.786627], [-84.434098, 33.786529], [-84.4341359, 33.7865128], [-84.434299, 33.786443], [-84.434489, 33.786389], [-84.434712, 33.786355], [-84.434913, 33.786348], [-84.435138, 33.786369], [-84.436246, 33.786622], [-84.436464, 33.786692], [-84.436642, 33.786769], [-84.436888, 33.786912], [-84.437082, 33.787065], [-84.43725, 33.787238], [-84.43742, 33.7874575], [-84.43748, 33.787535]]}, "properties": {"surface": "", "highway": "residential"}}, {"type": "Feature", "geometry": {"type": "LineString", "coordinates": [[-84.4405304, 33.7777425], [-84.4406266, 33.7778269], [-84.4407718, 33.7779586], [-84.440877, 33.7780598], [-84.440951, 33.7781547], [-84.4410084, 33.7782818], [-84.4410686, 33.7784646], [-84.4411281, 33.7786751], [-84.4411903, 33.7789442], [-84.441272, 33.7793518], [-84.44132, 33.779631], [-84.441362, 33.779914], [-84.4413882, 33.7801924], [-84.4414, 33.7804328], [-84.441411, 33.7805846], [-84.4414221, 33.780672], [-84.4414318, 33.7807962], [-84.4414235, 33.7809273], [-84.4414096, 33.7810262], [-84.4414083, 33.781167], [-84.4414138, 33.7813844], [-84.4414262, 33.7814787], [-84.4414442, 33.7815799], [-84.4414442, 33.7816397], [-84.4414276, 33.7817156], [-84.4413835, 33.7818083]]}, "properties": {"surface": "", "highway": "pedestrian"}}, {"type": "Feature", "geometry": {"type": "LineString", "coordinates": [[-84.4856096, 33.8022366], [-84.4855953, 33.802192], [-84.4855826, 33.8021371], [-84.485587, 33.801989], [-84.485578, 33.801897], [-84.485546, 33.801799], [-84.485488, 33.801699], [-84.485384, 33.801578], [-84.485278, 33.801477], [-84.485198, 33.801423], [-84.485077, 33.801376], [-84.484956, 33.80136], [-84.484826, 33.801372], [-84.484713, 33.801409], [-84.484632, 33.801456], [-84.483702, 33.802127], [-84.482995, 33.802619], [-84.482932, 33.802674], [-84.482353, 33.803518], [-84.482266, 33.80361]]}, "properties": {"surface": "asphalt", "highway": "residential"}}, {"type": "Feature", "geometry": {"type": "LineString", "coordinates": [[-84.4874899, 33.8010979], [-84.4870213, 33.8016494], [-84.486953, 33.801717], [-84.486842, 33.801812], [-84.4867115, 33.8019051], [-84.4865511, 33.8019796], [-84.486375, 33.8020471], [-84.4860419, 33.8021621], [-84.4858888, 33.8021936], [-84.4857756, 33.80221], [-84.4856768, 33.8022242], [-84.4856096, 33.8022366], [-84.4854894, 33.8022884], [-84.4853989, 33.8023352], [-84.4845, 33.802922], [-84.4841512, 33.8031804], [-84.4839992, 33.803293], [-84.483927, 33.8033508], [-84.4838777, 33.8033904], [-84.483765, 33.803489], [-84.4836819, 33.8035878], [-84.4836151, 33.8036806], [-84.4831422, 33.8043338]]}, "properties": {"surface": "asphalt", "highway": "secondary"}}, {"type": "Feature", "geometry": {"type": "LineString", "coordinates": [[-84.4350266, 33.7832689], [-84.434706, 33.783294], [-84.4339013, 33.7834366], [-84.4334052, 33.7836487], [-84.4330611, 33.7839292], [-84.4330301, 33.7849951], [-84.4330235, 33.7852213], [-84.4329881, 33.7864364]]}, "properties": {"surface": "", "highway": "unclassified"}}, {"type": "Feature", "geometry": {"type": "LineString", "coordinates": [[-84.5069369, 33.7950843], [-84.5066622, 33.7949569], [-84.506551, 33.794906], [-84.5061352, 33.7947296], [-84.5058562, 33.7946349], [-84.505756, 33.7946052]]}, "properties": {"surface": "", "highway": "primary"}}, {"type": "Feature", "geometry": {"type": "LineString", "coordinates": [[-84.4881058, 33.8001731], [-84.487976, 33.8004654], [-84.4879226, 33.8005636]]}, "properties": {"surface": "asphalt", "highway": "secondary"}}, {"type": "Feature", "geometry": {"type": "LineString", "coordinates": [[-84.488646, 33.7989246], [-84.4881058, 33.8001731]]}, "properties": {"surface": "concrete", "highway": "secondary"}}, {"type": "Feature", "geometry": {"type": "LineString", "coordinates": [[-84.4825185, 33.8053035], [-84.4820977, 33.8059932]]}, "properties": {"surface": "asphalt", "highway": "secondary"}}, {"type": "Feature", "geometry": {"type": "LineString", "coordinates": [[-84.488777, 33.7986141], [-84.4886965, 33.7988052]]}, "properties": {"surface": "asphalt", "highway": "secondary"}}, {"type": "Feature", "geometry": {"type": "LineString", "coordinates": [[-84.4886965, 33.7988052], [-84.488646, 33.7989246]]}, "properties": {"surface": "asphalt", "highway": "secondary"}}, {"type": "Feature", "geometry": {"type": "LineString", "coordinates": [[-84.4831422, 33.8043338], [-84.482808, 33.80482], [-84.4825185, 33.8053035]]}, "properties": {"surface": "asphalt", "highway": "secondary"}}, {"type": "Feature", "geometry": {"type": "LineString", "coordinates": [[-84.4879226, 33.8005636], [-84.487867, 33.8006414], [-84.4876854, 33.8008718]]}, "properties": {"surface": "asphalt", "highway": "secondary"}}, {"type": "Feature", "geometry": {"type": "LineString", "coordinates": [[-84.4876854, 33.8008718], [-84.4874899, 33.8010979]]}, "properties": {"surface": "asphalt", "highway": "secondary"}}, {"type": "Feature", "geometry": {"type": "LineString", "coordinates": [[-84.505756, 33.7946052], [-84.505533, 33.794539], [-84.5052742, 33.7944762]]}, "properties": {"surface": "", "highway": "primary"}}, {"type": "Feature", "geometry": {"type": "LineString", "coordinates": [[-84.5052742, 33.7944762], [-84.5052299, 33.7944655], [-84.5048786, 33.7944064], [-84.504566, 33.7943648], [-84.504381, 33.7943501], [-84.5041937, 33.7943392], [-84.5040392, 33.7943302], [-84.5037561, 33.7943172], [-84.5032604, 33.7942966], [-84.5028771, 33.7942741], [-84.5026316, 33.7942571], [-84.5024288, 33.7942378], [-84.5022721, 33.7942182], [-84.5021153, 33.7941928], [-84.5019628, 33.7941659], [-84.501822, 33.794137], [-84.5016652, 33.7941007], [-84.5014697, 33.7940511], [-84.5012636, 33.7939918], [-84.5010718, 33.7939328], [-84.5008963, 33.7938711], [-84.5007261, 33.7938079], [-84.500567, 33.793745], [-84.5004096, 33.7936776], [-84.5002653, 33.7936118]]}, "properties": {"surface": "", "highway": "primary"}}, {"type": "Feature", "geometry": {"type": "LineString", "coordinates": [[-84.4413111, 33.7820813], [-84.4412091, 33.7819735], [-84.4411812, 33.7819523], [-84.4411487, 33.7819246], [-84.4411253, 33.7819113], [-84.440972, 33.7818928], [-84.4408117, 33.7818854], [-84.4406548, 33.7819039], [-84.4405609, 33.7819621], [-84.4404827, 33.782008], [-84.4404292, 33.7820706], [-84.4403565, 33.7821737], [-84.4402461, 33.782259], [-84.4401521, 33.7823039], [-84.4400613, 33.7823266], [-84.4399209, 33.7823378], [-84.4398742, 33.7823261], [-84.4398275, 33.7823165], [-84.4397792, 33.7823005], [-84.4397252, 33.7822721], [-84.4396774, 33.7822423], [-84.4396203, 33.7822113], [-84.4395617, 33.7821829], [-84.4395066, 33.7821617], [-84.4394478, 33.7821454], [-84.4394035, 33.7821344], [-84.4393347, 33.7821294], [-84.43925, 33.7821359], [-84.439203, 33.7821406], [-84.439107, 33.7821615], [-84.4389972, 33.7821945], [-84.4389618, 33.7822112]]}, "properties": {"surface": "", "highway": "path"}}, {"type": "Feature", "geometry": {"type": "LineString", "coordinates": [[-84.4383245, 33.7813781], [-84.438359, 33.7813624], [-84.4384326, 33.781342], [-84.438539, 33.7813332], [-84.438605, 33.7813438], [-84.4387009, 33.781391], [-84.4387758, 33.7814364], [-84.4388302, 33.7814933], [-84.438854, 33.7815348], [-84.4388674, 33.7816064], [-84.4388637, 33.7816732], [-84.4388512, 33.7817479], [-84.4388077, 33.7818047], [-84.4387683, 33.7818677], [-84.4387409, 33.7819161], [-84.4387355, 33.7819924], [-84.4387327, 33.7820658], [-84.438732, 33.7821178]]}, "properties": {"surface": "", "highway": "path"}}, {"type": "Feature", "geometry": {"type": "LineString", "coordinates": [[-84.4388302, 33.7814933], [-84.4388367, 33.7813908], [-84.4388789, 33.7812964]]}, "properties": {"surface": "", "highway": "path"}}, {"type": "Feature", "geometry": {"type": "LineString", "coordinates": [[-84.438605, 33.7813438], [-84.4387672, 33.781322], [-84.4388789, 33.7812964], [-84.4391962, 33.7811948], [-84.4393186, 33.7811338], [-84.439417, 33.7810762], [-84.4395404, 33.78098], [-84.4396621, 33.7807844], [-84.4396751, 33.7807174], [-84.4396746, 33.7806649], [-84.4396764, 33.7806193], [-84.4396754, 33.7805845], [-84.4396774, 33.7805245], [-84.4396607, 33.7804832], [-84.4396467, 33.7804187], [-84.4396428, 33.7803994], [-84.4396221, 33.7803405], [-84.4396268, 33.7802864], [-84.4396218, 33.7801714], [-84.4396467, 33.7801127], [-84.439676, 33.7800488], [-84.4396912, 33.779994], [-84.4396819, 33.779951], [-84.4396638, 33.779925], [-84.4396411, 33.7799047], [-84.4395968, 33.7798618]]}, "properties": {"surface": "", "highway": "path"}}, {"type": "Feature", "geometry": {"type": "LineString", "coordinates": [[-84.4496479, 33.7935804], [-84.4496157, 33.7935653], [-84.4495929, 33.7935754], [-84.4495784, 33.793574], [-84.449546, 33.7935709], [-84.4494843, 33.7935375], [-84.4483847, 33.7930131], [-84.4482631, 33.7929551], [-84.4482443, 33.7929822]]}, "properties": {"surface": "", "highway": "footway"}}, {"type": "Feature", "geometry": {"type": "LineString", "coordinates": [[-84.4481843, 33.7930683], [-84.4487623, 33.793346], [-84.4487799, 33.7933544]]}, "properties": {"surface": "", "highway": "footway"}}, {"type": "Feature", "geometry": {"type": "LineString", "coordinates": [[-84.4475796, 33.7938476], [-84.4477804, 33.7939462], [-84.4491347, 33.7946074], [-84.4497824, 33.7949236], [-84.4499546, 33.7950077]]}, "properties": {"surface": "", "highway": "footway"}}, {"type": "Feature", "geometry": {"type": "LineString", "coordinates": [[-84.4475796, 33.7938476], [-84.4474699, 33.7937948], [-84.4467238, 33.7934359]]}, "properties": {"surface": "", "highway": "footway"}}, {"type": "Feature", "geometry": {"type": "LineString", "coordinates": [[-84.4379895, 33.7814534], [-84.4378733, 33.781466], [-84.4377253, 33.7814591], [-84.4376008, 33.781458], [-84.4374486, 33.7814821], [-84.4372466, 33.7815373], [-84.4370584, 33.7816144], [-84.4369173, 33.781665], [-84.4367817, 33.7816926], [-84.4366212, 33.7817064], [-84.4364732, 33.7817029], [-84.4363016, 33.7816776], [-84.4361494, 33.7816661], [-84.4359696, 33.7816673], [-84.4357482, 33.7816857], [-84.4356278, 33.7816937], [-84.4355504, 33.7816799], [-84.4355033, 33.7816592], [-84.4354106, 33.7815753], [-84.4353691, 33.7814879], [-84.4353345, 33.7813867]]}, "properties": {"surface": "", "highway": "path"}}, {"type": "Feature", "geometry": {"type": "LineString", "coordinates": [[-84.4395968, 33.7798618], [-84.4396024, 33.7798327], [-84.4396192, 33.7798114], [-84.4396501, 33.7798051], [-84.4396873, 33.7798132], [-84.4398212, 33.7798878], [-84.4398849, 33.7799378], [-84.439977, 33.7799496], [-84.4400831, 33.7799143], [-84.4401645, 33.7798584], [-84.4402743, 33.7797937], [-84.4404158, 33.7797819], [-84.4406211, 33.7798113], [-84.4408582, 33.7798878], [-84.4410953, 33.7800231], [-84.4411838, 33.7801378], [-84.4412298, 33.7802673], [-84.4412334, 33.7804614], [-84.4412865, 33.7806615], [-84.4412794, 33.7807527], [-84.4412255, 33.7808101], [-84.4412123, 33.7808242], [-84.4411565, 33.7808237], [-84.4409927, 33.780838], [-84.4407308, 33.7808409], [-84.4405043, 33.7808291], [-84.4402566, 33.7808321], [-84.4402355, 33.7808306], [-84.4400938, 33.7808203], [-84.4399805, 33.7807674], [-84.4398566, 33.7806556], [-84.4396774, 33.7805245]]}, "properties": {"surface": "", "highway": "path"}}, {"type": "Feature", "geometry": {"type": "LineString", "coordinates": [[-84.4402355, 33.7808306], [-84.44, 33.7809027], [-84.4397912, 33.7810306], [-84.4397062, 33.7810821], [-84.4395788, 33.7811263], [-84.4393771, 33.7811748], [-84.4391962, 33.7811948]]}, "properties": {"surface": "", "highway": "path"}}, {"type": "Feature", "geometry": {"type": "LineString", "coordinates": [[-84.4412123, 33.7808242], [-84.4413231, 33.7808883], [-84.4414235, 33.7809273]]}, "properties": {"surface": "", "highway": "path"}}, {"type": "Feature", "geometry": {"type": "LineString", "coordinates": [[-84.4412794, 33.7807527], [-84.4414318, 33.7807962]]}, "properties": {"surface": "", "highway": "path"}}, {"type": "Feature", "geometry": {"type": "LineString", "coordinates": [[-84.4411253, 33.7819113], [-84.4412301, 33.7818845], [-84.441321, 33.7818487], [-84.4413835, 33.7818083]]}, "properties": {"surface": "", "highway": "path"}}, {"type": "Feature", "geometry": {"type": "LineString", "coordinates": [[-84.4413111, 33.7820813], [-84.4411454, 33.7825044], [-84.4410845, 33.7826677], [-84.4410527, 33.7828126], [-84.4410499, 33.7829736], [-84.4410817, 33.7831346], [-84.4411454, 33.783291], [-84.4412284, 33.7834416], [-84.4414428, 33.7837003], [-84.4418026, 33.7841247], [-84.4419387, 33.7843151]]}, "properties": {"surface": "", "highway": "pedestrian"}}, {"type": "Feature", "geometry": {"type": "LineString", "coordinates": [[-84.438732, 33.7821178], [-84.438783, 33.7821596], [-84.4388317, 33.7821749], [-84.438895, 33.7821874], [-84.4389618, 33.7822112]]}, "properties": {"surface": "", "highway": "path"}}, {"type": "Feature", "geometry": {"type": "LineString", "coordinates": [[-84.4379895, 33.7814534], [-84.4380615, 33.7814304], [-84.4381957, 33.7814005], [-84.4383245, 33.7813781]]}, "properties": {"surface": "", "highway": "path"}}, {"type": "Feature", "geometry": {"type": "LineString", "coordinates": [[-84.4479806, 33.783727], [-84.4479825, 33.7837503], [-84.4479757, 33.7837672], [-84.4479576, 33.7837795], [-84.4479326, 33.7837832], [-84.4479123, 33.7837785], [-84.4478987, 33.7837672], [-84.4478896, 33.7837569], [-84.4478841, 33.7837443]]}, "properties": {"surface": "", "highway": "footway"}}, {"type": "Feature", "geometry": {"type": "LineString", "coordinates": [[-84.4741522, 33.7773499], [-84.4741273, 33.7773105], [-84.4740473, 33.7771327], [-84.4739393, 33.776878], [-84.4739197, 33.7767932], [-84.47386, 33.7765358], [-84.4738773, 33.7764936], [-84.4739088, 33.7764775], [-84.4739205, 33.7764764], [-84.4739627, 33.7764725], [-84.474163, 33.7765591], [-84.4744368, 33.7766776], [-84.4745653, 33.7767332], [-84.4750041, 33.776923], [-84.4753335, 33.7770655], [-84.4756265, 33.7771922], [-84.4755738, 33.7773028], [-84.4754984, 33.7774609], [-84.4754598, 33.7775706], [-84.4754527, 33.777591], [-84.4754323, 33.7777549]]}, "properties": {"surface": "", "highway": "footway"}}, {"type": "Feature", "geometry": {"type": "LineString", "coordinates": [[-84.499889, 33.7934255], [-84.4998052, 33.7933836], [-84.4995993, 33.7932769], [-84.4993952, 33.7931614], [-84.4991925, 33.7930362], [-84.4989952, 33.7929066], [-84.4988558, 33.7928028], [-84.4986357, 33.7926388], [-84.4983152, 33.7923746], [-84.4980761, 33.7921486], [-84.4980322, 33.7921071], [-84.4979701, 33.7920465], [-84.4976457, 33.7917299], [-84.4976085, 33.7916936], [-84.4974904, 33.7915705]]}, "properties": {"surface": "", "highway": "primary"}}, {"type": "Feature", "geometry": {"type": "LineString", "coordinates": [[-84.4580974, 33.8025745], [-84.4579348, 33.8024513], [-84.4577485, 33.8022745], [-84.4575591, 33.8020308], [-84.4572936, 33.801617], [-84.4568458, 33.8010293], [-84.456503, 33.8006891], [-84.4561435, 33.8004146], [-84.4557138, 33.8001749], [-84.455402, 33.7999636], [-84.4549189, 33.7995673], [-84.4548432, 33.799491]]}, "properties": {"surface": "", "highway": "footway"}}, {"type": "Feature", "geometry": {"type": "LineString", "coordinates": [[-84.4582126, 33.8026501], [-84.4588654, 33.8031531], [-84.4594386, 33.8036967], [-84.4598827, 33.8041178], [-84.4601367, 33.8043729]]}, "properties": {"surface": "", "highway": "footway"}}, {"type": "Feature", "geometry": {"type": "LineString", "coordinates": [[-84.4547539, 33.7994078], [-84.452989, 33.79776], [-84.4524622, 33.7973642]]}, "properties": {"surface": "", "highway": "footway"}}, {"type": "Feature", "geometry": {"type": "LineString", "coordinates": [[-84.452342, 33.7972883], [-84.4515908, 33.7967331], [-84.4514009, 33.7965414], [-84.4512071, 33.7962909]]}, "properties": {"surface": "", "highway": "footway"}}, {"type": "Feature", "geometry": {"type": "LineString", "coordinates": [[-84.462671, 33.8058376], [-84.462676, 33.8058166], [-84.4625074, 33.8057777], [-84.4623485, 33.8057404]]}, "properties": {"surface": "", "highway": "footway"}}, {"type": "Feature", "geometry": {"type": "LineString", "coordinates": [[-84.462676, 33.8058166], [-84.462721, 33.8058271], [-84.462802, 33.8058484], [-84.4628737, 33.8058686], [-84.4629992, 33.8058879]]}, "properties": {"surface": "", "highway": "footway"}}, {"type": "Feature", "geometry": {"type": "LineString", "coordinates": [[-84.4594386, 33.8036967], [-84.4594311, 33.8037019]]}, "properties": {"surface": "", "highway": "footway"}}, {"type": "Feature", "geometry": {"type": "LineString", "coordinates": [[-84.4934798, 33.7872466], [-84.4935671, 33.7872992], [-84.4935783, 33.7873256], [-84.4935672, 33.787352], [-84.4935463, 33.7873706]]}, "properties": {"surface": "", "highway": "footway"}}, {"type": "Feature", "geometry": {"type": "LineString", "coordinates": [[-84.4937388, 33.7874719], [-84.4937674, 33.7874735], [-84.4937822, 33.7874768], [-84.4938167, 33.7874846], [-84.4938951, 33.7875325]]}, "properties": {"surface": "", "highway": "footway"}}, {"type": "Feature", "geometry": {"type": "LineString", "coordinates": [[-84.4935783, 33.7873256], [-84.4935899, 33.7873342]]}, "properties": {"surface": "", "highway": "footway"}}, {"type": "Feature", "geometry": {"type": "LineString", "coordinates": [[-84.4937706, 33.7874682], [-84.4937822, 33.7874768]]}, "properties": {"surface": "", "highway": "footway"}}, {"type": "Feature", "geometry": {"type": "LineString", "coordinates": [[-84.4868582, 33.7967807], [-84.4868537, 33.7966815], [-84.4868405, 33.7966061], [-84.4867965, 33.7965426], [-84.4867219, 33.7964929], [-84.4866366, 33.7964735], [-84.4864759, 33.796463], [-84.4863212, 33.7964595]]}, "properties": {"surface": "", "highway": "footway"}}, {"type": "Feature", "geometry": {"type": "LineString", "coordinates": [[-84.4862122, 33.7964563], [-84.4860857, 33.7964537]]}, "properties": {"surface": "", "highway": "footway"}}, {"type": "Feature", "geometry": {"type": "LineString", "coordinates": [[-84.4863212, 33.7964595], [-84.4863101, 33.7964592]]}, "properties": {"surface": "", "highway": "footway"}}, {"type": "Feature", "geometry": {"type": "LineString", "coordinates": [[-84.4862233, 33.7964566], [-84.4862122, 33.7964563]]}, "properties": {"surface": "", "highway": "footway"}}, {"type": "Feature", "geometry": {"type": "LineString", "coordinates": [[-84.4754323, 33.7777549], [-84.4754211, 33.7782956], [-84.4754059, 33.7785574], [-84.4753825, 33.778625], [-84.4753409, 33.7786512], [-84.475287, 33.7786428], [-84.4751305, 33.7784849], [-84.4747667, 33.778118]]}, "properties": {"surface": "", "highway": "footway"}}, {"type": "Feature", "geometry": {"type": "LineString", "coordinates": [[-84.4747127, 33.7780678], [-84.4745074, 33.7778605], [-84.4743214, 33.7776315], [-84.4742073, 33.7774461]]}, "properties": {"surface": "", "highway": "footway"}}, {"type": "Feature", "geometry": {"type": "LineString", "coordinates": [[-84.436502, 33.7882438], [-84.4365014, 33.7882401], [-84.4364988, 33.7882357], [-84.4364935, 33.7882352], [-84.4364805, 33.7882365], [-84.4364702, 33.7882367], [-84.4364584, 33.7882357], [-84.4364442, 33.7882328], [-84.4364227, 33.7882274], [-84.4363879, 33.7882174], [-84.4363664, 33.7882098], [-84.4359921, 33.7880345], [-84.4356639, 33.7879109], [-84.4355718, 33.7878681], [-84.4352831, 33.7877498], [-84.4348649, 33.7875655], [-84.4341376, 33.7872106]]}, "properties": {"surface": "", "highway": "footway"}}, {"type": "Feature", "geometry": {"type": "LineString", "coordinates": [[-84.4365132, 33.7883618], [-84.436502, 33.7882507], [-84.436502, 33.7882438]]}, "properties": {"surface": "", "highway": "footway"}}, {"type": "Feature", "geometry": {"type": "LineString", "coordinates": [[-84.4341376, 33.7872106], [-84.4340383, 33.7871557], [-84.4339821, 33.7871208], [-84.4339435, 33.7870926], [-84.433863, 33.7870332], [-84.4338424, 33.7870075], [-84.4338283, 33.7869835], [-84.4338184, 33.7869502], [-84.4338101, 33.7869267], [-84.4338033, 33.786917], [-84.4337941, 33.7869099]]}, "properties": {"surface": "", "highway": "footway"}}, {"type": "Feature", "geometry": {"type": "LineString", "coordinates": [[-84.4335995, 33.7867392], [-84.4336625, 33.7867305], [-84.4337262, 33.786706], [-84.4338041, 33.7866482], [-84.433974, 33.7865285], [-84.4341138, 33.7864607]]}, "properties": {"surface": "", "highway": "footway"}}, {"type": "Feature", "geometry": {"type": "LineString", "coordinates": [[-84.4341138, 33.7864607], [-84.434284, 33.7863796], [-84.434365, 33.786352], [-84.4344523, 33.7863304], [-84.4344968, 33.7863201]]}, "properties": {"surface": "", "highway": "footway"}}, {"type": "Feature", "geometry": {"type": "LineString", "coordinates": [[-84.4336016, 33.7867554], [-84.4335995, 33.7867392]]}, "properties": {"surface": "", "highway": "footway"}}, {"type": "Feature", "geometry": {"type": "LineString", "coordinates": [[-84.4335995, 33.7867392], [-84.4335622, 33.7867351], [-84.4335273, 33.7867275], [-84.4334884, 33.7867143], [-84.4334552, 33.7866974], [-84.4333969, 33.7866526], [-84.433246, 33.7865252]]}, "properties": {"surface": "", "highway": "footway"}}, {"type": "Feature", "geometry": {"type": "LineString", "coordinates": [[-84.433246, 33.7865252], [-84.4331906, 33.7864845], [-84.4330952, 33.7864242], [-84.4330688, 33.786402], [-84.4330557, 33.7863901], [-84.4330498, 33.7863752], [-84.4330699, 33.7852543]]}, "properties": {"surface": "", "highway": "footway"}}, {"type": "Feature", "geometry": {"type": "LineString", "coordinates": [[-84.4367868, 33.7883703], [-84.4370012, 33.7880838], [-84.4371115, 33.7879444], [-84.4372249, 33.7878167]]}, "properties": {"surface": "", "highway": "footway"}}, {"type": "Feature", "geometry": {"type": "LineString", "coordinates": [[-84.4372249, 33.7878167], [-84.4374254, 33.7876784], [-84.4379369, 33.7874019], [-84.4382929, 33.7872193], [-84.4388881, 33.786864], [-84.4392637, 33.7866054], [-84.4396892, 33.7862992], [-84.4398224, 33.7862131], [-84.4399156, 33.7861589], [-84.4404566, 33.7858443], [-84.4411037, 33.7856139]]}, "properties": {"surface": "", "highway": "footway"}}, {"type": "Feature", "geometry": {"type": "LineString", "coordinates": [[-84.4367868, 33.7883703], [-84.4368059, 33.7883685], [-84.4368192, 33.7883736], [-84.4368278, 33.7883822], [-84.4368353, 33.7883919], [-84.436872, 33.7884391], [-84.436946, 33.7885105], [-84.4371032, 33.7885854], [-84.4373553, 33.7887093], [-84.4375216, 33.7887901], [-84.4377815, 33.7889165]]}, "properties": {"surface": "", "highway": "footway"}}, {"type": "Feature", "geometry": {"type": "LineString", "coordinates": [[-84.4364825, 33.7887153], [-84.4365526, 33.7886263], [-84.4366085, 33.7885902], [-84.4366823, 33.7885582], [-84.4367063, 33.7885568], [-84.4367555, 33.7885572], [-84.4368305, 33.7885759], [-84.4370041, 33.7886589], [-84.437256, 33.7887748], [-84.4375276, 33.7889122], [-84.4376905, 33.7889911], [-84.4376989, 33.789], [-84.437709, 33.7890133], [-84.4377194, 33.7890234], [-84.4377369, 33.7890369], [-84.438058, 33.7891857], [-84.4388121, 33.7895615]]}, "properties": {"surface": "", "highway": "footway"}}, {"type": "Feature", "geometry": {"type": "LineString", "coordinates": [[-84.4364825, 33.7887153], [-84.4363285, 33.7889407], [-84.4361933, 33.7891774], [-84.4361319, 33.7893172], [-84.4360822, 33.7894793], [-84.4360202, 33.7898325], [-84.4360517, 33.7901385], [-84.4360953, 33.7903689], [-84.436108, 33.7904317]]}, "properties": {"surface": "", "highway": "footway"}}, {"type": "Feature", "geometry": {"type": "LineString", "coordinates": [[-84.4373642, 33.7874881], [-84.4372699, 33.7875399], [-84.43711, 33.787639], [-84.4369127, 33.7878107], [-84.436808, 33.7879385], [-84.4366773, 33.7881229], [-84.4366357, 33.7881697]]}, "properties": {"surface": "", "highway": "footway"}}, {"type": "Feature", "geometry": {"type": "LineString", "coordinates": [[-84.4380724, 33.7872221], [-84.4380241, 33.7871702], [-84.4380131, 33.7871572], [-84.43799, 33.7871553], [-84.4378379, 33.787233], [-84.4374822, 33.787424]]}, "properties": {"surface": "", "highway": "footway"}}, {"type": "Feature", "geometry": {"type": "LineString", "coordinates": [[-84.4363322, 33.7886208], [-84.436197, 33.7887978], [-84.4360593, 33.7890226], [-84.4359218, 33.7893145], [-84.4358438, 33.7896456], [-84.4358197, 33.7898906], [-84.435825, 33.7900834], [-84.4358324, 33.7901553], [-84.4358496, 33.7902957]]}, "properties": {"surface": "", "highway": "footway"}}, {"type": "Feature", "geometry": {"type": "LineString", "coordinates": [[-84.4363068, 33.7883671], [-84.4363247, 33.7883857], [-84.4363421, 33.7884054], [-84.4363505, 33.7884127], [-84.4363743, 33.7884615], [-84.4363796, 33.7884954], [-84.4363792, 33.7885155], [-84.4363756, 33.7885404], [-84.4363671, 33.7885586], [-84.4363322, 33.7886208]]}, "properties": {"surface": "", "highway": "footway"}}, {"type": "Feature", "geometry": {"type": "LineString", "coordinates": [[-84.4330699, 33.7852543], [-84.4330705, 33.7850693], [-84.4330718, 33.7849802]]}, "properties": {"surface": "", "highway": "footway"}}, {"type": "Feature", "geometry": {"type": "LineString", "coordinates": [[-84.4491675, 33.7944629], [-84.4492249, 33.7944905], [-84.4499689, 33.7948524], [-84.4500949, 33.7949185], [-84.4504642, 33.7951751]]}, "properties": {"surface": "", "highway": "footway"}}, {"type": "Feature", "geometry": {"type": "LineString", "coordinates": [[-84.4483941, 33.7940869], [-84.448446, 33.7941121], [-84.4490443, 33.794403], [-84.4490609, 33.7944111]]}, "properties": {"surface": "", "highway": "footway"}}, {"type": "Feature", "geometry": {"type": "LineString", "coordinates": [[-84.4476535, 33.7937143], [-84.4476575, 33.7937339], [-84.4476716, 33.7937451], [-84.4476976, 33.7937483], [-84.4482319, 33.794008], [-84.4482936, 33.794038]]}, "properties": {"surface": "", "highway": "footway"}}, {"type": "Feature", "geometry": {"type": "LineString", "coordinates": [[-84.4481976, 33.7930492], [-84.4481843, 33.7930683], [-84.4481489, 33.7930526], [-84.4481276, 33.7930526], [-84.4481024, 33.7930572], [-84.4480772, 33.7930781], [-84.4476559, 33.7936953], [-84.4476535, 33.7937143]]}, "properties": {"surface": "", "highway": "footway"}}, {"type": "Feature", "geometry": {"type": "LineString", "coordinates": [[-84.4497418, 33.7936244], [-84.4497252, 33.7936166]]}, "properties": {"surface": "", "highway": "footway"}}, {"type": "Feature", "geometry": {"type": "LineString", "coordinates": [[-84.4488612, 33.7933935], [-84.4488817, 33.7934033], [-84.4494749, 33.7936883]]}, "properties": {"surface": "", "highway": "footway"}}, {"type": "Feature", "geometry": {"type": "LineString", "coordinates": [[-84.449154, 33.7945831], [-84.4491347, 33.7946074]]}, "properties": {"surface": "", "highway": "footway"}}, {"type": "Feature", "geometry": {"type": "LineString", "coordinates": [[-84.4492249, 33.7944905], [-84.4492074, 33.7945141]]}, "properties": {"surface": "", "highway": "footway"}}, {"type": "Feature", "geometry": {"type": "LineString", "coordinates": [[-84.4398437, 33.7859816], [-84.4396391, 33.7861201], [-84.4391497, 33.7864412], [-84.4389758, 33.7865567]]}, "properties": {"surface": "", "highway": "footway"}}, {"type": "Feature", "geometry": {"type": "LineString", "coordinates": [[-84.4373323, 33.7826389], [-84.4374171, 33.7827778], [-84.437424, 33.7828744], [-84.4373284, 33.7830685], [-84.4371684, 33.7831752], [-84.436985, 33.7832079], [-84.4364762, 33.7832672], [-84.4356179, 33.7832226], [-84.4350266, 33.7832689]]}, "properties": {"surface": "", "highway": "unclassified"}}]}