{"type": "FeatureCollection", "features": [{"type": "Feature", "geometry": {"type": "Polygon", "coordinates": [[[-84.51276097927429, 33.789738814768725], [-84.51255655863935, 33.79043005222127], [-84.51227197184622, 33.79110123091311], [-84.51190995800313, 33.79174588650069], [-84.51147400216583, 33.79235780995182], [-84.51096830182583, 33.79293110736672], [-84.51039772652493, 33.79346025676821], [-84.50976777098299, 33.793940161312385], [-84.5090845021898, 33.79436619840653], [-84.50835450096994, 33.794734264259944], [-84.50758479858396, 33.79504081343719], [-84.50678280897688, 33.7952828930318], [-84.50595625732832, 33.795458171130235], [-84.50511310559403, 33.795564959290736], [-84.50464879020933, 33.7955852796682], [-84.50470773661308, 33.795721413671515], [-84.50491766559666, 33.796411502071784], [-84.50504556897961, 33.79711544647794], [-84.50509021301059, 33.79782646778529], [-84.50505116568642, 33.798537718571716], [-84.50493162252307, 33.79922610153148], [-84.50501296879561, 33.79949349437726], [-84.50514087776487, 33.80019743829996], [-84.50518552440872, 33.80090845920296], [-84.50514647669857, 33.80161970966799], [-84.50502410862241, 33.80232433989903], [-84.50481959666233, 33.80301556369196], [-84.50453490854093, 33.8036867237983], [-84.50417278434172, 33.804331356052906], [-84.50373671018288, 33.80494325164769], [-84.50323088469538, 33.80551651695064], [-84.50310284590742, 33.80563522514249], [-84.50276789988605, 33.806231441757966], [-84.5023318061637, 33.80684333231784], [-84.5018259601872, 33.80741659180864], [-84.50125523290123, 33.80794569861778], [-84.50062512048996, 33.80842555631101], [-84.4999416914548, 33.808851542746446], [-84.49921152816475, 33.80921955462092], [-84.49844166344253, 33.809526047018636], [-84.49763951279809, 33.80976806757994], [-84.49681280296357, 33.809943284959864], [-84.4959694974198, 33.810050011301605], [-84.49511771963385, 33.810087218507626], [-84.49426567474983, 33.810054548150916], [-84.49342157048953, 33.8099523149307], [-84.49259353802844, 33.8097815036393], [-84.4917895536114, 33.8095437596691], [-84.4910173616663, 33.8092413731516], [-84.49028440015887, 33.80887725688206], [-84.48993489215047, 33.80866229222809], [-84.48970543800296, 33.808922255626506], [-84.4892670077717, 33.80932861068627], [-84.48925556478791, 33.809394425963674], [-84.48905090947476, 33.81008562367417], [-84.48876607497998, 33.81075674748802], [-84.48840380279702, 33.811401333588854], [-84.48796758046977, 33.812013173612314], [-84.48746160805703, 33.812586374460935], [-84.48689075772208, 33.81311541508652], [-84.48626052683532, 33.81359519969199], [-84.48557698504041, 33.81402110683918], [-84.48491614751747, 33.8143540529434], [-84.48474764983744, 33.81459036059415], [-84.48424164080785, 33.81516354820657], [-84.48367075353906, 33.81569257392178], [-84.48304048575736, 33.81617234208613], [-84.48235690746208, 33.81659823141977], [-84.48173634396689, 33.816910855195175], [-84.48137160911234, 33.816367877284996], [-84.48043169371904, 33.814794519591615], [-84.47941669663788, 33.813117072866774], [-84.47642307493851, 33.81327840364387], [-84.47473979105452, 33.8133799105801], [-84.47228142081826, 33.81365906463893], [-84.47163803708219, 33.81371186087723], [-84.47099173141451, 33.81372459107235], [-84.47054375917288, 33.813719501478374], [-84.46358369734915, 33.814218657558904], [-84.46342650160098, 33.81422872870236], [-84.4621863977314, 33.8142987350744], [-84.46153023808002, 33.81431503275316], [-84.46087447640173, 33.814289945228566], [-84.46007263412586, 33.8142338748094], [-84.46004946594142, 33.81410601487411], [-84.46000518478277, 33.81339497711991], [-84.46004385761935, 33.81269732546866], [-84.4600019462761, 33.81268492013222], [-84.45970749103778, 33.812569525505744], [-84.45961971815782, 33.81255887044307], [-84.45879172593695, 33.81238783208048], [-84.45798780885511, 33.81214986751117], [-84.45721571069019, 33.81184726899264], [-84.45648286850268, 33.81148295136307], [-84.45579634096156, 33.81106042394479], [-84.45516274032705, 33.810583756719055], [-84.45508763943059, 33.810514976839016], [-84.45495832551713, 33.81043538726486], [-84.45432473413143, 33.80995871563779], [-84.45375017185954, 33.80943249601192], [-84.45337613053084, 33.80901393811735], [-84.45316974249641, 33.80885865912664], [-84.45259519465884, 33.80833243395198], [-84.4524539963279, 33.80817442573182], [-84.45208474530492, 33.8078966060085], [-84.45151021054616, 33.80737037563034], [-84.45100023769739, 33.80679966704586], [-84.45055973749784, 33.80618997731081], [-84.45025616120654, 33.80565795601335], [-84.44972872891773, 33.80539569477635], [-84.44904228313618, 33.804973128927685], [-84.44840876481562, 33.804496426115115], [-84.44783427531053, 33.80397017809392], [-84.44732434708965, 33.8033994537699], [-84.44688389046225, 33.80278975035014], [-84.44651714631141, 33.80214694037059], [-84.44622764528876, 33.801477215111056], [-84.44618289063396, 33.80132975338767], [-84.44574326502891, 33.801199554330125], [-84.44497130803295, 33.800896877909814], [-84.44423861089051, 33.800532486149216], [-84.44377239315678, 33.80024544159631], [-84.44336022568956, 33.80008382594632], [-84.4426275422589, 33.799719424500026], [-84.44194117661326, 33.799296818343954], [-84.44133214171167, 33.79883844410748], [-84.44102767524126, 33.79877549284069], [-84.44022393405126, 33.79853741108491], [-84.43977135509077, 33.79835992999306], [-84.43935022783151, 33.79895005326783], [-84.43884400599187, 33.79952305719989], [-84.43827294092226, 33.8000518750598], [-84.43794782216654, 33.80029918680924], [-84.4314443978601, 33.79517898258451], [-84.43086918124145, 33.794918989573645], [-84.43021894341078, 33.79466015304069], [-84.42935113762579, 33.79435435042001], [-84.42861480528356, 33.79406012411618], [-84.42791479516741, 33.79370950510198], [-84.42725728532078, 33.79330558804059], [-84.4266480784334, 33.79285193797488], [-84.42609255061657, 33.79235255884294], [-84.42559560395446, 33.79181185811955], [-84.42516162325049, 33.79123460789647], [-84.42479443735031, 33.790625902746015], [-84.42449728538189, 33.789991114740594], [-84.42427278820999, 33.78933584602606], [-84.42412292535535, 33.78866587936786], [-84.4237031732213, 33.786135849307705], [-84.42362697906384, 33.7854097657161], [-84.4236384159488, 33.7846809625839], [-84.42373736623571, 33.78395679507207], [-84.42392282914155, 33.783244571376336], [-84.42419293092794, 33.78255147897974], [-84.42454494389257, 33.78188451213054], [-84.42497531396991, 33.78125040127674], [-84.42547969666, 33.78065554516838], [-84.42605300091984, 33.78010594631183], [-84.42668944057297, 33.779607150426266], [-84.427382592717, 33.77916419051193], [-84.42803088304437, 33.77883025470522], [-84.4280895081153, 33.77845242946046], [-84.42828427473029, 33.77775164472485], [-84.42856118905071, 33.777070411729575], [-84.42891752676111, 33.77641542781789], [-84.42934978294426, 33.775793132124434], [-84.42985370659663, 33.77520964229148], [-84.43042434246613, 33.774670694350064], [-84.43105607979882, 33.77418158635599], [-84.43174270751449, 33.773747126333596], [-84.43247747526789, 33.77337158503765], [-84.43325315979591, 33.77305865399667], [-84.43406213589881, 33.77281140924863], [-84.43456939414258, 33.77270250130278], [-84.4351656538091, 33.772341974211976], [-84.43590079529359, 33.77198338029917], [-84.436674429082, 33.77168659420591], [-84.43747912719354, 33.771454465360925], [-84.4383071636125, 33.77128922239876], [-84.43915058842055, 33.771192451778425], [-84.43917357914151, 33.771191712198494], [-84.43945227535109, 33.771119868106915], [-84.440296738, 33.77097677770662], [-84.44115401817481, 33.77090424781697], [-84.44201568450757, 33.77090299176095], [-84.4425156424809, 33.77092299031099], [-84.44334150650367, 33.770989143125696], [-84.44415605070166, 33.77112078028773], [-84.4449518481691, 33.771316701544265], [-84.44572164280602, 33.77157512050248], [-84.44618918706693, 33.77175417753803], [-84.44652673853946, 33.77188323955417], [-84.44727909709167, 33.77220885532341], [-84.44798989777826, 33.77259413011864], [-84.4486523789932, 33.77303539925601], [-84.44926023845986, 33.773528465383905], [-84.44980769317227, 33.77406863838502], [-84.450289534411, 33.77465077996574], [-84.45035071448005, 33.774742715431316], [-84.45038671184358, 33.774709551970865], [-84.45101847830891, 33.774231430037396], [-84.4517033137976, 33.773807319831626], [-84.45243462350638, 33.773441304981006], [-84.45320536543161, 33.77313690968051], [-84.45400811815108, 33.77289706478152], [-84.45483515224689, 33.77272407959135], [-84.45567850468356, 33.77261961965427], [-84.45653005542715, 33.77258469072704], [-84.45778994920909, 33.7725846912885], [-84.45814442082595, 33.77259073079635], [-84.45887845227696, 33.77261575538594], [-84.46193769560341, 33.772634075465], [-84.46224000615165, 33.77262469333807], [-84.46232999856461, 33.77262469337887], [-84.4625099947732, 33.772624693460536], [-84.46266528718849, 33.77262585249272], [-84.46333411794964, 33.772635835359914], [-84.46401294786234, 33.77264581847043], [-84.46417788707927, 33.77265252291387], [-84.46491695857583, 33.77264520489229], [-84.46537848725866, 33.77265087357372], [-84.46619114758602, 33.77267889693483], [-84.46623293182263, 33.77267987668081], [-84.46644542297093, 33.77237209575315], [-84.46694185329221, 33.77179287427099], [-84.46750389495348, 33.77125709511934], [-84.4681261303252, 33.77076992166292], [-84.46880256199502, 33.77033604876358], [-84.46952667057012, 33.76995965756064], [-84.47029147749578, 33.769644375201906], [-84.47108961228459, 33.76939323991239], [-84.47191338351047, 33.76920867173597], [-84.47275485288436, 33.76909244923129], [-84.4736059117004, 33.76904569234565], [-84.47445835891803, 33.76906885163099], [-84.47530398013048, 33.76916170390603], [-84.47613462666146, 33.769323354405635], [-84.47694229403079, 33.769552245397286], [-84.4777191990354, 33.76984617118137], [-84.47818202927715, 33.77006931645048], [-84.47818339446837, 33.77006731684307], [-84.4784153704248, 33.7701777794872], [-84.4796421833558, 33.77069614090684], [-84.47972144362747, 33.77073005710633], [-84.48000408421959, 33.7708525325394], [-84.4805466698453, 33.77108506511937], [-84.48063820865325, 33.77112487040036], [-84.48097819020195, 33.77127485948003], [-84.48112244349866, 33.771339960493926], [-84.48138243003096, 33.77145995183986], [-84.48208616296586, 33.771822273522915], [-84.48229615506003, 33.771942265335326], [-84.48229231342394, 33.77194695427609], [-84.48263258304509, 33.77213693151778], [-84.48292257406368, 33.77231691955953], [-84.48329528436125, 33.77256888863106], [-84.48332193423077, 33.772593293116486], [-84.48334441211254, 33.7726021010244], [-84.48348128962441, 33.77269463564769], [-84.4838212845299, 33.772944620078576], [-84.48391877252554, 33.77301739345704], [-84.48461787534116, 33.77354721537357], [-84.48488724272953, 33.7737264296663], [-84.48502724021658, 33.773826423363026], [-84.48508587973251, 33.77386868616606], [-84.48529810063671, 33.77402302173008], [-84.48567974196139, 33.774281022468735], [-84.48623913506651, 33.77461398482236], [-84.48682307645892, 33.77472466400094], [-84.48718165317811, 33.77479935741742], [-84.48784160326149, 33.77494934567454], [-84.48868104512685, 33.77517898607847], [-84.4889610262417, 33.775268979205414], [-84.48896059735678, 33.775269909743365], [-84.48916305437368, 33.775329087366494], [-84.48988707805945, 33.775605160602375], [-84.49009706634341, 33.77569515401367], [-84.49095532067689, 33.7761165074754], [-84.49175022531234, 33.77661708439992], [-84.49199022079983, 33.77678707364736], [-84.49204352481424, 33.77682513881259], [-84.49229352052423, 33.77700512750308], [-84.4931651225757, 33.77772845323903], [-84.49339512634931, 33.77794844118662], [-84.49351897665444, 33.778069555456575], [-84.49361897890874, 33.77816955011378], [-84.49385928663753, 33.77842096343941], [-84.49427930170337, 33.77888094015964], [-84.49436272315914, 33.7789738300767], [-84.4947531918889, 33.77941594060899], [-84.49491970217055, 33.7794647827954], [-84.49587112694445, 33.779798077025006], [-84.4967685387181, 33.78022319385185], [-84.49700508109342, 33.780351317431986], [-84.49737161588789, 33.780549438876655], [-84.4977201592687, 33.780748025103165], [-84.49810396416687, 33.780978300409664], [-84.49868689602543, 33.781324669208765], [-84.49875445280443, 33.78136266872054], [-84.49954937106672, 33.78186758524504], [-84.5002696555086, 33.78244533712713], [-84.50076965970017, 33.7828953116485], [-84.50096969254872, 33.78307532950985], [-84.50172016507459, 33.783851533518664], [-84.50301022888335, 33.78539145972227], [-84.5033526449958, 33.78583350550783], [-84.50357300147424, 33.78614196769745], [-84.50402292860416, 33.78675311905311], [-84.50409727121267, 33.78684931668629], [-84.50433681804635, 33.78710763031188], [-84.5050459616225, 33.78714348370036], [-84.50525662586277, 33.78715050588187], [-84.50622368714416, 33.787228121982835], [-84.50717433002033, 33.78739538636783], [-84.5078842761834, 33.787555373851184], [-84.50884189021326, 33.78782187188147], [-84.50938185440292, 33.788001858197795], [-84.51030633555911, 33.78836395143715], [-84.5110562959025, 33.78870392682851], [-84.51118132545515, 33.78876172162642], [-84.51205128136776, 33.789171692199844], [-84.51278017147975, 33.78955618577215], [-84.51279140380385, 33.7895635053461], [-84.51276097927429, 33.789738814768725]], [[-84.44707602247853, 33.78393160486592], [-84.44630421626563, 33.78362893517319], [-84.44557166115169, 33.78326454959096], [-84.44488541303882, 33.782841958095446], [-84.44425208149445, 33.78236523128432], [-84.44383760029086, 33.78198542509547], [-84.44345838842891, 33.78175189568246], [-84.44282507280533, 33.781275161382844], [-84.44268646545142, 33.78114814510746], [-84.44221927638876, 33.78105153387658], [-84.4414156979017, 33.780813458388266], [-84.44064393939381, 33.78051075289943], [-84.44055310405142, 33.78046556290725], [-84.44001260744396, 33.78030542183562], [-84.43924085837864, 33.78000270749971], [-84.43850836385911, 33.77963827946907], [-84.43794774445924, 33.779292986238076], [-84.43768178004541, 33.779188657249584], [-84.43728796635742, 33.77899272076773], [-84.43745301455016, 33.77922130354118], [-84.43781959219395, 33.77986414367566], [-84.43810895395332, 33.780533891698404], [-84.43815514416973, 33.7806861718006], [-84.43850837755069, 33.780861911302495], [-84.43919457873525, 33.78128453863263], [-84.43948191764112, 33.78150085206577], [-84.44001795555695, 33.78165967242236], [-84.4407897222245, 33.78196238172936], [-84.44152224616461, 33.78232679593401], [-84.44220847376677, 33.78274940627196], [-84.4428417969069, 33.78322614358483], [-84.44296074017193, 33.783335137187905], [-84.44312211663636, 33.78336850691808], [-84.44392572367866, 33.78360657105169], [-84.44469752143114, 33.783909255665684], [-84.44543007838982, 33.784273646390204], [-84.44611634062659, 33.78469623468699], [-84.44613263351755, 33.784708498133824], [-84.44625758442238, 33.78474551055082], [-84.44702940051872, 33.7850481804302], [-84.44776197698562, 33.78541255714398], [-84.44844825970735, 33.78583513228878], [-84.44857646830908, 33.78593162737712], [-84.44902224553337, 33.78620610713795], [-84.44937359294873, 33.78647054073923], [-84.44968896450109, 33.786535733776894], [-84.44965572776398, 33.78650528250581], [-84.44914589190833, 33.78593456362469], [-84.44899462320818, 33.78572513529931], [-84.44853492332736, 33.7852105282288], [-84.44809455223728, 33.78460082690019], [-84.4478760982973, 33.78421786176152], [-84.44771829724573, 33.784155980904856], [-84.4475486583901, 33.78407160343487], [-84.44707602247853, 33.78393160486592]]]}, "properties": {"kind": "walkshed", "buffer_mi": 0.5}}, {"type": "Feature", "geometry": {"type": "Point", "coordinates": [-84.4964, 33.79785]}, "properties": {"kind": "stop", "name": "ATLANTA INDUSTRIAL PKWY @ 3600", "mode": "bus"}}, {"type": "Feature", "geometry": {"type": "Point", "coordinates": [-84.49614, 33.797633]}, "properties": {"kind": "stop", "name": "ATLANTA INDUSTRIAL PKWY@3555", "mode": "bus"}}, {"type": "Feature", "geometry": {"type": "Point", "coordinates": [-84.454537, 33.799352]}, "properties": {"kind": "stop", "name": "PERRY BLVD NW @ MCCALLIE BLVD NW", "mode": "bus"}}, {"type": "Feature", "geometry": {"type": "Point", "coordinates": [-84.458213, 33.802752]}, "properties": {"kind": "stop", "name": "PERRY BLVD NW @ MARY GEORGE AVE NW", "mode": "bus"}}, {"type": "Feature", "geometry": {"type": "Point", "coordinates": [-84.459298, 33.803714]}, "properties": {"kind": "stop", "name": "PERRY BLVD NW @ 2210", "mode": "bus"}}, {"type": "Feature", "geometry": {"type": "Point", "coordinates": [-84.460453, 33.804814]}, "properties": {"kind": "stop", "name": "PERRY BLVD NW @ 2250", "mode": "bus"}}, {"type": "Feature", "geometry": {"type": "Point", "coordinates": [-84.463305, 33.805974]}, "properties": {"kind": "stop", "name": "PERRY BLVD NW @ 2245", "mode": "bus"}}, {"type": "Feature", "geometry": {"type": "Point", "coordinates": [-84.47065, 33.803912]}, "properties": {"kind": "stop", "name": "BROWNTOWN RD NW @ HOLLYWOOD RD NW", "mode": "bus"}}, {"type": "Feature", "geometry": {"type": "Point", "coordinates": [-84.47277, 33.80387]}, "properties": {"kind": "stop", "name": "BROWNTOWN RD NW @ 2571", "mode": "bus"}}, {"type": "Feature", "geometry": {"type": "Point", "coordinates": [-84.476243, 33.801957]}, "properties": {"kind": "stop", "name": "BROWNTOWN RD NW@AUDREY PL", "mode": "bus"}}, {"type": "Feature", "geometry": {"type": "Point", "coordinates": [-84.477863, 33.80165]}, "properties": {"kind": "stop", "name": "BROWNTOWN RD NW@2741", "mode": "bus"}}, {"type": "Feature", "geometry": {"type": "Point", "coordinates": [-84.479364, 33.801514]}, "properties": {"kind": "stop", "name": "BROWNTOWN RD NW@2783", "mode": "bus"}}, {"type": "Feature", "geometry": {"type": "Point", "coordinates": [-84.454983, 33.799485]}, "properties": {"kind": "stop", "name": "PERRY BLVD NW @ MCCALLIE BLVD NW", "mode": "bus"}}, {"type": "Feature", "geometry": {"type": "Point", "coordinates": [-84.454863, 33.799342]}, "properties": {"kind": "stop", "name": "MCCALLIE BLVD NW@PERRY BLVD NW", "mode": "bus"}}, {"type": "Feature", "geometry": {"type": "Point", "coordinates": [-84.457377, 33.800038]}, "properties": {"kind": "stop", "name": "MCCALLIE BLVD NW @ ABNER PL NW", "mode": "bus"}}, {"type": "Feature", "geometry": {"type": "Point", "coordinates": [-84.457551, 33.799867]}, "properties": {"kind": "stop", "name": "MCCALLIE BLVD NW@ABNER PL NW", "mode": "bus"}}, {"type": "Feature", "geometry": {"type": "Point", "coordinates": [-84.458886, 33.798461]}, "properties": {"kind": "stop", "name": "AJAX DR NW@MCCALLIE BLVD NW", "mode": "bus"}}, {"type": "Feature", "geometry": {"type": "Point", "coordinates": [-84.459878, 33.799301]}, "properties": {"kind": "stop", "name": "AJAX DR@2208", "mode": "bus"}}, {"type": "Feature", "geometry": {"type": "Point", "coordinates": [-84.461989, 33.799701]}, "properties": {"kind": "stop", "name": "AJAX DR NW @ ADDISON PL", "mode": "bus"}}, {"type": "Feature", "geometry": {"type": "Point", "coordinates": [-84.462294, 33.800094]}, "properties": {"kind": "stop", "name": "AJAX DR NW @ ABNER TER NW", "mode": "bus"}}, {"type": "Feature", "geometry": {"type": "Point", "coordinates": [-84.462002, 33.800945]}, "properties": {"kind": "stop", "name": "ABNER TER NW @ MARY GEORGE AVE NW", "mode": "bus"}}, {"type": "Feature", "geometry": {"type": "Point", "coordinates": [-84.459186, 33.801826]}, "properties": {"kind": "stop", "name": "MARY GEORGE AVE NW @ ABNER PL NW", "mode": "bus"}}, {"type": "Feature", "geometry": {"type": "Point", "coordinates": [-84.458397, 33.80249]}, "properties": {"kind": "stop", "name": "PERRY BLVD NW @ MARY GEORGE AVE NW", "mode": "bus"}}, {"type": "Feature", "geometry": {"type": "Point", "coordinates": [-84.459396, 33.803696]}, "properties": {"kind": "stop", "name": "PERRY BLVD NW @ 2210", "mode": "bus"}}, {"type": "Feature", "geometry": {"type": "Point", "coordinates": [-84.460485, 33.80476]}, "properties": {"kind": "stop", "name": "PERRY BLVD NW @ 2250", "mode": "bus"}}, {"type": "Feature", "geometry": {"type": "Point", "coordinates": [-84.461291, 33.805439]}, "properties": {"kind": "stop", "name": "PERRY BLVD NW @ 2221", "mode": "bus"}}, {"type": "Feature", "geometry": {"type": "Point", "coordinates": [-84.463229, 33.805911]}, "properties": {"kind": "stop", "name": "PERRY BLVD NW @ 2245", "mode": "bus"}}, {"type": "Feature", "geometry": {"type": "Point", "coordinates": [-84.470362, 33.804259]}, "properties": {"kind": "stop", "name": "HOLLYWOOD RD NW@BROWNTOWN RD NW", "mode": "bus"}}, {"type": "Feature", "geometry": {"type": "Point", "coordinates": [-84.472084, 33.809219]}, "properties": {"kind": "stop", "name": "HOLLYWOOD RD NW@FELKER WARD ST NW", "mode": "bus"}}, {"type": "Feature", "geometry": {"type": "Point", "coordinates": [-84.471542, 33.810322]}, "properties": {"kind": "stop", "name": "HOLLYWOOD RD NW @ MAIN ST NW", "mode": "bus"}}, {"type": "Feature", "geometry": {"type": "Point", "coordinates": [-84.470581, 33.811722]}, "properties": {"kind": "stop", "name": "HOLLYWOOD RD NW@SPINK ST NW", "mode": "bus"}}, {"type": "Feature", "geometry": {"type": "Point", "coordinates": [-84.469994, 33.812359]}, "properties": {"kind": "stop", "name": "HOLLYWOOD RD NW@2081", "mode": "bus"}}, {"type": "Feature", "geometry": {"type": "Point", "coordinates": [-84.468697, 33.813374]}, "properties": {"kind": "stop", "name": "HOLLYWOOD RD NW@BOLTON RD", "mode": "bus"}}, {"type": "Feature", "geometry": {"type": "Point", "coordinates": [-84.469953, 33.799111]}, "properties": {"kind": "stop", "name": "HOLLYWOOD RD NW@ARNO DR NW", "mode": "bus"}}, {"type": "Feature", "geometry": {"type": "Point", "coordinates": [-84.47023, 33.801231]}, "properties": {"kind": "stop", "name": "HOLLYWOOD RD NW@1730", "mode": "bus"}}, {"type": "Feature", "geometry": {"type": "Point", "coordinates": [-84.472565, 33.78569]}, "properties": {"kind": "stop", "name": "HIGHTOWER RD NW @ SAINT JAMES AVE NW", "mode": "bus"}}, {"type": "Feature", "geometry": {"type": "Point", "coordinates": [-84.481819, 33.800739]}, "properties": {"kind": "stop", "name": "MALDO DR NW@CARDO DR NW", "mode": "bus"}}, {"type": "Feature", "geometry": {"type": "Point", "coordinates": [-84.482493, 33.799881]}, "properties": {"kind": "stop", "name": "MALDO DR NW@ARGYLE DR NW", "mode": "bus"}}, {"type": "Feature", "geometry": {"type": "Point", "coordinates": [-84.480055, 33.799266]}, "properties": {"kind": "stop", "name": "ARGYLE DR NW@CARDO DR NW", "mode": "bus"}}, {"type": "Feature", "geometry": {"type": "Point", "coordinates": [-84.478381, 33.799492]}, "properties": {"kind": "stop", "name": "ARGYLE DR NW @ MARCO DR NW", "mode": "bus"}}, {"type": "Feature", "geometry": {"type": "Point", "coordinates": [-84.476717, 33.79953]}, "properties": {"kind": "stop", "name": "BRIDGEPORT DR NW@ARGYLE DR", "mode": "bus"}}, {"type": "Feature", "geometry": {"type": "Point", "coordinates": [-84.470324, 33.801856]}, "properties": {"kind": "stop", "name": "HOLLYWOOD RD NW@1730", "mode": "bus"}}, {"type": "Feature", "geometry": {"type": "Point", "coordinates": [-84.470146, 33.799405]}, "properties": {"kind": "stop", "name": "HOLLYWOOD RD NW @ ARNO DR NW", "mode": "bus"}}, {"type": "Feature", "geometry": {"type": "Point", "coordinates": [-84.470636, 33.805499]}, "properties": {"kind": "stop", "name": "HOLLYWOOD RD NW@PERRY BLVD NW", "mode": "bus"}}, {"type": "Feature", "geometry": {"type": "Point", "coordinates": [-84.488571, 33.784344]}, "properties": {"kind": "stop", "name": "DONALD L HOLLOWELL PKY @ WATTS RD NW", "mode": "bus"}}, {"type": "Feature", "geometry": {"type": "Point", "coordinates": [-84.491199, 33.786094]}, "properties": {"kind": "stop", "name": "DONALD L HOLLOWELL PKY @ HARWELL RD", "mode": "bus"}}, {"type": "Feature", "geometry": {"type": "Point", "coordinates": [-84.491481, 33.786017]}, "properties": {"kind": "stop", "name": "DONALD L HOLLOWELL PKY @ HARWELL RD NW", "mode": "bus"}}, {"type": "Feature", "geometry": {"type": "Point", "coordinates": [-84.494542, 33.787924]}, "properties": {"kind": "stop", "name": "DONALD L HOLLOWELL PKWY @ BOLTON RD NW", "mode": "bus"}}, {"type": "Feature", "geometry": {"type": "Point", "coordinates": [-84.469148, 33.813315]}, "properties": {"kind": "stop", "name": "HOLLYWOOD RD NW@BOLTON RD NW", "mode": "bus"}}, {"type": "Feature", "geometry": {"type": "Point", "coordinates": [-84.470604, 33.812328]}, "properties": {"kind": "stop", "name": "HOLLYWOOD RD NW@SPINK ST NW", "mode": "bus"}}, {"type": "Feature", "geometry": {"type": "Point", "coordinates": [-84.471332, 33.810913]}, "properties": {"kind": "stop", "name": "HOLLYWOOD RD NW@MAIN ST NW", "mode": "bus"}}, {"type": "Feature", "geometry": {"type": "Point", "coordinates": [-84.470701, 33.805356]}, "properties": {"kind": "stop", "name": "HOLLYWOOD RD NW@PERRY BLVD NW", "mode": "bus"}}, {"type": "Feature", "geometry": {"type": "Point", "coordinates": [-84.475876, 33.801048]}, "properties": {"kind": "stop", "name": "JAMES JACKSON PKY NW@BROWNTOWN RD N", "mode": "bus"}}, {"type": "Feature", "geometry": {"type": "Point", "coordinates": [-84.475552, 33.799317]}, "properties": {"kind": "stop", "name": "JAMES JACKSON PKWY @ JAMES JACKSON CT", "mode": "bus"}}, {"type": "Feature", "geometry": {"type": "Point", "coordinates": [-84.470459, 33.787788]}, "properties": {"kind": "stop", "name": "HIGHTOWER RD NW@ETHERIDGE DR NW", "mode": "bus"}}, {"type": "Feature", "geometry": {"type": "Point", "coordinates": [-84.47013, 33.78876]}, "properties": {"kind": "stop", "name": "HIGHTOWER RD NW@WEST AVE NW", "mode": "bus"}}, {"type": "Feature", "geometry": {"type": "Point", "coordinates": [-84.49509, 33.802832]}, "properties": {"kind": "stop", "name": "ATLANTA INDUSTRIAL PKWY @ 3755", "mode": "bus"}}, {"type": "Feature", "geometry": {"type": "Point", "coordinates": [-84.495357, 33.792711]}, "properties": {"kind": "stop", "name": "ATLANTA INDUSTRIAL PKWY NW @ 3201", "mode": "bus"}}, {"type": "Feature", "geometry": {"type": "Point", "coordinates": [-84.461256, 33.785265]}, "properties": {"kind": "stop", "name": "HOLLYWOOD RD NW @ BROOKS AVE NW", "mode": "bus"}}, {"type": "Feature", "geometry": {"type": "Point", "coordinates": [-84.464415, 33.787991]}, "properties": {"kind": "stop", "name": "HOLLYWOOD RD NW@ALVIN DR NW", "mode": "bus"}}, {"type": "Feature", "geometry": {"type": "Point", "coordinates": [-84.465721, 33.788625]}, "properties": {"kind": "stop", "name": "HOLLYWOOD RD NW@SPRING ST NW", "mode": "bus"}}, {"type": "Feature", "geometry": {"type": "Point", "coordinates": [-84.466311, 33.789886]}, "properties": {"kind": "stop", "name": "HOLLYWOOD RD NW@SAINT PAUL AVE NW", "mode": "bus"}}, {"type": "Feature", "geometry": {"type": "Point", "coordinates": [-84.470495, 33.787974]}, "properties": {"kind": "stop", "name": "HIGHTOWER RD NW@ETHERIDGE DR NW", "mode": "bus"}}, {"type": "Feature", "geometry": {"type": "Point", "coordinates": [-84.472748, 33.785938]}, "properties": {"kind": "stop", "name": "HIGHTOWER RD @ SAINT JAMES AVE NW", "mode": "bus"}}, {"type": "Feature", "geometry": {"type": "Point", "coordinates": [-84.477257, 33.788421]}, "properties": {"kind": "stop", "name": "NORTHWEST DR NW@1190", "mode": "bus"}}, {"type": "Feature", "geometry": {"type": "Point", "coordinates": [-84.478775, 33.789827]}, "properties": {"kind": "stop", "name": "NORTHWEST DR NW@1285", "mode": "bus"}}, {"type": "Feature", "geometry": {"type": "Point", "coordinates": [-84.48053, 33.791595]}, "properties": {"kind": "stop", "name": "NORTHWEST DR NW@1341", "mode": "bus"}}, {"type": "Feature", "geometry": {"type": "Point", "coordinates": [-84.481239, 33.792874]}, "properties": {"kind": "stop", "name": "NORTHWEST DR NW@1375", "mode": "bus"}}, {"type": "Feature", "geometry": {"type": "Point", "coordinates": [-84.48272, 33.793669]}, "properties": {"kind": "stop", "name": "NORTHWEST DR NW@MANGO CIR", "mode": "bus"}}, {"type": "Feature", "geometry": {"type": "Point", "coordinates": [-84.486783, 33.801808]}, "properties": {"kind": "stop", "name": "BOLTON RD NW@PARROTT AVE", "mode": "bus"}}, {"type": "Feature", "geometry": {"type": "Point", "coordinates": [-84.484501, 33.802832]}, "properties": {"kind": "stop", "name": "BOLTON RD NW@SAM ST", "mode": "bus"}}, {"type": "Feature", "geometry": {"type": "Point", "coordinates": [-84.472188, 33.809346]}, "properties": {"kind": "stop", "name": "HOLLYWOOD RD NW@SMITH ST NW", "mode": "bus"}}, {"type": "Feature", "geometry": {"type": "Point", "coordinates": [-84.477596, 33.79876]}, "properties": {"kind": "stop", "name": "BRIDGEPORT DR NW@MARCO DR NW", "mode": "bus"}}, {"type": "Feature", "geometry": {"type": "Point", "coordinates": [-84.470552, 33.803436]}, "properties": {"kind": "stop", "name": "HOLLYWOOD RD NW @ BROWNTOWN RD NW", "mode": "bus"}}, {"type": "Feature", "geometry": {"type": "Point", "coordinates": [-84.45862, 33.782869]}, "properties": {"kind": "stop", "name": "HOLLYWOOD RD@MILTON AVE", "mode": "bus"}}, {"type": "Feature", "geometry": {"type": "Point", "coordinates": [-84.484242, 33.794741]}, "properties": {"kind": "stop", "name": "NORTHWEST DR@1415", "mode": "bus"}}, {"type": "Feature", "geometry": {"type": "Point", "coordinates": [-84.486118, 33.796426]}, "properties": {"kind": "stop", "name": "NORTHWEST DR@1514", "mode": "bus"}}, {"type": "Feature", "geometry": {"type": "Point", "coordinates": [-84.480726, 33.808001]}, "properties": {"kind": "stop", "name": "BOLTON RD@PEYTON RD", "mode": "bus"}}, {"type": "Feature", "geometry": {"type": "Point", "coordinates": [-84.464459, 33.787937]}, "properties": {"kind": "stop", "name": "HOLLYWOOD RD@ALVIN DR", "mode": "bus"}}, {"type": "Feature", "geometry": {"type": "Point", "coordinates": [-84.462218, 33.800256]}, "properties": {"kind": "stop", "name": "AJAX DR NW @ ABNER TER NW", "mode": "bus"}}, {"type": "Feature", "geometry": {"type": "Point", "coordinates": [-84.485696, 33.802159]}, "properties": {"kind": "stop", "name": "BOLTON RD@REY ST", "mode": "bus"}}, {"type": "Feature", "geometry": {"type": "Point", "coordinates": [-84.497262, 33.78414]}, "properties": {"kind": "stop", "name": "BOLTON RD@1051", "mode": "bus"}}, {"type": "Feature", "geometry": {"type": "Point", "coordinates": [-84.494642, 33.788087]}, "properties": {"kind": "stop", "name": "DONALD L HOLLOWELL PKWY @ BOLTON RD", "mode": "bus"}}, {"type": "Feature", "geometry": {"type": "Point", "coordinates": [-84.496365, 33.790946]}, "properties": {"kind": "stop", "name": "ATLANTA INDUSTRIAL PKWY @ DONALD L HOLLOWELL PKWY", "mode": "bus"}}, {"type": "Feature", "geometry": {"type": "Point", "coordinates": [-84.495921, 33.796792]}, "properties": {"kind": "stop", "name": "ATLANTA IND PKWY @ATLANTA IND DRNW", "mode": "bus"}}, {"type": "Feature", "geometry": {"type": "Point", "coordinates": [-84.496495, 33.800932]}, "properties": {"kind": "stop", "name": "ATLANTA INDUSTRIAL PKY @ 3710", "mode": "bus"}}, {"type": "Feature", "geometry": {"type": "Point", "coordinates": [-84.495963, 33.796147]}, "properties": {"kind": "stop", "name": "ATLANTA INDUSTRIAL PKWY NW @ ATLANTA INDUSTRIAL DR", "mode": "bus"}}, {"type": "Feature", "geometry": {"type": "Point", "coordinates": [-84.465885, 33.788651]}, "properties": {"kind": "stop", "name": "HOLLYWOOD RD@SPRING ST", "mode": "bus"}}, {"type": "Feature", "geometry": {"type": "Point", "coordinates": [-84.476718, 33.800166]}, "properties": {"kind": "stop", "name": "BRIDGEPORT DR@MARCO DR", "mode": "bus"}}, {"type": "Feature", "geometry": {"type": "Point", "coordinates": [-84.473479, 33.784623]}, "properties": {"kind": "stop", "name": "HIGHTOWER RD NW @ 7TH ST NW", "mode": "bus"}}, {"type": "Feature", "geometry": {"type": "Point", "coordinates": [-84.469332, 33.79272]}, "properties": {"kind": "stop", "name": "HIGHTOWER RD@HOLLYWOOD RD", "mode": "bus"}}, {"type": "Feature", "geometry": {"type": "Point", "coordinates": [-84.479996, 33.790817]}, "properties": {"kind": "stop", "name": "NORTHWEST DR@1304", "mode": "bus"}}, {"type": "Feature", "geometry": {"type": "Point", "coordinates": [-84.470268, 33.788914]}, "properties": {"kind": "stop", "name": "HIGHTOWER RD@WEST AVE", "mode": "bus"}}, {"type": "Feature", "geometry": {"type": "Point", "coordinates": [-84.476591, 33.789043]}, "properties": {"kind": "stop", "name": "JAMES JACKSON PKY @ NORTHWEST DR", "mode": "bus"}}, {"type": "Feature", "geometry": {"type": "Point", "coordinates": [-84.469621, 33.794225]}, "properties": {"kind": "stop", "name": "HOLLYWOOD RD@GUN CLUB RD", "mode": "bus"}}, {"type": "Feature", "geometry": {"type": "Point", "coordinates": [-84.469322, 33.794692]}, "properties": {"kind": "stop", "name": "HOLLYWOOD RD@GUN CLUB RD", "mode": "bus"}}, {"type": "Feature", "geometry": {"type": "Point", "coordinates": [-84.42887, 33.786346]}, "properties": {"kind": "stop", "name": "MARIETTA ST NW @ MARIETTA BLVD NW", "mode": "bus"}}, {"type": "Feature", "geometry": {"type": "Point", "coordinates": [-84.437008, 33.788638]}, "properties": {"kind": "stop", "name": "PERRY BLVD NW @ JOHNSON RD NW", "mode": "bus"}}, {"type": "Feature", "geometry": {"type": "Point", "coordinates": [-84.447436, 33.793676]}, "properties": {"kind": "stop", "name": "PERRY BLVD @ W HIGHLANDS BLVD NW", "mode": "bus"}}, {"type": "Feature", "geometry": {"type": "Point", "coordinates": [-84.428076, 33.786266]}, "properties": {"kind": "stop", "name": "MARIETTA ST NW@MARIETTA BLVD NW", "mode": "bus"}}, {"type": "Feature", "geometry": {"type": "Point", "coordinates": [-84.4337, 33.786905]}, "properties": {"kind": "stop", "name": "MARIETTA ST NW@ROCKDALE ST NW", "mode": "bus"}}, {"type": "Feature", "geometry": {"type": "Point", "coordinates": [-84.436714, 33.78837]}, "properties": {"kind": "stop", "name": "PERRY BLVD NW @ JOHNSON RD NW", "mode": "bus"}}, {"type": "Feature", "geometry": {"type": "Point", "coordinates": [-84.447294, 33.793506]}, "properties": {"kind": "stop", "name": "PERRY BLVD NW @ W HIGHLANDS BLVD NW", "mode": "bus"}}, {"type": "Feature", "geometry": {"type": "Point", "coordinates": [-84.426788, 33.785946]}, "properties": {"kind": "stop", "name": "W MARIETTA ST NW @ RICE ST NW", "mode": "bus"}}, {"type": "Feature", "geometry": {"type": "Point", "coordinates": [-84.424187, 33.785328]}, "properties": {"kind": "stop", "name": "W MARIETTA ST NW @ LONGLEY AVE NW", "mode": "bus"}}, {"type": "Feature", "geometry": {"type": "Point", "coordinates": [-84.426328, 33.788908]}, "properties": {"kind": "stop", "name": "HUFF RD NW@ELLSWORTH IND BLVD", "mode": "bus"}}, {"type": "Feature", "geometry": {"type": "Point", "coordinates": [-84.427208, 33.791051]}, "properties": {"kind": "stop", "name": "ELLSWORTH INDUSTRIAL BLVD @ 1320", "mode": "bus"}}, {"type": "Feature", "geometry": {"type": "Point", "coordinates": [-84.426788, 33.792651]}, "properties": {"kind": "stop", "name": "ELLSWORTH INDUSTRIAL BLVD @ ELAINE AVE NW", "mode": "bus"}}, {"type": "Feature", "geometry": {"type": "Point", "coordinates": [-84.425991, 33.788863]}, "properties": {"kind": "stop", "name": "HUFF RD NW @ ELLSWORTH INDUSTRIAL BLVD NW", "mode": "bus"}}, {"type": "Feature", "geometry": {"type": "Point", "coordinates": [-84.426963, 33.792049]}, "properties": {"kind": "stop", "name": "ELLSWORTH INDUSTRIAL BLVD @ ELAINE AVE NW", "mode": "bus"}}, {"type": "Feature", "geometry": {"type": "Point", "coordinates": [-84.423791, 33.785523]}, "properties": {"kind": "stop", "name": "W MARIETTA ST NW @ LONGLEY AVE NW", "mode": "bus"}}, {"type": "Feature", "geometry": {"type": "Point", "coordinates": [-84.440459, 33.790342]}, "properties": {"kind": "stop", "name": "PERRY BLVD@1600", "mode": "bus"}}, {"type": "Feature", "geometry": {"type": "Point", "coordinates": [-84.440622, 33.790317]}, "properties": {"kind": "stop", "name": "PERRY BLVD@1600", "mode": "bus"}}, {"type": "Feature", "geometry": {"type": "Point", "coordinates": [-84.427901, 33.78558]}, "properties": {"kind": "stop", "name": "MARIETTA BLVD NW @ W MARIETTA ST NW", "mode": "bus"}}, {"type": "Feature", "geometry": {"type": "Point", "coordinates": [-84.46642, 33.78994]}, "properties": {"kind": "stop", "name": "HOLLYWOOD RD@SAINT PAUL AVE", "mode": "bus"}}, {"type": "Feature", "geometry": {"type": "Point", "coordinates": [-84.494621, 33.779573]}, "properties": {"kind": "stop", "name": "KINGSTON RD @ HARWELL RD", "mode": "bus"}}, {"type": "Feature", "geometry": {"type": "Point", "coordinates": [-84.488214, 33.784335]}, "properties": {"kind": "stop", "name": "DONALD L HOLLOWELL PKY @ WATTS RD NW", "mode": "bus"}}, {"type": "Feature", "geometry": {"type": "Point", "coordinates": [-84.486809, 33.78277]}, "properties": {"kind": "stop", "name": "DONALD L HOLLOWELL PKY @ AZLEE PL NW", "mode": "bus"}}, {"type": "Feature", "geometry": {"type": "Point", "coordinates": [-84.486896, 33.782761]}, "properties": {"kind": "stop", "name": "DONALD L HOLLOWELL PKY @ AZLEE PL NW", "mode": "bus"}}, {"type": "Feature", "geometry": {"type": "Point", "coordinates": [-84.497502, 33.78342]}, "properties": {"kind": "stop", "name": "BOLTON RD NW@1020", "mode": "bus"}}, {"type": "Feature", "geometry": {"type": "Point", "coordinates": [-84.497841, 33.783386]}, "properties": {"kind": "stop", "name": "BOLTON RD NW@1020", "mode": "bus"}}, {"type": "Feature", "geometry": {"type": "Point", "coordinates": [-84.492355, 33.782709]}, "properties": {"kind": "stop", "name": "HARWELL RD NW @ SKIPPER DR NW", "mode": "bus"}}, {"type": "Feature", "geometry": {"type": "Point", "coordinates": [-84.494863, 33.780673]}, "properties": {"kind": "stop", "name": "HARWELL RD NW @ DOGWOOD DR NW", "mode": "bus"}}, {"type": "Feature", "geometry": {"type": "Point", "coordinates": [-84.491088, 33.77981]}, "properties": {"kind": "stop", "name": "KINGSTON RD NW @ SKIPPER DR NW", "mode": "bus"}}, {"type": "Feature", "geometry": {"type": "Point", "coordinates": [-84.475037, 33.778969]}, "properties": {"kind": "stop", "name": "HIGHTOWER RD NW @ WHITING ST NW", "mode": "bus"}}, {"type": "Feature", "geometry": {"type": "Point", "coordinates": [-84.473444, 33.771653]}, "properties": {"kind": "stop", "name": "HAMILTON E HOLMES DR NW @ OLDKNOW DR", "mode": "bus"}}, {"type": "Feature", "geometry": {"type": "Point", "coordinates": [-84.473467, 33.773282]}, "properties": {"kind": "stop", "name": "HAMILTON E HOLMES DR NW @ WASHINGTON ST", "mode": "bus"}}, {"type": "Feature", "geometry": {"type": "Point", "coordinates": [-84.450878, 33.776809]}, "properties": {"kind": "stop", "name": "DONALD L HOLLOWELL PKY @ CHARLOTTE PL NW", "mode": "bus"}}, {"type": "Feature", "geometry": {"type": "Point", "coordinates": [-84.452194, 33.776754]}, "properties": {"kind": "stop", "name": "DONALD L HOLLOWELL PKY @ EMILY PL NW", "mode": "bus"}}, {"type": "Feature", "geometry": {"type": "Point", "coordinates": [-84.452814, 33.776717]}, "properties": {"kind": "stop", "name": "DONALD L HOLLOWELL PKY @ EUGENIA PL NW", "mode": "bus"}}, {"type": "Feature", "geometry": {"type": "Point", "coordinates": [-84.457163, 33.776578]}, "properties": {"kind": "stop", "name": "DONALD L HOLLOWELL PKY @ WOOD ST NW", "mode": "bus"}}, {"type": "Feature", "geometry": {"type": "Point", "coordinates": [-84.45898, 33.776737]}, "properties": {"kind": "stop", "name": "DONALD L HOLLOWELL PKY @ COMMODORE DR NW", "mode": "bus"}}, {"type": "Feature", "geometry": {"type": "Point", "coordinates": [-84.461372, 33.777195]}, "properties": {"kind": "stop", "name": "DONALD L HOLLOWELL PKY @ GARY RD NW", "mode": "bus"}}, {"type": "Feature", "geometry": {"type": "Point", "coordinates": [-84.463178, 33.777269]}, "properties": {"kind": "stop", "name": "DONALD L HOLLOWELL PKY @ OAK ST NW", "mode": "bus"}}, {"type": "Feature", "geometry": {"type": "Point", "coordinates": [-84.465884, 33.776326]}, "properties": {"kind": "stop", "name": "DONALD L HOLLOWELL PKY @ HALL ST NW", "mode": "bus"}}, {"type": "Feature", "geometry": {"type": "Point", "coordinates": [-84.467339, 33.775902]}, "properties": {"kind": "stop", "name": "DONALD L HOLLOWELL PKY @ PEYTON AVE NW", "mode": "bus"}}, {"type": "Feature", "geometry": {"type": "Point", "coordinates": [-84.469167, 33.775517]}, "properties": {"kind": "stop", "name": "DONALD L HOLLOWELL PKY @ WOODS DR NW", "mode": "bus"}}, {"type": "Feature", "geometry": {"type": "Point", "coordinates": [-84.471575, 33.775413]}, "properties": {"kind": "stop", "name": "DONALD L HOLLOWELL PKY @ BELLVIEW AVE NW", "mode": "bus"}}, {"type": "Feature", "geometry": {"type": "Point", "coordinates": [-84.474323, 33.776651]}, "properties": {"kind": "stop", "name": "DONALD L HOLLOWELL PKY @ HAMILTON E HOLMES DR", "mode": "bus"}}, {"type": "Feature", "geometry": {"type": "Point", "coordinates": [-84.476772, 33.777646]}, "properties": {"kind": "stop", "name": "DONALD L HOLLOWELL PKWY @ OZBURN RD NW", "mode": "bus"}}, {"type": "Feature", "geometry": {"type": "Point", "coordinates": [-84.477638, 33.778152]}, "properties": {"kind": "stop", "name": "DONALD L HOLLOWELL PKY @ PEEK RD NW", "mode": "bus"}}, {"type": "Feature", "geometry": {"type": "Point", "coordinates": [-84.47956, 33.779522]}, "properties": {"kind": "stop", "name": "DONALD L HOLLOWELL PKY @ YATES DR NW", "mode": "bus"}}, {"type": "Feature", "geometry": {"type": "Point", "coordinates": [-84.473582, 33.775699]}, "properties": {"kind": "stop", "name": "HAMILTON E HOLMES DR NW @ DONALD L HOLLOWELL PKY", "mode": "bus"}}, {"type": "Feature", "geometry": {"type": "Point", "coordinates": [-84.47414, 33.777623]}, "properties": {"kind": "stop", "name": "JAMES JACKSON PKY @ HIGHTOWER RD", "mode": "bus"}}, {"type": "Feature", "geometry": {"type": "Point", "coordinates": [-84.47349, 33.784435]}, "properties": {"kind": "stop", "name": "HIGHTOWER RD NW @ NORTHWEST DR NW", "mode": "bus"}}, {"type": "Feature", "geometry": {"type": "Point", "coordinates": [-84.484499, 33.781677]}, "properties": {"kind": "stop", "name": "DONALD L HOLLOWELL PKY @ WOODMERE DR NW", "mode": "bus"}}, {"type": "Feature", "geometry": {"type": "Point", "coordinates": [-84.484904, 33.781851]}, "properties": {"kind": "stop", "name": "DONALD L HOLLOWELL PKY @ WOODMERE DR", "mode": "bus"}}, {"type": "Feature", "geometry": {"type": "Point", "coordinates": [-84.479836, 33.779232]}, "properties": {"kind": "stop", "name": "DONALD L HOLLOWELL PKY @ KINGS GRANT DR NW", "mode": "bus"}}, {"type": "Feature", "geometry": {"type": "Point", "coordinates": [-84.477124, 33.777672]}, "properties": {"kind": "stop", "name": "DONALD L HOLLOWELL PWKY @ PEEK RD NW", "mode": "bus"}}, {"type": "Feature", "geometry": {"type": "Point", "coordinates": [-84.474768, 33.776724]}, "properties": {"kind": "stop", "name": "DONALD L HOLLOWELL PKY @ HAMILTON E HOLMES DR", "mode": "bus"}}, {"type": "Feature", "geometry": {"type": "Point", "coordinates": [-84.473244, 33.775761]}, "properties": {"kind": "stop", "name": "DONALD L HOLLOWELL PKY @ REGINA DR NW", "mode": "bus"}}, {"type": "Feature", "geometry": {"type": "Point", "coordinates": [-84.47168, 33.775169]}, "properties": {"kind": "stop", "name": "DONALD L HOLLOWELL PKY @ COMMERCIAL AVE NW", "mode": "bus"}}, {"type": "Feature", "geometry": {"type": "Point", "coordinates": [-84.467369, 33.775669]}, "properties": {"kind": "stop", "name": "DONALD L HOLLOWELL PKY @ PEYTON AVE NW", "mode": "bus"}}, {"type": "Feature", "geometry": {"type": "Point", "coordinates": [-84.464508, 33.776585]}, "properties": {"kind": "stop", "name": "DONALD L HOLLOWELL PKY @ CENTER HILL AVE NW", "mode": "bus"}}, {"type": "Feature", "geometry": {"type": "Point", "coordinates": [-84.463348, 33.776997]}, "properties": {"kind": "stop", "name": "DONALD L HOLLOWELL PKY @ OAK ST NW", "mode": "bus"}}, {"type": "Feature", "geometry": {"type": "Point", "coordinates": [-84.460818, 33.776968]}, "properties": {"kind": "stop", "name": "DONALD L HOLLOWELL PKY @ GARY RD NW", "mode": "bus"}}, {"type": "Feature", "geometry": {"type": "Point", "coordinates": [-84.459034, 33.776675]}, "properties": {"kind": "stop", "name": "DONALD L HOLLOWELL PKY @ COMMODORE DR NW", "mode": "bus"}}, {"type": "Feature", "geometry": {"type": "Point", "coordinates": [-84.456978, 33.776507]}, "properties": {"kind": "stop", "name": "DONALD L HOLLOWELL PKY @ WOOD ST NW", "mode": "bus"}}, {"type": "Feature", "geometry": {"type": "Point", "coordinates": [-84.454239, 33.776436]}, "properties": {"kind": "stop", "name": "DONALD L HOLLOWELL PKY @ EUGENIA PL NW", "mode": "bus"}}, {"type": "Feature", "geometry": {"type": "Point", "coordinates": [-84.452226, 33.776682]}, "properties": {"kind": "stop", "name": "DONALD L HOLLOWELL PKY @ EMILY PL NW", "mode": "bus"}}, {"type": "Feature", "geometry": {"type": "Point", "coordinates": [-84.47374, 33.782764]}, "properties": {"kind": "stop", "name": "HIGHTOWER RD NW @ JAMES DR NW", "mode": "bus"}}, {"type": "Feature", "geometry": {"type": "Point", "coordinates": [-84.474233, 33.777497]}, "properties": {"kind": "stop", "name": "JAMES JACKSON PKWY @ HIGHTOWER RD", "mode": "bus"}}, {"type": "Feature", "geometry": {"type": "Point", "coordinates": [-84.473767, 33.775609]}, "properties": {"kind": "stop", "name": "HAMILTON E HOLMES DR NW @  DONALD L HOLLOWELL PKWY", "mode": "bus"}}, {"type": "Feature", "geometry": {"type": "Point", "coordinates": [-84.461322, 33.785229]}, "properties": {"kind": "stop", "name": "HOLLYWOOD RD NW @ BROOKS AVE NW", "mode": "bus"}}, {"type": "Feature", "geometry": {"type": "Point", "coordinates": [-84.458979, 33.783039]}, "properties": {"kind": "stop", "name": "HOLLYWOOD RD NW@GRAND AVE NW", "mode": "bus"}}, {"type": "Feature", "geometry": {"type": "Point", "coordinates": [-84.45825, 33.782565]}, "properties": {"kind": "stop", "name": "HOLLYWOOD RD NW@HOLLYWOOD DR NW", "mode": "bus"}}, {"type": "Feature", "geometry": {"type": "Point", "coordinates": [-84.456629, 33.781913]}, "properties": {"kind": "stop", "name": "HOLLYWOOD RD NW@MILDRED PL NW", "mode": "bus"}}, {"type": "Feature", "geometry": {"type": "Point", "coordinates": [-84.455811, 33.780957]}, "properties": {"kind": "stop", "name": "HOLLYWOOD RD NW@CATO ST NW", "mode": "bus"}}, {"type": "Feature", "geometry": {"type": "Point", "coordinates": [-84.455481, 33.780045]}, "properties": {"kind": "stop", "name": "HOLLYWOOD RD NW @ SUMLIN AVE NW", "mode": "bus"}}, {"type": "Feature", "geometry": {"type": "Point", "coordinates": [-84.453121, 33.778149]}, "properties": {"kind": "stop", "name": "HOLLYWOOD RD NW@EUGENIA PL NW", "mode": "bus"}}, {"type": "Feature", "geometry": {"type": "Point", "coordinates": [-84.451782, 33.777676]}, "properties": {"kind": "stop", "name": "HOLLYWOOD RD NW@843", "mode": "bus"}}, {"type": "Feature", "geometry": {"type": "Point", "coordinates": [-84.451793, 33.777748]}, "properties": {"kind": "stop", "name": "HOLLYWOOD RD NW@829", "mode": "bus"}}, {"type": "Feature", "geometry": {"type": "Point", "coordinates": [-84.452979, 33.778149]}, "properties": {"kind": "stop", "name": "HOLLYWOOD RD NW@EUGENIA PL NW", "mode": "bus"}}, {"type": "Feature", "geometry": {"type": "Point", "coordinates": [-84.453861, 33.778632]}, "properties": {"kind": "stop", "name": "HOLLYWOOD RD NW@LOUISE PL NW", "mode": "bus"}}, {"type": "Feature", "geometry": {"type": "Point", "coordinates": [-84.455231, 33.77969]}, "properties": {"kind": "stop", "name": "HOLLYWOOD RD NW@JOHNSON RD NW", "mode": "bus"}}, {"type": "Feature", "geometry": {"type": "Point", "coordinates": [-84.455746, 33.781163]}, "properties": {"kind": "stop", "name": "HOLLYWOOD DR NW@CATO ST NW", "mode": "bus"}}, {"type": "Feature", "geometry": {"type": "Point", "coordinates": [-84.456357, 33.781887]}, "properties": {"kind": "stop", "name": "HOLLYWOOD RD NW@GUN CLUB RD NW", "mode": "bus"}}, {"type": "Feature", "geometry": {"type": "Point", "coordinates": [-84.472887, 33.770177]}, "properties": {"kind": "stop", "name": "HAMILTON E HOLMES DR NW @ BAKER RIDGE DR NW", "mode": "bus"}}, {"type": "Feature", "geometry": {"type": "Point", "coordinates": [-84.4717, 33.769391]}, "properties": {"kind": "stop", "name": "BAKER RD NW @ HAMILTON E HOLMES DR NW", "mode": "bus"}}, {"type": "Feature", "geometry": {"type": "Point", "coordinates": [-84.474752, 33.778947]}, "properties": {"kind": "stop", "name": "HIGHTOWER RD NW @ WHITING ST NW", "mode": "bus"}}, {"type": "Feature", "geometry": {"type": "Point", "coordinates": [-84.474419, 33.781283]}, "properties": {"kind": "stop", "name": "HIGHTOWER RD @ 954", "mode": "bus"}}, {"type": "Feature", "geometry": {"type": "Point", "coordinates": [-84.473399, 33.782673]}, "properties": {"kind": "stop", "name": "HIGHTOWER RD NW @ JAMES DR NW", "mode": "bus"}}, {"type": "Feature", "geometry": {"type": "Point", "coordinates": [-84.464667, 33.776784]}, "properties": {"kind": "stop", "name": "DONALD L HOLLOWELL PKY @ CENTER HILL AVE", "mode": "bus"}}, {"type": "Feature", "geometry": {"type": "Point", "coordinates": [-84.466081, 33.776135]}, "properties": {"kind": "stop", "name": "DONALD L HOLLOWELL PKY @ HALL ST", "mode": "bus"}}, {"type": "Feature", "geometry": {"type": "Point", "coordinates": [-84.428299, 33.779687]}, "properties": {"kind": "stop", "name": "MARIETTA BLVD NW @ 860", "mode": "bus"}}, {"type": "Feature", "geometry": {"type": "Point", "coordinates": [-84.428366, 33.779552]}, "properties": {"kind": "stop", "name": "MARIETTA BLVD NW @ 860", "mode": "bus"}}, {"type": "Feature", "geometry": {"type": "Point", "coordinates": [-84.429801, 33.782658]}, "properties": {"kind": "stop", "name": "MARIETTA BLVD NW @ 930", "mode": "bus"}}, {"type": "Feature", "geometry": {"type": "Point", "coordinates": [-84.443316, 33.773595]}, "properties": {"kind": "stop", "name": "DONALD L HOLLOWELL PKY @ MATILDA PL NW", "mode": "bus"}}, {"type": "Feature", "geometry": {"type": "Point", "coordinates": [-84.444719, 33.774103]}, "properties": {"kind": "stop", "name": "DONALD L HOLLOWELL PKY @ GERTRUDE PL NW", "mode": "bus"}}, {"type": "Feature", "geometry": {"type": "Point", "coordinates": [-84.4456, 33.774255]}, "properties": {"kind": "stop", "name": "DONALD L HOLLOWELL PKY @ EVELYN PL NW", "mode": "bus"}}, {"type": "Feature", "geometry": {"type": "Point", "coordinates": [-84.447548, 33.775049]}, "properties": {"kind": "stop", "name": "DONALD L HOLLOWELL PKY @ ELIZABETH PL NW", "mode": "bus"}}, {"type": "Feature", "geometry": {"type": "Point", "coordinates": [-84.448952, 33.776131]}, "properties": {"kind": "stop", "name": "DONALD L HOLLOWELL PKY @ EDWIN PL NW", "mode": "bus"}}, {"type": "Feature", "geometry": {"type": "Point", "coordinates": [-84.449039, 33.776095]}, "properties": {"kind": "stop", "name": "DONALD L HOLLOWELL PKY @ EDWIN PL NW", "mode": "bus"}}, {"type": "Feature", "geometry": {"type": "Point", "coordinates": [-84.447526, 33.774933]}, "properties": {"kind": "stop", "name": "DONALD L HOLLOWELL PKY @  ELIZABETH PL NW", "mode": "bus"}}, {"type": "Feature", "geometry": {"type": "Point", "coordinates": [-84.446013, 33.774263]}, "properties": {"kind": "stop", "name": "DONALD L HOLLOWELL PKY @ EVELYN PL NW", "mode": "bus"}}, {"type": "Feature", "geometry": {"type": "Point", "coordinates": [-84.444599, 33.774014]}, "properties": {"kind": "stop", "name": "DONALD L HOLLOWELL PKY @ GERTRUDE PL NW", "mode": "bus"}}, {"type": "Feature", "geometry": {"type": "Point", "coordinates": [-84.443431, 33.773395]}, "properties": {"kind": "stop", "name": "DONALD L HOLLOWELL PKY @ MATILDA PL NW", "mode": "bus"}}, {"type": "Feature", "geometry": {"type": "Point", "coordinates": [-84.442282, 33.772942]}, "properties": {"kind": "stop", "name": "DONALD L HOLLOWELL PKY @ W LAKE AVE NW", "mode": "bus"}}, {"type": "Feature", "geometry": {"type": "Point", "coordinates": [-84.440559, 33.77198]}, "properties": {"kind": "stop", "name": "DONALD L HOLLOWELL PKY @ HORTENSE PL", "mode": "bus"}}, {"type": "Feature", "geometry": {"type": "Point", "coordinates": [-84.438904, 33.77142]}, "properties": {"kind": "stop", "name": "DONALD L HOLLOWELL PKY @ ELMWOOD RD NW", "mode": "bus"}}, {"type": "Feature", "geometry": {"type": "Point", "coordinates": [-84.437791, 33.77142]}, "properties": {"kind": "stop", "name": "DONALD L HOLLOWELL PKY @ HOLLY ST NW", "mode": "bus"}}, {"type": "Feature", "geometry": {"type": "Point", "coordinates": [-84.450379, 33.777221]}, "properties": {"kind": "stop", "name": "HOLLYWOOD RD NW@MARGARET PL NW", "mode": "bus"}}, {"type": "Feature", "geometry": {"type": "Point", "coordinates": [-84.437528, 33.771542]}, "properties": {"kind": "stop", "name": "DONALD L HOLLOWELL PKY @ HOLLY ST NW", "mode": "bus"}}, {"type": "Feature", "geometry": {"type": "Point", "coordinates": [-84.439061, 33.77171]}, "properties": {"kind": "stop", "name": "DONALD L HOLLOWELL PKY @ ELMWOOD RD NW", "mode": "bus"}}, {"type": "Feature", "geometry": {"type": "Point", "coordinates": [-84.441757, 33.772781]}, "properties": {"kind": "stop", "name": "DONALD L HOLLOWELL PKY @ FLORENCE PL NW", "mode": "bus"}}, {"type": "Feature", "geometry": {"type": "Point", "coordinates": [-84.449878, 33.776774]}, "properties": {"kind": "stop", "name": "HOLLYWOOD RD NW@BANKHEAD HWY NW", "mode": "bus"}}, {"type": "Feature", "geometry": {"type": "Point", "coordinates": [-84.441944, 33.772352]}, "properties": {"kind": "stop", "name": "W LAKE AVE@DONALD L HOLLOWELL PKWY", "mode": "bus"}}, {"type": "Feature", "geometry": {"type": "Point", "coordinates": [-84.429201, 33.783307]}, "properties": {"kind": "stop", "name": "MARIETTA BLVD NW @ 1079", "mode": "bus"}}, {"type": "Feature", "geometry": {"type": "Point", "coordinates": [-84.473611, 33.773515]}, "properties": {"kind": "stop", "name": "HAMILTON E HOLMES DR NW@WASHINGTON", "mode": "bus"}}, {"type": "Feature", "geometry": {"type": "Point", "coordinates": [-84.473542, 33.771832]}, "properties": {"kind": "stop", "name": "HAMILTON E HOLMES DR NW@OLDKNOW DR", "mode": "bus"}}, {"type": "Feature", "geometry": {"type": "Point", "coordinates": [-84.473235, 33.770471]}, "properties": {"kind": "stop", "name": "HAMILTON E HOLMES DR @ BAKER RIDGE DR", "mode": "bus"}}, {"type": "Feature", "geometry": {"type": "Point", "coordinates": [-84.477506, 33.810578]}, "properties": {"kind": "stop", "name": "BOLTON RD @ PARROTT AVE", "mode": "bus"}}, {"type": "Feature", "geometry": {"type": "Point", "coordinates": [-84.476603, 33.80806]}, "properties": {"kind": "stop", "name": "PEYTON RD@JAMES JACKSON PKWY", "mode": "bus"}}, {"type": "Feature", "geometry": {"type": "Point", "coordinates": [-84.478126, 33.808058]}, "properties": {"kind": "stop", "name": "PEYTONRD@2770", "mode": "bus"}}, {"type": "Feature", "geometry": {"type": "Point", "coordinates": [-84.429714, 33.791205]}, "properties": {"kind": "stop", "name": "MARIETTA BLVD NW @ ELAINE AVE NW", "mode": "bus"}}, {"type": "Feature", "geometry": {"type": "Point", "coordinates": [-84.431938, 33.794828]}, "properties": {"kind": "stop", "name": "MARIETTA BLVD @ TACOMA DR", "mode": "bus"}}, {"type": "Feature", "geometry": {"type": "Point", "coordinates": [-84.432112, 33.794935]}, "properties": {"kind": "stop", "name": "MARIETTA BLVD @ TACOMA DR", "mode": "bus"}}, {"type": "Feature", "geometry": {"type": "Point", "coordinates": [-84.430271, 33.791786]}, "properties": {"kind": "stop", "name": "MARIETTA BLVD @ ELAINE AVE", "mode": "bus"}}, {"type": "Feature", "geometry": {"type": "Point", "coordinates": [-84.495453, 33.792031]}, "properties": {"kind": "stop", "name": "ATLANTA IND PKWY@3201", "mode": "bus"}}, {"type": "Feature", "geometry": {"type": "Point", "coordinates": [-84.472548, 33.803814]}, "properties": {"kind": "stop", "name": "BROWNTOWN RD NW@2571", "mode": "bus"}}, {"type": "Feature", "geometry": {"type": "Point", "coordinates": [-84.449047, 33.794489]}, "properties": {"kind": "stop", "name": "PERRY BLVD NW @ ODESSA DR", "mode": "bus"}}, {"type": "Feature", "geometry": {"type": "Point", "coordinates": [-84.44921, 33.794408]}, "properties": {"kind": "stop", "name": "PERRY BLVD NW @ ODESSA DR NW", "mode": "bus"}}, {"type": "Feature", "geometry": {"type": "Point", "coordinates": [-84.460813, 33.79938]}, "properties": {"kind": "stop", "name": "AJAX DR NW @ 2223", "mode": "bus"}}, {"type": "Feature", "geometry": {"type": "Point", "coordinates": [-84.461793, 33.799665]}, "properties": {"kind": "stop", "name": "AJAX DR NW @ ADDISON PL NW", "mode": "bus"}}, {"type": "Feature", "geometry": {"type": "Point", "coordinates": [-84.459589, 33.783575]}, "properties": {"kind": "stop", "name": "HOLLYWOOD RD NW @ N GRAND AVE NW", "mode": "bus"}}, {"type": "Feature", "geometry": {"type": "Point", "coordinates": [-84.461893, 33.801285]}, "properties": {"kind": "stop", "name": "ABNER TER NW @ MARY GEORGE AVE NW", "mode": "bus"}}, {"type": "Feature", "geometry": {"type": "Point", "coordinates": [-84.487336, 33.801118]}, "properties": {"kind": "stop", "name": "NORTHWEST DR @ BOLTON RD", "mode": "bus"}}, {"type": "Feature", "geometry": {"type": "Point", "coordinates": [-84.476704, 33.787698]}, "properties": {"kind": "stop", "name": "JAMES JACKSON PKWY NW @ NORTHWEST DR NW", "mode": "bus"}}, {"type": "Feature", "geometry": {"type": "Point", "coordinates": [-84.492157, 33.781456]}, "properties": {"kind": "stop", "name": "SKIPPER DR NW @ SKIPPER PL NW", "mode": "bus"}}, {"type": "Feature", "geometry": {"type": "Point", "coordinates": [-84.471499, 33.80727]}, "properties": {"kind": "stop", "name": "HOLLYWOOD RD @ BURTZ ST", "mode": "bus"}}, {"type": "Feature", "geometry": {"type": "Point", "coordinates": [-84.471466, 33.807315]}, "properties": {"kind": "stop", "name": "HOLLYWOOD RD @ BURTZ ST", "mode": "bus"}}, {"type": "Feature", "geometry": {"type": "Point", "coordinates": [-84.482265, 33.800096]}, "properties": {"kind": "stop", "name": "MALDO DR NW @ ARGYLE DR NW", "mode": "bus"}}, {"type": "Feature", "geometry": {"type": "Point", "coordinates": [-84.491534, 33.785279]}, "properties": {"kind": "stop", "name": "HARWELL RD @ DONALD L HOLLOWELL PKWY", "mode": "bus"}}, {"type": "Feature", "geometry": {"type": "Point", "coordinates": [-84.492857, 33.782504]}, "properties": {"kind": "stop", "name": "HARWELL RD @ SKIPPER DR", "mode": "bus"}}, {"type": "Feature", "geometry": {"type": "Point", "coordinates": [-84.467274, 33.804931]}, "properties": {"kind": "stop", "name": "PERRY BLVD @ MOORE ST", "mode": "bus"}}, {"type": "Feature", "geometry": {"type": "Point", "coordinates": [-84.467252, 33.804859]}, "properties": {"kind": "stop", "name": "PERRY BLVD @ MOORE ST", "mode": "bus"}}, {"type": "Feature", "geometry": {"type": "Point", "coordinates": [-84.474949, 33.807982]}, "properties": {"kind": "stop", "name": "PEYTON RD @ JAMES JACKSON PKWY", "mode": "bus"}}, {"type": "Feature", "geometry": {"type": "Point", "coordinates": [-84.428482, 33.789237]}, "properties": {"kind": "stop", "name": "MARIETTA BLVD @ HUFF RD", "mode": "bus"}}, {"type": "Feature", "geometry": {"type": "Point", "coordinates": [-84.482349, 33.803631]}, "properties": {"kind": "stop", "name": "BROWNTOWN RD @ REY ST", "mode": "bus"}}, {"type": "Feature", "geometry": {"type": "Point", "coordinates": [-84.48297, 33.804337]}, "properties": {"kind": "stop", "name": "BROWNTOWN RD @ BOLTON RD", "mode": "bus"}}, {"type": "Feature", "geometry": {"type": "Point", "coordinates": [-84.480801, 33.802219]}, "properties": {"kind": "stop", "name": "BROWNTOWN RD @ MALDO RD", "mode": "bus"}}, {"type": "Feature", "geometry": {"type": "Point", "coordinates": [-84.480714, 33.802031]}, "properties": {"kind": "stop", "name": "BROWNTOWN RD @ MALDO RD", "mode": "bus"}}, {"type": "Feature", "geometry": {"type": "Point", "coordinates": [-84.475786, 33.80202]}, "properties": {"kind": "stop", "name": "BROWNTOWN RD @ JAMES JACKSON PKWY", "mode": "bus"}}, {"type": "Feature", "geometry": {"type": "Point", "coordinates": [-84.480099, 33.799293]}, "properties": {"kind": "stop", "name": "ARGYLE DR @ CARDO DR", "mode": "bus"}}, {"type": "Feature", "geometry": {"type": "Point", "coordinates": [-84.477705, 33.798768]}, "properties": {"kind": "stop", "name": "BRIDGEPORT DR @ MARCO DR", "mode": "bus"}}, {"type": "Feature", "geometry": {"type": "Point", "coordinates": [-84.476478, 33.800447]}, "properties": {"kind": "stop", "name": "MARCO DR @ 1659", "mode": "bus"}}, {"type": "Feature", "geometry": {"type": "Point", "coordinates": [-84.504233, 33.788347]}, "properties": {"kind": "stop", "name": "UPS DISTRIBUTION CENTER", "mode": "bus"}}, {"type": "Feature", "geometry": {"type": "Point", "coordinates": [-84.478506, 33.801439]}, "properties": {"kind": "stop", "name": "BROWNTOWN RD @ 2765", "mode": "bus"}}, {"type": "Feature", "geometry": {"type": "Point", "coordinates": [-84.474431, 33.781552]}, "properties": {"kind": "stop", "name": "HIGHTOWER RD @ 954", "mode": "bus"}}, {"type": "Feature", "geometry": {"type": "Point", "coordinates": [-84.476506, 33.780466]}, "properties": {"kind": "stop", "name": "JAMES JACKSON PKWY @ 954", "mode": "bus"}}, {"type": "Feature", "geometry": {"type": "Point", "coordinates": [-84.476545, 33.810454]}, "properties": {"kind": "stop", "name": "JAMES JACKSON PKWY @ BOLTON RD", "mode": "bus"}}, {"type": "Feature", "geometry": {"type": "Point", "coordinates": [-84.495044, 33.793987]}, "properties": {"kind": "stop", "name": "ATLANTA IND PKWY @ 3401", "mode": "bus"}}, {"type": "Feature", "geometry": {"type": "Point", "coordinates": [-84.495362, 33.79423]}, "properties": {"kind": "stop", "name": "ATLANTA INDUSTRIAL PKWY @ 3400", "mode": "bus"}}, {"type": "Feature", "geometry": {"type": "Point", "coordinates": [-84.491622, 33.785493]}, "properties": {"kind": "stop", "name": "HARWELL RD @ DONALD L HOLLOWELL PKY", "mode": "bus"}}, {"type": "Feature", "geometry": {"type": "Point", "coordinates": [-84.442954, 33.791456]}, "properties": {"kind": "stop", "name": "PERRY BLVD NW @ HABERSHAL DR NW", "mode": "bus"}}, {"type": "Feature", "geometry": {"type": "Point", "coordinates": [-84.443528, 33.791827]}, "properties": {"kind": "stop", "name": "PERRY BLVD @ HABERSHAL DR", "mode": "bus"}}], "properties": {"coverage_pct": 97.8, "rail_coverage_pct": 0.0, "stop_count": 256, "rail_stop_count": 0, "bus_stop_count": 256, "transit_index": 33, "weights": {"rail": 2.0, "bus": 1.0}}}