{"type": "FeatureCollection", "features": [{"type": "Feature", "geometry": {"type": "Polygon", "coordinates": [[[-84.40292221937274, 33.646666506785756], [-84.40365343310313, 33.64703115945982], [-84.40433839678978, 33.64745399516142], [-84.40497051447359, 33.647930942558226], [-84.40554369873729, 33.64845740922766], [-84.40605242932207, 33.649028325851944], [-84.40649180629754, 33.64963819500611], [-84.40685759727288, 33.65028114406993], [-84.40714627819358, 33.65095098175537], [-84.4073550673294, 33.65164125770678], [-84.40748195212453, 33.65234532460019], [-84.40752570864872, 33.6530564021449], [-84.40748591345974, 33.65376764237143], [-84.40736294775996, 33.65447219557752], [-84.4071579938037, 33.65516327629714], [-84.40687302358741, 33.65583422865722], [-84.40651077992823, 33.656478590492235], [-84.40607475011083, 33.65709015559866], [-84.4055691323537, 33.6576630335289], [-84.40499879541596, 33.65819170634809], [-84.40436923173229, 33.6586710818058], [-84.40368650452633, 33.65909654240959], [-84.40295718941168, 33.65946398992645], [-84.40218831104278, 33.659769884882344], [-84.40138727542731, 33.66001128067832], [-84.40056179855262, 33.66018585199334], [-84.40032191594148, 33.66021607138027], [-84.40035681992518, 33.660409819424046], [-84.40040052235202, 33.66112089879796], [-84.40036066522626, 33.661832136071546], [-84.40033062899619, 33.66200413624744], [-84.4003539920487, 33.662133819106664], [-84.40039769541082, 33.66284489827947], [-84.40035783755368, 33.663556135357105], [-84.40034136827711, 33.663650443637366], [-84.4003960532518, 33.6637465625778], [-84.400684729813, 33.66441641391409], [-84.400893500611, 33.6651066993565], [-84.40099533922407, 33.665671936633586], [-84.40125624560547, 33.66613050710999], [-84.40154493689793, 33.666800356115914], [-84.40175372043389, 33.66749063978465], [-84.40188058370981, 33.6681947107179], [-84.401924303001, 33.66890578858588], [-84.40188445522217, 33.66961702541579], [-84.40178425193994, 33.670190837803126], [-84.40181179892623, 33.67034371487286], [-84.40185206263632, 33.67099857981183], [-84.40190107887375, 33.67116062898762], [-84.40202794892195, 33.67186469932282], [-84.40207167146866, 33.67257577670288], [-84.40203182339694, 33.673287013159694], [-84.40192721290587, 33.67388604427064], [-84.4024038567799, 33.67394423089118], [-84.40286116136112, 33.67392457202735], [-84.40371183061175, 33.67395788047761], [-84.40418487317483, 33.67401562044631], [-84.40420449927251, 33.67401314781182], [-84.40505497705809, 33.67397657324286], [-84.40590564757235, 33.674009866587085], [-84.40674832044209, 33.67411270728163], [-84.40676217624492, 33.67411558050589], [-84.40672369400771, 33.67433433021387], [-84.40652000294499, 33.675019991960234], [-84.4064214430477, 33.6752523049713], [-84.40655019593288, 33.67605007670743], [-84.40656680959438, 33.67615925902088], [-84.40676228965823, 33.6775266660068], [-84.40693739450468, 33.67866411102986], [-84.406952461731, 33.67876788214807], [-84.40716261327957, 33.680307867039936], [-84.4071684136976, 33.68035154570178], [-84.40720390401819, 33.680626383178634], [-84.4074991633747, 33.68272124066879], [-84.40755844281139, 33.68363562158654], [-84.40754853526163, 33.68455562187562], [-84.40749829157606, 33.68520388706127], [-84.40762288935036, 33.68535961799749], [-84.40835512975146, 33.68619638609675], [-84.40867498681959, 33.686588155751565], [-84.41162518080924, 33.6904679824472], [-84.41196711101995, 33.6909591110306], [-84.41226201618363, 33.69147110148717], [-84.41253205488378, 33.691991084158325], [-84.41276672771716, 33.6924932633788], [-84.41295614507858, 33.69300862233726], [-84.41333625211097, 33.69419859642637], [-84.41351640065251, 33.69490006807896], [-84.41361278830298, 33.69561298224894], [-84.41362447050965, 33.6963303680919], [-84.4135845638808, 33.697260370443736], [-84.41351040021709, 33.69798149847658], [-84.41335064511381, 33.69869286171709], [-84.41310688638525, 33.69938738057887], [-84.41278154801785, 33.70005814294645], [-84.41237786611987, 33.70069847298144], [-84.41189985677876, 33.70130199758276], [-84.4113522761432, 33.7018627098387], [-84.41074057312548, 33.702375028838574], [-84.41007083519318, 33.70283385524668], [-84.40934972778922, 33.703234622084835], [-84.40858442798309, 33.70357334021641], [-84.40778255301392, 33.703846638077806], [-84.40720251282993, 33.70401665155194], [-84.4071979366144, 33.704005745045016], [-84.40684087349466, 33.70412250106775], [-84.40668132069409, 33.70416367642999], [-84.40658998942274, 33.70419031491251], [-84.4064641193123, 33.704226125753884], [-84.40515128598446, 33.704590272974656], [-84.40489825828992, 33.704663733275275], [-84.40412360818816, 33.70485536978292], [-84.40305352634597, 33.70507538784551], [-84.40211888364922, 33.70522270407174], [-84.40117056611497, 33.705283670714266], [-84.4000804745654, 33.705303672763236], [-84.40002404102285, 33.70530455459799], [-84.3969658078829, 33.70534399219729], [-84.39676697017205, 33.7054593354708], [-84.3960519309209, 33.70579534326408], [-84.39530213180089, 33.70607343805092], [-84.39452426918423, 33.70629113608576], [-84.39372529026495, 33.706446493025375], [-84.39291233097346, 33.70653812130708], [-84.39209265219935, 33.70656520255069], [-84.39127357489383, 33.706527494873576], [-84.3904624146338, 33.706425335052806], [-84.39040240987379, 33.70641533425934], [-84.38946715881885, 33.70621366217027], [-84.38856450825982, 33.70592639725415], [-84.38746444022827, 33.705516366489285], [-84.38676379380007, 33.705222828969205], [-84.38609768421952, 33.70487766939071], [-84.3858461830793, 33.70471942619147], [-84.38511700005154, 33.70493625711044], [-84.38429475916524, 33.70510746433601], [-84.38345646142184, 33.70521084897098], [-84.3827146147839, 33.705241156090025], [-84.38248405580013, 33.70564400972296], [-84.3820336741767, 33.706263370401], [-84.38151159757837, 33.706842083642684], [-84.3809230351264, 33.70737437369126], [-84.38027385982139, 33.70785492800703], [-84.3795705499447, 33.70827895031594], [-84.37882012440268, 33.70864220850641], [-84.378030072659, 33.70894107689491], [-84.37720827995565, 33.70917257243728], [-84.37636294857046, 33.709334384523196], [-84.3756963357516, 33.709432991499206], [-84.3755686433931, 33.709575194118905], [-84.37499168208599, 33.710100983983494], [-84.37435571605776, 33.71057687332086], [-84.37366689437033, 33.71099826014073], [-84.37293187751983, 33.7113610694441], [-84.37215777301586, 33.71166179265402], [-84.37135206662404, 33.71189752156725], [-84.37066626743935, 33.71203679136843], [-84.37039842501359, 33.71222331275378], [-84.37038380939325, 33.71223736963074], [-84.36982889153494, 33.712684038248156], [-84.3663788444586, 33.715224196468334], [-84.365702158946, 33.715674404091], [-84.36497522037415, 33.716066105835395], [-84.36420524461187, 33.7163954131832], [-84.36339987505178, 33.71665905697828], [-84.36256710669863, 33.71685441990234], [-84.36171520675505, 33.716979562476396], [-84.36085263249552, 33.717033242329066], [-84.35998794724613, 33.717014926539576], [-84.3591297353078, 33.71692479693258], [-84.35828651667023, 33.716763748272164], [-84.35746666236663, 33.71653337937257], [-84.35667831131276, 33.71623597721477], [-84.3566083074293, 33.71620597501456], [-84.35572679953313, 33.715771527328315], [-84.35491259824205, 33.71525341052702], [-84.35416015558994, 33.71471317083652], [-84.35401792051103, 33.714612765107674], [-84.35398915054355, 33.7145911399297], [-84.3531914432491, 33.71474045152491], [-84.3523295793681, 33.714827516519584], [-84.35181953681919, 33.71485751914514], [-84.35105881831636, 33.71487432386825], [-84.35029926156004, 33.7148353909347], [-84.34954670347953, 33.71474101952485], [-84.34892676353064, 33.714616085403044], [-84.34811929949561, 33.71454036867297], [-84.34726566688414, 33.71438654721156], [-84.34643484661122, 33.714161835770696], [-84.34563524579656, 33.713868508260944], [-84.3448749554211, 33.71350953291225], [-84.34416166841055, 33.71308854221779], [-84.34350260176038, 33.71260979615295], [-84.34290442349197, 33.71207813904282], [-84.34237318518038, 33.711498950516315], [-84.34191426073619, 33.71087809104409], [-84.34153229206143, 33.71022184261311], [-84.34123114212774, 33.709536845139425], [-84.34101385595015, 33.708830029263574], [-84.34100722127691, 33.708793552030144], [-84.34101296569061, 33.70869234049817], [-84.34113654792597, 33.707987857315125], [-84.34134215392874, 33.707296889693545], [-84.34142280488288, 33.707107495016054], [-84.34133012509596, 33.706892162087065], [-84.34118016264547, 33.706395366126294], [-84.34117017109236, 33.70637215136289], [-84.34096177573487, 33.705681768313354], [-84.34083902887956, 33.70499811536985], [-84.34083906193888, 33.704669694541], [-84.34083907501608, 33.704539694976155], [-84.3408391172651, 33.70411969493227], [-84.34083984420798, 33.70402640904441], [-84.34084855823012, 33.70346367730516], [-84.34095605823308, 33.702850842020375], [-84.34111100650975, 33.70233009076315], [-84.34093916173425, 33.70176076638864], [-84.34084940482629, 33.70126083153941], [-84.34084945925193, 33.70071969494937], [-84.34084954976734, 33.699819694900846], [-84.34084959117551, 33.69940789774714], [-84.34091140664906, 33.69905548520794], [-84.34087696420646, 33.69886363917445], [-84.34085534992342, 33.69850812977943], [-84.34085970606422, 33.6982655513996], [-84.34085976355301, 33.697693832838794], [-84.34087409366033, 33.69744132579086], [-84.34099766133887, 33.6967368415099], [-84.34106679044758, 33.69650449589545], [-84.34106520268548, 33.696495651823746], [-84.3410219692314, 33.69578455389643], [-84.34106232929459, 33.695073337908376], [-84.34109589170022, 33.69488198538798], [-84.3410348609288, 33.69467977231009], [-84.34090845333306, 33.6939756403341], [-84.34088533445646, 33.693595362267594], [-84.34089571614557, 33.692727193971024], [-84.34090558279789, 33.69255332582578], [-84.34102914340507, 33.691848840978444], [-84.34123471241742, 33.69115787184832], [-84.34152030827043, 33.69048707245427], [-84.34188317891923, 33.689842902430236], [-84.34231982840383, 33.68923156483597], [-84.34273856884506, 33.68875790298346], [-84.34286745470159, 33.68845515854972], [-84.3432303068131, 33.687810984417375], [-84.3436669365299, 33.68719964192542], [-84.3441731378858, 33.6866270178927], [-84.34474403527334, 33.6860986261928], [-84.34537413042199, 33.68561955468354], [-84.34605735535786, 33.68519441624044], [-84.34663310685448, 33.68490478639305], [-84.34664074374503, 33.68486122411053], [-84.34684625143768, 33.68417024506354], [-84.34713178078397, 33.68349943215864], [-84.34749458037977, 33.68285524516028], [-84.34793115494944, 33.682243887292024], [-84.34843729905776, 33.68167124552105], [-84.34900813764845, 33.68114283389197], [-84.34963817301691, 33.68066374045471], [-84.35032133776453, 33.68023857829613], [-84.35105105322387, 33.67987144114594], [-84.35182029279238, 33.679565863983136], [-84.35262164956568, 33.679324789021095], [-84.35344740762041, 33.679150537397824], [-84.35428961626214, 33.67904478684317], [-84.35514016652539, 33.67900855553699], [-84.35599086919204, 33.67904219231332], [-84.35683353357938, 33.679145373304586], [-84.35766004634215, 33.67931710505771], [-84.35834372665954, 33.67952042716228], [-84.35838110522558, 33.67930703056796], [-84.35858650590264, 33.6786160317451], [-84.3588719257885, 33.677945191489464], [-84.35923461453305, 33.67730096982955], [-84.35946340832284, 33.67698047593289], [-84.35875018976336, 33.67676837011157], [-84.35797965142854, 33.67646513812807], [-84.35724837923837, 33.6761002172281], [-84.35656341672792, 33.67567712254257], [-84.35593136107316, 33.6751999295132], [-84.35535829953305, 33.674673234612754], [-84.35484975081764, 33.67410211104608], [-84.35441061194699, 33.67349205985981], [-84.35418633945294, 33.67309745110107], [-84.35408162834932, 33.67308462673112], [-84.3532551822688, 33.67291287064397], [-84.3524528550838, 33.67267420728267], [-84.35244882402996, 33.67267262062159], [-84.35218183707805, 33.67259320018311], [-84.35141135890497, 33.672289926837394], [-84.3506801496935, 33.67192496661215], [-84.34999525237151, 33.6715018350171], [-84.3493632634865, 33.67102460784937], [-84.34879026965382, 33.67049788191042], [-84.34828178893092, 33.66992673070383], [-84.34784271768265, 33.66931665554219], [-84.34747728344901, 33.66867353253521], [-84.34718900426839, 33.6680035559706], [-84.3469806548467, 33.667313178634316], [-84.34685423989625, 33.666609049645764], [-84.34681097489862, 33.665897950407405], [-84.34685127447443, 33.665186729286425], [-84.346974748469, 33.66448223565762], [-84.3471802057883, 33.66379125394307], [-84.34746566594569, 33.66312043828345], [-84.3476132038974, 33.66285840694721], [-84.34746384537739, 33.66259553248518], [-84.34717558679677, 33.66192555516224], [-84.34696725236326, 33.661235177074936], [-84.34684084664534, 33.66053104734978], [-84.34679758503626, 33.659819947396294], [-84.34683788212467, 33.659108725588524], [-84.34691307982695, 33.65867964932918], [-84.34693596461622, 33.65827573206475], [-84.34694151276098, 33.65824407412163], [-84.34687311325858, 33.6578630490047], [-84.34682985282294, 33.65715194875172], [-84.34687014850586, 33.6564407266311], [-84.34699361019099, 33.65573623202732], [-84.34719904690371, 33.655045249371895], [-84.34720284044681, 33.6550363339186], [-84.34719807317394, 33.65495797384494], [-84.34723836489002, 33.654246751364994], [-84.34736182052478, 33.653542256163476], [-84.3475672491621, 33.652851272677694], [-84.3478526705925, 33.65218045506562], [-84.34821533445358, 33.65153626313771], [-84.34865174677891, 33.65092490016578], [-84.34893171966414, 33.65060802530626], [-84.34896810455894, 33.65040036506916], [-84.34917351300341, 33.64970937863055], [-84.3494589117015, 33.64903855704523], [-84.34946147218336, 33.64903400860522], [-84.34958560828105, 33.648616405617965], [-84.34987100021162, 33.6479455829855], [-84.35023363140066, 33.64730138480539], [-84.35067000819646, 33.64669001440987], [-84.35117592707002, 33.64611735888782], [-84.35151965270505, 33.64579903273837], [-84.35156793542122, 33.64574437987614], [-84.35213851863283, 33.645215951581314], [-84.35276827571063, 33.644736840347726], [-84.35345114193552, 33.64431165943476], [-84.35418054151368, 33.64394450275381], [-84.35494945088271, 33.643638905472905], [-84.35575046631577, 33.64339780999993], [-84.35657587517382, 33.643223537671076], [-84.35688262090206, 33.64318499861287], [-84.35701937217453, 33.64314383604787], [-84.3578447760127, 33.64296955525865], [-84.35868662689552, 33.642863775374], [-84.35889839198647, 33.64285474418922], [-84.35930283150613, 33.64260288761045], [-84.36003219169937, 33.64223569644646], [-84.36080106505175, 33.64193006281873], [-84.36160204818275, 33.64168892948506], [-84.36180625824385, 33.6416458031349], [-84.36204198384912, 33.641552096174316], [-84.36284295998531, 33.6413109548124], [-84.36366833442081, 33.64113663520147], [-84.36451016015178, 33.6410308157262], [-84.3653603318965, 33.640994515230034], [-84.36621066407822, 33.64102808321292], [-84.36705296957848, 33.64113119646912], [-84.36787913850483, 33.641302862197016], [-84.36868121621798, 33.64154142755133], [-84.36945147986938, 33.64184459554595], [-84.3701825127151, 33.642209447154904], [-84.37086727549257, 33.64263246939925], [-84.37149917417476, 33.643109589150576], [-84.37207212345062, 33.643636212326435], [-84.37258060532162, 33.64420726810149], [-84.37301972224999, 33.644817257710024], [-84.37338524434709, 33.64546030737075], [-84.37367365014592, 33.64613022482561], [-84.3738821605644, 33.64682055894922], [-84.37400876572995, 33.64752466185575], [-84.37401577986184, 33.64763937838332], [-84.3745460597846, 33.64714807249907], [-84.37517570614152, 33.64666884769326], [-84.37585847675851, 33.64624354351271], [-84.37658779676073, 33.64587625505551], [-84.37735664335061, 33.64557051875814], [-84.37815761340451, 33.645329278366496], [-84.37898299471934, 33.64515485661145], [-84.37982484022483, 33.64504893286056], [-84.38067504444875, 33.645012526960684], [-84.38152542150189, 33.645045989426016], [-84.38236778383413, 33.64514899806623], [-84.38283122109253, 33.64524522870147], [-84.38309765589796, 33.645188914906555], [-84.38393949653697, 33.64508296315961], [-84.38478969920259, 33.64504652897208], [-84.38526352874912, 33.645065159149816], [-84.38531821115706, 33.6450032194451], [-84.38588858244779, 33.64447463615008], [-84.3865181462517, 33.64399535370235], [-84.38720083970817, 33.64356998701002], [-84.38793008868446, 33.643202631773136], [-84.38869887106601, 33.642896825071084], [-84.38949978434663, 33.64265551132748], [-84.3903251168692, 33.64248101397921], [-84.39116692203261, 33.64237501312131], [-84.39201709475262, 33.64233852934268], [-84.39286744944305, 33.642371913906956], [-84.39370979876895, 33.642474845373364], [-84.39453603241662, 33.64264633268965], [-84.39533819512464, 33.6428847247275], [-84.39610856322739, 33.64318772616886], [-84.3968397189769, 33.64355241959082], [-84.39752462192902, 33.64397529353727], [-84.39815667670891, 33.64445227630753], [-84.39823340816605, 33.644522766502824], [-84.398260673622, 33.64453636553183], [-84.39894559129411, 33.644959231477216], [-84.3995776610894, 33.645436206843655], [-84.40008245154098, 33.64589991692155], [-84.40052330290605, 33.64595375923157], [-84.40134958306002, 33.64612520072191], [-84.4021517966004, 33.64636354820304], [-84.40292221937274, 33.646666506785756]], [[-84.37197337697395, 33.66202471526268], [-84.37198890908527, 33.66174917014034], [-84.3719746288673, 33.661701896498506], [-84.37184801887125, 33.660997793141], [-84.37180455133607, 33.660286702740926], [-84.37184464283375, 33.65957547358166], [-84.37196790521384, 33.65887095511677], [-84.37217314942023, 33.65817993200886], [-84.37220841961025, 33.658096980724764], [-84.37220577567766, 33.65805373003731], [-84.37224586293696, 33.657342500507085], [-84.37236911895936, 33.65663798141171], [-84.37242716801741, 33.65644253277557], [-84.3723637528373, 33.65629524358441], [-84.37215523127068, 33.65560490799948], [-84.37202862900115, 33.65490080410372], [-84.37198516331603, 33.65418971305916], [-84.37202525077014, 33.653478483155375], [-84.37208576824608, 33.65313256271701], [-84.37206081958452, 33.652993805835834], [-84.3720538075728, 33.65287908928865], [-84.37152347846313, 33.65337038421349], [-84.37089376316821, 33.653849590159304], [-84.37021090812985, 33.65427486671627], [-84.36948149019523, 33.65464211742451], [-84.36871253501137, 33.654947804706374], [-84.36791144932758, 33.65518898396417], [-84.36770721041647, 33.65523212040939], [-84.36747145379219, 33.65532583807749], [-84.36667036110688, 33.655567009303994], [-84.36584485524257, 33.65574134902797], [-84.36500288807669, 33.655847177853495], [-84.36492749176219, 33.655850396618675], [-84.36485181348979, 33.65589752204942], [-84.36483710240701, 33.655914176548976], [-84.36481243082119, 33.65605512725358], [-84.36460713266975, 33.65674613857578], [-84.36432453138883, 33.65741063395449], [-84.36425459491468, 33.65781016469111], [-84.3641744636442, 33.6580798675431], [-84.36420492171084, 33.6582493435158], [-84.36424832563256, 33.658960437055285], [-84.36421450376683, 33.65955951068436], [-84.36439623277484, 33.65961355802058], [-84.36516664287015, 33.659916751290424], [-84.36589781096825, 33.660281626673], [-84.36658269650455, 33.660704670961074], [-84.36721470426995, 33.66118181081453], [-84.36726703359523, 33.661229903126525], [-84.36747474448812, 33.661238097995756], [-84.3683172484633, 33.66134120157093], [-84.36843141854068, 33.66136491783504], [-84.36845823735169, 33.66136819973085], [-84.36928460260394, 33.66153985477901], [-84.37008687217875, 33.661778409520934], [-84.37085732138145, 33.66208156707305], [-84.37158853168259, 33.66244640851043], [-84.3719587312709, 33.662675044448285], [-84.37199904657318, 33.66244462591445], [-84.37197337697395, 33.66202471526268]], [[-84.36819999231092, 33.704828965568474], [-84.3679913847275, 33.70413862869622], [-84.36796167276817, 33.70397343709297], [-84.36793246466286, 33.703932887564754], [-84.36775316137731, 33.70361762315727], [-84.3671294258932, 33.7034881165169], [-84.36632677624952, 33.70324954558046], [-84.3655660807986, 33.70295033820387], [-84.36508094412503, 33.70339944887037], [-84.36525016063877, 33.703589382650314], [-84.36529126464605, 33.70362039979385], [-84.36546424347034, 33.703706677275804], [-84.36614947244072, 33.704129719741466], [-84.36668844786894, 33.704536418778815], [-84.36689945745724, 33.70466668692497], [-84.36746734281456, 33.70509519160002], [-84.36787716227633, 33.7052995851861], [-84.3685624156946, 33.70572261406879], [-84.36864201703165, 33.70578267592787], [-84.36861720562337, 33.7057250757976], [-84.36848855867831, 33.7054988880936], [-84.36819999231092, 33.704828965568474]]]}, "properties": {"kind": "walkshed", "buffer_mi": 0.5}}, {"type": "Feature", "geometry": {"type": "Point", "coordinates": [-84.368067, 33.71363]}, "properties": {"kind": "stop", "name": "MCDONOUGH BLVD SE@BOULEVARD  SE", "mode": "bus"}}, {"type": "Feature", "geometry": {"type": "Point", "coordinates": [-84.366698, 33.713201]}, "properties": {"kind": "stop", "name": "MCDONOUGH BLVD SE@BENTEEN AVE SE", "mode": "bus"}}, {"type": "Feature", "geometry": {"type": "Point", "coordinates": [-84.365372, 33.712691]}, "properties": {"kind": "stop", "name": "MCDONOUGH BLVD SE @ FUNSTON AVE SE", "mode": "bus"}}, {"type": "Feature", "geometry": {"type": "Point", "coordinates": [-84.3666, 33.713254]}, "properties": {"kind": "stop", "name": "MCDONOUGH BLVD SE @ BENTEEN AVE SE", "mode": "bus"}}, {"type": "Feature", "geometry": {"type": "Point", "coordinates": [-84.361242, 33.710275]}, "properties": {"kind": "stop", "name": "MCDONOUGH BLVD SE @ ELLEBY RD SE", "mode": "bus"}}, {"type": "Feature", "geometry": {"type": "Point", "coordinates": [-84.35302, 33.713509]}, "properties": {"kind": "stop", "name": "WOODLAND AVE SE @ WOODLAND CIR SE", "mode": "bus"}}, {"type": "Feature", "geometry": {"type": "Point", "coordinates": [-84.398987, 33.69894]}, "properties": {"kind": "stop", "name": "PRYOR RD SW@HILLTOP DR SW", "mode": "bus"}}, {"type": "Feature", "geometry": {"type": "Point", "coordinates": [-84.398924, 33.700241]}, "properties": {"kind": "stop", "name": "PRYOR RD SW@LAKEWOOD WAY SW", "mode": "bus"}}, {"type": "Feature", "geometry": {"type": "Point", "coordinates": [-84.39933, 33.705253]}, "properties": {"kind": "stop", "name": "ASHWOOD AVE SW@PICKFAIR WAY SW", "mode": "bus"}}, {"type": "Feature", "geometry": {"type": "Point", "coordinates": [-84.40792, 33.696988]}, "properties": {"kind": "stop", "name": "METROPOLITAN PKY SW@LAKEWOOD AVE SW", "mode": "bus"}}, {"type": "Feature", "geometry": {"type": "Point", "coordinates": [-84.407991, 33.694911]}, "properties": {"kind": "stop", "name": "METROPOLITAN PKY SW@LANGSTON DR SW", "mode": "bus"}}, {"type": "Feature", "geometry": {"type": "Point", "coordinates": [-84.40815, 33.70265]}, "properties": {"kind": "stop", "name": "METROPOLITAN PKWY SW @ GRANT ST SW", "mode": "bus"}}, {"type": "Feature", "geometry": {"type": "Point", "coordinates": [-84.408356, 33.699142]}, "properties": {"kind": "stop", "name": "METROPOLITAN PKY @SAINT JOHNS AVE S", "mode": "bus"}}, {"type": "Feature", "geometry": {"type": "Point", "coordinates": [-84.408155, 33.697298]}, "properties": {"kind": "stop", "name": "METROPOLITAN PKY SW@LAKEWOOD AVE SW", "mode": "bus"}}, {"type": "Feature", "geometry": {"type": "Point", "coordinates": [-84.399185, 33.699192]}, "properties": {"kind": "stop", "name": "PRYOR RD SW@HILLTOP DR SW", "mode": "bus"}}, {"type": "Feature", "geometry": {"type": "Point", "coordinates": [-84.39887, 33.700446]}, "properties": {"kind": "stop", "name": "LAKEWOOD WAY SW@PRYOR RD SW", "mode": "bus"}}, {"type": "Feature", "geometry": {"type": "Point", "coordinates": [-84.407903, 33.698994]}, "properties": {"kind": "stop", "name": "METROPOLITAN PKY @SAINT JOHNS AVE S", "mode": "bus"}}, {"type": "Feature", "geometry": {"type": "Point", "coordinates": [-84.407921, 33.703148]}, "properties": {"kind": "stop", "name": "METROPOLITAN PKY @ FAIR DR", "mode": "bus"}}, {"type": "Feature", "geometry": {"type": "Point", "coordinates": [-84.408214, 33.703519]}, "properties": {"kind": "stop", "name": "METROPOLITAN PK@FAIR DR", "mode": "bus"}}, {"type": "Feature", "geometry": {"type": "Point", "coordinates": [-84.396927, 33.70023]}, "properties": {"kind": "stop", "name": "LAKEWOOD WAY SW@215", "mode": "bus"}}, {"type": "Feature", "geometry": {"type": "Point", "coordinates": [-84.393176, 33.699707]}, "properties": {"kind": "stop", "name": "LAKEWOOD WAY SW@HILLTOP DR SW", "mode": "bus"}}, {"type": "Feature", "geometry": {"type": "Point", "coordinates": [-84.391396, 33.699451]}, "properties": {"kind": "stop", "name": "LAKEWOOD AVE SW@MACON DR SW", "mode": "bus"}}, {"type": "Feature", "geometry": {"type": "Point", "coordinates": [-84.388374, 33.700371]}, "properties": {"kind": "stop", "name": "LAKEWOOD AVE SW@2000", "mode": "bus"}}, {"type": "Feature", "geometry": {"type": "Point", "coordinates": [-84.386299, 33.701176]}, "properties": {"kind": "stop", "name": "LAKEWOOD AVE SW@LAKEWOOD TERR SE", "mode": "bus"}}, {"type": "Feature", "geometry": {"type": "Point", "coordinates": [-84.383904, 33.702579]}, "properties": {"kind": "stop", "name": "LAKEWOOD AVE SW@TERRACE WAY SE", "mode": "bus"}}, {"type": "Feature", "geometry": {"type": "Point", "coordinates": [-84.382511, 33.703437]}, "properties": {"kind": "stop", "name": "LAKEWOOD AVE SE @ CONRAD AVE SE", "mode": "bus"}}, {"type": "Feature", "geometry": {"type": "Point", "coordinates": [-84.383667, 33.702957]}, "properties": {"kind": "stop", "name": "LAKEWOOD AVE@TERRACE WAY", "mode": "bus"}}, {"type": "Feature", "geometry": {"type": "Point", "coordinates": [-84.386228, 33.701644]}, "properties": {"kind": "stop", "name": "LAKEWOOD AVE@OLIVE ST", "mode": "bus"}}, {"type": "Feature", "geometry": {"type": "Point", "coordinates": [-84.396643, 33.700537]}, "properties": {"kind": "stop", "name": "LAKEWOOD WAY SW@215", "mode": "bus"}}, {"type": "Feature", "geometry": {"type": "Point", "coordinates": [-84.393303, 33.699829]}, "properties": {"kind": "stop", "name": "LAKEWOOD WAY SW@HILLTOP DR SW", "mode": "bus"}}, {"type": "Feature", "geometry": {"type": "Point", "coordinates": [-84.391685, 33.699589]}, "properties": {"kind": "stop", "name": "LAKEWOOD AVE SW@LAKEWOOD WAY SW", "mode": "bus"}}, {"type": "Feature", "geometry": {"type": "Point", "coordinates": [-84.388474, 33.700645]}, "properties": {"kind": "stop", "name": "LAKEWOOD AVE SW@2081", "mode": "bus"}}, {"type": "Feature", "geometry": {"type": "Point", "coordinates": [-84.385302, 33.70203]}, "properties": {"kind": "stop", "name": "LAKEWOOD AVE@SHADYDALE AVE", "mode": "bus"}}, {"type": "Feature", "geometry": {"type": "Point", "coordinates": [-84.382359, 33.703786]}, "properties": {"kind": "stop", "name": "LAKEWOOD AVE SW@CONRAD AVE SE", "mode": "bus"}}, {"type": "Feature", "geometry": {"type": "Point", "coordinates": [-84.385002, 33.701912]}, "properties": {"kind": "stop", "name": "LAKEWOOD AVE@SHADYDALE AVE", "mode": "bus"}}, {"type": "Feature", "geometry": {"type": "Point", "coordinates": [-84.380524, 33.705212]}, "properties": {"kind": "stop", "name": "LAKEWOOD AVE@CLAIRE DR", "mode": "bus"}}, {"type": "Feature", "geometry": {"type": "Point", "coordinates": [-84.380363, 33.706348]}, "properties": {"kind": "stop", "name": "LAKEWOOD AVE@ADAIR AVE", "mode": "bus"}}, {"type": "Feature", "geometry": {"type": "Point", "coordinates": [-84.38015, 33.707535]}, "properties": {"kind": "stop", "name": "JONESBORO RD@LAKEWOOD AVE", "mode": "bus"}}, {"type": "Feature", "geometry": {"type": "Point", "coordinates": [-84.380198, 33.705237]}, "properties": {"kind": "stop", "name": "LAKEWOOD AVE SE@CLAIRE DR SE", "mode": "bus"}}, {"type": "Feature", "geometry": {"type": "Point", "coordinates": [-84.379953, 33.705954]}, "properties": {"kind": "stop", "name": "LAKEWOOD AVE SE@ADAIR AVE SE", "mode": "bus"}}, {"type": "Feature", "geometry": {"type": "Point", "coordinates": [-84.376709, 33.703117]}, "properties": {"kind": "stop", "name": "JONESBORO RD SE @ BROWNS MILL RD", "mode": "bus"}}, {"type": "Feature", "geometry": {"type": "Point", "coordinates": [-84.375871, 33.700719]}, "properties": {"kind": "stop", "name": "BROWNS MILL RD SE@ADELLE ST SE", "mode": "bus"}}, {"type": "Feature", "geometry": {"type": "Point", "coordinates": [-84.374588, 33.698606]}, "properties": {"kind": "stop", "name": "BROWNS MILL RD SE@2039", "mode": "bus"}}, {"type": "Feature", "geometry": {"type": "Point", "coordinates": [-84.374725, 33.699028]}, "properties": {"kind": "stop", "name": "BROWNS MILL RD SE@MERRILYN DR SE", "mode": "bus"}}, {"type": "Feature", "geometry": {"type": "Point", "coordinates": [-84.37558, 33.7005]}, "properties": {"kind": "stop", "name": "BROWNS MILL RD SE@ADELLE ST SE", "mode": "bus"}}, {"type": "Feature", "geometry": {"type": "Point", "coordinates": [-84.376502, 33.702709]}, "properties": {"kind": "stop", "name": "BROWNS MILL RD SE@JONESBORO RD SE", "mode": "bus"}}, {"type": "Feature", "geometry": {"type": "Point", "coordinates": [-84.379944, 33.70768]}, "properties": {"kind": "stop", "name": "LAKEWOOD AVE SE @ LIVERMORE ST SE", "mode": "bus"}}, {"type": "Feature", "geometry": {"type": "Point", "coordinates": [-84.379645, 33.706679]}, "properties": {"kind": "stop", "name": "JONESBORO RD SE@WHATLEY ST SE", "mode": "bus"}}, {"type": "Feature", "geometry": {"type": "Point", "coordinates": [-84.363068, 33.71134]}, "properties": {"kind": "stop", "name": "MCDONOUGH BLVD SE @ PARK RD SE", "mode": "bus"}}, {"type": "Feature", "geometry": {"type": "Point", "coordinates": [-84.361405, 33.710284]}, "properties": {"kind": "stop", "name": "MCDONOUGH BLVD SE@ELLEBY RD SE", "mode": "bus"}}, {"type": "Feature", "geometry": {"type": "Point", "coordinates": [-84.360655, 33.709747]}, "properties": {"kind": "stop", "name": "MCDONOUGH BLVD SE @ NEW TOWN CIR", "mode": "bus"}}, {"type": "Feature", "geometry": {"type": "Point", "coordinates": [-84.359405, 33.708942]}, "properties": {"kind": "stop", "name": "MCDONOUGH BLVD @ MORELAND DR", "mode": "bus"}}, {"type": "Feature", "geometry": {"type": "Point", "coordinates": [-84.35659, 33.706186]}, "properties": {"kind": "stop", "name": "MCDONOUGH BLVD SE @ HENRY THOMAS DR SE", "mode": "bus"}}, {"type": "Feature", "geometry": {"type": "Point", "coordinates": [-84.35889, 33.698317]}, "properties": {"kind": "stop", "name": "FORREST PARK RD SE@THOMASVILLE DR S", "mode": "bus"}}, {"type": "Feature", "geometry": {"type": "Point", "coordinates": [-84.358716, 33.698272]}, "properties": {"kind": "stop", "name": "THOMASVILLE DR SE @ FORREST PARK RD SE", "mode": "bus"}}, {"type": "Feature", "geometry": {"type": "Point", "coordinates": [-84.356275, 33.706132]}, "properties": {"kind": "stop", "name": "MCDONOUGH BLVD SE @ HENRY THOMAS DR SE", "mode": "bus"}}, {"type": "Feature", "geometry": {"type": "Point", "coordinates": [-84.358253, 33.707994]}, "properties": {"kind": "stop", "name": "MCDONOUGH BLVD SE @ WELCH ST SE", "mode": "bus"}}, {"type": "Feature", "geometry": {"type": "Point", "coordinates": [-84.363263, 33.711582]}, "properties": {"kind": "stop", "name": "MCDONOUGH BLVD SE @ PARK RD SE", "mode": "bus"}}, {"type": "Feature", "geometry": {"type": "Point", "coordinates": [-84.349633, 33.704774]}, "properties": {"kind": "stop", "name": "MORELAND AVE SE @ MCDONOUGH BLVD SE", "mode": "bus"}}, {"type": "Feature", "geometry": {"type": "Point", "coordinates": [-84.349654, 33.709391]}, "properties": {"kind": "stop", "name": "MORELAND AVE SE @ MORELAND DR SE", "mode": "bus"}}, {"type": "Feature", "geometry": {"type": "Point", "coordinates": [-84.355125, 33.699833]}, "properties": {"kind": "stop", "name": "TURNER RD SE@VELMA ST SE", "mode": "bus"}}, {"type": "Feature", "geometry": {"type": "Point", "coordinates": [-84.354829, 33.70342]}, "properties": {"kind": "stop", "name": "TURNER RD SE@KIPLING ST SE", "mode": "bus"}}, {"type": "Feature", "geometry": {"type": "Point", "coordinates": [-84.355296, 33.705211]}, "properties": {"kind": "stop", "name": "HENRY THOMAS DR SE (W) @ MCDONOUGH BLVD SE", "mode": "bus"}}, {"type": "Feature", "geometry": {"type": "Point", "coordinates": [-84.349473, 33.704254]}, "properties": {"kind": "stop", "name": "MORELAND AVE SE @ MCDONOUGH BLVD SE", "mode": "bus"}}, {"type": "Feature", "geometry": {"type": "Point", "coordinates": [-84.34945, 33.700333]}, "properties": {"kind": "stop", "name": "MORELAND AVE SE @ ISA DR SE", "mode": "bus"}}, {"type": "Feature", "geometry": {"type": "Point", "coordinates": [-84.352288, 33.709078]}, "properties": {"kind": "stop", "name": "MORELAND DR @ WOODLAND AVE", "mode": "bus"}}, {"type": "Feature", "geometry": {"type": "Point", "coordinates": [-84.352463, 33.710913]}, "properties": {"kind": "stop", "name": "WOODLAND AVE SE @ 1608", "mode": "bus"}}, {"type": "Feature", "geometry": {"type": "Point", "coordinates": [-84.349699, 33.700711]}, "properties": {"kind": "stop", "name": "MORELAND AVE SE@ISA DR SE", "mode": "bus"}}, {"type": "Feature", "geometry": {"type": "Point", "coordinates": [-84.349514, 33.69814]}, "properties": {"kind": "stop", "name": "MORELAND AVE SE @ HILLCREST DR SE", "mode": "bus"}}, {"type": "Feature", "geometry": {"type": "Point", "coordinates": [-84.34972, 33.698869]}, "properties": {"kind": "stop", "name": "MORELAND AVE SE@HILLCREST DR", "mode": "bus"}}, {"type": "Feature", "geometry": {"type": "Point", "coordinates": [-84.352188, 33.702624]}, "properties": {"kind": "stop", "name": "KIPLING ST SE @ HENRY THOMAS DR SE (E)", "mode": "bus"}}, {"type": "Feature", "geometry": {"type": "Point", "coordinates": [-84.349644, 33.71278]}, "properties": {"kind": "stop", "name": "MORELAND AVE @ 1475", "mode": "bus"}}, {"type": "Feature", "geometry": {"type": "Point", "coordinates": [-84.355492, 33.705381]}, "properties": {"kind": "stop", "name": "MCDONOUGH BLVD @ HENRY THOMAS DR", "mode": "bus"}}, {"type": "Feature", "geometry": {"type": "Point", "coordinates": [-84.351099, 33.704352]}, "properties": {"kind": "stop", "name": "HENRY THOMAS DR SE (E) @ MCDONOUGH BLVD SE", "mode": "bus"}}, {"type": "Feature", "geometry": {"type": "Point", "coordinates": [-84.351936, 33.703002]}, "properties": {"kind": "stop", "name": "HENRY THOMAS DR SE (E) @ KIPLING ST SE", "mode": "bus"}}, {"type": "Feature", "geometry": {"type": "Point", "coordinates": [-84.35834, 33.707967]}, "properties": {"kind": "stop", "name": "MCDONOUGH BLVD @ WELCH ST", "mode": "bus"}}, {"type": "Feature", "geometry": {"type": "Point", "coordinates": [-84.408063, 33.688832]}, "properties": {"kind": "stop", "name": "METROPOLITAN PKY SW@PEGG RD SW", "mode": "bus"}}, {"type": "Feature", "geometry": {"type": "Point", "coordinates": [-84.407944, 33.690224]}, "properties": {"kind": "stop", "name": "METROPOLITAN PKY SW @ 2370", "mode": "bus"}}, {"type": "Feature", "geometry": {"type": "Point", "coordinates": [-84.40801, 33.691489]}, "properties": {"kind": "stop", "name": "METROPOLITAN PKY SW@AVERY RD SW", "mode": "bus"}}, {"type": "Feature", "geometry": {"type": "Point", "coordinates": [-84.408516, 33.691738]}, "properties": {"kind": "stop", "name": "METROPOLITAN PKY SW@AVERY RD SW", "mode": "bus"}}, {"type": "Feature", "geometry": {"type": "Point", "coordinates": [-84.408332, 33.689282]}, "properties": {"kind": "stop", "name": "METROPOLITAN PKY SW@PEGG RD SW", "mode": "bus"}}, {"type": "Feature", "geometry": {"type": "Point", "coordinates": [-84.408259, 33.69543]}, "properties": {"kind": "stop", "name": "METROPOLITAN PKY SW@LANGSTON DR SW", "mode": "bus"}}, {"type": "Feature", "geometry": {"type": "Point", "coordinates": [-84.398155, 33.695995]}, "properties": {"kind": "stop", "name": "POLAR ROCK RD SW@BAGWELL DR SW", "mode": "bus"}}, {"type": "Feature", "geometry": {"type": "Point", "coordinates": [-84.397214, 33.695623]}, "properties": {"kind": "stop", "name": "POLAR ROCK RD SW@BICKNELL DR SW", "mode": "bus"}}, {"type": "Feature", "geometry": {"type": "Point", "coordinates": [-84.397268, 33.695784]}, "properties": {"kind": "stop", "name": "POLAR ROCK RD SW@BICKNELL DR SW", "mode": "bus"}}, {"type": "Feature", "geometry": {"type": "Point", "coordinates": [-84.398769, 33.696973]}, "properties": {"kind": "stop", "name": "POLAR ROCK RD SW@PRYOR RD SW", "mode": "bus"}}, {"type": "Feature", "geometry": {"type": "Point", "coordinates": [-84.395964, 33.695033]}, "properties": {"kind": "stop", "name": "POLAR ROCK AVE SW@POLAR ROCK RD SW", "mode": "bus"}}, {"type": "Feature", "geometry": {"type": "Point", "coordinates": [-84.386122, 33.694805]}, "properties": {"kind": "stop", "name": "SWALLOW CIR @ FINCH DR", "mode": "bus"}}, {"type": "Feature", "geometry": {"type": "Point", "coordinates": [-84.396225, 33.693642]}, "properties": {"kind": "stop", "name": "POLAR ROCK AVE SW@POLAR ROCK PL", "mode": "bus"}}, {"type": "Feature", "geometry": {"type": "Point", "coordinates": [-84.396255, 33.692528]}, "properties": {"kind": "stop", "name": "POLAR ROCK AVE@POLAR ROCK PL", "mode": "bus"}}, {"type": "Feature", "geometry": {"type": "Point", "coordinates": [-84.396317, 33.691147]}, "properties": {"kind": "stop", "name": "POLAR ROCK AVE SW @ 2311", "mode": "bus"}}, {"type": "Feature", "geometry": {"type": "Point", "coordinates": [-84.396101, 33.689903]}, "properties": {"kind": "stop", "name": "POLAR ROCK AVE SW @ POLAR ROCK DR SW", "mode": "bus"}}, {"type": "Feature", "geometry": {"type": "Point", "coordinates": [-84.394653, 33.690788]}, "properties": {"kind": "stop", "name": "POLAR ROCK TER SW@POLAR ROCK DR SW", "mode": "bus"}}, {"type": "Feature", "geometry": {"type": "Point", "coordinates": [-84.394691, 33.692436]}, "properties": {"kind": "stop", "name": "POLAR ROCK TER SW@POLAR ROCK PL SW", "mode": "bus"}}, {"type": "Feature", "geometry": {"type": "Point", "coordinates": [-84.394684, 33.694065]}, "properties": {"kind": "stop", "name": "POLAR ROCK TER@POLAR ROCK RD", "mode": "bus"}}, {"type": "Feature", "geometry": {"type": "Point", "coordinates": [-84.393484, 33.681186]}, "properties": {"kind": "stop", "name": "CLEVELAND AVE SW @ OLD HAPEVILLE RD SW", "mode": "bus"}}, {"type": "Feature", "geometry": {"type": "Point", "coordinates": [-84.39043, 33.68796]}, "properties": {"kind": "stop", "name": "OLD HAPEVILLE RD @ MACON DR", "mode": "bus"}}, {"type": "Feature", "geometry": {"type": "Point", "coordinates": [-84.392715, 33.684074]}, "properties": {"kind": "stop", "name": "OLD HAPEVILLE RD SW@JUDY  SW", "mode": "bus"}}, {"type": "Feature", "geometry": {"type": "Point", "coordinates": [-84.391047, 33.691208]}, "properties": {"kind": "stop", "name": "MACON DR@2324", "mode": "bus"}}, {"type": "Feature", "geometry": {"type": "Point", "coordinates": [-84.392067, 33.684921]}, "properties": {"kind": "stop", "name": "OLD HAPEVILLE RD SW@BREVARD AVE SW", "mode": "bus"}}, {"type": "Feature", "geometry": {"type": "Point", "coordinates": [-84.390141, 33.694454]}, "properties": {"kind": "stop", "name": "MACON DR@LANG DR", "mode": "bus"}}, {"type": "Feature", "geometry": {"type": "Point", "coordinates": [-84.39119, 33.686787]}, "properties": {"kind": "stop", "name": "OLD HAPEVILLE RD SW@2500", "mode": "bus"}}, {"type": "Feature", "geometry": {"type": "Point", "coordinates": [-84.396147, 33.68122]}, "properties": {"kind": "stop", "name": "CLEVELAND AVE SW @ STEELE AVE SW", "mode": "bus"}}, {"type": "Feature", "geometry": {"type": "Point", "coordinates": [-84.394639, 33.695526]}, "properties": {"kind": "stop", "name": "POLAR ROCK TER SW @ POLAR ROCK RD SW", "mode": "bus"}}, {"type": "Feature", "geometry": {"type": "Point", "coordinates": [-84.392884, 33.698895]}, "properties": {"kind": "stop", "name": "LAKEWOOD AVE @ LAKEWOOD WAY", "mode": "bus"}}, {"type": "Feature", "geometry": {"type": "Point", "coordinates": [-84.38571, 33.696378]}, "properties": {"kind": "stop", "name": "HARPER RD SE @ SWALLOW CIR SE", "mode": "bus"}}, {"type": "Feature", "geometry": {"type": "Point", "coordinates": [-84.392123, 33.699098]}, "properties": {"kind": "stop", "name": "LAKEWOOD AVE @ MACON DR", "mode": "bus"}}, {"type": "Feature", "geometry": {"type": "Point", "coordinates": [-84.389805, 33.695721]}, "properties": {"kind": "stop", "name": "MACON DR SW@2145", "mode": "bus"}}, {"type": "Feature", "geometry": {"type": "Point", "coordinates": [-84.390271, 33.694772]}, "properties": {"kind": "stop", "name": "MACON DR SW@LANG DR", "mode": "bus"}}, {"type": "Feature", "geometry": {"type": "Point", "coordinates": [-84.391462, 33.691284]}, "properties": {"kind": "stop", "name": "MACON DR SW@2315", "mode": "bus"}}, {"type": "Feature", "geometry": {"type": "Point", "coordinates": [-84.385612, 33.696023]}, "properties": {"kind": "stop", "name": "HARPER RD SE @ SWALLOW CIR SE", "mode": "bus"}}, {"type": "Feature", "geometry": {"type": "Point", "coordinates": [-84.390462, 33.688671]}, "properties": {"kind": "stop", "name": "MACON DR SW@OLD HAPEVILLE RD SW", "mode": "bus"}}, {"type": "Feature", "geometry": {"type": "Point", "coordinates": [-84.389298, 33.695747]}, "properties": {"kind": "stop", "name": "MACON DR@2144", "mode": "bus"}}, {"type": "Feature", "geometry": {"type": "Point", "coordinates": [-84.364154, 33.689999]}, "properties": {"kind": "stop", "name": "JONESBORO RD SE @ MIDWAY ST SE", "mode": "bus"}}, {"type": "Feature", "geometry": {"type": "Point", "coordinates": [-84.36978, 33.688788]}, "properties": {"kind": "stop", "name": "MCWILLIAMS RD SE @ CAREY DR SE", "mode": "bus"}}, {"type": "Feature", "geometry": {"type": "Point", "coordinates": [-84.366641, 33.688718]}, "properties": {"kind": "stop", "name": "MCWILLIAMS RD SE @ 660", "mode": "bus"}}, {"type": "Feature", "geometry": {"type": "Point", "coordinates": [-84.36411, 33.688701]}, "properties": {"kind": "stop", "name": "MCWILLIAMS RD SE @ JONESBORO RD SE", "mode": "bus"}}, {"type": "Feature", "geometry": {"type": "Point", "coordinates": [-84.364035, 33.689892]}, "properties": {"kind": "stop", "name": "JONESBORO RD SE@MIDWAY ST SE", "mode": "bus"}}, {"type": "Feature", "geometry": {"type": "Point", "coordinates": [-84.365311, 33.691608]}, "properties": {"kind": "stop", "name": "JONESBORO RD SE@ 2267", "mode": "bus"}}, {"type": "Feature", "geometry": {"type": "Point", "coordinates": [-84.366409, 33.692951]}, "properties": {"kind": "stop", "name": "JONESBORO RD SE @ CONSTITUTION RD SE", "mode": "bus"}}, {"type": "Feature", "geometry": {"type": "Point", "coordinates": [-84.369141, 33.696167]}, "properties": {"kind": "stop", "name": "JONESBORO RD SE @ HARPER RD SE", "mode": "bus"}}, {"type": "Feature", "geometry": {"type": "Point", "coordinates": [-84.371154, 33.696943]}, "properties": {"kind": "stop", "name": "HARPER RD SE @ BURROUGHS AVE SE", "mode": "bus"}}, {"type": "Feature", "geometry": {"type": "Point", "coordinates": [-84.377709, 33.68772]}, "properties": {"kind": "stop", "name": "BROWNS MILL RD SE @ BROMACK DR SE", "mode": "bus"}}, {"type": "Feature", "geometry": {"type": "Point", "coordinates": [-84.373875, 33.688787]}, "properties": {"kind": "stop", "name": "MCWILLIAMS RD SE @ BROWNS MILL RD SE", "mode": "bus"}}, {"type": "Feature", "geometry": {"type": "Point", "coordinates": [-84.380279, 33.696984]}, "properties": {"kind": "stop", "name": "HARPER RD SE @ MEADOR AVE SE", "mode": "bus"}}, {"type": "Feature", "geometry": {"type": "Point", "coordinates": [-84.379051, 33.696823]}, "properties": {"kind": "stop", "name": "HARPER RD SE @ RHINEHILL RD SE", "mode": "bus"}}, {"type": "Feature", "geometry": {"type": "Point", "coordinates": [-84.377444, 33.696904]}, "properties": {"kind": "stop", "name": "HARPER RD SE @ 359", "mode": "bus"}}, {"type": "Feature", "geometry": {"type": "Point", "coordinates": [-84.373902, 33.696888]}, "properties": {"kind": "stop", "name": "HARPER RD @ BROWNS MILL RD", "mode": "bus"}}, {"type": "Feature", "geometry": {"type": "Point", "coordinates": [-84.367349, 33.680394]}, "properties": {"kind": "stop", "name": "JONESBORO RD SE @ CLEVELAND AVE SE", "mode": "bus"}}, {"type": "Feature", "geometry": {"type": "Point", "coordinates": [-84.366896, 33.680709]}, "properties": {"kind": "stop", "name": "JONESBORO RD SE @ CLEVELAND AVE SE", "mode": "bus"}}, {"type": "Feature", "geometry": {"type": "Point", "coordinates": [-84.36036, 33.694976]}, "properties": {"kind": "stop", "name": "FORREST PARK RD SE @ 2155", "mode": "bus"}}, {"type": "Feature", "geometry": {"type": "Point", "coordinates": [-84.378838, 33.686072]}, "properties": {"kind": "stop", "name": "BROWNS MILL RD SE @ LYDIA DR SE", "mode": "bus"}}, {"type": "Feature", "geometry": {"type": "Point", "coordinates": [-84.382442, 33.68334]}, "properties": {"kind": "stop", "name": "BROWNS MILL RD SE @ LINDA LN SE", "mode": "bus"}}, {"type": "Feature", "geometry": {"type": "Point", "coordinates": [-84.355402, 33.697521]}, "properties": {"kind": "stop", "name": "THOMASVILLE DR SE@KIPLING ST SE", "mode": "bus"}}, {"type": "Feature", "geometry": {"type": "Point", "coordinates": [-84.355402, 33.697593]}, "properties": {"kind": "stop", "name": "THOMASVILLE DR SE @ TURNER RD SE", "mode": "bus"}}, {"type": "Feature", "geometry": {"type": "Point", "coordinates": [-84.357346, 33.697252]}, "properties": {"kind": "stop", "name": "THOMASVILLE DR SE @ THOMASVILLE CT SE", "mode": "bus"}}, {"type": "Feature", "geometry": {"type": "Point", "coordinates": [-84.357911, 33.697476]}, "properties": {"kind": "stop", "name": "THOMASVILLE DR SE@THOMASVILLE CT", "mode": "bus"}}, {"type": "Feature", "geometry": {"type": "Point", "coordinates": [-84.36004, 33.696848]}, "properties": {"kind": "stop", "name": "FORREST PARK RD SE @ NORWOOD RD SE", "mode": "bus"}}, {"type": "Feature", "geometry": {"type": "Point", "coordinates": [-84.360138, 33.696956]}, "properties": {"kind": "stop", "name": "FORREST PARK RD SE @ NORWOOD RD SE", "mode": "bus"}}, {"type": "Feature", "geometry": {"type": "Point", "coordinates": [-84.35578, 33.690843]}, "properties": {"kind": "stop", "name": "VALLEY VIEW RD SE@STONEWALL DR SE", "mode": "bus"}}, {"type": "Feature", "geometry": {"type": "Point", "coordinates": [-84.353423, 33.691631]}, "properties": {"kind": "stop", "name": "VALLEY VIEW RD SE@1056", "mode": "bus"}}, {"type": "Feature", "geometry": {"type": "Point", "coordinates": [-84.357095, 33.692875]}, "properties": {"kind": "stop", "name": "CONSTITUTION RD SE @ STONEWALL DR SE", "mode": "bus"}}, {"type": "Feature", "geometry": {"type": "Point", "coordinates": [-84.360039, 33.689404]}, "properties": {"kind": "stop", "name": "FORREST PARK RD SE@NATHAM DR SE", "mode": "bus"}}, {"type": "Feature", "geometry": {"type": "Point", "coordinates": [-84.35997, 33.690899]}, "properties": {"kind": "stop", "name": "FORREST PARK RD SE@STONEWALL DR SE", "mode": "bus"}}, {"type": "Feature", "geometry": {"type": "Point", "coordinates": [-84.359932, 33.692863]}, "properties": {"kind": "stop", "name": "FORREST PARK RD SE@CONSTITUTION RD", "mode": "bus"}}, {"type": "Feature", "geometry": {"type": "Point", "coordinates": [-84.366118, 33.693562]}, "properties": {"kind": "stop", "name": "CONSTITUTION RD SE @ JONESBORO RD SE", "mode": "bus"}}, {"type": "Feature", "geometry": {"type": "Point", "coordinates": [-84.349702, 33.695772]}, "properties": {"kind": "stop", "name": "MORELAND AVE @ KEY RD", "mode": "bus"}}, {"type": "Feature", "geometry": {"type": "Point", "coordinates": [-84.350708, 33.692455]}, "properties": {"kind": "stop", "name": "REGIS RD SE @ CONSTITUTION RD SE", "mode": "bus"}}, {"type": "Feature", "geometry": {"type": "Point", "coordinates": [-84.351869, 33.69113]}, "properties": {"kind": "stop", "name": "VALLEY VIEW RD@LOCUST LN SE", "mode": "bus"}}, {"type": "Feature", "geometry": {"type": "Point", "coordinates": [-84.356725, 33.691595]}, "properties": {"kind": "stop", "name": "STONEWALL DR SE@OHARA PL SE", "mode": "bus"}}, {"type": "Feature", "geometry": {"type": "Point", "coordinates": [-84.352416, 33.691437]}, "properties": {"kind": "stop", "name": "VALLEY VIEW RD SE@1086", "mode": "bus"}}, {"type": "Feature", "geometry": {"type": "Point", "coordinates": [-84.354922, 33.69087]}, "properties": {"kind": "stop", "name": "VALLEY VIEW RD SE@LEILA LN SE", "mode": "bus"}}, {"type": "Feature", "geometry": {"type": "Point", "coordinates": [-84.360352, 33.691174]}, "properties": {"kind": "stop", "name": "FORREST PARK RD SE@STONEWALL DR SE", "mode": "bus"}}, {"type": "Feature", "geometry": {"type": "Point", "coordinates": [-84.360329, 33.689859]}, "properties": {"kind": "stop", "name": "FORREST PARK RD SE@MIDWAY ST SE", "mode": "bus"}}, {"type": "Feature", "geometry": {"type": "Point", "coordinates": [-84.360042, 33.688134]}, "properties": {"kind": "stop", "name": "REBEL FOREST DR SE@FORREST PARK RD", "mode": "bus"}}, {"type": "Feature", "geometry": {"type": "Point", "coordinates": [-84.35982, 33.688801]}, "properties": {"kind": "stop", "name": "REDFORD DR SE @ FORREST PARK RD SE", "mode": "bus"}}, {"type": "Feature", "geometry": {"type": "Point", "coordinates": [-84.358016, 33.688577]}, "properties": {"kind": "stop", "name": "REDFORD DR SE@955", "mode": "bus"}}, {"type": "Feature", "geometry": {"type": "Point", "coordinates": [-84.357299, 33.687351]}, "properties": {"kind": "stop", "name": "REBEL FOREST DR SE@NATHAM DR SE", "mode": "bus"}}, {"type": "Feature", "geometry": {"type": "Point", "coordinates": [-84.355156, 33.686264]}, "properties": {"kind": "stop", "name": "REDFORD DR SE@REBEL FOREST DR SE", "mode": "bus"}}, {"type": "Feature", "geometry": {"type": "Point", "coordinates": [-84.360169, 33.693259]}, "properties": {"kind": "stop", "name": "FORREST PARK RD SE @ CONSTITUTION RD SE", "mode": "bus"}}, {"type": "Feature", "geometry": {"type": "Point", "coordinates": [-84.350364, 33.692396]}, "properties": {"kind": "stop", "name": "REGIS RD SE @ CONSTITUTION RD SE", "mode": "bus"}}, {"type": "Feature", "geometry": {"type": "Point", "coordinates": [-84.359593, 33.693232]}, "properties": {"kind": "stop", "name": "CONSTITUTION RD@FORREST PARK RD", "mode": "bus"}}, {"type": "Feature", "geometry": {"type": "Point", "coordinates": [-84.405075, 33.681232]}, "properties": {"kind": "stop", "name": "CLEVELAND AVE SW @ DEARWOOD DR SW", "mode": "bus"}}, {"type": "Feature", "geometry": {"type": "Point", "coordinates": [-84.402881, 33.68118]}, "properties": {"kind": "stop", "name": "CLEVELAND AVE SW @ 3RD AVE SW", "mode": "bus"}}, {"type": "Feature", "geometry": {"type": "Point", "coordinates": [-84.401062, 33.681263]}, "properties": {"kind": "stop", "name": "CLEVELAND AVE SW @ BEELER DR SW", "mode": "bus"}}, {"type": "Feature", "geometry": {"type": "Point", "coordinates": [-84.40239, 33.68127]}, "properties": {"kind": "stop", "name": "CLEVELAND AVE SW @ THIRD AVE", "mode": "bus"}}, {"type": "Feature", "geometry": {"type": "Point", "coordinates": [-84.405325, 33.681303]}, "properties": {"kind": "stop", "name": "CLEVELAND AVE SW @ DEARWOOD DR SW", "mode": "bus"}}, {"type": "Feature", "geometry": {"type": "Point", "coordinates": [-84.391184, 33.65673]}, "properties": {"kind": "stop", "name": "EMPIRE BLVD SW@BROWNS MILL RD SE", "mode": "bus"}}, {"type": "Feature", "geometry": {"type": "Point", "coordinates": [-84.391609, 33.658871]}, "properties": {"kind": "stop", "name": "EMPIRE BLVD SW@3485", "mode": "bus"}}, {"type": "Feature", "geometry": {"type": "Point", "coordinates": [-84.391724, 33.661137]}, "properties": {"kind": "stop", "name": "EMPIRE BLVD SW@EMPIRE WAY SW", "mode": "bus"}}, {"type": "Feature", "geometry": {"type": "Point", "coordinates": [-84.391721, 33.662861]}, "properties": {"kind": "stop", "name": "EMPIRE BLVD SW@HOLLOW TREE LN SW", "mode": "bus"}}, {"type": "Feature", "geometry": {"type": "Point", "coordinates": [-84.392387, 33.666538]}, "properties": {"kind": "stop", "name": "EMPIRE BLVD SW @ WARD DR SW", "mode": "bus"}}, {"type": "Feature", "geometry": {"type": "Point", "coordinates": [-84.393247, 33.668922]}, "properties": {"kind": "stop", "name": "EMPIRE BLVD SW@OAK DR SW", "mode": "bus"}}, {"type": "Feature", "geometry": {"type": "Point", "coordinates": [-84.393178, 33.671071]}, "properties": {"kind": "stop", "name": "EMPIRE BLVD SW@GLENROSE CIR SW", "mode": "bus"}}, {"type": "Feature", "geometry": {"type": "Point", "coordinates": [-84.393394, 33.672592]}, "properties": {"kind": "stop", "name": "EMPIRE BLVD SW @ MT ZION RD SW", "mode": "bus"}}, {"type": "Feature", "geometry": {"type": "Point", "coordinates": [-84.393288, 33.674873]}, "properties": {"kind": "stop", "name": "HAPEVILLE RD SW@2909", "mode": "bus"}}, {"type": "Feature", "geometry": {"type": "Point", "coordinates": [-84.39328, 33.676933]}, "properties": {"kind": "stop", "name": "HAPEVILLE RD SW@WATERS RD SW", "mode": "bus"}}, {"type": "Feature", "geometry": {"type": "Point", "coordinates": [-84.393196, 33.678596]}, "properties": {"kind": "stop", "name": "HAPEVILLE RD SW@OLD HAPEVILLE RD SW", "mode": "bus"}}, {"type": "Feature", "geometry": {"type": "Point", "coordinates": [-84.393609, 33.680983]}, "properties": {"kind": "stop", "name": "OLD HAPEVILL RD @ CLEVELAND AVE", "mode": "bus"}}, {"type": "Feature", "geometry": {"type": "Point", "coordinates": [-84.384506, 33.67926]}, "properties": {"kind": "stop", "name": "BROWNS MILL RD SE@CLEVELAND AVE SE", "mode": "bus"}}, {"type": "Feature", "geometry": {"type": "Point", "coordinates": [-84.380289, 33.665097]}, "properties": {"kind": "stop", "name": "BROWNS MILL RD SE@MACEDONIA RD SE", "mode": "bus"}}, {"type": "Feature", "geometry": {"type": "Point", "coordinates": [-84.380592, 33.663391]}, "properties": {"kind": "stop", "name": "RUBY H HARPER BLVD SE @ 3371", "mode": "bus"}}, {"type": "Feature", "geometry": {"type": "Point", "coordinates": [-84.38065, 33.66201]}, "properties": {"kind": "stop", "name": "RUBY H HARPER BLVD SE @ SIMCA ST SE", "mode": "bus"}}, {"type": "Feature", "geometry": {"type": "Point", "coordinates": [-84.380481, 33.660272]}, "properties": {"kind": "stop", "name": "RUBY H HARPER BLVD SE @ 3447", "mode": "bus"}}, {"type": "Feature", "geometry": {"type": "Point", "coordinates": [-84.380882, 33.658039]}, "properties": {"kind": "stop", "name": "RUBY H HARPER BLVD SE @ BLAIR VILLA DR", "mode": "bus"}}, {"type": "Feature", "geometry": {"type": "Point", "coordinates": [-84.371444, 33.673525]}, "properties": {"kind": "stop", "name": "JONESBORO RD SE @ 2980", "mode": "bus"}}, {"type": "Feature", "geometry": {"type": "Point", "coordinates": [-84.378063, 33.680621]}, "properties": {"kind": "stop", "name": "CLEVELAND AVE SE @ 365", "mode": "bus"}}, {"type": "Feature", "geometry": {"type": "Point", "coordinates": [-84.380775, 33.68074]}, "properties": {"kind": "stop", "name": "CLEVELAND AVE SE@FAIRLANE DR SE", "mode": "bus"}}, {"type": "Feature", "geometry": {"type": "Point", "coordinates": [-84.382179, 33.68079]}, "properties": {"kind": "stop", "name": "CLEVELAND AVE SE @ ALTAVIEW DR SE", "mode": "bus"}}, {"type": "Feature", "geometry": {"type": "Point", "coordinates": [-84.384732, 33.681074]}, "properties": {"kind": "stop", "name": "CLEVELAND AVE SE @ BROWNS MILL RD SE", "mode": "bus"}}, {"type": "Feature", "geometry": {"type": "Point", "coordinates": [-84.393457, 33.650578]}, "properties": {"kind": "stop", "name": "PORSCHE AVE @ TRADEPORT BLVD", "mode": "bus"}}, {"type": "Feature", "geometry": {"type": "Point", "coordinates": [-84.371704, 33.671716]}, "properties": {"kind": "stop", "name": "HUTCHENS RD SE@JONESBORO RD SE", "mode": "bus"}}, {"type": "Feature", "geometry": {"type": "Point", "coordinates": [-84.370389, 33.67015]}, "properties": {"kind": "stop", "name": "HUTCHENS RD SE@565", "mode": "bus"}}, {"type": "Feature", "geometry": {"type": "Point", "coordinates": [-84.367749, 33.669489]}, "properties": {"kind": "stop", "name": "HUTCHENS RD SE@KING SMITH RD SE", "mode": "bus"}}, {"type": "Feature", "geometry": {"type": "Point", "coordinates": [-84.366782, 33.668487]}, "properties": {"kind": "stop", "name": "HUTCHENS RD SE@DONNEBROOK LN SE", "mode": "bus"}}, {"type": "Feature", "geometry": {"type": "Point", "coordinates": [-84.369991, 33.676739]}, "properties": {"kind": "stop", "name": "JONESBORO RD SE@SPRINGSIDE DR SE", "mode": "bus"}}, {"type": "Feature", "geometry": {"type": "Point", "coordinates": [-84.370819, 33.675201]}, "properties": {"kind": "stop", "name": "JONESBORO RD SE@SPRINGSIDE DR", "mode": "bus"}}, {"type": "Feature", "geometry": {"type": "Point", "coordinates": [-84.371674, 33.673595]}, "properties": {"kind": "stop", "name": "JONESBORO RD SE@2961", "mode": "bus"}}, {"type": "Feature", "geometry": {"type": "Point", "coordinates": [-84.384482, 33.680994]}, "properties": {"kind": "stop", "name": "CLEVELAND AVE SE @ BROWNS MILL RD SE", "mode": "bus"}}, {"type": "Feature", "geometry": {"type": "Point", "coordinates": [-84.368114, 33.680822]}, "properties": {"kind": "stop", "name": "CLEVELAND AVE @ JONESBORO RD", "mode": "bus"}}, {"type": "Feature", "geometry": {"type": "Point", "coordinates": [-84.388657, 33.68116]}, "properties": {"kind": "stop", "name": "CLEVELAND AVE SW @ MACON DR SW", "mode": "bus"}}, {"type": "Feature", "geometry": {"type": "Point", "coordinates": [-84.396581, 33.681058]}, "properties": {"kind": "stop", "name": "CLEVELAND AVE SW @ STEELE AVE SW", "mode": "bus"}}, {"type": "Feature", "geometry": {"type": "Point", "coordinates": [-84.39401, 33.68103]}, "properties": {"kind": "stop", "name": "CLEVELAND AVE SW @ OLD HAPEVILLE RD SW", "mode": "bus"}}, {"type": "Feature", "geometry": {"type": "Point", "coordinates": [-84.389141, 33.681027]}, "properties": {"kind": "stop", "name": "CLEVELAND AVE SW @ MACON DR SW", "mode": "bus"}}, {"type": "Feature", "geometry": {"type": "Point", "coordinates": [-84.389267, 33.653275]}, "properties": {"kind": "stop", "name": "ZIP INDUSTRIAL BLVD@SOUTHSIDE INDU", "mode": "bus"}}, {"type": "Feature", "geometry": {"type": "Point", "coordinates": [-84.389046, 33.654934]}, "properties": {"kind": "stop", "name": "ZIP INDUSTRIAL BLVD SE@3720", "mode": "bus"}}, {"type": "Feature", "geometry": {"type": "Point", "coordinates": [-84.385529, 33.656818]}, "properties": {"kind": "stop", "name": "ZIP INDUSTRIAL BLVD SE@3600", "mode": "bus"}}, {"type": "Feature", "geometry": {"type": "Point", "coordinates": [-84.383408, 33.658184]}, "properties": {"kind": "stop", "name": "ZIP INDUSTRIAL BLVD SE@3550", "mode": "bus"}}, {"type": "Feature", "geometry": {"type": "Point", "coordinates": [-84.384552, 33.660477]}, "properties": {"kind": "stop", "name": "ZIP INDUSTRIAL BLVD SE@BROWNS MILL", "mode": "bus"}}, {"type": "Feature", "geometry": {"type": "Point", "coordinates": [-84.385826, 33.663052]}, "properties": {"kind": "stop", "name": "HAMILTON BLVD @ 3400", "mode": "bus"}}, {"type": "Feature", "geometry": {"type": "Point", "coordinates": [-84.386809, 33.656252]}, "properties": {"kind": "stop", "name": "ZIP INDUSTRIAL BLVD@3675", "mode": "bus"}}, {"type": "Feature", "geometry": {"type": "Point", "coordinates": [-84.393117, 33.679839]}, "properties": {"kind": "stop", "name": "OLD HAPEVILLE RD@CLEVELAND AVE", "mode": "bus"}}, {"type": "Feature", "geometry": {"type": "Point", "coordinates": [-84.380236, 33.667433]}, "properties": {"kind": "stop", "name": "BROWNS MILL RD@OAK DR", "mode": "bus"}}, {"type": "Feature", "geometry": {"type": "Point", "coordinates": [-84.375078, 33.680699]}, "properties": {"kind": "stop", "name": "CLEVELAND AVE SE @ 445", "mode": "bus"}}, {"type": "Feature", "geometry": {"type": "Point", "coordinates": [-84.363991, 33.667995]}, "properties": {"kind": "stop", "name": "HUTCHENS RD@KATOMARICK DR", "mode": "bus"}}, {"type": "Feature", "geometry": {"type": "Point", "coordinates": [-84.355488, 33.665885]}, "properties": {"kind": "stop", "name": "HUTCHENS RD@FORREST PARK RD", "mode": "bus"}}, {"type": "Feature", "geometry": {"type": "Point", "coordinates": [-84.355572, 33.658974]}, "properties": {"kind": "stop", "name": "FORREST PARK RD SE@PINE FOREST DR", "mode": "bus"}}, {"type": "Feature", "geometry": {"type": "Point", "coordinates": [-84.355742, 33.656408]}, "properties": {"kind": "stop", "name": "FORREST PARK RD SE@EISENHOWER RD SE", "mode": "bus"}}, {"type": "Feature", "geometry": {"type": "Point", "coordinates": [-84.3563, 33.654653]}, "properties": {"kind": "stop", "name": "FORREST PARK RD SE@HENDON RD", "mode": "bus"}}, {"type": "Feature", "geometry": {"type": "Point", "coordinates": [-84.357811, 33.651672]}, "properties": {"kind": "stop", "name": "FORREST PARK RD SE@FOREST VALLEY DR", "mode": "bus"}}, {"type": "Feature", "geometry": {"type": "Point", "coordinates": [-84.359505, 33.650192]}, "properties": {"kind": "stop", "name": "CONLEY RD SE@900", "mode": "bus"}}, {"type": "Feature", "geometry": {"type": "Point", "coordinates": [-84.364136, 33.648628]}, "properties": {"kind": "stop", "name": "CONLEY RD SE @ JONESBORO RD SE", "mode": "bus"}}, {"type": "Feature", "geometry": {"type": "Point", "coordinates": [-84.358284, 33.650337]}, "properties": {"kind": "stop", "name": "FORREST PARK RD@CONLEY RD", "mode": "bus"}}, {"type": "Feature", "geometry": {"type": "Point", "coordinates": [-84.400882, 33.681082]}, "properties": {"kind": "stop", "name": "CLEVELAND AVE @ FORREST HILLS DR", "mode": "bus"}}, {"type": "Feature", "geometry": {"type": "Point", "coordinates": [-84.356713, 33.687826]}, "properties": {"kind": "stop", "name": "REDFORD DR@NATHAM DR", "mode": "bus"}}, {"type": "Feature", "geometry": {"type": "Point", "coordinates": [-84.391904, 33.685528]}, "properties": {"kind": "stop", "name": "OLD HAPEVILLE RD@2466", "mode": "bus"}}, {"type": "Feature", "geometry": {"type": "Point", "coordinates": [-84.357779, 33.692973]}, "properties": {"kind": "stop", "name": "CONSTITUTION RD @ 960", "mode": "bus"}}, {"type": "Feature", "geometry": {"type": "Point", "coordinates": [-84.384196, 33.67641]}, "properties": {"kind": "stop", "name": "BROWNS MILL RD@ SPRINGSIDE DR", "mode": "bus"}}, {"type": "Feature", "geometry": {"type": "Point", "coordinates": [-84.38314, 33.673224]}, "properties": {"kind": "stop", "name": "BROWNS MILL RD @ MT ZION RD", "mode": "bus"}}, {"type": "Feature", "geometry": {"type": "Point", "coordinates": [-84.380661, 33.654175]}, "properties": {"kind": "stop", "name": "RUBY H HARPER BLVD SE@ ATKINSON DR", "mode": "bus"}}, {"type": "Feature", "geometry": {"type": "Point", "coordinates": [-84.380693, 33.652268]}, "properties": {"kind": "stop", "name": "RUBY H HARPER BLVD SE @ SOUTHSIDE IND PKWY", "mode": "bus"}}, {"type": "Feature", "geometry": {"type": "Point", "coordinates": [-84.399001, 33.701377]}, "properties": {"kind": "stop", "name": "PRYOR RD SW @ ST JOHNS AVE SW", "mode": "bus"}}, {"type": "Feature", "geometry": {"type": "Point", "coordinates": [-84.37388, 33.696951]}, "properties": {"kind": "stop", "name": "BROWNS MILL RD@HARPER RD", "mode": "bus"}}, {"type": "Feature", "geometry": {"type": "Point", "coordinates": [-84.395975, 33.695301]}, "properties": {"kind": "stop", "name": "POLAR ROCK RD@POLAR ROCK AVE", "mode": "bus"}}, {"type": "Feature", "geometry": {"type": "Point", "coordinates": [-84.398928, 33.705137]}, "properties": {"kind": "stop", "name": "ASHWOOD AVE@PRYOR RD", "mode": "bus"}}, {"type": "Feature", "geometry": {"type": "Point", "coordinates": [-84.39898, 33.702666]}, "properties": {"kind": "stop", "name": "PRYOR RD@FAIR DR", "mode": "bus"}}, {"type": "Feature", "geometry": {"type": "Point", "coordinates": [-84.398904, 33.702559]}, "properties": {"kind": "stop", "name": "PRYOR RD@FAIR DR", "mode": "bus"}}, {"type": "Feature", "geometry": {"type": "Point", "coordinates": [-84.39882, 33.705066]}, "properties": {"kind": "stop", "name": "PRYOR RD@PRYOR CIR", "mode": "bus"}}, {"type": "Feature", "geometry": {"type": "Point", "coordinates": [-84.38699, 33.69357]}, "properties": {"kind": "stop", "name": "SWALLOW CIR @ JAY PL", "mode": "bus"}}, {"type": "Feature", "geometry": {"type": "Point", "coordinates": [-84.38773, 33.695941]}, "properties": {"kind": "stop", "name": "SWALLOW CIR @ FINCH DR", "mode": "bus"}}, {"type": "Feature", "geometry": {"type": "Point", "coordinates": [-84.387253, 33.69647]}, "properties": {"kind": "stop", "name": "SWALLOW CIR SE @ 2298", "mode": "bus"}}, {"type": "Feature", "geometry": {"type": "Point", "coordinates": [-84.383794, 33.662204]}, "properties": {"kind": "stop", "name": "HAMILTON BLVD@BROWNS MILL RD", "mode": "bus"}}, {"type": "Feature", "geometry": {"type": "Point", "coordinates": [-84.384808, 33.652302]}, "properties": {"kind": "stop", "name": "SOUTHSIDE INDUSTRIAL PKWY@WILSON RD", "mode": "bus"}}, {"type": "Feature", "geometry": {"type": "Point", "coordinates": [-84.384308, 33.681397]}, "properties": {"kind": "stop", "name": "BROWNS MILL RD SE @ CLEVELAND AVE SE", "mode": "bus"}}, {"type": "Feature", "geometry": {"type": "Point", "coordinates": [-84.35314, 33.691381]}, "properties": {"kind": "stop", "name": "VALLEY VIEW RD SE @ 1069", "mode": "bus"}}, {"type": "Feature", "geometry": {"type": "Point", "coordinates": [-84.380409, 33.696921]}, "properties": {"kind": "stop", "name": "HARPER RD @ MEADOR AVE", "mode": "bus"}}, {"type": "Feature", "geometry": {"type": "Point", "coordinates": [-84.382311, 33.697018]}, "properties": {"kind": "stop", "name": "HARPER RD SE @ 204", "mode": "bus"}}, {"type": "Feature", "geometry": {"type": "Point", "coordinates": [-84.382376, 33.696911]}, "properties": {"kind": "stop", "name": "HARPER RD SE @ 209", "mode": "bus"}}, {"type": "Feature", "geometry": {"type": "Point", "coordinates": [-84.380806, 33.704404]}, "properties": {"kind": "stop", "name": "LAKEWOOD AVE SE@OWEN ST SE", "mode": "bus"}}, {"type": "Feature", "geometry": {"type": "Point", "coordinates": [-84.366969, 33.693328]}, "properties": {"kind": "stop", "name": "JONESBORO RD SE @ CONSTITUTION RD SE", "mode": "bus"}}, {"type": "Feature", "geometry": {"type": "Point", "coordinates": [-84.394062, 33.68208]}, "properties": {"kind": "stop", "name": "OLD HAPEVILLE RD SW@2672", "mode": "bus"}}, {"type": "Feature", "geometry": {"type": "Point", "coordinates": [-84.375218, 33.69968]}, "properties": {"kind": "stop", "name": "BROWNS MILL RD SE@GREENDALE DR SE", "mode": "bus"}}, {"type": "Feature", "geometry": {"type": "Point", "coordinates": [-84.359809, 33.666018]}, "properties": {"kind": "stop", "name": "HUTCHENS RD SE @ 916", "mode": "bus"}}, {"type": "Feature", "geometry": {"type": "Point", "coordinates": [-84.373728, 33.69696]}, "properties": {"kind": "stop", "name": "HARPER RD SE @ BROWNS MILL RD SE", "mode": "bus"}}, {"type": "Feature", "geometry": {"type": "Point", "coordinates": [-84.371208, 33.69688]}, "properties": {"kind": "stop", "name": "HARPER RD SE@BURROUGHS AVE SE", "mode": "bus"}}, {"type": "Feature", "geometry": {"type": "Point", "coordinates": [-84.364023, 33.688817]}, "properties": {"kind": "stop", "name": "JONESBORO RD SE @ MCWILLIAMS RD SE", "mode": "bus"}}, {"type": "Feature", "geometry": {"type": "Point", "coordinates": [-84.363947, 33.688665]}, "properties": {"kind": "stop", "name": "JONESBORO RD SE@MCWILLIAMS RD SE", "mode": "bus"}}, {"type": "Feature", "geometry": {"type": "Point", "coordinates": [-84.349678, 33.700602]}, "properties": {"kind": "stop", "name": "ISA DR SE @ MORELAND AVE SE", "mode": "bus"}}, {"type": "Feature", "geometry": {"type": "Point", "coordinates": [-84.389363, 33.686353]}, "properties": {"kind": "stop", "name": "MACON DR@MOBLEY DR", "mode": "bus"}}, {"type": "Feature", "geometry": {"type": "Point", "coordinates": [-84.388742, 33.684223]}, "properties": {"kind": "stop", "name": "MACON DR@LOIS LN", "mode": "bus"}}, {"type": "Feature", "geometry": {"type": "Point", "coordinates": [-84.38985, 33.697829]}, "properties": {"kind": "stop", "name": "MACON DR @ POLAR ROCK RD", "mode": "bus"}}, {"type": "Feature", "geometry": {"type": "Point", "coordinates": [-84.390013, 33.697695]}, "properties": {"kind": "stop", "name": "MACON DR @ POLAR ROCK RD", "mode": "bus"}}, {"type": "Feature", "geometry": {"type": "Point", "coordinates": [-84.369904, 33.676632]}, "properties": {"kind": "stop", "name": "JONESBORO RD SE @ SPRINGSIDE DR", "mode": "bus"}}, {"type": "Feature", "geometry": {"type": "Point", "coordinates": [-84.370684, 33.674635]}, "properties": {"kind": "stop", "name": "JONESBORO RD SE @ 2920", "mode": "bus"}}, {"type": "Feature", "geometry": {"type": "Point", "coordinates": [-84.372294, 33.69696]}, "properties": {"kind": "stop", "name": "HARPER RD SE @ JERNIGAN DR SE", "mode": "bus"}}, {"type": "Feature", "geometry": {"type": "Point", "coordinates": [-84.37437, 33.69832]}, "properties": {"kind": "stop", "name": "BROWNS MILL RD SE @ 2045", "mode": "bus"}}, {"type": "Feature", "geometry": {"type": "Point", "coordinates": [-84.364793, 33.685335]}, "properties": {"kind": "stop", "name": "JONESBORO RD SE @ 2491", "mode": "bus"}}, {"type": "Feature", "geometry": {"type": "Point", "coordinates": [-84.364673, 33.685433]}, "properties": {"kind": "stop", "name": "JONESBORO RD SE @ 2520", "mode": "bus"}}, {"type": "Feature", "geometry": {"type": "Point", "coordinates": [-84.385872, 33.681029]}, "properties": {"kind": "stop", "name": "CLEVELAND AVE SE @ 84", "mode": "bus"}}, {"type": "Feature", "geometry": {"type": "Point", "coordinates": [-84.351036, 33.701506]}, "properties": {"kind": "stop", "name": "KIPLING ST SE @ 1088", "mode": "bus"}}, {"type": "Feature", "geometry": {"type": "Point", "coordinates": [-84.355448, 33.703662]}, "properties": {"kind": "stop", "name": "KIPLING ST @ HENRY THOMAS DR", "mode": "bus"}}, {"type": "Feature", "geometry": {"type": "Point", "coordinates": [-84.385229, 33.695288]}, "properties": {"kind": "stop", "name": "SWALLOW CIR SE @ HARPER RD SE", "mode": "bus"}}, {"type": "Feature", "geometry": {"type": "Point", "coordinates": [-84.360308, 33.687377]}, "properties": {"kind": "stop", "name": "HARGIS ST SE @ FORREST PARK RD SE", "mode": "bus"}}, {"type": "Feature", "geometry": {"type": "Point", "coordinates": [-84.354937, 33.703313]}, "properties": {"kind": "stop", "name": "TURNER RD SE @ KIPLING ST SE", "mode": "bus"}}, {"type": "Feature", "geometry": {"type": "Point", "coordinates": [-84.362056, 33.67006]}, "properties": {"kind": "stop", "name": "S ATLANTA HIGH SCHOOL", "mode": "bus"}}, {"type": "Feature", "geometry": {"type": "Point", "coordinates": [-84.39885, 33.653073]}, "properties": {"kind": "stop", "name": "PORSCHE AVE @ PORSCHE DR", "mode": "bus"}}, {"type": "Feature", "geometry": {"type": "Point", "coordinates": [-84.365377, 33.64825]}, "properties": {"kind": "stop", "name": "JONESBORO RD SE @ CONLEY RD SE", "mode": "bus"}}, {"type": "Feature", "geometry": {"type": "Point", "coordinates": [-84.359553, 33.650083]}, "properties": {"kind": "stop", "name": "CONLEY RD SE @ 925", "mode": "bus"}}, {"type": "Feature", "geometry": {"type": "Point", "coordinates": [-84.357892, 33.65071]}, "properties": {"kind": "stop", "name": "FORREST PARK RD SE @ CONLEY RD SE", "mode": "bus"}}, {"type": "Feature", "geometry": {"type": "Point", "coordinates": [-84.35748, 33.651803]}, "properties": {"kind": "stop", "name": "FORREST PARK RD SE @ FOREST VALLEY DR SE", "mode": "bus"}}, {"type": "Feature", "geometry": {"type": "Point", "coordinates": [-84.355874, 33.654945]}, "properties": {"kind": "stop", "name": "FORREST PARK RD SE @ OAKSHIRE WAY SE", "mode": "bus"}}, {"type": "Feature", "geometry": {"type": "Point", "coordinates": [-84.355506, 33.657139]}, "properties": {"kind": "stop", "name": "FORREST PARK RD SE @ EISENHOWER RD SE", "mode": "bus"}}, {"type": "Feature", "geometry": {"type": "Point", "coordinates": [-84.355474, 33.659807]}, "properties": {"kind": "stop", "name": "FORREST PARK RD SE @ PINE FOREST DR SE", "mode": "bus"}}, {"type": "Feature", "geometry": {"type": "Point", "coordinates": [-84.355759, 33.665966]}, "properties": {"kind": "stop", "name": "HUTCHENS RD SE @ FORREST PARK RD SE", "mode": "bus"}}, {"type": "Feature", "geometry": {"type": "Point", "coordinates": [-84.359972, 33.666072]}, "properties": {"kind": "stop", "name": "HUTCHENS RD SE @ 916", "mode": "bus"}}, {"type": "Feature", "geometry": {"type": "Point", "coordinates": [-84.361428, 33.666707]}, "properties": {"kind": "stop", "name": "HUTCHENS RD SE @ 852", "mode": "bus"}}, {"type": "Feature", "geometry": {"type": "Point", "coordinates": [-84.361091, 33.666322]}, "properties": {"kind": "stop", "name": "HUTCHENS RD SE @ 860", "mode": "bus"}}, {"type": "Feature", "geometry": {"type": "Point", "coordinates": [-84.364132, 33.66812]}, "properties": {"kind": "stop", "name": "HUTCHENS RD SE @ KATOMARICK DR SE", "mode": "bus"}}, {"type": "Feature", "geometry": {"type": "Point", "coordinates": [-84.366641, 33.66846]}, "properties": {"kind": "stop", "name": "HUTCHENS RD SE @ DONNEBROOK LN SE", "mode": "bus"}}, {"type": "Feature", "geometry": {"type": "Point", "coordinates": [-84.367673, 33.669525]}, "properties": {"kind": "stop", "name": "HUTCHENS RD SE @ KING SMITH RD SE", "mode": "bus"}}, {"type": "Feature", "geometry": {"type": "Point", "coordinates": [-84.369856, 33.669837]}, "properties": {"kind": "stop", "name": "HUTCHENS RD SE @ 560", "mode": "bus"}}, {"type": "Feature", "geometry": {"type": "Point", "coordinates": [-84.371878, 33.672021]}, "properties": {"kind": "stop", "name": "HUTCHENS RD SE @ JONESBORO RD SE", "mode": "bus"}}, {"type": "Feature", "geometry": {"type": "Point", "coordinates": [-84.393653, 33.650828]}, "properties": {"kind": "stop", "name": "PORSCHE AVE @ TRADEPORT BLVD", "mode": "bus"}}, {"type": "Feature", "geometry": {"type": "Point", "coordinates": [-84.369633, 33.696541]}, "properties": {"kind": "stop", "name": "JONESBORO RD SE @ HARPER RD SE", "mode": "bus"}}, {"type": "Feature", "geometry": {"type": "Point", "coordinates": [-84.392653, 33.650713]}, "properties": {"kind": "stop", "name": "CROWN RD SE @ 3900", "mode": "bus"}}, {"type": "Feature", "geometry": {"type": "Point", "coordinates": [-84.392036, 33.649594]}, "properties": {"kind": "stop", "name": "CROWN RD SE @ 3900", "mode": "bus"}}, {"type": "Feature", "geometry": {"type": "Point", "coordinates": [-84.355752, 33.703698]}, "properties": {"kind": "stop", "name": "HENRY THOMAS DR SE @ THOMASVILLE BLVD SE", "mode": "bus"}}, {"type": "Feature", "geometry": {"type": "Point", "coordinates": [-84.352558, 33.702866]}, "properties": {"kind": "stop", "name": "KIPLING ST SE @ HENRY THOMAS DR SE", "mode": "bus"}}, {"type": "Feature", "geometry": {"type": "Point", "coordinates": [-84.350645, 33.7007]}, "properties": {"kind": "stop", "name": "ISA DR SE @ KIPLING ST SE", "mode": "bus"}}, {"type": "Feature", "geometry": {"type": "Point", "coordinates": [-84.356812, 33.691595]}, "properties": {"kind": "stop", "name": "STONEWALL DR SE @ OHARA PL SE", "mode": "bus"}}, {"type": "Feature", "geometry": {"type": "Point", "coordinates": [-84.355128, 33.690709]}, "properties": {"kind": "stop", "name": "VALLEY VIEW RD SE @ LEILA LN SE", "mode": "bus"}}, {"type": "Feature", "geometry": {"type": "Point", "coordinates": [-84.350892, 33.69122]}, "properties": {"kind": "stop", "name": "VALLEY VIEW RD SE @ REGIS RD SE", "mode": "bus"}}, {"type": "Feature", "geometry": {"type": "Point", "coordinates": [-84.349545, 33.693252]}, "properties": {"kind": "stop", "name": "MORELAND AVE SE @ CONSTITUTION RD SE", "mode": "bus"}}, {"type": "Feature", "geometry": {"type": "Point", "coordinates": [-84.378503, 33.705005]}, "properties": {"kind": "stop", "name": "JONESBORO RD SE @ SAWTELL AVE SE", "mode": "bus"}}, {"type": "Feature", "geometry": {"type": "Point", "coordinates": [-84.378688, 33.705077]}, "properties": {"kind": "stop", "name": "JONESBORO RD SE @ CLAIRE DR SE", "mode": "bus"}}, {"type": "Feature", "geometry": {"type": "Point", "coordinates": [-84.354947, 33.700654]}, "properties": {"kind": "stop", "name": "TURNER RD SE @ ISA DR SE", "mode": "bus"}}, {"type": "Feature", "geometry": {"type": "Point", "coordinates": [-84.388816, 33.681296]}, "properties": {"kind": "stop", "name": "MACON DR @ CLEVELAND AVE", "mode": "bus"}}], "properties": {"coverage_pct": 96.2, "rail_coverage_pct": 0.0, "stop_count": 307, "rail_stop_count": 0, "bus_stop_count": 307, "transit_index": 32, "weights": {"rail": 2.0, "bus": 1.0}}}