{"type": "FeatureCollection", "features": [{"type": "Feature", "geometry": {"type": "Polygon", "coordinates": [[[-84.42611715904023, 33.766719694227184], [-84.42611507773377, 33.76687911593428], [-84.42610720543057, 33.76717941502794], [-84.42610729627945, 33.768079694043394], [-84.42610687421657, 33.76815182599659], [-84.42609706540787, 33.768982810049884], [-84.42608725802972, 33.77009379377762], [-84.4260574162098, 33.77064351924179], [-84.42605320553585, 33.77068566846321], [-84.42606601463689, 33.77124042720176], [-84.42606762933225, 33.77137969430725], [-84.42606766263863, 33.771709694151454], [-84.42606636076869, 33.771835906758994], [-84.42605696983132, 33.7722888661877], [-84.42604739318467, 33.773100183081034], [-84.42603788818391, 33.77394411974721], [-84.42603790590678, 33.774119694151395], [-84.42603795839695, 33.774639694074104], [-84.42603800886954, 33.77513969407294], [-84.42603805530541, 33.77559969407688], [-84.42603809265678, 33.77596969409332], [-84.42603239821538, 33.776232948041624], [-84.4260281291703, 33.77633136462244], [-84.42602817645216, 33.77679969403085], [-84.42602756702072, 33.77688624142588], [-84.42601805164182, 33.77755705873798], [-84.42600846562524, 33.779663783925045], [-84.42600850055194, 33.78000969404929], [-84.42600852680451, 33.78026969406929], [-84.42600815127422, 33.780337763950996], [-84.4259986201115, 33.78119373005735], [-84.42599874794998, 33.78245969380473], [-84.42599880450125, 33.78301969396865], [-84.4259988943806, 33.783909693882464], [-84.42595866557022, 33.78460765904793], [-84.42583820998524, 33.785299155416396], [-84.42563864309199, 33.78597776845789], [-84.42536181433135, 33.78663720300374], [-84.42501029002781, 33.78727134165402], [-84.42458732964103, 33.787874301540604], [-84.42409685557844, 33.788440488919235], [-84.42354341684681, 33.78896465108276], [-84.42293214687888, 33.789441925113366], [-84.42226871592518, 33.78986788302052], [-84.42155927845256, 33.79023857284468], [-84.42081041603716, 33.79055055534453], [-84.42002907628256, 33.79080093592634], [-84.41922250833078, 33.79098739151822], [-84.4183981955656, 33.791108192139006], [-84.41756378613503, 33.79116221696136], [-84.41672702193918, 33.79114896471886], [-84.41589566674496, 33.791068558360735], [-84.41507743409704, 33.7909217439106], [-84.4142799156966, 33.790709883539826], [-84.41351051091449, 33.790434942920065], [-84.4127763580955, 33.79009947297281], [-84.4120842682929, 33.78970658618568], [-84.41144066204983, 33.78925992771606], [-84.41085150981544, 33.788763641551085], [-84.41002152023657, 33.78799359866519], [-84.4100007865782, 33.78797429299047], [-84.40939860574403, 33.787411560673114], [-84.4068564728676, 33.78504871049418], [-84.40676413280885, 33.78496148148277], [-84.40651413709269, 33.78472146836665], [-84.40650605442815, 33.78471369729557], [-84.4043663193416, 33.78265343206904], [-84.4030166113894, 33.78136317782214], [-84.40226482003901, 33.78053057371383], [-84.40171485463932, 33.779820541503156], [-84.40135258657082, 33.779307862625245], [-84.40099657408045, 33.77875323032262], [-84.40082982327347, 33.7787304909482], [-84.39994597531212, 33.77857012486017], [-84.39908688545692, 33.77833389200131], [-84.39800681302565, 33.77798386518451], [-84.39707972831872, 33.777629836989284], [-84.3962086914137, 33.77718755898174], [-84.39549866538115, 33.77677753105892], [-84.39493393618633, 33.776422189331775], [-84.39474393201175, 33.776292180990396], [-84.39410497896915, 33.775808795135355], [-84.39352654981988, 33.77527490188825], [-84.39301434044354, 33.774695759640906], [-84.39257339420458, 33.77407707234191], [-84.39220805231201, 33.77342493329385], [-84.39192191110925, 33.77274576511892], [-84.39171778671246, 33.77204625648532], [-84.39159768734434, 33.77133329621878], [-84.39156279363233, 33.770613905448506], [-84.3916134470632, 33.769895168456856], [-84.39174914670376, 33.76918416291367], [-84.39196855421736, 33.76848789018266], [-84.39226950712299, 33.767813206385874], [-84.39264904016358, 33.76716675490478], [-84.39300266342114, 33.76669057189979], [-84.39300283424612, 33.76667819270718], [-84.39300286234797, 33.76639969421919], [-84.39300290270864, 33.76599969420647], [-84.39300290600566, 33.76596701748175], [-84.39299444041234, 33.765584328320436], [-84.39299391327367, 33.7655578904123], [-84.39298396974873, 33.76499788948311], [-84.3930114092697, 33.76430416378138], [-84.39311809370707, 33.76361580251952], [-84.39330304479323, 33.76293910562984], [-84.39356456806155, 33.76228026614626], [-84.39390026841785, 33.7616453135359], [-84.39402336092286, 33.761462173777154], [-84.39402339144274, 33.76115969415108], [-84.39402341161794, 33.76095969430735], [-84.39402342372296, 33.760839694326044], [-84.39402343381043, 33.760739694331555], [-84.39402404343063, 33.76065434838826], [-84.39403411504361, 33.75994434878237], [-84.39403536724225, 33.75988009548545], [-84.3940554489104, 33.75907009653108], [-84.394056386737, 33.75903611465101], [-84.39406489135104, 33.758756393418466], [-84.3940736982574, 33.758118188267105], [-84.39407370415725, 33.75805969436241], [-84.39407443065589, 33.757966468636695], [-84.39408377442075, 33.75736307983315], [-84.39408382418262, 33.756869694280546], [-84.39409715490935, 33.756470671620555], [-84.39409399065468, 33.756283621501], [-84.3941041600816, 33.75460362148518], [-84.39415244330876, 33.753875487413865], [-84.39428798645743, 33.75315507983714], [-84.39450941806832, 33.752449676506835], [-84.39481449915796, 33.75176640342337], [-84.39520014591636, 33.75111216286213], [-84.39566246092956, 33.75049356366606], [-84.3961967726086, 33.749916854507795], [-84.39679768242452, 33.74938786079441], [-84.3974591194706, 33.748911925851], [-84.39817440179966, 33.74849385697557], [-84.39893630391663, 33.74813787690922], [-84.39973712974485, 33.74784758120976], [-84.4005687903305, 33.747625901958756], [-84.40142288550169, 33.74747507816675], [-84.40229078865984, 33.74739663317506], [-84.4031637338497, 33.74739135928111], [-84.40429266716374, 33.74743197004341], [-84.40473145477358, 33.747425701337626], [-84.40488002674824, 33.747424640206766], [-84.40546997705853, 33.747424640422764], [-84.40556906593294, 33.74742511238845], [-84.40656949531882, 33.74743464086663], [-84.40670999391394, 33.74743464089022], [-84.40686519577166, 33.747435799230125], [-84.40745758103948, 33.747444641216354], [-84.4075799934996, 33.747444641223154], [-84.40764999897517, 33.74744464124904], [-84.40785999308045, 33.74744464132675], [-84.40929959147438, 33.74744464285482], [-84.40973932860611, 33.74743022508896], [-84.4101408780421, 33.74742482036083], [-84.41182038899781, 33.7474346429101], [-84.41276996069226, 33.747434643151415], [-84.41344997333185, 33.747434643408624], [-84.41354999775808, 33.747434643446475], [-84.41372999439116, 33.747434643514715], [-84.41390999439234, 33.747434643583], [-84.41423471810076, 33.74743971583836], [-84.4143924068832, 33.74744464378195], [-84.41446999818791, 33.74744464380756], [-84.41452999945064, 33.74744464383039], [-84.4148304650527, 33.7474546441086], [-84.41507998513667, 33.747454644051636], [-84.41513999945745, 33.74745464407452], [-84.41518324716954, 33.74745473402196], [-84.41759304419587, 33.747464734115134], [-84.41844145128339, 33.74750296064807], [-84.4192813293314, 33.747610247980866], [-84.42010464272651, 33.747785569624675], [-84.42090351422371, 33.74802724815971], [-84.42167030026232, 33.74833297127293], [-84.42239766405403, 33.748699813866416], [-84.42307864574596, 33.74912426602558], [-84.42370672898915, 33.74960226658048], [-84.4242759032768, 33.75012924194029], [-84.4247807214567, 33.750700149830095], [-84.42521635186756, 33.75130952751323], [-84.4255786246001, 33.75195154403821], [-84.42586407143942, 33.75262005601218], [-84.4260699591048, 33.75330866636754], [-84.42619431546723, 33.75401078556078], [-84.42623594849117, 33.754719694618466], [-84.42623603421072, 33.75556969421684], [-84.42623492557017, 33.755686223297324], [-84.42622609253361, 33.75614796281461], [-84.42622610380221, 33.756259694365646], [-84.42622614010929, 33.756619694317756], [-84.4262262218026, 33.75742969420471], [-84.42622625710321, 33.757779694306734], [-84.42622428131041, 33.75793504675434], [-84.42621507617709, 33.75829546463162], [-84.42620636484268, 33.7588477884214], [-84.42620638722576, 33.7590696943104], [-84.42620577765767, 33.7591562599506], [-84.42619584825975, 33.75985626031383], [-84.42618652811065, 33.760466307818426], [-84.42618655266237, 33.760709694286895], [-84.42618633655576, 33.76076148695655], [-84.42617645458276, 33.76193148709784], [-84.42617435072071, 33.76204797786584], [-84.42616671550402, 33.76232384764372], [-84.42616674434204, 33.762609694246684], [-84.42616414249586, 33.76278786957464], [-84.42615508031376, 33.76309704417987], [-84.42614612151874, 33.7635653582084], [-84.42613691661283, 33.76431709902587], [-84.42613692393726, 33.76438969428621], [-84.4261369598306, 33.764745478559334], [-84.42614038759471, 33.76479169044899], [-84.42615407155884, 33.765428990976964], [-84.42612416835225, 33.76638899260533], [-84.42612027358085, 33.76648801576611], [-84.42611714231163, 33.76655391207247], [-84.42611715904023, 33.766719694227184]]]}, "properties": {"kind": "walkshed", "buffer_mi": 0.5}}, {"type": "Feature", "geometry": {"type": "Point", "coordinates": [-84.41679, 33.756282]}, "properties": {"kind": "stop", "name": "Ashby", "mode": "rail"}}, {"type": "Feature", "geometry": {"type": "Point", "coordinates": [-84.397404, 33.756179]}, "properties": {"kind": "stop", "name": "Dome/GWCC/ Philips Arena", "mode": "rail"}}, {"type": "Feature", "geometry": {"type": "Point", "coordinates": [-84.404736, 33.756465]}, "properties": {"kind": "stop", "name": "Vine City", "mode": "rail"}}, {"type": "Feature", "geometry": {"type": "Point", "coordinates": [-84.403902, 33.756613]}, "properties": {"kind": "stop", "name": "VINE CITY STATION", "mode": "bus"}}, {"type": "Feature", "geometry": {"type": "Point", "coordinates": [-84.404021, 33.756613]}, "properties": {"kind": "stop", "name": "VINE CITY STATION", "mode": "bus"}}, {"type": "Feature", "geometry": {"type": "Point", "coordinates": [-84.41723, 33.756478]}, "properties": {"kind": "stop", "name": "ASHBY STATION", "mode": "bus"}}, {"type": "Feature", "geometry": {"type": "Point", "coordinates": [-84.417328, 33.756477]}, "properties": {"kind": "stop", "name": "ASHBY STATION", "mode": "bus"}}, {"type": "Feature", "geometry": {"type": "Point", "coordinates": [-84.397215, 33.756179]}, "properties": {"kind": "stop", "name": "GWCC-CNN CENTER STATION", "mode": "bus"}}, {"type": "Feature", "geometry": {"type": "Point", "coordinates": [-84.397291, 33.756187]}, "properties": {"kind": "stop", "name": "GWCC-CNN CENTER STATION", "mode": "bus"}}, {"type": "Feature", "geometry": {"type": "Point", "coordinates": [-84.421186, 33.754809]}, "properties": {"kind": "stop", "name": "MARTIN L KING JR DR NW @ OLLIE ST NW", "mode": "bus"}}, {"type": "Feature", "geometry": {"type": "Point", "coordinates": [-84.404936, 33.748929]}, "properties": {"kind": "stop", "name": "ATLANTA STUDENT MOVEMENT BLVD @ NORTHSIDE DR SW", "mode": "bus"}}, {"type": "Feature", "geometry": {"type": "Point", "coordinates": [-84.424187, 33.785328]}, "properties": {"kind": "stop", "name": "W MARIETTA ST NW @ LONGLEY AVE NW", "mode": "bus"}}, {"type": "Feature", "geometry": {"type": "Point", "coordinates": [-84.421493, 33.785076]}, "properties": {"kind": "stop", "name": "W MARIETTA ST NW @ HERNDON ST NW", "mode": "bus"}}, {"type": "Feature", "geometry": {"type": "Point", "coordinates": [-84.419086, 33.789554]}, "properties": {"kind": "stop", "name": "HUFF RD NW@BOYD AVE NW", "mode": "bus"}}, {"type": "Feature", "geometry": {"type": "Point", "coordinates": [-84.420521, 33.789629]}, "properties": {"kind": "stop", "name": "HUFF RD NW@ENGLISH ST NW", "mode": "bus"}}, {"type": "Feature", "geometry": {"type": "Point", "coordinates": [-84.422022, 33.789627]}, "properties": {"kind": "stop", "name": "HUFF RD NW@FAIRMONT AVE NW", "mode": "bus"}}, {"type": "Feature", "geometry": {"type": "Point", "coordinates": [-84.419208, 33.789292]}, "properties": {"kind": "stop", "name": "HUFF RD NW@BOYD AVE NW", "mode": "bus"}}, {"type": "Feature", "geometry": {"type": "Point", "coordinates": [-84.420391, 33.789557]}, "properties": {"kind": "stop", "name": "HUFF RD NW@ENGLISH ST NW", "mode": "bus"}}, {"type": "Feature", "geometry": {"type": "Point", "coordinates": [-84.422297, 33.789456]}, "properties": {"kind": "stop", "name": "HUFF RD NW@FAIRMONT AVE NW", "mode": "bus"}}, {"type": "Feature", "geometry": {"type": "Point", "coordinates": [-84.423791, 33.785523]}, "properties": {"kind": "stop", "name": "W MARIETTA ST NW @ LONGLEY AVE NW", "mode": "bus"}}, {"type": "Feature", "geometry": {"type": "Point", "coordinates": [-84.421812, 33.785249]}, "properties": {"kind": "stop", "name": "W MARIETTA ST NW @ HERNDON ST", "mode": "bus"}}, {"type": "Feature", "geometry": {"type": "Point", "coordinates": [-84.416702, 33.788352]}, "properties": {"kind": "stop", "name": "HUFF RD@BOOTH ST", "mode": "bus"}}, {"type": "Feature", "geometry": {"type": "Point", "coordinates": [-84.416485, 33.7882]}, "properties": {"kind": "stop", "name": "HUFF RD @ N ASHBY ST", "mode": "bus"}}, {"type": "Feature", "geometry": {"type": "Point", "coordinates": [-84.413418, 33.78761]}, "properties": {"kind": "stop", "name": "HUFF RD@FOSTER ST", "mode": "bus"}}, {"type": "Feature", "geometry": {"type": "Point", "coordinates": [-84.412134, 33.787729]}, "properties": {"kind": "stop", "name": "HUFF RD NW @ HOWELL MILL RD NW", "mode": "bus"}}, {"type": "Feature", "geometry": {"type": "Point", "coordinates": [-84.411858, 33.788155]}, "properties": {"kind": "stop", "name": "HOWELL MILL RD NW @ HUFF RD NW", "mode": "bus"}}, {"type": "Feature", "geometry": {"type": "Point", "coordinates": [-84.411605, 33.786304]}, "properties": {"kind": "stop", "name": "HOWELL MILL RD NW@14TH ST NW", "mode": "bus"}}, {"type": "Feature", "geometry": {"type": "Point", "coordinates": [-84.411742, 33.787646]}, "properties": {"kind": "stop", "name": "HOWELL MILL RD NW@HUFF RD NW", "mode": "bus"}}, {"type": "Feature", "geometry": {"type": "Point", "coordinates": [-84.411749, 33.785957]}, "properties": {"kind": "stop", "name": "HOWELL MILL RD NW @ 14TH ST NW", "mode": "bus"}}, {"type": "Feature", "geometry": {"type": "Point", "coordinates": [-84.41333, 33.787799]}, "properties": {"kind": "stop", "name": "HUFF RD NW@FOSTER ST NW", "mode": "bus"}}, {"type": "Feature", "geometry": {"type": "Point", "coordinates": [-84.41673, 33.75658]}, "properties": {"kind": "stop", "name": "LENA ST @ MAYSON TURNER RD", "mode": "bus"}}, {"type": "Feature", "geometry": {"type": "Point", "coordinates": [-84.414, 33.7564]}, "properties": {"kind": "stop", "name": "CARTER ST @ LEACH ST", "mode": "bus"}}, {"type": "Feature", "geometry": {"type": "Point", "coordinates": [-84.426017, 33.775518]}, "properties": {"kind": "stop", "name": "MARIETTA BLVD NW @ JEFFERSON ST NW", "mode": "bus"}}, {"type": "Feature", "geometry": {"type": "Point", "coordinates": [-84.412784, 33.756257]}, "properties": {"kind": "stop", "name": "JAMES P BRAWLEY DR @ CARTER ST", "mode": "bus"}}, {"type": "Feature", "geometry": {"type": "Point", "coordinates": [-84.419599, 33.773259]}, "properties": {"kind": "stop", "name": "DONALD L HOLLOWELL PKWY @ ADDIE ST", "mode": "bus"}}, {"type": "Feature", "geometry": {"type": "Point", "coordinates": [-84.417371, 33.756066]}, "properties": {"kind": "stop", "name": "ASHBY STATION - NORTHBOUND", "mode": "bus"}}, {"type": "Feature", "geometry": {"type": "Point", "coordinates": [-84.417408, 33.774334]}, "properties": {"kind": "stop", "name": "JOSEPH E LOWERY BLVD @ WHEELER ST", "mode": "bus"}}, {"type": "Feature", "geometry": {"type": "Point", "coordinates": [-84.417481, 33.766449]}, "properties": {"kind": "stop", "name": "JOSEPH E LOWERY BLVD NW @ NEAL ST NW", "mode": "bus"}}, {"type": "Feature", "geometry": {"type": "Point", "coordinates": [-84.417529, 33.760434]}, "properties": {"kind": "stop", "name": "JOSEPH E LOWERY BLVD NW @ THURMOND ST NW", "mode": "bus"}}, {"type": "Feature", "geometry": {"type": "Point", "coordinates": [-84.421501, 33.763572]}, "properties": {"kind": "stop", "name": "JOSEPH E BOONE BLVD @ FLOWERS PL", "mode": "bus"}}, {"type": "Feature", "geometry": {"type": "Point", "coordinates": [-84.42432, 33.76357]}, "properties": {"kind": "stop", "name": "JOSEPH E BOONE BLVD @ ARCHER WAY NW", "mode": "bus"}}, {"type": "Feature", "geometry": {"type": "Point", "coordinates": [-84.420229, 33.773151]}, "properties": {"kind": "stop", "name": "DONALD L HOLLOWELL PKWY @ SIMMONS ST", "mode": "bus"}}, {"type": "Feature", "geometry": {"type": "Point", "coordinates": [-84.414227, 33.772985]}, "properties": {"kind": "stop", "name": "DONALD L HOLLOWELL PKWY @ PAINES AVE", "mode": "bus"}}, {"type": "Feature", "geometry": {"type": "Point", "coordinates": [-84.425452, 33.77332]}, "properties": {"kind": "stop", "name": "MARIETTA BLVD @ DONALD L HOLLOWELL PKWY", "mode": "bus"}}, {"type": "Feature", "geometry": {"type": "Point", "coordinates": [-84.416662, 33.763566]}, "properties": {"kind": "stop", "name": "JOSEPH E BOONE BLVD @ JOSEPH E LOWERY BLVD", "mode": "bus"}}, {"type": "Feature", "geometry": {"type": "Point", "coordinates": [-84.4179, 33.763527]}, "properties": {"kind": "stop", "name": "JOSEPH E BOONE BLVD @ JOSEPH E LOWERY BLVD", "mode": "bus"}}, {"type": "Feature", "geometry": {"type": "Point", "coordinates": [-84.419542, 33.763545]}, "properties": {"kind": "stop", "name": "JOSEPH E BOONE BLVD @ CAIRO ST NW", "mode": "bus"}}, {"type": "Feature", "geometry": {"type": "Point", "coordinates": [-84.425488, 33.763402]}, "properties": {"kind": "stop", "name": "JOSEPH E BOONE BLVD @ MAYSON TURNER", "mode": "bus"}}, {"type": "Feature", "geometry": {"type": "Point", "coordinates": [-84.423479, 33.763481]}, "properties": {"kind": "stop", "name": "JOSEPH E BOONE BLVD @ ARCHER WAY NW", "mode": "bus"}}, {"type": "Feature", "geometry": {"type": "Point", "coordinates": [-84.422177, 33.763437]}, "properties": {"kind": "stop", "name": "JOSEPH E BOONE BLVD NW @ TEMPLE ST NW", "mode": "bus"}}, {"type": "Feature", "geometry": {"type": "Point", "coordinates": [-84.419947, 33.763441]}, "properties": {"kind": "stop", "name": "JOSEPH E BOONE BLVD @ CAIRO ST NW", "mode": "bus"}}, {"type": "Feature", "geometry": {"type": "Point", "coordinates": [-84.417669, 33.763426]}, "properties": {"kind": "stop", "name": "JOSEPH E BOONE BLVD @ JOSEPH E LOWERY BLVD", "mode": "bus"}}, {"type": "Feature", "geometry": {"type": "Point", "coordinates": [-84.417423, 33.771989]}, "properties": {"kind": "stop", "name": "JOSEPH E LOWERY BLVD NW @ FOX ST NW", "mode": "bus"}}, {"type": "Feature", "geometry": {"type": "Point", "coordinates": [-84.417431, 33.770083]}, "properties": {"kind": "stop", "name": "JOSEPH E LOWERY BLVD NW @ NORTH AVE NW", "mode": "bus"}}, {"type": "Feature", "geometry": {"type": "Point", "coordinates": [-84.41751, 33.763164]}, "properties": {"kind": "stop", "name": "JOSEPH E LOWERY BLVD NW @ JOSEPH E BOONE BLVD", "mode": "bus"}}, {"type": "Feature", "geometry": {"type": "Point", "coordinates": [-84.417441, 33.760255]}, "properties": {"kind": "stop", "name": "JOSEPH E LOWERY BLVD NW @ THURMOND ST NW", "mode": "bus"}}, {"type": "Feature", "geometry": {"type": "Point", "coordinates": [-84.417569, 33.75808]}, "properties": {"kind": "stop", "name": "JOSEPH E LOWERY BLVD NW @ MAYSON TURNER RD NW", "mode": "bus"}}, {"type": "Feature", "geometry": {"type": "Point", "coordinates": [-84.417483, 33.75842]}, "properties": {"kind": "stop", "name": "JOSEPH E LOWERY BLVD NW @ MAGNOLIA ST NW", "mode": "bus"}}, {"type": "Feature", "geometry": {"type": "Point", "coordinates": [-84.417391, 33.763459]}, "properties": {"kind": "stop", "name": "JOSEPH E LOWERY BLVD NW @ JOSEPH E BOONE BLVD", "mode": "bus"}}, {"type": "Feature", "geometry": {"type": "Point", "coordinates": [-84.417405, 33.766332]}, "properties": {"kind": "stop", "name": "JOSEPH E LOWERY BLVD NW @ NEAL ST NW", "mode": "bus"}}, {"type": "Feature", "geometry": {"type": "Point", "coordinates": [-84.417355, 33.76994]}, "properties": {"kind": "stop", "name": "JOSEPH E LOWERY BLVD NW @ NORTH AVE NW", "mode": "bus"}}, {"type": "Feature", "geometry": {"type": "Point", "coordinates": [-84.417336, 33.772124]}, "properties": {"kind": "stop", "name": "JOSEPH E LOWERY BLVD NW @ FOX ST NW", "mode": "bus"}}, {"type": "Feature", "geometry": {"type": "Point", "coordinates": [-84.417724, 33.756281]}, "properties": {"kind": "stop", "name": "ASHBY STATION - SOUTHBOUND", "mode": "bus"}}, {"type": "Feature", "geometry": {"type": "Point", "coordinates": [-84.425327, 33.77299]}, "properties": {"kind": "stop", "name": "MARIETTA BLVD @ DONALD L HOLLOWELL PKY", "mode": "bus"}}, {"type": "Feature", "geometry": {"type": "Point", "coordinates": [-84.417305, 33.774039]}, "properties": {"kind": "stop", "name": "JOSEPH E LOWERY BLVD NW @ WHEELER ST NW", "mode": "bus"}}, {"type": "Feature", "geometry": {"type": "Point", "coordinates": [-84.398489, 33.769058]}, "properties": {"kind": "stop", "name": "MARIETTA ST@615", "mode": "bus"}}, {"type": "Feature", "geometry": {"type": "Point", "coordinates": [-84.409557, 33.778529]}, "properties": {"kind": "stop", "name": "MARIETTA ST@HOWELL MILL RD", "mode": "bus"}}, {"type": "Feature", "geometry": {"type": "Point", "coordinates": [-84.410063, 33.773196]}, "properties": {"kind": "stop", "name": "DONALD L HOLLOWELL PKWY @ ECHO ST NW", "mode": "bus"}}, {"type": "Feature", "geometry": {"type": "Point", "coordinates": [-84.412786, 33.773131]}, "properties": {"kind": "stop", "name": "DONALD L HOLLOWELL PKWY @ JAMES P BRAWLEY DR", "mode": "bus"}}, {"type": "Feature", "geometry": {"type": "Point", "coordinates": [-84.414368, 33.773057]}, "properties": {"kind": "stop", "name": "DONALD L HOLLOWELL PKWY @ PAINES AVE", "mode": "bus"}}, {"type": "Feature", "geometry": {"type": "Point", "coordinates": [-84.415401, 33.773065]}, "properties": {"kind": "stop", "name": "DONALD L HOLLOWELL PKWY @ OLIVER ST", "mode": "bus"}}, {"type": "Feature", "geometry": {"type": "Point", "coordinates": [-84.417304, 33.773081]}, "properties": {"kind": "stop", "name": "DONALD L HOLLOWELL PKWY @ JOSEPH E LOWERY BLVD", "mode": "bus"}}, {"type": "Feature", "geometry": {"type": "Point", "coordinates": [-84.416565, 33.77301]}, "properties": {"kind": "stop", "name": "DONALD L HOLLOWELL PKWY @ LINDSAY ST", "mode": "bus"}}, {"type": "Feature", "geometry": {"type": "Point", "coordinates": [-84.415488, 33.772993]}, "properties": {"kind": "stop", "name": "DONALD L HOLLOWELL PKWY @ OLIVER ST", "mode": "bus"}}, {"type": "Feature", "geometry": {"type": "Point", "coordinates": [-84.411816, 33.773017]}, "properties": {"kind": "stop", "name": "DONALD L HOLLOWELL PKWY @ JAMES P BRAWLEY DR", "mode": "bus"}}, {"type": "Feature", "geometry": {"type": "Point", "coordinates": [-84.413398, 33.771223]}, "properties": {"kind": "stop", "name": "ENGLISH AVE NW @ PELHAM ST NW", "mode": "bus"}}, {"type": "Feature", "geometry": {"type": "Point", "coordinates": [-84.404656, 33.781558]}, "properties": {"kind": "stop", "name": "10TH ST NW@HEMPHILL AVE NW", "mode": "bus"}}, {"type": "Feature", "geometry": {"type": "Point", "coordinates": [-84.408516, 33.777245]}, "properties": {"kind": "stop", "name": "MARIETTA ST NW@HAMPTON ST NW", "mode": "bus"}}, {"type": "Feature", "geometry": {"type": "Point", "coordinates": [-84.406688, 33.775141]}, "properties": {"kind": "stop", "name": "MARIETTA ST NW@NORTHSIDE DR NW", "mode": "bus"}}, {"type": "Feature", "geometry": {"type": "Point", "coordinates": [-84.406029, 33.774307]}, "properties": {"kind": "stop", "name": "MARIETTA ST NW @ BOSS ST NW", "mode": "bus"}}, {"type": "Feature", "geometry": {"type": "Point", "coordinates": [-84.405052, 33.773623]}, "properties": {"kind": "stop", "name": "MARIETTA ST NW@BANKHEAD AVE NW", "mode": "bus"}}, {"type": "Feature", "geometry": {"type": "Point", "coordinates": [-84.403484, 33.773163]}, "properties": {"kind": "stop", "name": "MARIETTA ST NW@MEANS ST NW", "mode": "bus"}}, {"type": "Feature", "geometry": {"type": "Point", "coordinates": [-84.401766, 33.772287]}, "properties": {"kind": "stop", "name": "MARIETTA ST NW@WALLACE ST NW", "mode": "bus"}}, {"type": "Feature", "geometry": {"type": "Point", "coordinates": [-84.401482, 33.772252]}, "properties": {"kind": "stop", "name": "MARIETTA ST NW@WALLACE ST NW", "mode": "bus"}}, {"type": "Feature", "geometry": {"type": "Point", "coordinates": [-84.403081, 33.773172]}, "properties": {"kind": "stop", "name": "MARIETTA ST NW@MEANS ST NW", "mode": "bus"}}, {"type": "Feature", "geometry": {"type": "Point", "coordinates": [-84.404716, 33.773712]}, "properties": {"kind": "stop", "name": "MARIETTA ST NW @ BANKHEAD AVE", "mode": "bus"}}, {"type": "Feature", "geometry": {"type": "Point", "coordinates": [-84.406193, 33.774585]}, "properties": {"kind": "stop", "name": "MARIETTA ST NW@MCMILLAN ST NW", "mode": "bus"}}, {"type": "Feature", "geometry": {"type": "Point", "coordinates": [-84.406901, 33.775792]}, "properties": {"kind": "stop", "name": "MARIETTA ST NW @ NORTHSIDE DR NW", "mode": "bus"}}, {"type": "Feature", "geometry": {"type": "Point", "coordinates": [-84.408066, 33.777161]}, "properties": {"kind": "stop", "name": "MARIETTA ST NW @ HAMPTON ST", "mode": "bus"}}, {"type": "Feature", "geometry": {"type": "Point", "coordinates": [-84.412597, 33.783683]}, "properties": {"kind": "stop", "name": "BRADY AVE@HOWELL MILL RD", "mode": "bus"}}, {"type": "Feature", "geometry": {"type": "Point", "coordinates": [-84.404319, 33.781498]}, "properties": {"kind": "stop", "name": "10TH ST@HEMPHILL AVE", "mode": "bus"}}, {"type": "Feature", "geometry": {"type": "Point", "coordinates": [-84.407777, 33.781501]}, "properties": {"kind": "stop", "name": "10TH ST NW @ NORTHSIDE DR NW", "mode": "bus"}}, {"type": "Feature", "geometry": {"type": "Point", "coordinates": [-84.407092, 33.781565]}, "properties": {"kind": "stop", "name": "10TH ST@NORTHSIDE DR", "mode": "bus"}}, {"type": "Feature", "geometry": {"type": "Point", "coordinates": [-84.40937, 33.778554]}, "properties": {"kind": "stop", "name": "MARIETTA ST @ HOWELL MILL RD", "mode": "bus"}}, {"type": "Feature", "geometry": {"type": "Point", "coordinates": [-84.41254, 33.78367]}, "properties": {"kind": "stop", "name": "BRADY AVE @ HOWELL MILL RD", "mode": "bus"}}, {"type": "Feature", "geometry": {"type": "Point", "coordinates": [-84.410169, 33.781581]}, "properties": {"kind": "stop", "name": "10TH ST @ IMAGE AVE", "mode": "bus"}}, {"type": "Feature", "geometry": {"type": "Point", "coordinates": [-84.410336, 33.781514]}, "properties": {"kind": "stop", "name": "10TH ST NW @ IMAGE AVE", "mode": "bus"}}, {"type": "Feature", "geometry": {"type": "Point", "coordinates": [-84.413197, 33.781625]}, "properties": {"kind": "stop", "name": "10TH ST@BRADY AVE", "mode": "bus"}}, {"type": "Feature", "geometry": {"type": "Point", "coordinates": [-84.412936, 33.781531]}, "properties": {"kind": "stop", "name": "10TH ST@BRADY AVE", "mode": "bus"}}, {"type": "Feature", "geometry": {"type": "Point", "coordinates": [-84.392043, 33.771318]}, "properties": {"kind": "stop", "name": "NORTH AVE NW @ TECHWOOD DR NW", "mode": "bus"}}, {"type": "Feature", "geometry": {"type": "Point", "coordinates": [-84.394047, 33.771275]}, "properties": {"kind": "stop", "name": "NORTH AVE NW @ FOWLER ST", "mode": "bus"}}, {"type": "Feature", "geometry": {"type": "Point", "coordinates": [-84.395848, 33.771351]}, "properties": {"kind": "stop", "name": "NORTH AVE NW @ TECH PKWY NW", "mode": "bus"}}, {"type": "Feature", "geometry": {"type": "Point", "coordinates": [-84.402763, 33.770103]}, "properties": {"kind": "stop", "name": "NORTH AVE NW@STRONG ST NW", "mode": "bus"}}, {"type": "Feature", "geometry": {"type": "Point", "coordinates": [-84.39643, 33.771311]}, "properties": {"kind": "stop", "name": "NORTH AVE NW @ LUCKIE ST NW", "mode": "bus"}}, {"type": "Feature", "geometry": {"type": "Point", "coordinates": [-84.391944, 33.770915]}, "properties": {"kind": "stop", "name": "CENTENNIAL OLYMPIC PARK DR @ NORTH AVE NW", "mode": "bus"}}, {"type": "Feature", "geometry": {"type": "Point", "coordinates": [-84.39214, 33.7707]}, "properties": {"kind": "stop", "name": "CENTENNIAL OLYMPIC PARK DR@NORTH AVE", "mode": "bus"}}, {"type": "Feature", "geometry": {"type": "Point", "coordinates": [-84.392554, 33.771246]}, "properties": {"kind": "stop", "name": "NORTH AVE @ CENTENNIAL OLYMPIC PARK DR", "mode": "bus"}}, {"type": "Feature", "geometry": {"type": "Point", "coordinates": [-84.39363, 33.771335]}, "properties": {"kind": "stop", "name": "NORTH AVE NW @ FOWLER ST", "mode": "bus"}}, {"type": "Feature", "geometry": {"type": "Point", "coordinates": [-84.395446, 33.771342]}, "properties": {"kind": "stop", "name": "NORTH AVE @ CHERRY ST", "mode": "bus"}}, {"type": "Feature", "geometry": {"type": "Point", "coordinates": [-84.395875, 33.770759]}, "properties": {"kind": "stop", "name": "LUCKIE ST @ NORTH AVE", "mode": "bus"}}, {"type": "Feature", "geometry": {"type": "Point", "coordinates": [-84.396237, 33.77091]}, "properties": {"kind": "stop", "name": "LUCKIE ST @ NORTH AVE", "mode": "bus"}}, {"type": "Feature", "geometry": {"type": "Point", "coordinates": [-84.415014, 33.763531]}, "properties": {"kind": "stop", "name": "JOSEPH E BOONE BLVD @ SCIPLE TER NW", "mode": "bus"}}, {"type": "Feature", "geometry": {"type": "Point", "coordinates": [-84.413829, 33.763525]}, "properties": {"kind": "stop", "name": "JOSEPH E BOONE BLVD @ ANDREW J HAIRSTON BLVD", "mode": "bus"}}, {"type": "Feature", "geometry": {"type": "Point", "coordinates": [-84.412512, 33.763515]}, "properties": {"kind": "stop", "name": "JOSEPH E BOONE BLVD @ JAMES P BRAWLEY DR NW", "mode": "bus"}}, {"type": "Feature", "geometry": {"type": "Point", "coordinates": [-84.411114, 33.763515]}, "properties": {"kind": "stop", "name": "JOSEPH E BOONE BLVD @ GRIFFIN ST NW", "mode": "bus"}}, {"type": "Feature", "geometry": {"type": "Point", "coordinates": [-84.409024, 33.763503]}, "properties": {"kind": "stop", "name": "JOSEPH E BOONE BLVD @ ELM ST NW", "mode": "bus"}}, {"type": "Feature", "geometry": {"type": "Point", "coordinates": [-84.407634, 33.763505]}, "properties": {"kind": "stop", "name": "JOSEPH E BOONE BLVD @ VINE ST NW", "mode": "bus"}}, {"type": "Feature", "geometry": {"type": "Point", "coordinates": [-84.405416, 33.76351]}, "properties": {"kind": "stop", "name": "JOSEPH E BOONE BLVD @ MAPLE ST NW", "mode": "bus"}}, {"type": "Feature", "geometry": {"type": "Point", "coordinates": [-84.414907, 33.763417]}, "properties": {"kind": "stop", "name": "JOSEPH E BOONE BLVD @ SCIPLE TER NW", "mode": "bus"}}, {"type": "Feature", "geometry": {"type": "Point", "coordinates": [-84.412774, 33.763285]}, "properties": {"kind": "stop", "name": "JOSEPH E BOONE BLVD @ JAMES P BRAWLEY", "mode": "bus"}}, {"type": "Feature", "geometry": {"type": "Point", "coordinates": [-84.411346, 33.763241]}, "properties": {"kind": "stop", "name": "JOSEPH E BOONE BLVD @ GRIFFIN ST NW", "mode": "bus"}}, {"type": "Feature", "geometry": {"type": "Point", "coordinates": [-84.40976, 33.76338]}, "properties": {"kind": "stop", "name": "JOSEPH E BOONE BLVD @ SUNSET AVE NW", "mode": "bus"}}, {"type": "Feature", "geometry": {"type": "Point", "coordinates": [-84.407518, 33.763412]}, "properties": {"kind": "stop", "name": "JOSEPH E BOONE BLVD @ VINE ST NW", "mode": "bus"}}, {"type": "Feature", "geometry": {"type": "Point", "coordinates": [-84.405373, 33.763373]}, "properties": {"kind": "stop", "name": "JOSEPH E BOONE BLVD @ MAPLE ST NW", "mode": "bus"}}, {"type": "Feature", "geometry": {"type": "Point", "coordinates": [-84.403204, 33.763367]}, "properties": {"kind": "stop", "name": "JOSEPH E BOONE BLVD @ NORTHSIDE DR", "mode": "bus"}}, {"type": "Feature", "geometry": {"type": "Point", "coordinates": [-84.402797, 33.760838]}, "properties": {"kind": "stop", "name": "NORTHSIDE DR NW @ THURMOND ST NW", "mode": "bus"}}, {"type": "Feature", "geometry": {"type": "Point", "coordinates": [-84.405001, 33.768239]}, "properties": {"kind": "stop", "name": "CAMERON M ALEXANDER BLVD @ NORTHSIDE DR", "mode": "bus"}}, {"type": "Feature", "geometry": {"type": "Point", "coordinates": [-84.407763, 33.768193]}, "properties": {"kind": "stop", "name": "CAMERON M ALEXANDER BLVD @ VINE ST NW", "mode": "bus"}}, {"type": "Feature", "geometry": {"type": "Point", "coordinates": [-84.407654, 33.768255]}, "properties": {"kind": "stop", "name": "CAMERON M ALEXANDER BLVD NW @ VINE ST NW", "mode": "bus"}}, {"type": "Feature", "geometry": {"type": "Point", "coordinates": [-84.410002, 33.768164]}, "properties": {"kind": "stop", "name": "CAMERON M ALEXANDER BLVD @ SUNSET AVE NW", "mode": "bus"}}, {"type": "Feature", "geometry": {"type": "Point", "coordinates": [-84.41009, 33.768236]}, "properties": {"kind": "stop", "name": "CAMERON M ALEXANDER BLVD @ SUNSET AVE NW", "mode": "bus"}}, {"type": "Feature", "geometry": {"type": "Point", "coordinates": [-84.411155, 33.768235]}, "properties": {"kind": "stop", "name": "CAMERON M ALEXANDER BLVD @ GRIFFIN ST NW", "mode": "bus"}}, {"type": "Feature", "geometry": {"type": "Point", "coordinates": [-84.411242, 33.768163]}, "properties": {"kind": "stop", "name": "CAMERON M ALEXANDER BLVD @ GRIFFIN ST NW", "mode": "bus"}}, {"type": "Feature", "geometry": {"type": "Point", "coordinates": [-84.412688, 33.76818]}, "properties": {"kind": "stop", "name": "CAMERON M ALEXANDER BLVD @ JAMES P BRAWLEY DR", "mode": "bus"}}, {"type": "Feature", "geometry": {"type": "Point", "coordinates": [-84.412482, 33.768261]}, "properties": {"kind": "stop", "name": "CAMERON M ALEXANDER BLVD @ J P BRAWLEY DR", "mode": "bus"}}, {"type": "Feature", "geometry": {"type": "Point", "coordinates": [-84.413372, 33.768569]}, "properties": {"kind": "stop", "name": "ENGLISH AVE @ CAMERON M ALEXANDER BLVD NW", "mode": "bus"}}, {"type": "Feature", "geometry": {"type": "Point", "coordinates": [-84.413408, 33.769979]}, "properties": {"kind": "stop", "name": "ENGLISH AVE NW @ NORTH AVE NW", "mode": "bus"}}, {"type": "Feature", "geometry": {"type": "Point", "coordinates": [-84.402861, 33.770031]}, "properties": {"kind": "stop", "name": "NORTH AVE NW @ NORTH YARDS DR NW", "mode": "bus"}}, {"type": "Feature", "geometry": {"type": "Point", "coordinates": [-84.39899, 33.769363]}, "properties": {"kind": "stop", "name": "MARIETTA ST NW@584", "mode": "bus"}}, {"type": "Feature", "geometry": {"type": "Point", "coordinates": [-84.402656, 33.761277]}, "properties": {"kind": "stop", "name": "NORTHSIDE DR NW @ THURMOND ST NW", "mode": "bus"}}, {"type": "Feature", "geometry": {"type": "Point", "coordinates": [-84.403597, 33.756595]}, "properties": {"kind": "stop", "name": "VINE CITY STATION (POSTELL ST)", "mode": "bus"}}, {"type": "Feature", "geometry": {"type": "Point", "coordinates": [-84.404411, 33.756545]}, "properties": {"kind": "stop", "name": "VINE CITY STATION (ELECTRIC AVE)", "mode": "bus"}}, {"type": "Feature", "geometry": {"type": "Point", "coordinates": [-84.392084, 33.76874]}, "properties": {"kind": "stop", "name": "CENTENNIAL OLYMPIC PARK DR @ MERRITSS AVE", "mode": "bus"}}, {"type": "Feature", "geometry": {"type": "Point", "coordinates": [-84.397413, 33.766279]}, "properties": {"kind": "stop", "name": "MARIETTA ST NW@PARKER ST NW", "mode": "bus"}}, {"type": "Feature", "geometry": {"type": "Point", "coordinates": [-84.4176, 33.752569]}, "properties": {"kind": "stop", "name": "JOSEPH E LOWERY BLVD @ BECKWITH ST SW", "mode": "bus"}}, {"type": "Feature", "geometry": {"type": "Point", "coordinates": [-84.417762, 33.751251]}, "properties": {"kind": "stop", "name": "JOSEPH E LOWERY BLVD@PARSONS ST SW", "mode": "bus"}}, {"type": "Feature", "geometry": {"type": "Point", "coordinates": [-84.417604, 33.750004]}, "properties": {"kind": "stop", "name": "JOSEPH E LOWERY BLVD @ ASHBY GRV SW", "mode": "bus"}}, {"type": "Feature", "geometry": {"type": "Point", "coordinates": [-84.417594, 33.749212]}, "properties": {"kind": "stop", "name": "JOSEPH E LOWERY BLVD @ FAIR ST SW", "mode": "bus"}}, {"type": "Feature", "geometry": {"type": "Point", "coordinates": [-84.417337, 33.749024]}, "properties": {"kind": "stop", "name": "JOSEPH E LOWERY BLVD @ ATLANTA STUDENT MOVEMENT BLVD", "mode": "bus"}}, {"type": "Feature", "geometry": {"type": "Point", "coordinates": [-84.417277, 33.75063]}, "properties": {"kind": "stop", "name": "JOSEPH E LOWERY BLVD@PARSONS ST SW", "mode": "bus"}}, {"type": "Feature", "geometry": {"type": "Point", "coordinates": [-84.417322, 33.752027]}, "properties": {"kind": "stop", "name": "JOSEPH E LOWERY BLVD@BECKWITH ST SW", "mode": "bus"}}, {"type": "Feature", "geometry": {"type": "Point", "coordinates": [-84.416015, 33.749264]}, "properties": {"kind": "stop", "name": "ATLANTA STUDENT MOVEMENT BLVD @ EUHRLEE ST SW", "mode": "bus"}}, {"type": "Feature", "geometry": {"type": "Point", "coordinates": [-84.416809, 33.749236]}, "properties": {"kind": "stop", "name": "ATLANTA STUDENT MOVEMENT BLVD @ OGDEN ST SW", "mode": "bus"}}, {"type": "Feature", "geometry": {"type": "Point", "coordinates": [-84.418059, 33.748985]}, "properties": {"kind": "stop", "name": "FAIR ST SW @ JOSEPH E LOWERY BLVD", "mode": "bus"}}, {"type": "Feature", "geometry": {"type": "Point", "coordinates": [-84.419167, 33.748959]}, "properties": {"kind": "stop", "name": "FAIR ST SW @ ABBOTT ST SW", "mode": "bus"}}, {"type": "Feature", "geometry": {"type": "Point", "coordinates": [-84.420273, 33.748981]}, "properties": {"kind": "stop", "name": "FAIR ST SW @ AGNES JONES PL SW", "mode": "bus"}}, {"type": "Feature", "geometry": {"type": "Point", "coordinates": [-84.421694, 33.74892]}, "properties": {"kind": "stop", "name": "FAIR ST SW @ JOSE ST SW", "mode": "bus"}}, {"type": "Feature", "geometry": {"type": "Point", "coordinates": [-84.421726, 33.749272]}, "properties": {"kind": "stop", "name": "FAIR ST SW@SAINT JOSE ST SW", "mode": "bus"}}, {"type": "Feature", "geometry": {"type": "Point", "coordinates": [-84.416048, 33.749192]}, "properties": {"kind": "stop", "name": "ATLANTA STUDENT MOVEMENT BLVD @ EUHARLEE ST SW", "mode": "bus"}}, {"type": "Feature", "geometry": {"type": "Point", "coordinates": [-84.420461, 33.749162]}, "properties": {"kind": "stop", "name": "FAIR ST SW@AGNES JONES PL SW", "mode": "bus"}}, {"type": "Feature", "geometry": {"type": "Point", "coordinates": [-84.417466, 33.753318]}, "properties": {"kind": "stop", "name": "JOSEPH E LOWERY BLVD@MITCHELL ST SW", "mode": "bus"}}, {"type": "Feature", "geometry": {"type": "Point", "coordinates": [-84.417346, 33.754524]}, "properties": {"kind": "stop", "name": "JOSEPH E LOWERY BLVD @ MARTIN L KING JR DR", "mode": "bus"}}, {"type": "Feature", "geometry": {"type": "Point", "coordinates": [-84.424968, 33.75384]}, "properties": {"kind": "stop", "name": "MARTIN L KING JR DR @ MORRIS BROWN", "mode": "bus"}}, {"type": "Feature", "geometry": {"type": "Point", "coordinates": [-84.425011, 33.753893]}, "properties": {"kind": "stop", "name": "MARTIN L KING JR DR NW @ MORRIS BROWN DR SW", "mode": "bus"}}, {"type": "Feature", "geometry": {"type": "Point", "coordinates": [-84.423827, 33.754395]}, "properties": {"kind": "stop", "name": "MARTIN LUTHER KING J@HUNTER PL N", "mode": "bus"}}, {"type": "Feature", "geometry": {"type": "Point", "coordinates": [-84.41994, 33.754709]}, "properties": {"kind": "stop", "name": "MARTIN LUTHER KING J DR @ WHITEHOUSE DR", "mode": "bus"}}, {"type": "Feature", "geometry": {"type": "Point", "coordinates": [-84.423892, 33.754431]}, "properties": {"kind": "stop", "name": "MARTIN L KING JR DR NW @ HUNTER PL NW", "mode": "bus"}}, {"type": "Feature", "geometry": {"type": "Point", "coordinates": [-84.420311, 33.754772]}, "properties": {"kind": "stop", "name": "MARTIN L KING JR DR NW @ BOOKER ST NW", "mode": "bus"}}, {"type": "Feature", "geometry": {"type": "Point", "coordinates": [-84.419426, 33.749191]}, "properties": {"kind": "stop", "name": "FAIR ST@ABBOTT ST", "mode": "bus"}}, {"type": "Feature", "geometry": {"type": "Point", "coordinates": [-84.421316, 33.754747]}, "properties": {"kind": "stop", "name": "MARTIN LUTHER KING J DR@OLLIE ST", "mode": "bus"}}, {"type": "Feature", "geometry": {"type": "Point", "coordinates": [-84.418167, 33.749074]}, "properties": {"kind": "stop", "name": "FAIR ST SW @ JOSEPH E LOWERY BLVD", "mode": "bus"}}, {"type": "Feature", "geometry": {"type": "Point", "coordinates": [-84.399785, 33.749241]}, "properties": {"kind": "stop", "name": "PETERS ST SW @ HAYNES ST SW", "mode": "bus"}}, {"type": "Feature", "geometry": {"type": "Point", "coordinates": [-84.406514, 33.749182]}, "properties": {"kind": "stop", "name": "ATLANTA STUDENT MOVEMENT BLVD @ WALNUT ST SW", "mode": "bus"}}, {"type": "Feature", "geometry": {"type": "Point", "coordinates": [-84.411219, 33.749365]}, "properties": {"kind": "stop", "name": "ATLANTA STUDENT MOVEMENT BLVD @ LAWSHE ST SW", "mode": "bus"}}, {"type": "Feature", "geometry": {"type": "Point", "coordinates": [-84.412599, 33.749556]}, "properties": {"kind": "stop", "name": "ATLANTA STUDENT MOVEMENT BLVD @ JAMES P BRAWLEY DR SW", "mode": "bus"}}, {"type": "Feature", "geometry": {"type": "Point", "coordinates": [-84.414271, 33.749457]}, "properties": {"kind": "stop", "name": "ATLANTA STUDENT MOVEMENT BLVD @ MILTON ST SW", "mode": "bus"}}, {"type": "Feature", "geometry": {"type": "Point", "coordinates": [-84.401161, 33.748085]}, "properties": {"kind": "stop", "name": "PETERS ST SW @ FAIR ST SW", "mode": "bus"}}, {"type": "Feature", "geometry": {"type": "Point", "coordinates": [-84.406578, 33.74902]}, "properties": {"kind": "stop", "name": "ATLANTA STUDENT MOVEMENT BLVD @ WALNUT ST SW", "mode": "bus"}}, {"type": "Feature", "geometry": {"type": "Point", "coordinates": [-84.409325, 33.749191]}, "properties": {"kind": "stop", "name": "ATLANTA STUDENT MOVEMENT BLVD @ ELM ST SW", "mode": "bus"}}, {"type": "Feature", "geometry": {"type": "Point", "coordinates": [-84.410651, 33.749192]}, "properties": {"kind": "stop", "name": "ATLANTA STUDENT MOVEMENT BLVD @ JOHN HOPE DR SW", "mode": "bus"}}, {"type": "Feature", "geometry": {"type": "Point", "coordinates": [-84.413086, 33.749168]}, "properties": {"kind": "stop", "name": "ATLANTA STUDENT MOVEMENT BLVD @ JAMES P BRAWLEY DR SW", "mode": "bus"}}, {"type": "Feature", "geometry": {"type": "Point", "coordinates": [-84.414597, 33.749146]}, "properties": {"kind": "stop", "name": "ATLANTA STUDENT MOVEMENT BLVD @ MILTON ST SW", "mode": "bus"}}, {"type": "Feature", "geometry": {"type": "Point", "coordinates": [-84.417739, 33.754678]}, "properties": {"kind": "stop", "name": "MARTIN L KING JR DR @ JOSEPH E LOWERY BLVD", "mode": "bus"}}, {"type": "Feature", "geometry": {"type": "Point", "coordinates": [-84.401219, 33.747851]}, "properties": {"kind": "stop", "name": "PETERS ST SW @ FAIR ST SW", "mode": "bus"}}, {"type": "Feature", "geometry": {"type": "Point", "coordinates": [-84.39975, 33.749075]}, "properties": {"kind": "stop", "name": "PETERS ST SW @ HAYNES ST SW", "mode": "bus"}}, {"type": "Feature", "geometry": {"type": "Point", "coordinates": [-84.414293, 33.754779]}, "properties": {"kind": "stop", "name": "MARTIN L KING JR DR NW @ PASCHAL BLVD SW", "mode": "bus"}}, {"type": "Feature", "geometry": {"type": "Point", "coordinates": [-84.405154, 33.748055]}, "properties": {"kind": "stop", "name": "NORTHSIDE DR @ LARKIN ST", "mode": "bus"}}, {"type": "Feature", "geometry": {"type": "Point", "coordinates": [-84.414402, 33.754609]}, "properties": {"kind": "stop", "name": "MARTIN L KING JR DR @ PASCHAL BLVD SW", "mode": "bus"}}, {"type": "Feature", "geometry": {"type": "Point", "coordinates": [-84.410251, 33.754506]}, "properties": {"kind": "stop", "name": "MARTIN L KING JR DR @ SUNSET AVE", "mode": "bus"}}, {"type": "Feature", "geometry": {"type": "Point", "coordinates": [-84.402845, 33.753928]}, "properties": {"kind": "stop", "name": "NORTHSIDE DR SW @ MITCHELL ST SW", "mode": "bus"}}, {"type": "Feature", "geometry": {"type": "Point", "coordinates": [-84.403255, 33.750867]}, "properties": {"kind": "stop", "name": "NORTHSIDE DR SW @ CHAPEL ST SW", "mode": "bus"}}, {"type": "Feature", "geometry": {"type": "Point", "coordinates": [-84.404349, 33.749396]}, "properties": {"kind": "stop", "name": "NORTHSIDE DR SW @ ATLANTA STUDENT MOVEMENT BLVD SW", "mode": "bus"}}, {"type": "Feature", "geometry": {"type": "Point", "coordinates": [-84.403211, 33.750679]}, "properties": {"kind": "stop", "name": "NORTHSIDE DR SW @ NELSON ST SW", "mode": "bus"}}, {"type": "Feature", "geometry": {"type": "Point", "coordinates": [-84.412825, 33.754673]}, "properties": {"kind": "stop", "name": "MARTIN L KING JR DR @ JAMES P BRAWLEY  DR SW", "mode": "bus"}}, {"type": "Feature", "geometry": {"type": "Point", "coordinates": [-84.411523, 33.754536]}, "properties": {"kind": "stop", "name": "MARTIN L KING JR DR @ GRIFFIN ST", "mode": "bus"}}, {"type": "Feature", "geometry": {"type": "Point", "coordinates": [-84.409923, 33.754738]}, "properties": {"kind": "stop", "name": "MARTIN L KING JR DR NW @ SUNSET AVE NW", "mode": "bus"}}, {"type": "Feature", "geometry": {"type": "Point", "coordinates": [-84.41263, 33.754736]}, "properties": {"kind": "stop", "name": "MARTIN L KING JR DR NW @ JAMES P BRAWLEY DR NW", "mode": "bus"}}, {"type": "Feature", "geometry": {"type": "Point", "coordinates": [-84.417391, 33.754759]}, "properties": {"kind": "stop", "name": "MARTIN L KING JR DR NW @ JOSEPH E LOWERY BLVD NW", "mode": "bus"}}, {"type": "Feature", "geometry": {"type": "Point", "coordinates": [-84.396264, 33.750513]}, "properties": {"kind": "stop", "name": "TRINITY AVE SW @ TED TURNER DR SW", "mode": "bus"}}, {"type": "Feature", "geometry": {"type": "Point", "coordinates": [-84.398123, 33.749164]}, "properties": {"kind": "stop", "name": "TED TURNER DR SW @ BROTHERTON ST SW", "mode": "bus"}}, {"type": "Feature", "geometry": {"type": "Point", "coordinates": [-84.425263, 33.772544]}, "properties": {"kind": "stop", "name": "DONALD L HOLLOWELL PKWY @ MARIETTA BLVD", "mode": "bus"}}, {"type": "Feature", "geometry": {"type": "Point", "coordinates": [-84.395984, 33.764727]}, "properties": {"kind": "stop", "name": "IVAN ALLEN JR BLVD NW @ LUCKIE ST", "mode": "bus"}}, {"type": "Feature", "geometry": {"type": "Point", "coordinates": [-84.39566, 33.764497]}, "properties": {"kind": "stop", "name": "IVAN ALLEN JR BLVD NW @ LUCKIE ST", "mode": "bus"}}, {"type": "Feature", "geometry": {"type": "Point", "coordinates": [-84.396743, 33.750593]}, "properties": {"kind": "stop", "name": "TRINITY AVE SW @ TED TURNER DR SW", "mode": "bus"}}, {"type": "Feature", "geometry": {"type": "Point", "coordinates": [-84.404372, 33.74904]}, "properties": {"kind": "stop", "name": "NORTHSIDE DR SW @ FAIR ST SW", "mode": "bus"}}, {"type": "Feature", "geometry": {"type": "Point", "coordinates": [-84.393146, 33.764729]}, "properties": {"kind": "stop", "name": "IVAN ALLEN JR BLVD NW @ LOVEJOY ST", "mode": "bus"}}, {"type": "Feature", "geometry": {"type": "Point", "coordinates": [-84.394827, 33.759832]}, "properties": {"kind": "stop", "name": "MARIETTA ST NW @ PARK AVE WEST", "mode": "bus"}}, {"type": "Feature", "geometry": {"type": "Point", "coordinates": [-84.394751, 33.759877]}, "properties": {"kind": "stop", "name": "MARIETTA ST @ PARK AVE WEST", "mode": "bus"}}, {"type": "Feature", "geometry": {"type": "Point", "coordinates": [-84.396481, 33.762042]}, "properties": {"kind": "stop", "name": "MARIETTA ST @ LATIMER ST", "mode": "bus"}}, {"type": "Feature", "geometry": {"type": "Point", "coordinates": [-84.397102, 33.76333]}, "properties": {"kind": "stop", "name": "MARIETTA ST @ SIMPSON ST", "mode": "bus"}}, {"type": "Feature", "geometry": {"type": "Point", "coordinates": [-84.3972, 33.763411]}, "properties": {"kind": "stop", "name": "MARIETTA ST NW @ SIMPSON ST NW", "mode": "bus"}}, {"type": "Feature", "geometry": {"type": "Point", "coordinates": [-84.39799, 33.74884]}, "properties": {"kind": "stop", "name": "TED TURNER DR @ BROTHERTON ST", "mode": "bus"}}, {"type": "Feature", "geometry": {"type": "Point", "coordinates": [-84.422165, 33.773122]}, "properties": {"kind": "stop", "name": "DONALD L HOLLOWELL PKWY @ FINLEY AVE", "mode": "bus"}}, {"type": "Feature", "geometry": {"type": "Point", "coordinates": [-84.42198, 33.773248]}, "properties": {"kind": "stop", "name": "DONALD L HOLLOWELL PKWY @ FINLEY AVE", "mode": "bus"}}, {"type": "Feature", "geometry": {"type": "Point", "coordinates": [-84.404914, 33.768195]}, "properties": {"kind": "stop", "name": "CAMERON M ALEXANDER BLVD @ NORTHSIDE DR", "mode": "bus"}}, {"type": "Feature", "geometry": {"type": "Point", "coordinates": [-84.404665, 33.769698]}, "properties": {"kind": "stop", "name": "NORTHSIDE DR NW @ NORTH AVE NW", "mode": "bus"}}, {"type": "Feature", "geometry": {"type": "Point", "coordinates": [-84.404774, 33.769725]}, "properties": {"kind": "stop", "name": "NORTHSIDE DR @ NORTH AVE", "mode": "bus"}}, {"type": "Feature", "geometry": {"type": "Point", "coordinates": [-84.413507, 33.771393]}, "properties": {"kind": "stop", "name": "ENGLISH AVE NW @ PELHAM ST NW", "mode": "bus"}}, {"type": "Feature", "geometry": {"type": "Point", "coordinates": [-84.413506, 33.77014]}, "properties": {"kind": "stop", "name": "ENGLISH AVE NW @ NORTH AVE NW", "mode": "bus"}}, {"type": "Feature", "geometry": {"type": "Point", "coordinates": [-84.413504, 33.768323]}, "properties": {"kind": "stop", "name": "ENGLISH AVE NW @ CAMERON M ALEXANDER BLVD", "mode": "bus"}}, {"type": "Feature", "geometry": {"type": "Point", "coordinates": [-84.396163, 33.769077]}, "properties": {"kind": "stop", "name": "LUCKIE ST NW @ MERRITTS AVE", "mode": "bus"}}, {"type": "Feature", "geometry": {"type": "Point", "coordinates": [-84.397685, 33.76661]}, "properties": {"kind": "stop", "name": "MARIETTA ST NW @ 491", "mode": "bus"}}, {"type": "Feature", "geometry": {"type": "Point", "coordinates": [-84.396031, 33.768881]}, "properties": {"kind": "stop", "name": "LUCKIE ST NW @ MERRITTS AVE", "mode": "bus"}}, {"type": "Feature", "geometry": {"type": "Point", "coordinates": [-84.396057, 33.761335]}, "properties": {"kind": "stop", "name": "MARIETTA ST @ BAKER ST NW", "mode": "bus"}}, {"type": "Feature", "geometry": {"type": "Point", "coordinates": [-84.39898, 33.77117]}, "properties": {"kind": "stop", "name": "NORTH AVE NW @ STATE ST NW", "mode": "bus"}}, {"type": "Feature", "geometry": {"type": "Point", "coordinates": [-84.403592, 33.763516]}, "properties": {"kind": "stop", "name": "JOSEPH E BOONE BLVD @ EDWARDS ST NW", "mode": "bus"}}, {"type": "Feature", "geometry": {"type": "Point", "coordinates": [-84.403127, 33.753901]}, "properties": {"kind": "stop", "name": "MITCHELL ST SW @ NORTHSIDE DR SW", "mode": "bus"}}, {"type": "Feature", "geometry": {"type": "Point", "coordinates": [-84.417833, 33.783371]}, "properties": {"kind": "stop", "name": "W MARIETTA ST NW @ JOSEPH E LOWERY BLVD NW", "mode": "bus"}}, {"type": "Feature", "geometry": {"type": "Point", "coordinates": [-84.407667, 33.781825]}, "properties": {"kind": "stop", "name": "NORTHSIDE DR NW @ 10TH ST NW", "mode": "bus"}}, {"type": "Feature", "geometry": {"type": "Point", "coordinates": [-84.407248, 33.754507]}, "properties": {"kind": "stop", "name": "TATNALL ST @ MARTIN L KING JR DR", "mode": "bus"}}, {"type": "Feature", "geometry": {"type": "Point", "coordinates": [-84.406976, 33.754069]}, "properties": {"kind": "stop", "name": "TATNALL ST @ WALNUT ST", "mode": "bus"}}, {"type": "Feature", "geometry": {"type": "Point", "coordinates": [-84.403127, 33.753803]}, "properties": {"kind": "stop", "name": "MITCHELL ST @ NORTHSIDE DR", "mode": "bus"}}, {"type": "Feature", "geometry": {"type": "Point", "coordinates": [-84.403039, 33.763855]}, "properties": {"kind": "stop", "name": "NORTHSIDE DR NW @ IVAN ALLEN JR BLVD NW", "mode": "bus"}}, {"type": "Feature", "geometry": {"type": "Point", "coordinates": [-84.402843, 33.763022]}, "properties": {"kind": "stop", "name": "NORTHSIDE DR NW @ JOSEPH E BOONE BLVD NW", "mode": "bus"}}, {"type": "Feature", "geometry": {"type": "Point", "coordinates": [-84.407361, 33.782028]}, "properties": {"kind": "stop", "name": "NORTHSIDE DR NW @ 10TH ST NW", "mode": "bus"}}, {"type": "Feature", "geometry": {"type": "Point", "coordinates": [-84.404708, 33.768053]}, "properties": {"kind": "stop", "name": "NORTHSIDE DR NW @ CAMERON M ALEXANDER BLVD NW", "mode": "bus"}}, {"type": "Feature", "geometry": {"type": "Point", "coordinates": [-84.404903, 33.767953]}, "properties": {"kind": "stop", "name": "NORTHSIDE DR NW @ CAMERON M ALEXANDER BLVD NW", "mode": "bus"}}, {"type": "Feature", "geometry": {"type": "Point", "coordinates": [-84.408659, 33.773115]}, "properties": {"kind": "stop", "name": "NORTHSIDE DR @ DONALD L HOLLOWELL PKWY", "mode": "bus"}}, {"type": "Feature", "geometry": {"type": "Point", "coordinates": [-84.407477, 33.775443]}, "properties": {"kind": "stop", "name": "NORTHSIDE DR NW @ MARIETTA ST NW", "mode": "bus"}}, {"type": "Feature", "geometry": {"type": "Point", "coordinates": [-84.406988, 33.775792]}, "properties": {"kind": "stop", "name": "NORTHSIDE DR NW @ MARIETTA ST NW", "mode": "bus"}}, {"type": "Feature", "geometry": {"type": "Point", "coordinates": [-84.402736, 33.753767]}, "properties": {"kind": "stop", "name": "NORTHSIDE DR SW @ MITCHELL ST SW", "mode": "bus"}}, {"type": "Feature", "geometry": {"type": "Point", "coordinates": [-84.407399, 33.784492]}, "properties": {"kind": "stop", "name": "NORTHSIDE DR @ ETHEL ST", "mode": "bus"}}, {"type": "Feature", "geometry": {"type": "Point", "coordinates": [-84.406222, 33.771353]}, "properties": {"kind": "stop", "name": "NORTHSIDE DR @ 610", "mode": "bus"}}, {"type": "Feature", "geometry": {"type": "Point", "coordinates": [-84.411349, 33.78585]}, "properties": {"kind": "stop", "name": "14TH ST NW @ HOWELL MILL RD NW", "mode": "bus"}}, {"type": "Feature", "geometry": {"type": "Point", "coordinates": [-84.409045, 33.786069]}, "properties": {"kind": "stop", "name": "14TH ST NW @ HOWELL MILL RD NW", "mode": "bus"}}, {"type": "Feature", "geometry": {"type": "Point", "coordinates": [-84.417253, 33.782343]}, "properties": {"kind": "stop", "name": "JOSEPH E LOWERY BLVD NW @ W MARIETTA ST NW", "mode": "bus"}}, {"type": "Feature", "geometry": {"type": "Point", "coordinates": [-84.417278, 33.779969]}, "properties": {"kind": "stop", "name": "JOSEPH E LOWERY BLVD @ 841", "mode": "bus"}}, {"type": "Feature", "geometry": {"type": "Point", "coordinates": [-84.417391, 33.779559]}, "properties": {"kind": "stop", "name": "JOSEPH E LOWERY BLVD @ 841", "mode": "bus"}}, {"type": "Feature", "geometry": {"type": "Point", "coordinates": [-84.417281, 33.772213]}, "properties": {"kind": "stop", "name": "FOX ST @ JOSEPH E LOWERY BLVD", "mode": "bus"}}, {"type": "Feature", "geometry": {"type": "Point", "coordinates": [-84.414033, 33.772231]}, "properties": {"kind": "stop", "name": "FOX ST @ PAINES AVE", "mode": "bus"}}, {"type": "Feature", "geometry": {"type": "Point", "coordinates": [-84.40895, 33.772842]}, "properties": {"kind": "stop", "name": "NORTHSIDE DR @ TRAVIS ST", "mode": "bus"}}, {"type": "Feature", "geometry": {"type": "Point", "coordinates": [-84.396083, 33.766544]}, "properties": {"kind": "stop", "name": "LUCKIE ST @ HUNNICUTT ST", "mode": "bus"}}, {"type": "Feature", "geometry": {"type": "Point", "coordinates": [-84.396159, 33.766705]}, "properties": {"kind": "stop", "name": "LUCKIE ST @ HUNNICUTT ST", "mode": "bus"}}, {"type": "Feature", "geometry": {"type": "Point", "coordinates": [-84.396093, 33.765085]}, "properties": {"kind": "stop", "name": "LUCKIE ST @ MILLS ST", "mode": "bus"}}, {"type": "Feature", "geometry": {"type": "Point", "coordinates": [-84.396179, 33.764826]}, "properties": {"kind": "stop", "name": "LUCKIE ST @ IVAN ALLEN JR BLVD", "mode": "bus"}}, {"type": "Feature", "geometry": {"type": "Point", "coordinates": [-84.395701, 33.752357]}, "properties": {"kind": "stop", "name": "MITCHELL ST @ TED TURNER DR", "mode": "bus"}}, {"type": "Feature", "geometry": {"type": "Point", "coordinates": [-84.414644, 33.780107]}, "properties": {"kind": "stop", "name": "W MARIETTA ST @ 800", "mode": "bus"}}, {"type": "Feature", "geometry": {"type": "Point", "coordinates": [-84.411766, 33.779754]}, "properties": {"kind": "stop", "name": "W MARIETTA ST @ 8TH ST", "mode": "bus"}}, {"type": "Feature", "geometry": {"type": "Point", "coordinates": [-84.412298, 33.779786]}, "properties": {"kind": "stop", "name": "W MARIETTA ST @ BRADY AVE", "mode": "bus"}}, {"type": "Feature", "geometry": {"type": "Point", "coordinates": [-84.416724, 33.782203]}, "properties": {"kind": "stop", "name": "W MARIETTA ST @ 887", "mode": "bus"}}, {"type": "Feature", "geometry": {"type": "Point", "coordinates": [-84.416523, 33.781715]}, "properties": {"kind": "stop", "name": "W MARIETTA ST @ 887", "mode": "bus"}}, {"type": "Feature", "geometry": {"type": "Point", "coordinates": [-84.399148, 33.753787]}, "properties": {"kind": "stop", "name": "MITCHELL ST @ MANGUM ST", "mode": "bus"}}, {"type": "Feature", "geometry": {"type": "Point", "coordinates": [-84.397505, 33.764118]}, "properties": {"kind": "stop", "name": "IVAN ALLEN JR BLVD @ MARIETTA ST", "mode": "bus"}}, {"type": "Feature", "geometry": {"type": "Point", "coordinates": [-84.403902, 33.756613]}, "properties": {"kind": "stop", "name": "VINE CITY STATION", "mode": "bus"}}, {"type": "Feature", "geometry": {"type": "Point", "coordinates": [-84.404021, 33.756613]}, "properties": {"kind": "stop", "name": "VINE CITY STATION", "mode": "bus"}}, {"type": "Feature", "geometry": {"type": "Point", "coordinates": [-84.41723, 33.756478]}, "properties": {"kind": "stop", "name": "ASHBY STATION", "mode": "bus"}}, {"type": "Feature", "geometry": {"type": "Point", "coordinates": [-84.417328, 33.756477]}, "properties": {"kind": "stop", "name": "ASHBY STATION", "mode": "bus"}}, {"type": "Feature", "geometry": {"type": "Point", "coordinates": [-84.397215, 33.756179]}, "properties": {"kind": "stop", "name": "GWCC-CNN CENTER STATION", "mode": "bus"}}, {"type": "Feature", "geometry": {"type": "Point", "coordinates": [-84.397291, 33.756187]}, "properties": {"kind": "stop", "name": "GWCC-CNN CENTER STATION", "mode": "bus"}}], "properties": {"coverage_pct": 100.0, "rail_coverage_pct": 37.2, "stop_count": 269, "rail_stop_count": 3, "bus_stop_count": 266, "transit_index": 58, "weights": {"rail": 2.0, "bus": 1.0}}}