{"type": "FeatureCollection", "features": [{"type": "Feature", "geometry": {"type": "Polygon", "coordinates": [[[-84.38100930681316, 33.79637548975563], [-84.3805027098324, 33.796948256102404], [-84.37993130136167, 33.79747680555412], [-84.37968583322731, 33.79766332204104], [-84.37981317516113, 33.79788690710803], [-84.38007240248477, 33.79848783755117], [-84.38042326847503, 33.79910386763302], [-84.38049264034413, 33.799264678292694], [-84.38080417161156, 33.799613842717434], [-84.3811350018268, 33.800072478914544], [-84.38172462416921, 33.79994808601377], [-84.3825679775696, 33.79984214031199], [-84.38313493892093, 33.79981789110858], [-84.38378066342248, 33.800952192451355], [-84.38404091077926, 33.80135305866094], [-84.38436996898669, 33.80191678428842], [-84.38463949225823, 33.8025021252755], [-84.38506958294123, 33.80357209659866], [-84.38510939235942, 33.8036736034965], [-84.38531498846528, 33.8042111823465], [-84.38553359858024, 33.804710753703276], [-84.38574296154108, 33.80525476000163], [-84.38592300992657, 33.805794747763244], [-84.38616765734473, 33.806797699818624], [-84.38624770753289, 33.80730769410957], [-84.38630475769327, 33.8078019227657], [-84.38634481194914, 33.80834191977775], [-84.38636142568453, 33.80878969385571], [-84.38636145399677, 33.80906969374401], [-84.38628559671159, 33.81002677491767], [-84.38617566473752, 33.8107167822257], [-84.38604926894475, 33.811316366974694], [-84.38584934054468, 33.81207638026598], [-84.38561686283252, 33.812786143180546], [-84.38535691958009, 33.813446160119916], [-84.38521807752744, 33.81377225781235], [-84.38499811639481, 33.814252271937946], [-84.38462436918348, 33.81495408932193], [-84.38404443296878, 33.81590412498251], [-84.38366982135967, 33.81645661464392], [-84.38219268273815, 33.81842850269851], [-84.38214609466043, 33.81846389517413], [-84.3814619945921, 33.81888922743721], [-84.38073123440837, 33.81925653999167], [-84.37996085268979, 33.81956229465926], [-84.37915826993378, 33.8198035461888], [-84.37833121704124, 33.81997797064629], [-84.37797900747742, 33.820022194916184], [-84.37805905774096, 33.82046633467286], [-84.37805992160163, 33.82048042109255], [-84.37826335646798, 33.820951914164844], [-84.37847233461476, 33.8216422192082], [-84.37851769085276, 33.821893854880905], [-84.3782740758606, 33.82202344531544], [-84.37750823348706, 33.82234703700214], [-84.37670788177, 33.8226060039516], [-84.37588082650063, 33.822797820382675], [-84.3750351341074, 33.822920615436125], [-84.37417905292997, 33.82297319143504], [-84.37332093271229, 33.82295503557525], [-84.37330440686006, 33.82295400273603], [-84.37325996085772, 33.82297686120048], [-84.37255701584867, 33.82330196163614], [-84.37182109787943, 33.82357148691238], [-84.37105849792432, 33.82378313289819], [-84.37027573522128, 33.823935090247254], [-84.36998193528846, 33.82398029069254], [-84.36983671028835, 33.8240093363395], [-84.36933009580957, 33.82422115978954], [-84.3685183386011, 33.82447960598579], [-84.3679007712363, 33.82464723309868], [-84.36788914657753, 33.82466458467837], [-84.36749695532973, 33.82515255788898], [-84.36657699577084, 33.82620260936084], [-84.36600160751843, 33.826791880132376], [-84.36535549465098, 33.8273276687509], [-84.3646457498661, 33.827804092568854], [-84.36366571807936, 33.82839413253377], [-84.362980868733, 33.82876687905449], [-84.36225708336544, 33.82908427757897], [-84.36150076518906, 33.829343519962585], [-84.36019067454465, 33.829733550874515], [-84.35940590069356, 33.829932887130084], [-84.35888586094251, 33.83004289614934], [-84.3583332855541, 33.83014393992667], [-84.35516607396904, 33.830633510713604], [-84.35485330030292, 33.83068204508687], [-84.35457891634951, 33.83077151909553], [-84.3539898674104, 33.83100618512005], [-84.35288411590926, 33.83154513541181], [-84.35212580362045, 33.83187413177907], [-84.35133244193555, 33.83213939530448], [-84.35051169974432, 33.832338361770205], [-84.34967151080704, 33.83246910781347], [-84.34881999701157, 33.8325303695328], [-84.34796538980497, 33.832521554715015], [-84.34721144127926, 33.83245160795058], [-84.34704440107429, 33.83189920021077], [-84.34702380038965, 33.831784683986974], [-84.34701532003027, 33.83175663888428], [-84.34662000138236, 33.83155968309928], [-84.34593384981059, 33.83113654404917], [-84.34530070693978, 33.83065931221562], [-84.34472667050012, 33.83013258445013], [-84.3442172685881, 33.829561434278965], [-84.34377740643515, 33.828951363009594], [-84.3434113191902, 33.82830824671871], [-84.34312253116998, 33.82763827963319], [-84.3429138219681, 33.82694791445082], [-84.34278719974724, 33.82624380017616], [-84.34275517460587, 33.825718093302676], [-84.34266472564858, 33.82550824885659], [-84.34245602537614, 33.82481788263241], [-84.34232941012516, 33.824113767622244], [-84.34228609729081, 33.82340268509518], [-84.34232650193847, 33.822691483257735], [-84.34237587900148, 33.82241035242504], [-84.34181915463306, 33.82189943081712], [-84.34130982106907, 33.821328267655545], [-84.34087002193901, 33.820718185001155], [-84.34050399178503, 33.82007505903993], [-84.3402152543744, 33.819405084091585], [-84.34000658881378, 33.81871471292935], [-84.3398800028462, 33.818010594615096], [-84.33987047047404, 33.81785401367471], [-84.33988769189533, 33.81738001463971], [-84.33988769818627, 33.81731782639235], [-84.33988320005957, 33.816553785283894], [-84.34000087834879, 33.81588383841917], [-84.34020674732706, 33.815192883937065], [-84.34049275834042, 33.81452209908453], [-84.34085615533606, 33.81387794335294], [-84.34116075951596, 33.81345210533004], [-84.34118011192554, 33.81334191861217], [-84.34138596541746, 33.81265096192601], [-84.3416719588453, 33.81198017411832], [-84.34203533632574, 33.811336014709035], [-84.34247259700979, 33.81072468665263], [-84.34282139869468, 33.81033069519794], [-84.34241302725334, 33.81045332430262], [-84.3415859884798, 33.81062750258159], [-84.34074247746955, 33.81073316844866], [-84.33989061967243, 33.81076930402722], [-84.33903862100452, 33.810735561218976], [-84.33819468874144, 33.81063226505986], [-84.33736695239854, 33.810460410586934], [-84.33679309956018, 33.81028990702983], [-84.33603851515467, 33.81051645691062], [-84.3352114626664, 33.81069059248979], [-84.33436794300779, 33.81079621479049], [-84.33351608171219, 33.81083230635602], [-84.33266408472944, 33.8107985195123], [-84.33182015931887, 33.810695179719694], [-84.33099243492968, 33.81052328243578], [-84.33018888483348, 33.81028448351942], [-84.32941724926683, 33.80998108326864], [-84.32868496082668, 33.809616004247125], [-84.3279990728394, 33.809192763113096], [-84.32736619139557, 33.808715436723254], [-84.32679241170591, 33.808188622839104], [-84.32639095259107, 33.8077382195424], [-84.32622713081706, 33.80770418956537], [-84.32542362021618, 33.80746535938214], [-84.32465202669371, 33.80716192906142], [-84.32391978244117, 33.806796821456565], [-84.32323394035893, 33.80637355350111], [-84.32260110609494, 33.805896202310066], [-84.32209881121439, 33.805434964144055], [-84.3217894300879, 33.80539705118785], [-84.32096177654066, 33.80522508624567], [-84.32015830362916, 33.80498622156301], [-84.31938675084568, 33.80468275807158], [-84.3186545499889, 33.80431761894431], [-84.31796875354078, 33.8038943214184], [-84.31733596670925, 33.80341694289361], [-84.31676228379301, 33.80289008163344], [-84.3162532294818, 33.802318812448775], [-84.316218693183, 33.80227086735699], [-84.31594697952617, 33.8020658748981], [-84.31537331414353, 33.80153900701565], [-84.31504496300208, 33.801170510753536], [-84.31472512208201, 33.801737175428784], [-84.3142877091281, 33.80234840644921], [-84.31378063149981, 33.80292089970266], [-84.31320877201871, 33.80344914095301], [-84.31257763778864, 33.803928042100864], [-84.31189330716762, 33.80435299021746], [-84.31116237122264, 33.804719892002254], [-84.3103918702315, 33.80502521323511], [-84.30958922584395, 33.80526601284184], [-84.30876216955706, 33.80543997124387], [-84.30791866819543, 33.80554541271809], [-84.3070668471163, 33.805581321550655], [-84.3062149118819, 33.80554735182878], [-84.30537106915617, 33.80544383077542], [-84.30454344759085, 33.80527175559514], [-84.30374001946576, 33.80503278386123], [-84.30296852384099, 33.80472921753703], [-84.30223639196365, 33.804363980786405], [-84.30155067565015, 33.80394059178712], [-84.30091797933538, 33.803463128820134], [-84.3003443964449, 33.802936190962285], [-84.29983545070377, 33.80236485376204], [-84.29939604294741, 33.80175462032656], [-84.29903040394659, 33.80111136829234], [-84.29874205370007, 33.800441293191355], [-84.29853376758514, 33.79975084875924], [-84.29840754969058, 33.79904668476124], [-84.29836461358613, 33.79833558293576], [-84.2984053707112, 33.797624391672706], [-84.29852942649157, 33.79691996005631], [-84.29873558421858, 33.796229071907696], [-84.29902185665028, 33.79555838046216], [-84.29938548522, 33.79491434431016], [-84.29982296666446, 33.79430316521806], [-84.30033008681296, 33.793730728426915], [-84.30090196120993, 33.793202546003066], [-84.30153308217831, 33.7927237037852], [-84.30221737186972, 33.792298812437465], [-84.30294824079004, 33.79193196307879], [-84.30371865123723, 33.79162668791461], [-84.30452118504108, 33.791385926248715], [-84.30534811495419, 33.791211996201646], [-84.30619147900843, 33.791106572406854], [-84.30704315712322, 33.79107066989873], [-84.30777721678487, 33.791099940223006], [-84.30781101227024, 33.79050904857574], [-84.30793498092757, 33.789804606908625], [-84.30814104619722, 33.78911370248004], [-84.30842722172791, 33.78844298868265], [-84.30879074988623, 33.787798924322665], [-84.30922812837576, 33.78718771143867], [-84.30973514401698, 33.78661523559756], [-84.31030691336021, 33.78608700924213], [-84.31093792973937, 33.785608118634435], [-84.31134157191998, 33.785357420129394], [-84.3115115889419, 33.7852840805268], [-84.31166527999495, 33.78522021247155], [-84.31183883664959, 33.78509728161208], [-84.31198412234366, 33.78500439838344], [-84.31199520209559, 33.784995856367544], [-84.31228181280953, 33.7848519538246], [-84.31246888605493, 33.78467911595882], [-84.3127008146252, 33.78450309152835], [-84.31285946369852, 33.784398044711004], [-84.31289290743642, 33.78437797920025], [-84.31291918148226, 33.784361089376546], [-84.3131494814501, 33.784218040335304], [-84.3132994765293, 33.78412804642656], [-84.3136926453246, 33.78390550072756], [-84.31384263905724, 33.7838255063512], [-84.31399264656193, 33.78374550462999], [-84.31443085265461, 33.783526663946006], [-84.31454097487035, 33.78347527476552], [-84.31519130733365, 33.78316425334519], [-84.31543086526986, 33.78305923919934], [-84.31608750644006, 33.78286215600706], [-84.31691433080799, 33.78268814848696], [-84.31775759686589, 33.78258264575554], [-84.31835937106396, 33.78255721962011], [-84.31875178012193, 33.782313452577725], [-84.31948249349193, 33.78194650510663], [-84.32025275558605, 33.781641126615284], [-84.32105514966108, 33.781400257402275], [-84.32166173990686, 33.781272571244756], [-84.32170208938211, 33.78126622064908], [-84.3218804625491, 33.78123979514684], [-84.3219692121088, 33.781225003571464], [-84.32258324420246, 33.78114162681556], [-84.32277322857247, 33.78112162851004], [-84.32285155282275, 33.781115336185536], [-84.3235767672506, 33.781084663585965], [-84.3244284665481, 33.78111851421363], [-84.32527209294528, 33.78122190593568], [-84.32609952384144, 33.78139384327216], [-84.3269027924547, 33.78163267076618], [-84.32767416447635, 33.781936088911685], [-84.32840621249463, 33.78230117627851], [-84.32909188747395, 33.78272441762229], [-84.32972458660306, 33.78320173770956], [-84.33029821686019, 33.78372854053322], [-84.33080725368364, 33.78429975354214], [-84.33124679418378, 33.784909876460006], [-84.33161260438287, 33.785553034224606], [-84.33190116002763, 33.78622303353889], [-84.33210968057968, 33.78691342249024], [-84.33223615605459, 33.787617552664926], [-84.33227936644909, 33.7883286431602], [-84.33223889356614, 33.78903984587828], [-84.33211512512153, 33.78974431147364], [-84.3319092510891, 33.79043525531884], [-84.33162325231693, 33.79110602285337], [-84.33145383976533, 33.79140633409115], [-84.3318338358154, 33.79183269673815], [-84.33187237285172, 33.791886184131734], [-84.33192541954858, 33.79158426659631], [-84.33213129616132, 33.790893322845086], [-84.33241729026653, 33.79022255412386], [-84.33278064597661, 33.789578419768766], [-84.33321786265422, 33.78896712249324], [-84.33372472867629, 33.78839454867752], [-84.33429636203203, 33.787866211708256], [-84.33492725736298, 33.787387198912846], [-84.33561133899089, 33.78696212259818], [-84.33634201942253, 33.78659507566419], [-84.33711226276833, 33.78628959221836], [-84.3379146524648, 33.78604861356935], [-84.33874146265015, 33.78587445992607], [-84.33958473250746, 33.78576880807382], [-84.34043634286195, 33.78573267524166], [-84.34128809429714, 33.7857664093157], [-84.34213178604085, 33.78586968549244], [-84.34295929486382, 33.78604150940391], [-84.34376265323488, 33.78628022668476], [-84.34453412598212, 33.78658353888976], [-84.34526628472516, 33.78694852560855], [-84.34595207936354, 33.78737167256579], [-84.3460587323758, 33.78745210329794], [-84.34606453060282, 33.787447699951265], [-84.3465621833915, 33.78713839845679], [-84.34653853315565, 33.78708351036459], [-84.34632989650432, 33.78639314618697], [-84.34628050474704, 33.786118419742586], [-84.34625068216168, 33.78612215790623], [-84.34539907058016, 33.78615833086884], [-84.34454731378304, 33.78612462519157], [-84.34370361671412, 33.78602136555239], [-84.34287610662146, 33.78584954663614], [-84.34207275471107, 33.78561082354598], [-84.34130129930958, 33.78530749584871], [-84.34056917127799, 33.784942485408244], [-84.33988342239762, 33.78451930822134], [-84.33925065741948, 33.784042040527886], [-84.33867697043353, 33.78351527952328], [-84.33816788617068, 33.78294409905236], [-84.33772830680412, 33.78233400071289], [-84.33736246476117, 33.781690860840776], [-84.33733582053024, 33.78162900284536], [-84.3372731733466, 33.781604366823814], [-84.33680879294887, 33.781372815009675], [-84.33677690314363, 33.78129553418736], [-84.33657983549483, 33.780605049902384], [-84.33646451452292, 33.77990178961158], [-84.33643204205993, 33.77919248485836], [-84.3364827268761, 33.77848392487906], [-84.33661608180262, 33.777782891616425], [-84.33683082847227, 33.77709609480954], [-84.33712490962985, 33.776430107780605], [-84.33749550889173, 33.775791304533534], [-84.3379390777628, 33.77518579876543], [-84.33845136964976, 33.77461938537392], [-84.33877137731068, 33.77429940240042], [-84.33895140313905, 33.774119390460314], [-84.33914531838877, 33.77393208035903], [-84.33929532056104, 33.77379208811218], [-84.33946795570233, 33.77363564969728], [-84.33989440138164, 33.773260401953436], [-84.34015499704215, 33.7730194909508], [-84.34031670180886, 33.772847900181986], [-84.3403899261393, 33.77275725126953], [-84.34045714951785, 33.77239116182837], [-84.34066737064947, 33.77170362366753], [-84.34095700485126, 33.77103652314854], [-84.34132328004722, 33.770396240897014], [-84.34176269133468, 33.76978890089175], [-84.34227103455976, 33.769220311910495], [-84.34284344656876, 33.76869591199441], [-84.34347445174916, 33.768220716461116], [-84.34415801441419, 33.76779926996259], [-84.3448875965294, 33.767435603045165], [-84.34565622022974, 33.76713319362613], [-84.34645653452952, 33.76689493375396], [-84.34728088558894, 33.766723101969355], [-84.34812138986678, 33.76661934153036], [-84.34897000946178, 33.76658464470899], [-84.34915999344847, 33.76658464476214], [-84.34983997280361, 33.766584644952935], [-84.35074996311785, 33.766584645209356], [-84.35157245472145, 33.76658464566713], [-84.35227488876686, 33.76657552314408], [-84.35241000569681, 33.76657464566849], [-84.35250999726875, 33.766574645697006], [-84.35261999684779, 33.76657464572838], [-84.35288999010731, 33.76657464580547], [-84.35349997578292, 33.76657464598007], [-84.35411997536644, 33.766574646158105], [-84.35434999180453, 33.76657464622427], [-84.35470734812365, 33.76657464641797], [-84.35547464903661, 33.766565401845085], [-84.3556000251084, 33.7665646465737], [-84.35615997791135, 33.76656464673625], [-84.35622999856429, 33.7665646467566], [-84.3573299551627, 33.766564647077544], [-84.35746999562272, 33.76656464711843], [-84.35806997624087, 33.76656464729439], [-84.35812599928346, 33.7665646473344], [-84.35852199148368, 33.76655672743102], [-84.35879850051312, 33.766554873030245], [-84.36021391985429, 33.766564186028354], [-84.3608494153926, 33.76655559816097], [-84.36091413204782, 33.766554924804524], [-84.36151704292867, 33.76655052604384], [-84.3615354172876, 33.76654478657796], [-84.3623261839794, 33.76633306197001], [-84.36313753989924, 33.76618535840082], [-84.3639620730036, 33.766103025180556], [-84.36479225096312, 33.76608681443819], [-84.36562048992178, 33.76613687425603], [-84.36643922372497, 33.766252747318106], [-84.36724097298642, 33.766433375085086], [-84.36801841336536, 33.76667710745751], [-84.36876444243248, 33.76698171783934], [-84.36947224451583, 33.76734442346493], [-84.37013535293616, 33.76776191080408], [-84.37074770906439, 33.768230365814084], [-84.371303717663, 33.76874550876304], [-84.37179829800608, 33.76930263330755], [-84.37222693031151, 33.76989664946833], [-84.37258569706033, 33.770522130112596], [-84.3728713188254, 33.77117336051898], [-84.37308118428064, 33.7718443905734], [-84.3736457214773, 33.77408185680533], [-84.37409507485211, 33.7758084196413], [-84.37417281193696, 33.77595620350028], [-84.37514162158953, 33.77720474779072], [-84.37514911182956, 33.77721441740168], [-84.37589192644303, 33.778175020091], [-84.3771847400242, 33.779835609304605], [-84.3775726315438, 33.780385300040784], [-84.37792266650236, 33.78093527844872], [-84.37843067347248, 33.78189517557526], [-84.3787607370691, 33.78266515375967], [-84.3789567609786, 33.78318268283183], [-84.37910590275293, 33.78371100052089], [-84.3792659674172, 33.78439098937246], [-84.37937730956536, 33.78499929861464], [-84.37942651779971, 33.785613298105496], [-84.37945662171562, 33.78664329562544], [-84.3794128420199, 33.787568820483415], [-84.37918302606688, 33.78941883566632], [-84.37917902122963, 33.7894504008405], [-84.37885978061081, 33.79191503108475], [-84.37884439042519, 33.7922172774745], [-84.37884915786508, 33.79223371956775], [-84.3789125939243, 33.79239227186611], [-84.37909723906506, 33.79274764991195], [-84.38065680268441, 33.79546449320338], [-84.38066916813679, 33.7954861253193], [-84.38110175323281, 33.7962461087564], [-84.38100930681316, 33.79637548975563]], [[-84.35547977156007, 33.80379373851166], [-84.35625010011017, 33.80348813615399], [-84.3570525958263, 33.80324703335555], [-84.35749244235419, 33.803154333778885], [-84.35758788955623, 33.80309500885247], [-84.35831861231195, 33.80272783258204], [-84.35908892115134, 33.802422212512944], [-84.35941802014366, 33.80232332862152], [-84.35945663841471, 33.802303922801556], [-84.35953881900193, 33.80215816041267], [-84.35943242415263, 33.80191137771213], [-84.35922364754809, 33.801221037478804], [-84.35909693071405, 33.8005169373336], [-84.35905349202665, 33.79980585840313], [-84.35909374776585, 33.79909464886011], [-84.35921730818542, 33.79839015796806], [-84.35931979341453, 33.798045845886335], [-84.35922914275848, 33.79788660156188], [-84.35886359076376, 33.7980703004775], [-84.35882954869028, 33.79808380742889], [-84.35865680426399, 33.798489254330015], [-84.35834322932776, 33.799045445654116], [-84.35822186913369, 33.799330282060225], [-84.35785866347976, 33.79997448982165], [-84.35742156677954, 33.80058587292642], [-84.35691478752288, 33.80115854267443], [-84.35679137759804, 33.801272638736336], [-84.35661775826257, 33.80158056578198], [-84.35618064460874, 33.80219194438944], [-84.35567384764795, 33.80276460895158], [-84.35510224749534, 33.80329304358315], [-84.35447134875372, 33.803772158322616], [-84.35378722750971, 33.804197338184046], [-84.35330330722307, 33.80444047268336], [-84.35286419222881, 33.804713374020366], [-84.35213342918534, 33.80508051800026], [-84.35136307163587, 33.80538609467], [-84.35056053984606, 33.80562716049399], [-84.35006157487317, 33.80573228656744], [-84.35000398040636, 33.8057551313675], [-84.3493397189217, 33.80595465467401], [-84.34905177158379, 33.80627996773125], [-84.34848010730956, 33.806808371591295], [-84.34784914579454, 33.80728745239834], [-84.34722868116043, 33.80767300253196], [-84.34708967848812, 33.80783003349829], [-84.34717025624347, 33.807805832897834], [-84.34799725640387, 33.80763161722381], [-84.34884072784496, 33.80752590182242], [-84.34887058451908, 33.80752463319356], [-84.34887456994188, 33.80751906018716], [-84.3493814402051, 33.806946423754525], [-84.3499530998331, 33.80641801574468], [-84.35058404321292, 33.80593892416871], [-84.35126819420238, 33.805513762091486], [-84.35199896463955, 33.80514662323808], [-84.35276931776774, 33.804841042600295], [-84.35357183596635, 33.80459996242181], [-84.35428404672007, 33.80444988373903], [-84.3547490275602, 33.804160897975805], [-84.35547977156007, 33.80379373851166]]]}, "properties": {"kind": "walkshed", "buffer_mi": 0.5}}, {"type": "Feature", "geometry": {"type": "Point", "coordinates": [-84.369534, 33.822486]}, "properties": {"kind": "stop", "name": "Lindbergh Center", "mode": "rail"}}, {"type": "Feature", "geometry": {"type": "Point", "coordinates": [-84.369357, 33.823385]}, "properties": {"kind": "stop", "name": "LINDBERGH CENTER STATION", "mode": "bus"}}, {"type": "Feature", "geometry": {"type": "Point", "coordinates": [-84.369324, 33.823492]}, "properties": {"kind": "stop", "name": "LINDBERGH CENTER STATION", "mode": "bus"}}, {"type": "Feature", "geometry": {"type": "Point", "coordinates": [-84.366927, 33.817962]}, "properties": {"kind": "stop", "name": "PIEDMONT RD NE @ GARSON DR NE", "mode": "bus"}}, {"type": "Feature", "geometry": {"type": "Point", "coordinates": [-84.364005, 33.82592]}, "properties": {"kind": "stop", "name": "SIDNEY MARCUS BLVD@740", "mode": "bus"}}, {"type": "Feature", "geometry": {"type": "Point", "coordinates": [-84.362089, 33.825589]}, "properties": {"kind": "stop", "name": "SIDNEY MARCUS BLVD @ ADINA DR", "mode": "bus"}}, {"type": "Feature", "geometry": {"type": "Point", "coordinates": [-84.362372, 33.825866]}, "properties": {"kind": "stop", "name": "SIDNEY MARCUS BLVD @ ADINA DR", "mode": "bus"}}, {"type": "Feature", "geometry": {"type": "Point", "coordinates": [-84.358727, 33.82474]}, "properties": {"kind": "stop", "name": "SIDNEY MARCUS BLVD @ PINE TREE RD NE", "mode": "bus"}}, {"type": "Feature", "geometry": {"type": "Point", "coordinates": [-84.358368, 33.824874]}, "properties": {"kind": "stop", "name": "SIDNEY MARCUS BLVD @ PINE TREE RD NE", "mode": "bus"}}, {"type": "Feature", "geometry": {"type": "Point", "coordinates": [-84.3537, 33.825215]}, "properties": {"kind": "stop", "name": "BUFORD HWY NE @ LENOX RD", "mode": "bus"}}, {"type": "Feature", "geometry": {"type": "Point", "coordinates": [-84.352688, 33.825744]}, "properties": {"kind": "stop", "name": "BUFORD HWY NE@LENOX RD", "mode": "bus"}}, {"type": "Feature", "geometry": {"type": "Point", "coordinates": [-84.351437, 33.82552]}, "properties": {"kind": "stop", "name": "BUFORD HWY NE @ SHADY VALLEY DR NE", "mode": "bus"}}, {"type": "Feature", "geometry": {"type": "Point", "coordinates": [-84.351922, 33.814529]}, "properties": {"kind": "stop", "name": "WOODLAND AVE NE@LENOX RD NE", "mode": "bus"}}, {"type": "Feature", "geometry": {"type": "Point", "coordinates": [-84.35228, 33.814777]}, "properties": {"kind": "stop", "name": "WOODLAND AVE @ CHESHIRE BRIDGE RD", "mode": "bus"}}, {"type": "Feature", "geometry": {"type": "Point", "coordinates": [-84.353, 33.814941]}, "properties": {"kind": "stop", "name": "CHESHIRE BRIDGE RD NE @ WOODLAND AVE", "mode": "bus"}}, {"type": "Feature", "geometry": {"type": "Point", "coordinates": [-84.348529, 33.817287]}, "properties": {"kind": "stop", "name": "LAVISTA RD NE @ CITADEL DR NE", "mode": "bus"}}, {"type": "Feature", "geometry": {"type": "Point", "coordinates": [-84.349737, 33.817859]}, "properties": {"kind": "stop", "name": "LAVISTA RD NE @ CHESHIRE BRIDGE RD", "mode": "bus"}}, {"type": "Feature", "geometry": {"type": "Point", "coordinates": [-84.350433, 33.817931]}, "properties": {"kind": "stop", "name": "LAVISTA RD NE @ LAVISTA WALK", "mode": "bus"}}, {"type": "Feature", "geometry": {"type": "Point", "coordinates": [-84.351804, 33.818441]}, "properties": {"kind": "stop", "name": "LINDBERGH DR NE @ CHESHIRE BRIDGE RD", "mode": "bus"}}, {"type": "Feature", "geometry": {"type": "Point", "coordinates": [-84.353012, 33.818897]}, "properties": {"kind": "stop", "name": "LINDBERGH DR NE @ MELANTE DR NE", "mode": "bus"}}, {"type": "Feature", "geometry": {"type": "Point", "coordinates": [-84.353208, 33.818879]}, "properties": {"kind": "stop", "name": "LINDBERGH DR NE @ MELANTE DR NE", "mode": "bus"}}, {"type": "Feature", "geometry": {"type": "Point", "coordinates": [-84.354927, 33.819584]}, "properties": {"kind": "stop", "name": "LINDBERGH DR NE @ 1002", "mode": "bus"}}, {"type": "Feature", "geometry": {"type": "Point", "coordinates": [-84.357434, 33.820518]}, "properties": {"kind": "stop", "name": "LINDBERGH DR NE @ LINDRIDGE DR NE", "mode": "bus"}}, {"type": "Feature", "geometry": {"type": "Point", "coordinates": [-84.356461, 33.820006]}, "properties": {"kind": "stop", "name": "LINDBERGH DR NE @ STRATHMORE DR NE", "mode": "bus"}}, {"type": "Feature", "geometry": {"type": "Point", "coordinates": [-84.363153, 33.820666]}, "properties": {"kind": "stop", "name": "LINDBERGH DR NE @ ADINA DR NE", "mode": "bus"}}, {"type": "Feature", "geometry": {"type": "Point", "coordinates": [-84.354811, 33.828348]}, "properties": {"kind": "stop", "name": "LENOX RD NE @ CANTERBURY RD", "mode": "bus"}}, {"type": "Feature", "geometry": {"type": "Point", "coordinates": [-84.354778, 33.827587]}, "properties": {"kind": "stop", "name": "LENOX RD NE @ CANTERBURY RD NE", "mode": "bus"}}, {"type": "Feature", "geometry": {"type": "Point", "coordinates": [-84.353918, 33.826674]}, "properties": {"kind": "stop", "name": "LENOX RD NE @ LENOX POINTE  NE", "mode": "bus"}}, {"type": "Feature", "geometry": {"type": "Point", "coordinates": [-84.351044, 33.823131]}, "properties": {"kind": "stop", "name": "CHANTILLY DR NE @ CHESHIRE BRIDGE RD NE", "mode": "bus"}}, {"type": "Feature", "geometry": {"type": "Point", "coordinates": [-84.354561, 33.827358]}, "properties": {"kind": "stop", "name": "LENOX RD NE @ CANTERBURY RD NE", "mode": "bus"}}, {"type": "Feature", "geometry": {"type": "Point", "coordinates": [-84.355568, 33.830471]}, "properties": {"kind": "stop", "name": "LENOX RD NE @ 2791", "mode": "bus"}}, {"type": "Feature", "geometry": {"type": "Point", "coordinates": [-84.366322, 33.82574]}, "properties": {"kind": "stop", "name": "SIDNEY MARCUS BLVD NE @ PIEDMONT RD NE", "mode": "bus"}}, {"type": "Feature", "geometry": {"type": "Point", "coordinates": [-84.354494, 33.825135]}, "properties": {"kind": "stop", "name": "BUFORD HWY NE @ LENOX POINTE", "mode": "bus"}}, {"type": "Feature", "geometry": {"type": "Point", "coordinates": [-84.353737, 33.826724]}, "properties": {"kind": "stop", "name": "LENOX RD NE @ LENOX POINTE  NE", "mode": "bus"}}, {"type": "Feature", "geometry": {"type": "Point", "coordinates": [-84.35553, 33.830299]}, "properties": {"kind": "stop", "name": "LENOX RD NE @ 2770", "mode": "bus"}}, {"type": "Feature", "geometry": {"type": "Point", "coordinates": [-84.36941, 33.821192]}, "properties": {"kind": "stop", "name": "LINDBERGH STATION - SOUTH LOOP/LINDBERGH DR", "mode": "bus"}}, {"type": "Feature", "geometry": {"type": "Point", "coordinates": [-84.36995, 33.823072]}, "properties": {"kind": "stop", "name": "LINDBERGH CENTER STATION - NORTH LOOP/MOROSGO DR", "mode": "bus"}}, {"type": "Feature", "geometry": {"type": "Point", "coordinates": [-84.36676, 33.810954]}, "properties": {"kind": "stop", "name": "PIEDMONT RD NE @ PIEDMONT CIR NE", "mode": "bus"}}, {"type": "Feature", "geometry": {"type": "Point", "coordinates": [-84.367123, 33.818159]}, "properties": {"kind": "stop", "name": "PIEDMONT RD NE @ GARSON DR NE", "mode": "bus"}}, {"type": "Feature", "geometry": {"type": "Point", "coordinates": [-84.367897, 33.799479]}, "properties": {"kind": "stop", "name": "PIEDMONT AVE NE @ MORNINGSIDE DR NE", "mode": "bus"}}, {"type": "Feature", "geometry": {"type": "Point", "coordinates": [-84.369266, 33.796811]}, "properties": {"kind": "stop", "name": "PIEDMONT AVE NE@MONROE DR NE", "mode": "bus"}}, {"type": "Feature", "geometry": {"type": "Point", "coordinates": [-84.370614, 33.795468]}, "properties": {"kind": "stop", "name": "PIEDMONT AVE NE@1502", "mode": "bus"}}, {"type": "Feature", "geometry": {"type": "Point", "coordinates": [-84.3717, 33.79446]}, "properties": {"kind": "stop", "name": "PIEDMONT AVE NE@AVERY DR NE", "mode": "bus"}}, {"type": "Feature", "geometry": {"type": "Point", "coordinates": [-84.372777, 33.793247]}, "properties": {"kind": "stop", "name": "PIEDMONT AVE NE@WESTMINSTER DR NE", "mode": "bus"}}, {"type": "Feature", "geometry": {"type": "Point", "coordinates": [-84.373774, 33.792357]}, "properties": {"kind": "stop", "name": "PIEDMONT AVE NE@THE PRADO  NE", "mode": "bus"}}, {"type": "Feature", "geometry": {"type": "Point", "coordinates": [-84.377483, 33.78826]}, "properties": {"kind": "stop", "name": "PIEDMONT AVE NE @ 15TH ST NE", "mode": "bus"}}, {"type": "Feature", "geometry": {"type": "Point", "coordinates": [-84.366008, 33.807562]}, "properties": {"kind": "stop", "name": "PIEDMONT RD NE@CHESHIRE BRIDGE RD N", "mode": "bus"}}, {"type": "Feature", "geometry": {"type": "Point", "coordinates": [-84.366754, 33.809005]}, "properties": {"kind": "stop", "name": "PIEDMONT CIR NE @ 1911", "mode": "bus"}}, {"type": "Feature", "geometry": {"type": "Point", "coordinates": [-84.368044, 33.810461]}, "properties": {"kind": "stop", "name": "MONROE DR NE @ PIEDMONT CIR", "mode": "bus"}}, {"type": "Feature", "geometry": {"type": "Point", "coordinates": [-84.370383, 33.810693]}, "properties": {"kind": "stop", "name": "MONROE DR NE@MONROE PL NE", "mode": "bus"}}, {"type": "Feature", "geometry": {"type": "Point", "coordinates": [-84.375201, 33.808561]}, "properties": {"kind": "stop", "name": "MONROE DR NE@1942", "mode": "bus"}}, {"type": "Feature", "geometry": {"type": "Point", "coordinates": [-84.374732, 33.805554]}, "properties": {"kind": "stop", "name": "MONROE DR NE@ROCK SPRINGS RD NE", "mode": "bus"}}, {"type": "Feature", "geometry": {"type": "Point", "coordinates": [-84.373588, 33.803657]}, "properties": {"kind": "stop", "name": "MONROE DR NE@PIEDMONT WAY NE", "mode": "bus"}}, {"type": "Feature", "geometry": {"type": "Point", "coordinates": [-84.372401, 33.801894]}, "properties": {"kind": "stop", "name": "MONROE DR NE@MONTGOMERY FERRY DR NE", "mode": "bus"}}, {"type": "Feature", "geometry": {"type": "Point", "coordinates": [-84.371791, 33.800677]}, "properties": {"kind": "stop", "name": "MONROE DR NE@1705", "mode": "bus"}}, {"type": "Feature", "geometry": {"type": "Point", "coordinates": [-84.370757, 33.799299]}, "properties": {"kind": "stop", "name": "MONROE DR @ 1544", "mode": "bus"}}, {"type": "Feature", "geometry": {"type": "Point", "coordinates": [-84.369222, 33.79733]}, "properties": {"kind": "stop", "name": "MONROE DR NE@PIEDMONT AVE NE", "mode": "bus"}}, {"type": "Feature", "geometry": {"type": "Point", "coordinates": [-84.367775, 33.795621]}, "properties": {"kind": "stop", "name": "MONROE DR NE@YORKSHIRE RD NE", "mode": "bus"}}, {"type": "Feature", "geometry": {"type": "Point", "coordinates": [-84.367485, 33.785946]}, "properties": {"kind": "stop", "name": "MONROE DR NE@PARK DR NE", "mode": "bus"}}, {"type": "Feature", "geometry": {"type": "Point", "coordinates": [-84.36741, 33.78829]}, "properties": {"kind": "stop", "name": "MONROE DR NE@AMSTERDAM AVE NE", "mode": "bus"}}, {"type": "Feature", "geometry": {"type": "Point", "coordinates": [-84.367134, 33.794891]}, "properties": {"kind": "stop", "name": "MONROE DR NE@YORKSHIRE RD NE", "mode": "bus"}}, {"type": "Feature", "geometry": {"type": "Point", "coordinates": [-84.366737, 33.791763]}, "properties": {"kind": "stop", "name": "MONROE DR NE@DUTCH VALLEY RD NE", "mode": "bus"}}, {"type": "Feature", "geometry": {"type": "Point", "coordinates": [-84.366997, 33.787933]}, "properties": {"kind": "stop", "name": "MONROE DR NE@AMSTERDAM AVE NE", "mode": "bus"}}, {"type": "Feature", "geometry": {"type": "Point", "coordinates": [-84.370289, 33.798869]}, "properties": {"kind": "stop", "name": "MONROE DR NE @ 1605 (ANSLEY MALL)", "mode": "bus"}}, {"type": "Feature", "geometry": {"type": "Point", "coordinates": [-84.372075, 33.801536]}, "properties": {"kind": "stop", "name": "MONROE DR NE @ 1705", "mode": "bus"}}, {"type": "Feature", "geometry": {"type": "Point", "coordinates": [-84.37263, 33.802386]}, "properties": {"kind": "stop", "name": "MONROE DR NE@ALLEN RD NE", "mode": "bus"}}, {"type": "Feature", "geometry": {"type": "Point", "coordinates": [-84.373501, 33.803665]}, "properties": {"kind": "stop", "name": "MONROE DR NE@PIEDMONT WAY NE", "mode": "bus"}}, {"type": "Feature", "geometry": {"type": "Point", "coordinates": [-84.374382, 33.805183]}, "properties": {"kind": "stop", "name": "MONROE DR NE@ROCK SPRINGS RD NE", "mode": "bus"}}, {"type": "Feature", "geometry": {"type": "Point", "coordinates": [-84.375222, 33.806708]}, "properties": {"kind": "stop", "name": "MONROE DR NE@WIMBLEDON RD NE", "mode": "bus"}}, {"type": "Feature", "geometry": {"type": "Point", "coordinates": [-84.375277, 33.808149]}, "properties": {"kind": "stop", "name": "MONROE DR NE@1925", "mode": "bus"}}, {"type": "Feature", "geometry": {"type": "Point", "coordinates": [-84.373527, 33.810002]}, "properties": {"kind": "stop", "name": "MONROE DR NE@2075", "mode": "bus"}}, {"type": "Feature", "geometry": {"type": "Point", "coordinates": [-84.371427, 33.810549]}, "properties": {"kind": "stop", "name": "MONROE DR NE@ARMOUR DR NE", "mode": "bus"}}, {"type": "Feature", "geometry": {"type": "Point", "coordinates": [-84.370709, 33.810603]}, "properties": {"kind": "stop", "name": "MONROE DR NE@MONROE PL NE", "mode": "bus"}}, {"type": "Feature", "geometry": {"type": "Point", "coordinates": [-84.364203, 33.808377]}, "properties": {"kind": "stop", "name": "CHESHIRE BRIDGE RD NE@WINDEMERE DR", "mode": "bus"}}, {"type": "Feature", "geometry": {"type": "Point", "coordinates": [-84.36243, 33.80912]}, "properties": {"kind": "stop", "name": "CHESHIRE BRIDGE RD NE @ MANCHESTER ST", "mode": "bus"}}, {"type": "Feature", "geometry": {"type": "Point", "coordinates": [-84.359591, 33.810186]}, "properties": {"kind": "stop", "name": "CHESHIRE BRIDGE RD NE@LIDDELL DR NE", "mode": "bus"}}, {"type": "Feature", "geometry": {"type": "Point", "coordinates": [-84.35611, 33.811539]}, "properties": {"kind": "stop", "name": "CHESHIRE BRIDGE RD NE @ FAULKNER RD N", "mode": "bus"}}, {"type": "Feature", "geometry": {"type": "Point", "coordinates": [-84.35641, 33.81158]}, "properties": {"kind": "stop", "name": "CHESHIRE BRIDGE RD NE @ FAULKNER RD NE", "mode": "bus"}}, {"type": "Feature", "geometry": {"type": "Point", "coordinates": [-84.359961, 33.810124]}, "properties": {"kind": "stop", "name": "CHESHIRE BRIDGE NE@WELLBOURNE DR NE", "mode": "bus"}}, {"type": "Feature", "geometry": {"type": "Point", "coordinates": [-84.36279, 33.80906]}, "properties": {"kind": "stop", "name": "CHESHIRE BRIDGE RD NE@MANCHESTER ST", "mode": "bus"}}, {"type": "Feature", "geometry": {"type": "Point", "coordinates": [-84.36444, 33.80836]}, "properties": {"kind": "stop", "name": "CHESHIRE BRIDGE RD NE@WINDEMERE DR", "mode": "bus"}}, {"type": "Feature", "geometry": {"type": "Point", "coordinates": [-84.364993, 33.808166]}, "properties": {"kind": "stop", "name": "CHESHIRE BRIDGE RD NE @ PIEDMONT RD NE", "mode": "bus"}}, {"type": "Feature", "geometry": {"type": "Point", "coordinates": [-84.355296, 33.787579]}, "properties": {"kind": "stop", "name": "N HIGHLAND AVE NE @ AMSTERDAM AVE", "mode": "bus"}}, {"type": "Feature", "geometry": {"type": "Point", "coordinates": [-84.355362, 33.788418]}, "properties": {"kind": "stop", "name": "N HIGHLAND AVE NE @ MCLYNN AVE NE", "mode": "bus"}}, {"type": "Feature", "geometry": {"type": "Point", "coordinates": [-84.355576, 33.789513]}, "properties": {"kind": "stop", "name": "N HIGHLAND AVE NE @ COURTENAY DR NE", "mode": "bus"}}, {"type": "Feature", "geometry": {"type": "Point", "coordinates": [-84.355416, 33.790676]}, "properties": {"kind": "stop", "name": "N HIGHLAND AVE NE @ MORNINGSIDE DR", "mode": "bus"}}, {"type": "Feature", "geometry": {"type": "Point", "coordinates": [-84.353742, 33.791848]}, "properties": {"kind": "stop", "name": "N HIGHLAND AVE NE @ LANIER PL NE", "mode": "bus"}}, {"type": "Feature", "geometry": {"type": "Point", "coordinates": [-84.351589, 33.793048]}, "properties": {"kind": "stop", "name": "N HIGHLAND AVE NE @ UNIVERSITY DR", "mode": "bus"}}, {"type": "Feature", "geometry": {"type": "Point", "coordinates": [-84.351021, 33.794399]}, "properties": {"kind": "stop", "name": "N HIGHLAND AVE NE @ REEDER CIR NE", "mode": "bus"}}, {"type": "Feature", "geometry": {"type": "Point", "coordinates": [-84.350655, 33.795311]}, "properties": {"kind": "stop", "name": "N HIGHLAND AVE NE @ CUMBERLAND RD", "mode": "bus"}}, {"type": "Feature", "geometry": {"type": "Point", "coordinates": [-84.35006, 33.79649]}, "properties": {"kind": "stop", "name": "N HIGHLAND AVE @ E ROCK SPRINGS RD", "mode": "bus"}}, {"type": "Feature", "geometry": {"type": "Point", "coordinates": [-84.348925, 33.798052]}, "properties": {"kind": "stop", "name": "JOHNSON RD NE@BEECH VALLEY RD NE", "mode": "bus"}}, {"type": "Feature", "geometry": {"type": "Point", "coordinates": [-84.347827, 33.79867]}, "properties": {"kind": "stop", "name": "JOHNSON RD NE@PASADENA AVE NE", "mode": "bus"}}, {"type": "Feature", "geometry": {"type": "Point", "coordinates": [-84.346674, 33.799001]}, "properties": {"kind": "stop", "name": "JOHNSON RD NE@NOBLE DR NE", "mode": "bus"}}, {"type": "Feature", "geometry": {"type": "Point", "coordinates": [-84.349815, 33.796806]}, "properties": {"kind": "stop", "name": "E ROCK SPRINGS RD NE @ JOHNSON RD", "mode": "bus"}}, {"type": "Feature", "geometry": {"type": "Point", "coordinates": [-84.348023, 33.798688]}, "properties": {"kind": "stop", "name": "JOHNSON RD NE@HOMESTEAD AVE", "mode": "bus"}}, {"type": "Feature", "geometry": {"type": "Point", "coordinates": [-84.348946, 33.798172]}, "properties": {"kind": "stop", "name": "JOHNSON RD NE@BEECH VALLEY RD", "mode": "bus"}}, {"type": "Feature", "geometry": {"type": "Point", "coordinates": [-84.350187, 33.796566]}, "properties": {"kind": "stop", "name": "N HIGHLAND AVE @  E ROCK SPRINGS RD", "mode": "bus"}}, {"type": "Feature", "geometry": {"type": "Point", "coordinates": [-84.350622, 33.795725]}, "properties": {"kind": "stop", "name": "N HIGHLAND AVE NE @ CUMBERLAND RD", "mode": "bus"}}, {"type": "Feature", "geometry": {"type": "Point", "coordinates": [-84.351024, 33.794794]}, "properties": {"kind": "stop", "name": "N HIGHLAND AVE NE @ REEDER CIR", "mode": "bus"}}, {"type": "Feature", "geometry": {"type": "Point", "coordinates": [-84.351585, 33.793463]}, "properties": {"kind": "stop", "name": "N HIGHLAND AVE @ UNIVERSITY DR", "mode": "bus"}}, {"type": "Feature", "geometry": {"type": "Point", "coordinates": [-84.353688, 33.791947]}, "properties": {"kind": "stop", "name": "N HIGHLAND AVE @ LANIER PL", "mode": "bus"}}, {"type": "Feature", "geometry": {"type": "Point", "coordinates": [-84.355438, 33.791016]}, "properties": {"kind": "stop", "name": "N HIGHLAND AVE @ MORNINGSIDE DR", "mode": "bus"}}, {"type": "Feature", "geometry": {"type": "Point", "coordinates": [-84.35571, 33.789941]}, "properties": {"kind": "stop", "name": "N HIGHLAND AVE NE @ COURTENAY DR NE", "mode": "bus"}}, {"type": "Feature", "geometry": {"type": "Point", "coordinates": [-84.355514, 33.788733]}, "properties": {"kind": "stop", "name": "N HIGHLAND AVE NE @ MCLYNN AVE", "mode": "bus"}}, {"type": "Feature", "geometry": {"type": "Point", "coordinates": [-84.355394, 33.787623]}, "properties": {"kind": "stop", "name": "N HIGHLAND AVE NE @ AMSTERDAM AVE", "mode": "bus"}}, {"type": "Feature", "geometry": {"type": "Point", "coordinates": [-84.354925, 33.784938]}, "properties": {"kind": "stop", "name": "N HIGHLAND AVE NE @ GLEN ARDEN WAY", "mode": "bus"}}, {"type": "Feature", "geometry": {"type": "Point", "coordinates": [-84.353674, 33.813965]}, "properties": {"kind": "stop", "name": "CHESHIRE BRIDGE RD @ 2170", "mode": "bus"}}, {"type": "Feature", "geometry": {"type": "Point", "coordinates": [-84.37807, 33.78709]}, "properties": {"kind": "stop", "name": "PIEDMONT AVE NE @ 14TH ST NE", "mode": "bus"}}, {"type": "Feature", "geometry": {"type": "Point", "coordinates": [-84.377418, 33.788224]}, "properties": {"kind": "stop", "name": "PIEDMONT AVE NE @ 15TH ST NE", "mode": "bus"}}, {"type": "Feature", "geometry": {"type": "Point", "coordinates": [-84.376309, 33.7892]}, "properties": {"kind": "stop", "name": "PIEDMONT AVE NE@PRADO", "mode": "bus"}}, {"type": "Feature", "geometry": {"type": "Point", "coordinates": [-84.374179, 33.791636]}, "properties": {"kind": "stop", "name": "PIEDMONT AVE NE@THE PRADO", "mode": "bus"}}, {"type": "Feature", "geometry": {"type": "Point", "coordinates": [-84.37282, 33.793095]}, "properties": {"kind": "stop", "name": "PIEDMONT AVE NE@WESTMINSTER DR NE", "mode": "bus"}}, {"type": "Feature", "geometry": {"type": "Point", "coordinates": [-84.371451, 33.79451]}, "properties": {"kind": "stop", "name": "PIEDMONT AVE NE@AVERY DR NE", "mode": "bus"}}, {"type": "Feature", "geometry": {"type": "Point", "coordinates": [-84.367744, 33.799792]}, "properties": {"kind": "stop", "name": "PIEDMONT AVE NE@MORNINGSIDE DR NE", "mode": "bus"}}, {"type": "Feature", "geometry": {"type": "Point", "coordinates": [-84.374821, 33.809127]}, "properties": {"kind": "stop", "name": "MONROE DR@2025", "mode": "bus"}}, {"type": "Feature", "geometry": {"type": "Point", "coordinates": [-84.354753, 33.791678]}, "properties": {"kind": "stop", "name": "N HIGHLAND AVE @ WESSYNGTON RD", "mode": "bus"}}, {"type": "Feature", "geometry": {"type": "Point", "coordinates": [-84.368633, 33.796915]}, "properties": {"kind": "stop", "name": "MONROE DR@PIEDMONT AVE", "mode": "bus"}}, {"type": "Feature", "geometry": {"type": "Point", "coordinates": [-84.353358, 33.81426]}, "properties": {"kind": "stop", "name": "CHESHIRE BRIDGE RD@ 2171", "mode": "bus"}}, {"type": "Feature", "geometry": {"type": "Point", "coordinates": [-84.374181, 33.812795]}, "properties": {"kind": "stop", "name": "ARMOUR DR @ ARMOUR CIR", "mode": "bus"}}, {"type": "Feature", "geometry": {"type": "Point", "coordinates": [-84.376988, 33.812408]}, "properties": {"kind": "stop", "name": "ARMOUR DR @ OTTLEY DR", "mode": "bus"}}, {"type": "Feature", "geometry": {"type": "Point", "coordinates": [-84.383438, 33.807061]}, "properties": {"kind": "stop", "name": "OTTLEY DR@125", "mode": "bus"}}, {"type": "Feature", "geometry": {"type": "Point", "coordinates": [-84.374127, 33.812705]}, "properties": {"kind": "stop", "name": "ARMOUR DR @ ARMOUR CIR", "mode": "bus"}}, {"type": "Feature", "geometry": {"type": "Point", "coordinates": [-84.375298, 33.806672]}, "properties": {"kind": "stop", "name": "MONROE DR@WIMBLEDON RD", "mode": "bus"}}, {"type": "Feature", "geometry": {"type": "Point", "coordinates": [-84.367139, 33.792141]}, "properties": {"kind": "stop", "name": "MONROE DR NE@DUTCH VALLEY RD NE", "mode": "bus"}}, {"type": "Feature", "geometry": {"type": "Point", "coordinates": [-84.376277, 33.789335]}, "properties": {"kind": "stop", "name": "PIEDMONT AVE@PRADO  NE", "mode": "bus"}}, {"type": "Feature", "geometry": {"type": "Point", "coordinates": [-84.367281, 33.785406]}, "properties": {"kind": "stop", "name": "MONROE DR@PARK DR", "mode": "bus"}}, {"type": "Feature", "geometry": {"type": "Point", "coordinates": [-84.340516, 33.79305]}, "properties": {"kind": "stop", "name": "E ROCK SPRINGS RD @ ROCK SPRINGS CR", "mode": "bus"}}, {"type": "Feature", "geometry": {"type": "Point", "coordinates": [-84.344205, 33.799745]}, "properties": {"kind": "stop", "name": "JOHNSON RD NE@MEADOWDALE AVE NE", "mode": "bus"}}, {"type": "Feature", "geometry": {"type": "Point", "coordinates": [-84.342659, 33.80106]}, "properties": {"kind": "stop", "name": "JOHNSON RD NE@PASADENA AVE NE", "mode": "bus"}}, {"type": "Feature", "geometry": {"type": "Point", "coordinates": [-84.340997, 33.802618]}, "properties": {"kind": "stop", "name": "JOHNSON RD NE@NOBLE DR", "mode": "bus"}}, {"type": "Feature", "geometry": {"type": "Point", "coordinates": [-84.339876, 33.803514]}, "properties": {"kind": "stop", "name": "JOHNSON RD NE@HELEN DR NE", "mode": "bus"}}, {"type": "Feature", "geometry": {"type": "Point", "coordinates": [-84.320844, 33.79032]}, "properties": {"kind": "stop", "name": "CLIFTON RD NE @ GAMBRELL DR", "mode": "bus"}}, {"type": "Feature", "geometry": {"type": "Point", "coordinates": [-84.320927, 33.792989]}, "properties": {"kind": "stop", "name": "CLIFTON RD NE @ UPPER GATE DR NE", "mode": "bus"}}, {"type": "Feature", "geometry": {"type": "Point", "coordinates": [-84.32106, 33.79494]}, "properties": {"kind": "stop", "name": "CLIFTON RD NE @ HAYGOOD DR NE", "mode": "bus"}}, {"type": "Feature", "geometry": {"type": "Point", "coordinates": [-84.322083, 33.796928]}, "properties": {"kind": "stop", "name": "CLIFTON RD NE @ GATEWOOD RD NE", "mode": "bus"}}, {"type": "Feature", "geometry": {"type": "Point", "coordinates": [-84.323472, 33.798279]}, "properties": {"kind": "stop", "name": "CLIFTON RD NE @ HOUSTON MILL RD NE", "mode": "bus"}}, {"type": "Feature", "geometry": {"type": "Point", "coordinates": [-84.328737, 33.800758]}, "properties": {"kind": "stop", "name": "CLIFTON RD NE @ TURNER LN (CDC PKWY)", "mode": "bus"}}, {"type": "Feature", "geometry": {"type": "Point", "coordinates": [-84.330552, 33.801235]}, "properties": {"kind": "stop", "name": "CLIFTON RD NE @ 1749", "mode": "bus"}}, {"type": "Feature", "geometry": {"type": "Point", "coordinates": [-84.333502, 33.803577]}, "properties": {"kind": "stop", "name": "CLIFTON RD NE @ OLD BRIARCLIFF WAY", "mode": "bus"}}, {"type": "Feature", "geometry": {"type": "Point", "coordinates": [-84.340451, 33.792988]}, "properties": {"kind": "stop", "name": "E ROCK SPRINGS RD NE @ ROCK SPRINGS CIR NE", "mode": "bus"}}, {"type": "Feature", "geometry": {"type": "Point", "coordinates": [-84.31646, 33.79121]}, "properties": {"kind": "stop", "name": "N DECATUR RD NE @ RIDGEWOOD DR", "mode": "bus"}}, {"type": "Feature", "geometry": {"type": "Point", "coordinates": [-84.318622, 33.789802]}, "properties": {"kind": "stop", "name": "N DECATUR RD NE @ HEALTHGATE DR", "mode": "bus"}}, {"type": "Feature", "geometry": {"type": "Point", "coordinates": [-84.32359, 33.78834]}, "properties": {"kind": "stop", "name": "N DECATUR RD @ 1660", "mode": "bus"}}, {"type": "Feature", "geometry": {"type": "Point", "coordinates": [-84.34264, 33.79414]}, "properties": {"kind": "stop", "name": "E ROCK SPRINGS RD @ MARKAN DR", "mode": "bus"}}, {"type": "Feature", "geometry": {"type": "Point", "coordinates": [-84.340299, 33.803308]}, "properties": {"kind": "stop", "name": "JOHNSON RD NE@NOBLE DR NE", "mode": "bus"}}, {"type": "Feature", "geometry": {"type": "Point", "coordinates": [-84.342324, 33.801687]}, "properties": {"kind": "stop", "name": "JOHNSON RD NE@PASADENA AVE", "mode": "bus"}}, {"type": "Feature", "geometry": {"type": "Point", "coordinates": [-84.344096, 33.799915]}, "properties": {"kind": "stop", "name": "JOHNSON RD NE@MEADOWDALE AVE", "mode": "bus"}}, {"type": "Feature", "geometry": {"type": "Point", "coordinates": [-84.346664, 33.799057]}, "properties": {"kind": "stop", "name": "JOHNSON RD NE@NOBLE DR NE", "mode": "bus"}}, {"type": "Feature", "geometry": {"type": "Point", "coordinates": [-84.333578, 33.803434]}, "properties": {"kind": "stop", "name": "CLIFTON RD@OLD BRIARCLIFF WAY", "mode": "bus"}}, {"type": "Feature", "geometry": {"type": "Point", "coordinates": [-84.331337, 33.801402]}, "properties": {"kind": "stop", "name": "CLIFTON RD @ 1762", "mode": "bus"}}, {"type": "Feature", "geometry": {"type": "Point", "coordinates": [-84.328764, 33.800634]}, "properties": {"kind": "stop", "name": "CLIFTON RD @ CDC PKWY", "mode": "bus"}}, {"type": "Feature", "geometry": {"type": "Point", "coordinates": [-84.321199, 33.794662]}, "properties": {"kind": "stop", "name": "CLIFTON RD @ EAGLE ROW", "mode": "bus"}}, {"type": "Feature", "geometry": {"type": "Point", "coordinates": [-84.32109, 33.793403]}, "properties": {"kind": "stop", "name": "CLIFTON RD @ WOODRUFF CIR", "mode": "bus"}}, {"type": "Feature", "geometry": {"type": "Point", "coordinates": [-84.321059, 33.790637]}, "properties": {"kind": "stop", "name": "CLIFTON RD @ FISHBURNE DR", "mode": "bus"}}, {"type": "Feature", "geometry": {"type": "Point", "coordinates": [-84.307055, 33.798326]}, "properties": {"kind": "stop", "name": "CLAIRMONT RD @ STARVINE WAY", "mode": "bus"}}, {"type": "Feature", "geometry": {"type": "Point", "coordinates": [-84.373297, 33.77292]}, "properties": {"kind": "stop", "name": "PONCE DE LEON AVE NE @ PARKWAY DR NE", "mode": "bus"}}, {"type": "Feature", "geometry": {"type": "Point", "coordinates": [-84.371014, 33.773548]}, "properties": {"kind": "stop", "name": "PONCE DE LEON AVE NE @ BOULEVARD  NE", "mode": "bus"}}, {"type": "Feature", "geometry": {"type": "Point", "coordinates": [-84.369666, 33.773781]}, "properties": {"kind": "stop", "name": "PONCE DE LEON AVE NE @ KENNESAW AVE NE", "mode": "bus"}}, {"type": "Feature", "geometry": {"type": "Point", "coordinates": [-84.367828, 33.773273]}, "properties": {"kind": "stop", "name": "PONCE DE LEON AVE NE@GLEN IRIS DR NE", "mode": "bus"}}, {"type": "Feature", "geometry": {"type": "Point", "coordinates": [-84.365808, 33.773308]}, "properties": {"kind": "stop", "name": "PONCE DE LEON AVE NE @ 675", "mode": "bus"}}, {"type": "Feature", "geometry": {"type": "Point", "coordinates": [-84.363402, 33.773649]}, "properties": {"kind": "stop", "name": "PONCE DE LEON AVE NE @ PONCE DE LEON PL", "mode": "bus"}}, {"type": "Feature", "geometry": {"type": "Point", "coordinates": [-84.361183, 33.773579]}, "properties": {"kind": "stop", "name": "PONCE DE LEON AVE NE @ BONAVENTURE AVE", "mode": "bus"}}, {"type": "Feature", "geometry": {"type": "Point", "coordinates": [-84.377446, 33.781753]}, "properties": {"kind": "stop", "name": "10TH ST NE @ ARGONNE AVE NE", "mode": "bus"}}, {"type": "Feature", "geometry": {"type": "Point", "coordinates": [-84.366636, 33.781551]}, "properties": {"kind": "stop", "name": "VIRGINIA AVE NE @ 630", "mode": "bus"}}, {"type": "Feature", "geometry": {"type": "Point", "coordinates": [-84.372429, 33.773373]}, "properties": {"kind": "stop", "name": "PONCE DE LEON AVE NE @ CHARLES ALLEN DR NE", "mode": "bus"}}, {"type": "Feature", "geometry": {"type": "Point", "coordinates": [-84.370636, 33.773743]}, "properties": {"kind": "stop", "name": "PONCE DE LEON AVE NE @ MONROE DR NE", "mode": "bus"}}, {"type": "Feature", "geometry": {"type": "Point", "coordinates": [-84.368042, 33.773666]}, "properties": {"kind": "stop", "name": "PONCE DE LEON AVE NE @ PONCE DE LEON CT", "mode": "bus"}}, {"type": "Feature", "geometry": {"type": "Point", "coordinates": [-84.365329, 33.77344]}, "properties": {"kind": "stop", "name": "PONCE DE LEON AVE NE @ 680", "mode": "bus"}}, {"type": "Feature", "geometry": {"type": "Point", "coordinates": [-84.371986, 33.771286]}, "properties": {"kind": "stop", "name": "BOULEVARD NE @ NORTH AVE NE", "mode": "bus"}}, {"type": "Feature", "geometry": {"type": "Point", "coordinates": [-84.37072, 33.776421]}, "properties": {"kind": "stop", "name": "MONROE DR NE @ SAINT CHARLES AVE NE", "mode": "bus"}}, {"type": "Feature", "geometry": {"type": "Point", "coordinates": [-84.370309, 33.776878]}, "properties": {"kind": "stop", "name": "MONROE DR NE @ GREENWOOD AVE NE", "mode": "bus"}}, {"type": "Feature", "geometry": {"type": "Point", "coordinates": [-84.369853, 33.778149]}, "properties": {"kind": "stop", "name": "MONROE DR NE @ SEAL PL NE", "mode": "bus"}}, {"type": "Feature", "geometry": {"type": "Point", "coordinates": [-84.36866, 33.78231]}, "properties": {"kind": "stop", "name": "MONROE DR NE@COOLEDGE AVE NE", "mode": "bus"}}, {"type": "Feature", "geometry": {"type": "Point", "coordinates": [-84.36835, 33.78223]}, "properties": {"kind": "stop", "name": "MONROE DR NE@COOLEDGE AVE NE", "mode": "bus"}}, {"type": "Feature", "geometry": {"type": "Point", "coordinates": [-84.369736, 33.777752]}, "properties": {"kind": "stop", "name": "MONROE DR NE @ SEAL PL NE", "mode": "bus"}}, {"type": "Feature", "geometry": {"type": "Point", "coordinates": [-84.370079, 33.776447]}, "properties": {"kind": "stop", "name": "MONROE DR NE @ GREENWOOD AVE NE", "mode": "bus"}}, {"type": "Feature", "geometry": {"type": "Point", "coordinates": [-84.370598, 33.775192]}, "properties": {"kind": "stop", "name": "MONROE DR NE @ SAINT CHARLES AVE NE", "mode": "bus"}}, {"type": "Feature", "geometry": {"type": "Point", "coordinates": [-84.37067, 33.77403]}, "properties": {"kind": "stop", "name": "MONROE DR NE @ PONCE DE LEON AVE NE", "mode": "bus"}}, {"type": "Feature", "geometry": {"type": "Point", "coordinates": [-84.371068, 33.773109]}, "properties": {"kind": "stop", "name": "BOULEVARD NE @ PONCE DE LEON AVE NE", "mode": "bus"}}, {"type": "Feature", "geometry": {"type": "Point", "coordinates": [-84.374575, 33.781656]}, "properties": {"kind": "stop", "name": "10TH ST NE @ TAFT AVE NE", "mode": "bus"}}, {"type": "Feature", "geometry": {"type": "Point", "coordinates": [-84.371191, 33.779446]}, "properties": {"kind": "stop", "name": "8TH ST NE @ VEDADO WAY NE", "mode": "bus"}}, {"type": "Feature", "geometry": {"type": "Point", "coordinates": [-84.369115, 33.780163]}, "properties": {"kind": "stop", "name": "MONROE DR NE @ VIRGINIA AVE NE", "mode": "bus"}}, {"type": "Feature", "geometry": {"type": "Point", "coordinates": [-84.368767, 33.780655]}, "properties": {"kind": "stop", "name": "VIRGINIA AVE NE@MONROE DR NE", "mode": "bus"}}, {"type": "Feature", "geometry": {"type": "Point", "coordinates": [-84.365755, 33.781552]}, "properties": {"kind": "stop", "name": "VIRGINIA AVE NE@660", "mode": "bus"}}, {"type": "Feature", "geometry": {"type": "Point", "coordinates": [-84.369321, 33.779841]}, "properties": {"kind": "stop", "name": "MONROE DR NE @ 8TH ST NE", "mode": "bus"}}, {"type": "Feature", "geometry": {"type": "Point", "coordinates": [-84.370595, 33.779536]}, "properties": {"kind": "stop", "name": "8TH ST NE @ VEDADO WAY NE", "mode": "bus"}}, {"type": "Feature", "geometry": {"type": "Point", "coordinates": [-84.372307, 33.779545]}, "properties": {"kind": "stop", "name": "8TH ST NE @ CHARLES ALLEN DR NE", "mode": "bus"}}, {"type": "Feature", "geometry": {"type": "Point", "coordinates": [-84.372206, 33.771048]}, "properties": {"kind": "stop", "name": "NORTH AVE NE @ BOULEVARD NE", "mode": "bus"}}, {"type": "Feature", "geometry": {"type": "Point", "coordinates": [-84.372964, 33.779804]}, "properties": {"kind": "stop", "name": "CHARLES ALLEN DR@8TH ST", "mode": "bus"}}, {"type": "Feature", "geometry": {"type": "Point", "coordinates": [-84.356881, 33.782172]}, "properties": {"kind": "stop", "name": "VIRGINIA AVE NE@MARYLAND AVE NE", "mode": "bus"}}, {"type": "Feature", "geometry": {"type": "Point", "coordinates": [-84.347496, 33.776691]}, "properties": {"kind": "stop", "name": "BRIARCLIFF RD NE@BRIARCLIFF PL NE", "mode": "bus"}}, {"type": "Feature", "geometry": {"type": "Point", "coordinates": [-84.36362, 33.773699]}, "properties": {"kind": "stop", "name": "PONCE DE LEON AVE NE @ PONCE DE LEON PL", "mode": "bus"}}, {"type": "Feature", "geometry": {"type": "Point", "coordinates": [-84.360657, 33.77396]}, "properties": {"kind": "stop", "name": "PONCE DE LEON AVE NE @ BONAVENTURE AVE", "mode": "bus"}}, {"type": "Feature", "geometry": {"type": "Point", "coordinates": [-84.358505, 33.773975]}, "properties": {"kind": "stop", "name": "PONCE DE LEON AVE NE @ BARNETT ST NE", "mode": "bus"}}, {"type": "Feature", "geometry": {"type": "Point", "coordinates": [-84.359401, 33.77374]}, "properties": {"kind": "stop", "name": "PONCE DE LEON AVE NE @ FREEDOM PKY NE", "mode": "bus"}}, {"type": "Feature", "geometry": {"type": "Point", "coordinates": [-84.3558, 33.77363]}, "properties": {"kind": "stop", "name": "PONCE DE LEON AVE NE @ FREDERICA ST NE", "mode": "bus"}}, {"type": "Feature", "geometry": {"type": "Point", "coordinates": [-84.351974, 33.77376]}, "properties": {"kind": "stop", "name": "PONCE DE LEON AVE NE @ N HIGHLAND AVE NE", "mode": "bus"}}, {"type": "Feature", "geometry": {"type": "Point", "coordinates": [-84.355507, 33.773941]}, "properties": {"kind": "stop", "name": "PONCE DE LEON AVE NE @ FREDERICA ST NE", "mode": "bus"}}, {"type": "Feature", "geometry": {"type": "Point", "coordinates": [-84.352322, 33.773849]}, "properties": {"kind": "stop", "name": "PONCE DE LEON AVE @ N HIGHLAND AVE NE", "mode": "bus"}}, {"type": "Feature", "geometry": {"type": "Point", "coordinates": [-84.349245, 33.773921]}, "properties": {"kind": "stop", "name": "PONCE DE LEON AVE NE @ BRIARCLIFF RD", "mode": "bus"}}, {"type": "Feature", "geometry": {"type": "Point", "coordinates": [-84.349186, 33.773728]}, "properties": {"kind": "stop", "name": "PONCE DE LEON AVE NE @ MORELAND AVE NE", "mode": "bus"}}, {"type": "Feature", "geometry": {"type": "Point", "coordinates": [-84.363613, 33.781669]}, "properties": {"kind": "stop", "name": "VIRGINIA AVE NE @ PONCE DE LEON PL NE", "mode": "bus"}}, {"type": "Feature", "geometry": {"type": "Point", "coordinates": [-84.360307, 33.781929]}, "properties": {"kind": "stop", "name": "VIRGINIA AVE NE@GREENCOVE AVE NE", "mode": "bus"}}, {"type": "Feature", "geometry": {"type": "Point", "coordinates": [-84.358741, 33.782019]}, "properties": {"kind": "stop", "name": "VIRGINIA AVE@BARNETT ST", "mode": "bus"}}, {"type": "Feature", "geometry": {"type": "Point", "coordinates": [-84.35515, 33.78225]}, "properties": {"kind": "stop", "name": "VIRGINIA AVE NE@TODD RD NE", "mode": "bus"}}, {"type": "Feature", "geometry": {"type": "Point", "coordinates": [-84.354413, 33.783372]}, "properties": {"kind": "stop", "name": "N HIGHLAND AVE NE @ LOS ANGELES AVE", "mode": "bus"}}, {"type": "Feature", "geometry": {"type": "Point", "coordinates": [-84.354849, 33.784965]}, "properties": {"kind": "stop", "name": "N HIGHLAND AVE NE @ GLEN ARDEN WAY", "mode": "bus"}}, {"type": "Feature", "geometry": {"type": "Point", "coordinates": [-84.356705, 33.78233]}, "properties": {"kind": "stop", "name": "VIRGINIA AVE NE @ MARYLAND AVE NE", "mode": "bus"}}, {"type": "Feature", "geometry": {"type": "Point", "coordinates": [-84.358597, 33.782162]}, "properties": {"kind": "stop", "name": "VIRGINIA AVE @ BARNETT ST", "mode": "bus"}}, {"type": "Feature", "geometry": {"type": "Point", "coordinates": [-84.363428, 33.781767]}, "properties": {"kind": "stop", "name": "VIRGINIA AVE NE @ PARK DR NE", "mode": "bus"}}, {"type": "Feature", "geometry": {"type": "Point", "coordinates": [-84.34885, 33.7721]}, "properties": {"kind": "stop", "name": "MORELAND AVE NE@FAIRVIEW RD NE", "mode": "bus"}}, {"type": "Feature", "geometry": {"type": "Point", "coordinates": [-84.349005, 33.772462]}, "properties": {"kind": "stop", "name": "MORELAND AVE NE@BLUE RIDGE AVE NE", "mode": "bus"}}, {"type": "Feature", "geometry": {"type": "Point", "coordinates": [-84.348824, 33.773529]}, "properties": {"kind": "stop", "name": "MORELAND AVE NE@PONCE DE LEON AVE N", "mode": "bus"}}, {"type": "Feature", "geometry": {"type": "Point", "coordinates": [-84.348983, 33.773903]}, "properties": {"kind": "stop", "name": "BRIARCLIFF RD NE @ PONCE DE LEON AVE", "mode": "bus"}}, {"type": "Feature", "geometry": {"type": "Point", "coordinates": [-84.347995, 33.77632]}, "properties": {"kind": "stop", "name": "BRIARCLIFF RD NE@SAINT LOUIS PL NE", "mode": "bus"}}, {"type": "Feature", "geometry": {"type": "Point", "coordinates": [-84.347386, 33.77709]}, "properties": {"kind": "stop", "name": "BRIARCLIFF RD NE@BRIARCLIFF PL NE", "mode": "bus"}}, {"type": "Feature", "geometry": {"type": "Point", "coordinates": [-84.345625, 33.778791]}, "properties": {"kind": "stop", "name": "BRIARCLIFF RD NE @ VIRGINIA AVE", "mode": "bus"}}, {"type": "Feature", "geometry": {"type": "Point", "coordinates": [-84.346331, 33.778156]}, "properties": {"kind": "stop", "name": "BRIARCLIFF RD NE@869", "mode": "bus"}}, {"type": "Feature", "geometry": {"type": "Point", "coordinates": [-84.346331, 33.778039]}, "properties": {"kind": "stop", "name": "BRIARCLIFF RD NE@869", "mode": "bus"}}, {"type": "Feature", "geometry": {"type": "Point", "coordinates": [-84.352572, 33.774547]}, "properties": {"kind": "stop", "name": "N HIGHLAND AVE NE @ ST AUGUSTINE PL", "mode": "bus"}}, {"type": "Feature", "geometry": {"type": "Point", "coordinates": [-84.348386, 33.77573]}, "properties": {"kind": "stop", "name": "BRIARCLIFF RD @SAINT CHARLES PL NE", "mode": "bus"}}, {"type": "Feature", "geometry": {"type": "Point", "coordinates": [-84.354118, 33.78212]}, "properties": {"kind": "stop", "name": "N HIGHLAND AVE NE @ VIRGINIA AVE NE", "mode": "bus"}}, {"type": "Feature", "geometry": {"type": "Point", "coordinates": [-84.354685, 33.7839]}, "properties": {"kind": "stop", "name": "N HIGHLAND AVE NE @ LOS ANGELES AVE", "mode": "bus"}}, {"type": "Feature", "geometry": {"type": "Point", "coordinates": [-84.353553, 33.780311]}, "properties": {"kind": "stop", "name": "N HIGHLAND AVE NE @ ADAIR AVE NE", "mode": "bus"}}, {"type": "Feature", "geometry": {"type": "Point", "coordinates": [-84.353379, 33.779747]}, "properties": {"kind": "stop", "name": "N HIGHLAND AVE NE @ ROSEDALE DR", "mode": "bus"}}, {"type": "Feature", "geometry": {"type": "Point", "coordinates": [-84.352932, 33.778494]}, "properties": {"kind": "stop", "name": "N HIGHLAND AVE NE @ DREWRY ST", "mode": "bus"}}, {"type": "Feature", "geometry": {"type": "Point", "coordinates": [-84.3526, 33.776974]}, "properties": {"kind": "stop", "name": "N HIGHLAND AVE NE @ BRIARCLIFF PL", "mode": "bus"}}, {"type": "Feature", "geometry": {"type": "Point", "coordinates": [-84.352528, 33.772471]}, "properties": {"kind": "stop", "name": "N HIGHLAND AVE NE @ BLUE RIDGE AVE NE", "mode": "bus"}}, {"type": "Feature", "geometry": {"type": "Point", "coordinates": [-84.352298, 33.770857]}, "properties": {"kind": "stop", "name": "N HIGHLAND AVE @ NORTH AVE", "mode": "bus"}}, {"type": "Feature", "geometry": {"type": "Point", "coordinates": [-84.352325, 33.772171]}, "properties": {"kind": "stop", "name": "N HIGHLAND AVE NE @ BLUE RIDGE AVE", "mode": "bus"}}, {"type": "Feature", "geometry": {"type": "Point", "coordinates": [-84.352341, 33.77364]}, "properties": {"kind": "stop", "name": "N HIGHLAND AVE @ PONCE DE LEON AVE", "mode": "bus"}}, {"type": "Feature", "geometry": {"type": "Point", "coordinates": [-84.352386, 33.775154]}, "properties": {"kind": "stop", "name": "N HIGHLAND AVE NE @ ST CHARLES PL", "mode": "bus"}}, {"type": "Feature", "geometry": {"type": "Point", "coordinates": [-84.352442, 33.777188]}, "properties": {"kind": "stop", "name": "N HIGHLAND AVE NE @ BRIARCLIFF PL", "mode": "bus"}}, {"type": "Feature", "geometry": {"type": "Point", "coordinates": [-84.353618, 33.780768]}, "properties": {"kind": "stop", "name": "N HIGHLAND AVE NE @ HUDSON DR NE", "mode": "bus"}}, {"type": "Feature", "geometry": {"type": "Point", "coordinates": [-84.352878, 33.778772]}, "properties": {"kind": "stop", "name": "N HIGHLAND AVE NE @ HIGHLAND VW NE", "mode": "bus"}}, {"type": "Feature", "geometry": {"type": "Point", "coordinates": [-84.348668, 33.775479]}, "properties": {"kind": "stop", "name": "BRIARCLIFF RD @SAINT CHARLES PL NE", "mode": "bus"}}, {"type": "Feature", "geometry": {"type": "Point", "coordinates": [-84.352519, 33.777931]}, "properties": {"kind": "stop", "name": "N HIGHLAND AVE NE @ DREWRY ST NE", "mode": "bus"}}, {"type": "Feature", "geometry": {"type": "Point", "coordinates": [-84.360832, 33.781994]}, "properties": {"kind": "stop", "name": "VIRGINIA AVE NE @ ARCADIA ST NE", "mode": "bus"}}, {"type": "Feature", "geometry": {"type": "Point", "coordinates": [-84.353281, 33.779729]}, "properties": {"kind": "stop", "name": "N HIGHLAND AVE NE@ ROSEDALE DR", "mode": "bus"}}, {"type": "Feature", "geometry": {"type": "Point", "coordinates": [-84.354515, 33.782677]}, "properties": {"kind": "stop", "name": "N HIGHLAND AVE @ VIRGINIA AVE", "mode": "bus"}}, {"type": "Feature", "geometry": {"type": "Point", "coordinates": [-84.352642, 33.775618]}, "properties": {"kind": "stop", "name": "N HIGHLAND AVE N@SAINT CHARLES AVE", "mode": "bus"}}, {"type": "Feature", "geometry": {"type": "Point", "coordinates": [-84.35256, 33.77111]}, "properties": {"kind": "stop", "name": "N HIGHLAND AVE @ NORTH AVE", "mode": "bus"}}, {"type": "Feature", "geometry": {"type": "Point", "coordinates": [-84.354142, 33.781719]}, "properties": {"kind": "stop", "name": "N HIGHLAND AVE N@VIRGINIA AVE", "mode": "bus"}}, {"type": "Feature", "geometry": {"type": "Point", "coordinates": [-84.345384, 33.778903]}, "properties": {"kind": "stop", "name": "BRIARCLIFF RD NE@VIRGINIA CT", "mode": "bus"}}, {"type": "Feature", "geometry": {"type": "Point", "coordinates": [-84.345058, 33.774647]}, "properties": {"kind": "stop", "name": "PONCE DE LEON AVE @ SPRINGDALE RD", "mode": "bus"}}, {"type": "Feature", "geometry": {"type": "Point", "coordinates": [-84.341611, 33.775122]}, "properties": {"kind": "stop", "name": "PONCE DE LEON AVE NE @ OAKDALE RD NE", "mode": "bus"}}, {"type": "Feature", "geometry": {"type": "Point", "coordinates": [-84.344826, 33.774918]}, "properties": {"kind": "stop", "name": "PONCE DE LEON AVE @ SPRINGDALE RD", "mode": "bus"}}, {"type": "Feature", "geometry": {"type": "Point", "coordinates": [-84.341356, 33.7752]}, "properties": {"kind": "stop", "name": "PONCE DE LEON AVE @ OAKDALE RD NE", "mode": "bus"}}, {"type": "Feature", "geometry": {"type": "Point", "coordinates": [-84.372648, 33.771277]}, "properties": {"kind": "stop", "name": "NORTH AVE NE @ PARKWAY DR NE", "mode": "bus"}}, {"type": "Feature", "geometry": {"type": "Point", "coordinates": [-84.371892, 33.769725]}, "properties": {"kind": "stop", "name": "BOULEVARD NE @ BOULEVARD PL NE", "mode": "bus"}}, {"type": "Feature", "geometry": {"type": "Point", "coordinates": [-84.371704, 33.769695]}, "properties": {"kind": "stop", "name": "BOULEVARD NE @ BOULEVARD PL NE", "mode": "bus"}}, {"type": "Feature", "geometry": {"type": "Point", "coordinates": [-84.368175, 33.771177]}, "properties": {"kind": "stop", "name": "NORTH AVE @ GLEN IRIS DR", "mode": "bus"}}, {"type": "Feature", "geometry": {"type": "Point", "coordinates": [-84.362442, 33.766981]}, "properties": {"kind": "stop", "name": "RALPH MCGILL BLVD NE@760", "mode": "bus"}}, {"type": "Feature", "geometry": {"type": "Point", "coordinates": [-84.361138, 33.767339]}, "properties": {"kind": "stop", "name": "RALPH MCGILL BLVD@828", "mode": "bus"}}, {"type": "Feature", "geometry": {"type": "Point", "coordinates": [-84.358681, 33.768128]}, "properties": {"kind": "stop", "name": "RALPH MCGILL BLVD NE @ JOHN LEWIS FREEDOM PKWY NE", "mode": "bus"}}, {"type": "Feature", "geometry": {"type": "Point", "coordinates": [-84.359406, 33.76802]}, "properties": {"kind": "stop", "name": "RALPH MCGILL BLVD NE @ JOHN LEWIS FREEDOM PKWY NE", "mode": "bus"}}, {"type": "Feature", "geometry": {"type": "Point", "coordinates": [-84.354698, 33.76878]}, "properties": {"kind": "stop", "name": "JOHN LEWIS FREEDOM PKWY NE @ CARTER CENTER ENTR", "mode": "bus"}}, {"type": "Feature", "geometry": {"type": "Point", "coordinates": [-84.352753, 33.769138]}, "properties": {"kind": "stop", "name": "N HIGHLAND AVE NE @ JOHN LEWIS FREEDOM PKWY NE", "mode": "bus"}}, {"type": "Feature", "geometry": {"type": "Point", "coordinates": [-84.352371, 33.769516]}, "properties": {"kind": "stop", "name": "N HIGHLAND AVE NE @ JOHN LEWIS FREEDOM PKWY NE", "mode": "bus"}}, {"type": "Feature", "geometry": {"type": "Point", "coordinates": [-84.369313, 33.823501]}, "properties": {"kind": "stop", "name": "LINDBERGH CENTER STATION", "mode": "bus"}}, {"type": "Feature", "geometry": {"type": "Point", "coordinates": [-84.369324, 33.823447]}, "properties": {"kind": "stop", "name": "LINDBERGH CENTER STATION", "mode": "bus"}}, {"type": "Feature", "geometry": {"type": "Point", "coordinates": [-84.349708, 33.814745]}, "properties": {"kind": "stop", "name": "WOODLAND AVE NE@1155", "mode": "bus"}}, {"type": "Feature", "geometry": {"type": "Point", "coordinates": [-84.349673, 33.814938]}, "properties": {"kind": "stop", "name": "WOODLAND AVE NE @ 1170", "mode": "bus"}}, {"type": "Feature", "geometry": {"type": "Point", "coordinates": [-84.355076, 33.782325]}, "properties": {"kind": "stop", "name": "VIRGINIA AVE NE @ TODD RD NE", "mode": "bus"}}, {"type": "Feature", "geometry": {"type": "Point", "coordinates": [-84.37278, 33.781361]}, "properties": {"kind": "stop", "name": "CHARLES ALLEN DR @ 10TH ST", "mode": "bus"}}, {"type": "Feature", "geometry": {"type": "Point", "coordinates": [-84.353043, 33.815021]}, "properties": {"kind": "stop", "name": "CHESHIRE BRIDGE RD@WOODLAND AVE", "mode": "bus"}}, {"type": "Feature", "geometry": {"type": "Point", "coordinates": [-84.367071, 33.821443]}, "properties": {"kind": "stop", "name": "LINDBERGH DR NE @ PIEDMONT RD NE", "mode": "bus"}}, {"type": "Feature", "geometry": {"type": "Point", "coordinates": [-84.349026, 33.771138]}, "properties": {"kind": "stop", "name": "MORELAND AVE@NORTH AVE", "mode": "bus"}}, {"type": "Feature", "geometry": {"type": "Point", "coordinates": [-84.349058, 33.769043]}, "properties": {"kind": "stop", "name": "MORELAND AVE @ DRUID PL", "mode": "bus"}}, {"type": "Feature", "geometry": {"type": "Point", "coordinates": [-84.349068, 33.767871]}, "properties": {"kind": "stop", "name": "MORELAND AVE @ MANSFIELD AVE", "mode": "bus"}}, {"type": "Feature", "geometry": {"type": "Point", "coordinates": [-84.34896, 33.767701]}, "properties": {"kind": "stop", "name": "MORELAND AVE @ MANSFIELD AVE", "mode": "bus"}}, {"type": "Feature", "geometry": {"type": "Point", "coordinates": [-84.348927, 33.768936]}, "properties": {"kind": "stop", "name": "MORELAND AVE @ DRUID PL", "mode": "bus"}}, {"type": "Feature", "geometry": {"type": "Point", "coordinates": [-84.348895, 33.770994]}, "properties": {"kind": "stop", "name": "MORELAND AVE@NORTH AVE", "mode": "bus"}}, {"type": "Feature", "geometry": {"type": "Point", "coordinates": [-84.364804, 33.820486]}, "properties": {"kind": "stop", "name": "LINDBERGH WAY NE @ W LINDMONT CT", "mode": "bus"}}, {"type": "Feature", "geometry": {"type": "Point", "coordinates": [-84.363316, 33.820585]}, "properties": {"kind": "stop", "name": "LINDBERGH DR NE @ ADINA DR NE", "mode": "bus"}}, {"type": "Feature", "geometry": {"type": "Point", "coordinates": [-84.365358, 33.820766]}, "properties": {"kind": "stop", "name": "LINDBERGH DR NE @ MOROSGO WAY", "mode": "bus"}}, {"type": "Feature", "geometry": {"type": "Point", "coordinates": [-84.381138, 33.808758]}, "properties": {"kind": "stop", "name": "OTTLEY DR @ 195", "mode": "bus"}}, {"type": "Feature", "geometry": {"type": "Point", "coordinates": [-84.381187, 33.810861]}, "properties": {"kind": "stop", "name": "ARMOUR DR @ 205", "mode": "bus"}}, {"type": "Feature", "geometry": {"type": "Point", "coordinates": [-84.3729, 33.781728]}, "properties": {"kind": "stop", "name": "10TH ST NE @ CHARLES ALLEN DR", "mode": "bus"}}, {"type": "Feature", "geometry": {"type": "Point", "coordinates": [-84.371665, 33.771077]}, "properties": {"kind": "stop", "name": "BOULEVARD NE @ NORTH AVE NE", "mode": "bus"}}, {"type": "Feature", "geometry": {"type": "Point", "coordinates": [-84.350979, 33.82339]}, "properties": {"kind": "stop", "name": "CHANTILLY DR NE @ CHESHIRE BRIDGE RD", "mode": "bus"}}, {"type": "Feature", "geometry": {"type": "Point", "coordinates": [-84.353067, 33.773916]}, "properties": {"kind": "stop", "name": "PONCE DE LEON AVE @ N HIGHLAND AVE", "mode": "bus"}}, {"type": "Feature", "geometry": {"type": "Point", "coordinates": [-84.361801, 33.767115]}, "properties": {"kind": "stop", "name": "RALPH MCGILL BLVD @ 760", "mode": "bus"}}, {"type": "Feature", "geometry": {"type": "Point", "coordinates": [-84.371134, 33.77336]}, "properties": {"kind": "stop", "name": "BOULEVARD NE @ PONCE DE LEON AVE", "mode": "bus"}}, {"type": "Feature", "geometry": {"type": "Point", "coordinates": [-84.352594, 33.773411]}, "properties": {"kind": "stop", "name": "N HIGHLAND AVE NE @ PONCE DE LEON AVE NE", "mode": "bus"}}, {"type": "Feature", "geometry": {"type": "Point", "coordinates": [-84.370037, 33.795925]}, "properties": {"kind": "stop", "name": "PIEDMONT AVE @ MONROE DR", "mode": "bus"}}, {"type": "Feature", "geometry": {"type": "Point", "coordinates": [-84.376618, 33.812865]}, "properties": {"kind": "stop", "name": "ARMOUR DR @ 340", "mode": "bus"}}, {"type": "Feature", "geometry": {"type": "Point", "coordinates": [-84.385611, 33.80698]}, "properties": {"kind": "stop", "name": "CLAYTON DR NE @ ARMOUR DR NE", "mode": "bus"}}, {"type": "Feature", "geometry": {"type": "Point", "coordinates": [-84.378741, 33.811252]}, "properties": {"kind": "stop", "name": "OTTLEY DR @ 255", "mode": "bus"}}, {"type": "Feature", "geometry": {"type": "Point", "coordinates": [-84.367792, 33.767964]}, "properties": {"kind": "stop", "name": "GLEN IRIS DR @ DALLAS ST", "mode": "bus"}}, {"type": "Feature", "geometry": {"type": "Point", "coordinates": [-84.367695, 33.768733]}, "properties": {"kind": "stop", "name": "GLEN IRIS DR @ WINTON TER", "mode": "bus"}}, {"type": "Feature", "geometry": {"type": "Point", "coordinates": [-84.367946, 33.771105]}, "properties": {"kind": "stop", "name": "NORTH AVE @ GLEN IRIS DR", "mode": "bus"}}, {"type": "Feature", "geometry": {"type": "Point", "coordinates": [-84.366793, 33.811365]}, "properties": {"kind": "stop", "name": "PIEDMONT CIR @ PIEDMONT RD", "mode": "bus"}}, {"type": "Feature", "geometry": {"type": "Point", "coordinates": [-84.367323, 33.805368]}, "properties": {"kind": "stop", "name": "PIEDMONT AVE @ ROCK SPRINGS", "mode": "bus"}}, {"type": "Feature", "geometry": {"type": "Point", "coordinates": [-84.367454, 33.805243]}, "properties": {"kind": "stop", "name": "PIEDMONT RD @ N ROCK SPRINGS RD", "mode": "bus"}}, {"type": "Feature", "geometry": {"type": "Point", "coordinates": [-84.324616, 33.795873]}, "properties": {"kind": "stop", "name": "MICHAEL ST @ HOUSTON MILL RD", "mode": "bus"}}, {"type": "Feature", "geometry": {"type": "Point", "coordinates": [-84.3515, 33.818647]}, "properties": {"kind": "stop", "name": "CHESHIRE BRIDGE RD @ LAVISTA RD", "mode": "bus"}}, {"type": "Feature", "geometry": {"type": "Point", "coordinates": [-84.351337, 33.820777]}, "properties": {"kind": "stop", "name": "CHESHIRE BRIDGE RD @ SHERIDAN RD", "mode": "bus"}}, {"type": "Feature", "geometry": {"type": "Point", "coordinates": [-84.35138, 33.820472]}, "properties": {"kind": "stop", "name": "CHESHIRE BRIDGE RD @ SHERIDAN RD", "mode": "bus"}}, {"type": "Feature", "geometry": {"type": "Point", "coordinates": [-84.351891, 33.817868]}, "properties": {"kind": "stop", "name": "CHESHIRE BRIDGE RD @ LAVISTA RD", "mode": "bus"}}, {"type": "Feature", "geometry": {"type": "Point", "coordinates": [-84.368733, 33.79733]}, "properties": {"kind": "stop", "name": "PIEDMONT AVE @ MONROE DR", "mode": "bus"}}, {"type": "Feature", "geometry": {"type": "Point", "coordinates": [-84.366334, 33.807239]}, "properties": {"kind": "stop", "name": "PIEDMONT AVE @ CHESHIRE BRIDGE RD", "mode": "bus"}}, {"type": "Feature", "geometry": {"type": "Point", "coordinates": [-84.366462, 33.814804]}, "properties": {"kind": "stop", "name": "PIEDMONT RD @ 2135", "mode": "bus"}}, {"type": "Feature", "geometry": {"type": "Point", "coordinates": [-84.372031, 33.812043]}, "properties": {"kind": "stop", "name": "ARMOUR DR NE @ PLASTERS AVE NE", "mode": "bus"}}, {"type": "Feature", "geometry": {"type": "Point", "coordinates": [-84.351488, 33.82264]}, "properties": {"kind": "stop", "name": "CHESHIRE BRIDGE RD @ CHANTILLY DR", "mode": "bus"}}, {"type": "Feature", "geometry": {"type": "Point", "coordinates": [-84.369357, 33.823385]}, "properties": {"kind": "stop", "name": "LINDBERGH CENTER STATION", "mode": "bus"}}, {"type": "Feature", "geometry": {"type": "Point", "coordinates": [-84.369324, 33.823492]}, "properties": {"kind": "stop", "name": "LINDBERGH CENTER STATION", "mode": "bus"}}, {"type": "Feature", "geometry": {"type": "Point", "coordinates": [-84.369313, 33.823501]}, "properties": {"kind": "stop", "name": "LINDBERGH CENTER STATION", "mode": "bus"}}, {"type": "Feature", "geometry": {"type": "Point", "coordinates": [-84.369324, 33.823447]}, "properties": {"kind": "stop", "name": "LINDBERGH CENTER STATION", "mode": "bus"}}], "properties": {"coverage_pct": 98.6, "rail_coverage_pct": 0.7, "stop_count": 310, "rail_stop_count": 1, "bus_stop_count": 309, "transit_index": 33, "weights": {"rail": 2.0, "bus": 1.0}}}