{"type": "FeatureCollection", "features": [{"type": "Feature", "geometry": {"type": "Polygon", "coordinates": [[[-84.39147706175402, 33.74240987303624], [-84.39224671328728, 33.74210404560367], [-84.39304853572364, 33.74186270898942], [-84.39387480865781, 33.74168818684844], [-84.39471757644077, 33.74158215951288], [-84.39556872472723, 33.741545647825475], [-84.39642005854577, 33.74157900331814], [-84.397263381142, 33.74168190483017], [-84.39809057283878, 33.74185336159856], [-84.39889366915723, 33.74209172279048], [-84.39966493744863, 33.74239469338677], [-84.40039695130233, 33.74275935626397], [-84.40108266201524, 33.74318220026281], [-84.40171546643664, 33.743659153974086], [-84.40228927053639, 33.74418562491741], [-84.4027985480851, 33.74475654373697], [-84.40323839388182, 33.74536641298954], [-84.40360457101596, 33.74600936005654], [-84.40389355170775, 33.7466791936715], [-84.40410255133237, 33.74736946351978], [-84.40422955529816, 33.748073522337506], [-84.40427333851783, 33.748784589912475], [-84.40424838919208, 33.74922975229931], [-84.4047159486692, 33.749209661583], [-84.40556736138589, 33.74924295361952], [-84.40641076959113, 33.7493457921519], [-84.40723805278432, 33.749517187023244], [-84.40804124560646, 33.74975548799649], [-84.40881261448054, 33.75005840063224], [-84.40954473202834, 33.75042300836505], [-84.41023054854921, 33.75084580056673], [-84.4108634598744, 33.751322706326945], [-84.41143737094511, 33.751849133627395], [-84.41194675450244, 33.75242001353278], [-84.41203488181341, 33.752542171829894], [-84.41199756981113, 33.752595189436185], [-84.41174952045726, 33.75294405182024], [-84.41153010174132, 33.75327676312659], [-84.4114783946348, 33.753357207804626], [-84.4114850442126, 33.75376035150729], [-84.4114858684845, 33.7538596945474], [-84.41148592193042, 33.754389694311335], [-84.4114859370569, 33.754539694392044], [-84.41147540210162, 33.75475118818541], [-84.41146682746127, 33.75621655559375], [-84.41147127319604, 33.75632741945547], [-84.41146274653347, 33.75697308522246], [-84.41145619240443, 33.75707154614061], [-84.41145622651148, 33.7574096942745], [-84.41145551882978, 33.757502919745704], [-84.41144629677605, 33.75810630917706], [-84.41144630216066, 33.75815969436124], [-84.41144574199724, 33.758242703886914], [-84.41143581562213, 33.75897270425575], [-84.41143361325936, 33.759073273770355], [-84.41142415966146, 33.75938628423766], [-84.41140544912899, 33.76014716894914], [-84.41139656672681, 33.76078236880669], [-84.4113965725096, 33.76083969433057], [-84.41139658461462, 33.76095969432489], [-84.41139660044003, 33.76111657656917], [-84.41089255351274, 33.761583293644435], [-84.41026227151404, 33.76206269430446], [-84.40957875814296, 33.76248818383504], [-84.40884859658676, 33.76285566372129], [-84.4080788196561, 33.76316159417437], [-84.40727684201845, 33.763403028250664], [-84.40645038874113, 33.763577640258134], [-84.40560742083369, 33.76368374817504], [-84.40475605850939, 33.7637203298647], [-84.40390450290728, 33.76368703292918], [-84.40306095703176, 33.7635841781068], [-84.40223354667401, 33.763412756180465], [-84.4014302420799, 33.763174418426956], [-84.40070297705167, 33.76288881691631], [-84.39994424362733, 33.76311718205333], [-84.39911777791933, 33.76329174502471], [-84.39827480346673, 33.76339780289584], [-84.39742344054602, 33.76343433401239], [-84.39657189030201, 33.76340098646387], [-84.39572835568741, 33.763298081476414], [-84.39528219989364, 33.763205619753876], [-84.39550447039416, 33.76359588624024], [-84.39579344804388, 33.76426573692383], [-84.39600242636587, 33.76495601861161], [-84.39612939097177, 33.765660083925546], [-84.39617311715139, 33.766371152590644], [-84.39613318174325, 33.76708237672269], [-84.39600996728866, 33.767786906773466], [-84.39580465842683, 33.76847795749832], [-84.39551923056239, 33.769148873310805], [-84.39517613038153, 33.76975820712211], [-84.39529295119476, 33.770144066641706], [-84.39541991790779, 33.770848132085405], [-84.39546364112012, 33.77155920041705], [-84.39542369769826, 33.77227042375562], [-84.39530047026024, 33.77297495256049], [-84.39509514356978, 33.773666001598905], [-84.39480969320277, 33.774336915300545], [-84.39444686659175, 33.77498123186928], [-84.39401015662862, 33.77559274553415], [-84.39350376807717, 33.7761655663393], [-84.3929325771171, 33.7766941768962], [-84.39230208440753, 33.77717348555015], [-84.39161836212128, 33.77759887544834], [-84.39088799545948, 33.777966249035195], [-84.39011801921012, 33.77827206754566], [-84.38931584996239, 33.77851338511438], [-84.38926684721143, 33.778523729137184], [-84.38867661850524, 33.77851389254766], [-84.38858341908656, 33.77851192122021], [-84.38829683969183, 33.77850457416405], [-84.38822947445735, 33.77851369773781], [-84.38730002409882, 33.77855533789387], [-84.38688307301851, 33.77855533822588], [-84.38607605084034, 33.77857288206869], [-84.38524802036683, 33.77855790140491], [-84.38507694430501, 33.77854110603827], [-84.38485491103343, 33.77853533877053], [-84.38485052043994, 33.77853533877048], [-84.38435726850891, 33.778540128654434], [-84.38427166292888, 33.7785223826969], [-84.38346826613062, 33.77828392898724], [-84.38269673200888, 33.7779808600177], [-84.38196449218508, 33.77761609515889], [-84.3812785995198, 33.77719314804119], [-84.38064566015204, 33.77671609268792], [-84.38007176985454, 33.77618952424907], [-84.37956245531988, 33.775618514714914], [-84.37912262094245, 33.77500856403744], [-84.37875650160895, 33.774365547131296], [-84.37846762195092, 33.77369565726611], [-84.37825876245064, 33.77300534639631], [-84.37813193272457, 33.772301263004316], [-84.3780883522393, 33.771590188056095], [-84.3781284386434, 33.77087896968691], [-84.37825180382416, 33.77017445724646], [-84.37845725772442, 33.76948343533858], [-84.37874281987973, 33.768812558491], [-84.3790860329062, 33.76820326982445], [-84.37896928733264, 33.76781739454624], [-84.37884245967736, 33.76711331128488], [-84.3787988761878, 33.76640223600174], [-84.378838954542, 33.76569101683534], [-84.37896230670529, 33.76498650314309], [-84.37916774274636, 33.76429547954097], [-84.3794532823732, 33.763624600573145], [-84.37981617407462, 33.762980326640026], [-84.37982918032779, 33.762962117491895], [-84.37955163304328, 33.7624745996677], [-84.37926278761994, 33.761804710241236], [-84.37905395112516, 33.761114399298926], [-84.37892713295489, 33.76041031532369], [-84.37888355246565, 33.759699239287066], [-84.37892362730724, 33.75898801933483], [-84.37904696947952, 33.75828350483192], [-84.37925238914805, 33.75759248040228], [-84.37953790617911, 33.7569216005981], [-84.37990076927962, 33.75627732582799], [-84.3801245160209, 33.755964047300836], [-84.37965611548088, 33.75619965304319], [-84.37888629315289, 33.75650540195709], [-84.37808429446089, 33.75674664671025], [-84.37725784467602, 33.7569210634352], [-84.37641490477479, 33.75702697199242], [-84.37556359470086, 33.757063352166725], [-84.37471211508962, 33.7570298535025], [-84.37386866821275, 33.75692679868234], [-84.37304137890668, 33.75675518041673], [-84.37223821624971, 33.756516651874556], [-84.37146691674518, 33.756213510747195], [-84.3707349097528, 33.755848677100005], [-84.37004924588904, 33.75542566522549], [-84.36941652908776, 33.75494854977015], [-84.36884285297715, 33.754421926462136], [-84.36833374218628, 33.75385086781942], [-84.3678940991471, 33.75324087426607], [-84.36752815690377, 33.75259782112873], [-84.36723943838305, 33.75192790202503], [-84.36703072251649, 33.7512375691901], [-84.3669040175387, 33.750533471317], [-84.36686054171678, 33.74982238951037], [-84.3669007116934, 33.74911117197087], [-84.36702413855333, 33.748406668039614], [-84.36722963164779, 33.747715662238186], [-84.36751521013728, 33.74704480893894], [-84.36787812213832, 33.74640056829493], [-84.36831487128725, 33.74578914404548], [-84.36882125046301, 33.74521642379577], [-84.36939238234186, 33.74468792234458], [-84.37002276639231, 33.74420872860498], [-84.37070633185665, 33.74378345662762], [-84.37143649620847, 33.74341620119757], [-84.37220622852364, 33.743110498430596], [-84.37300811715505, 33.74286929174741], [-84.37383444106116, 33.74269490355245], [-84.37467724410291, 33.74258901288886], [-84.3755284115961, 33.74255263928418], [-84.37637974838458, 33.74258613294154], [-84.3772230576853, 33.74268917137079], [-84.37805021994883, 33.742860762491304], [-84.37885327097901, 33.743099254177395], [-84.37962447856226, 33.74340235015402], [-84.38035641687135, 33.743767132090966], [-84.38083472345805, 33.74406219745149], [-84.38100560417789, 33.74395586338348], [-84.38173572575319, 33.74358854721989], [-84.38250542270919, 33.74328278038934], [-84.3833072837387, 33.743041506929174], [-84.3841335880654, 33.74286704988647], [-84.3849763797384, 33.74276108896693], [-84.38582754418275, 33.74272464437415], [-84.38667888627158, 33.74275806699438], [-84.38752220917091, 33.742861035021], [-84.3883493932006, 33.74303255705093], [-84.38915247395526, 33.74327098162333], [-84.38969390837295, 33.7434837184878], [-84.3900635340229, 33.74320262924075], [-84.3907469919943, 33.74277724666646], [-84.39147706175402, 33.74240987303624]]]}, "properties": {"kind": "walkshed", "buffer_mi": 0.5}}, {"type": "Feature", "geometry": {"type": "Point", "coordinates": [-84.387486, 33.766387]}, "properties": {"kind": "stop", "name": "Civic Center", "mode": "rail"}}, {"type": "Feature", "geometry": {"type": "Point", "coordinates": [-84.397404, 33.756179]}, "properties": {"kind": "stop", "name": "Dome/GWCC/ Philips Arena", "mode": "rail"}}, {"type": "Feature", "geometry": {"type": "Point", "coordinates": [-84.391713, 33.753836]}, "properties": {"kind": "stop", "name": "Five Points", "mode": "rail"}}, {"type": "Feature", "geometry": {"type": "Point", "coordinates": [-84.395588, 33.748801]}, "properties": {"kind": "stop", "name": "Garnett", "mode": "rail"}}, {"type": "Feature", "geometry": {"type": "Point", "coordinates": [-84.385846, 33.74998]}, "properties": {"kind": "stop", "name": "Georgia State", "mode": "rail"}}, {"type": "Feature", "geometry": {"type": "Point", "coordinates": [-84.375546, 33.749808]}, "properties": {"kind": "stop", "name": "King Memorial", "mode": "rail"}}, {"type": "Feature", "geometry": {"type": "Point", "coordinates": [-84.386776, 33.771575]}, "properties": {"kind": "stop", "name": "North Avenue", "mode": "rail"}}, {"type": "Feature", "geometry": {"type": "Point", "coordinates": [-84.38757, 33.759684]}, "properties": {"kind": "stop", "name": "Peachtree Center", "mode": "rail"}}, {"type": "Feature", "geometry": {"type": "Point", "coordinates": [-84.404736, 33.756465]}, "properties": {"kind": "stop", "name": "Vine City", "mode": "rail"}}], "properties": {"coverage_pct": 63.8, "rail_coverage_pct": 63.8, "stop_count": 9, "rail_stop_count": 9, "bus_stop_count": 0, "transit_index": 64, "weights": {"rail": 2.0, "bus": 1.0}}}