{"type": "FeatureCollection", "features": [{"type": "Feature", "geometry": {"type": "LineString", "coordinates": [[-84.4238111, 33.7732057], [-84.4239376, 33.7731875], [-84.4240385, 33.7731695], [-84.4241742, 33.7731419], [-84.4242953, 33.7731138]]}, "properties": {"surface": "asphalt", "highway": "primary"}}, {"type": "Feature", "geometry": {"type": "LineString", "coordinates": [[-84.4235273, 33.7732408], [-84.4238111, 33.7732057]]}, "properties": {"surface": "concrete", "highway": "primary"}}, {"type": "Feature", "geometry": {"type": "LineString", "coordinates": [[-84.436464, 33.7473229], [-84.4364622, 33.7473925]]}, "properties": {"surface": "", "highway": "footway"}}, {"type": "Feature", "geometry": {"type": "LineString", "coordinates": [[-84.4354535, 33.7473093], [-84.4354537, 33.7474228]]}, "properties": {"surface": "", "highway": "footway"}}, {"type": "Feature", "geometry": {"type": "LineString", "coordinates": [[-84.4225316, 33.7732338], [-84.4229053, 33.7732728], [-84.4230743, 33.7732715], [-84.4232432, 33.7732636]]}, "properties": {"surface": "asphalt", "highway": "primary"}}, {"type": "Feature", "geometry": {"type": "LineString", "coordinates": [[-84.4238632, 33.7730723], [-84.4237993, 33.7730841]]}, "properties": {"surface": "concrete", "highway": "primary"}}, {"type": "Feature", "geometry": {"type": "LineString", "coordinates": [[-84.4235789, 33.7731247], [-84.4233134, 33.7731604], [-84.4231055, 33.7731816], [-84.4228869, 33.7731961], [-84.4227491, 33.7732107], [-84.4225316, 33.7732338]]}, "properties": {"surface": "asphalt", "highway": "primary"}}, {"type": "Feature", "geometry": {"type": "LineString", "coordinates": [[-84.425033, 33.7727059], [-84.4248883, 33.7727622], [-84.4248449, 33.7727791], [-84.4246129, 33.7728616], [-84.42452, 33.7728923], [-84.4243635, 33.7729441], [-84.4242551, 33.7729758], [-84.424169, 33.773001], [-84.4241228, 33.7730132]]}, "properties": {"surface": "asphalt", "highway": "primary"}}, {"type": "Feature", "geometry": {"type": "LineString", "coordinates": [[-84.4232432, 33.7732636], [-84.4235273, 33.7732408]]}, "properties": {"surface": "asphalt", "highway": "primary"}}, {"type": "Feature", "geometry": {"type": "LineString", "coordinates": [[-84.4242953, 33.7731138], [-84.4244163, 33.7730815], [-84.4245332, 33.7730493], [-84.4246911, 33.7730007], [-84.4249524, 33.7729077], [-84.4251175, 33.7728489]]}, "properties": {"surface": "asphalt", "highway": "primary"}}, {"type": "Feature", "geometry": {"type": "LineString", "coordinates": [[-84.4174221, 33.7788623], [-84.4173964, 33.7798451], [-84.4173951, 33.7801495], [-84.4173951, 33.7801609], [-84.4173933, 33.7805816], [-84.4173934, 33.7806155], [-84.4173906, 33.7807814], [-84.417392, 33.7809308], [-84.417389, 33.7812128], [-84.4173919, 33.7813345], [-84.4173898, 33.7825994], [-84.4173892, 33.7827847], [-84.4174183, 33.782833], [-84.4177177, 33.7832067], [-84.4180884, 33.7836696], [-84.4181424, 33.7837151], [-84.4182283, 33.7837962], [-84.4184277, 33.7839343], [-84.4190369, 33.7843325], [-84.4193262, 33.7844959], [-84.4194024, 33.784528], [-84.4196516, 33.7846328], [-84.4197022, 33.7846518], [-84.4199244, 33.7847352], [-84.4203908, 33.7848783], [-84.4205421, 33.7849065], [-84.420626, 33.7849244], [-84.4207952, 33.7849563], [-84.421714, 33.7850949], [-84.4217929, 33.7851056], [-84.4218736, 33.7851211], [-84.4218989, 33.7851288], [-84.4219142, 33.7851297], [-84.4219293, 33.7851271], [-84.4219481, 33.7851199], [-84.4220317, 33.7851275], [-84.4220809, 33.7851319], [-84.4221192, 33.7851329]]}, "properties": {"surface": "", "highway": "footway"}}, {"type": "Feature", "geometry": {"type": "LineString", "coordinates": [[-84.424996, 33.7855707], [-84.4250135, 33.7854955], [-84.4250097, 33.7853537], [-84.4249789, 33.7842174], [-84.4249859, 33.7841543], [-84.424582, 33.7841614]]}, "properties": {"surface": "", "highway": "footway"}}, {"type": "Feature", "geometry": {"type": "LineString", "coordinates": [[-84.425124, 33.7827498], [-84.4250895, 33.783853], [-84.4250878, 33.7842166], [-84.4250946, 33.784325], [-84.4251161, 33.7855915]]}, "properties": {"surface": "", "highway": "footway"}}, {"type": "Feature", "geometry": {"type": "LineString", "coordinates": [[-84.4255337, 33.773453], [-84.4255117, 33.7734143], [-84.4255018, 33.773386], [-84.4254711, 33.7733589], [-84.4254434, 33.773335], [-84.4251454, 33.7730496], [-84.4250925, 33.7730096], [-84.4250549, 33.7729966], [-84.4250428, 33.7729936], [-84.4249962, 33.7729981], [-84.4249866, 33.772999], [-84.4245905, 33.773131], [-84.4242175, 33.7732161], [-84.424018, 33.7732616], [-84.4238576, 33.7732829], [-84.4237678, 33.7732976]]}, "properties": {"surface": "", "highway": "footway"}}, {"type": "Feature", "geometry": {"type": "LineString", "coordinates": [[-84.4237678, 33.7732976], [-84.423492, 33.7733282]]}, "properties": {"surface": "concrete", "highway": "footway"}}, {"type": "Feature", "geometry": {"type": "LineString", "coordinates": [[-84.4197036, 33.7732668], [-84.4195738, 33.7732617], [-84.4189836, 33.7732377], [-84.4186382, 33.7731939], [-84.4184368, 33.7731684], [-84.4179701, 33.7731231], [-84.4175852, 33.7731124], [-84.4174601, 33.7731162]]}, "properties": {"surface": "concrete", "highway": "footway"}}, {"type": "Feature", "geometry": {"type": "LineString", "coordinates": [[-84.4196785, 33.7635501], [-84.4209774, 33.7635542], [-84.4210767, 33.763556], [-84.421598, 33.7635654], [-84.4220099, 33.7635728], [-84.4220936, 33.7635738], [-84.422131, 33.7635743], [-84.4229793, 33.7635715], [-84.4234714, 33.76358], [-84.4235998, 33.7635786], [-84.423959, 33.7635742]]}, "properties": {"surface": "concrete", "highway": "footway"}}, {"type": "Feature", "geometry": {"type": "LineString", "coordinates": [[-84.4243281, 33.7635743], [-84.4244887, 33.7635743]]}, "properties": {"surface": "", "highway": "footway"}}, {"type": "Feature", "geometry": {"type": "LineString", "coordinates": [[-84.4282091, 33.7635757], [-84.4282272, 33.7635782], [-84.4282885, 33.7636019], [-84.4287788, 33.7636174], [-84.4288775, 33.7636181], [-84.4291011, 33.7636197], [-84.4291649, 33.7636202], [-84.4293304, 33.7636214], [-84.4294008, 33.7636087], [-84.4294343, 33.7636013], [-84.4294785, 33.7635915], [-84.4295876, 33.7635936], [-84.4298827, 33.7635991], [-84.4303474, 33.7636027], [-84.4308445, 33.7635964], [-84.4313781, 33.7635896], [-84.4317426, 33.7635959], [-84.4319418, 33.7636005], [-84.4321806, 33.7635996], [-84.4329341, 33.7635967], [-84.4331071, 33.7635984], [-84.4334673, 33.7636019], [-84.4337705, 33.7636049], [-84.4344873, 33.7636119], [-84.4362836, 33.7636294], [-84.4367352, 33.763634], [-84.437692, 33.7636439], [-84.4377742, 33.7636429], [-84.4391611, 33.7636253], [-84.4396361, 33.7636439], [-84.4405877, 33.763644], [-84.4408698, 33.7636441], [-84.4409823, 33.7636441], [-84.4410276, 33.7636441], [-84.4411299, 33.7636463], [-84.4412167, 33.7636481], [-84.442043, 33.7636501], [-84.4430166, 33.7636574], [-84.4431537, 33.7636646], [-84.4432135, 33.7636677], [-84.4435473, 33.7636851], [-84.4438391, 33.7637813], [-84.4442629, 33.7640624], [-84.4444713, 33.7642453], [-84.4446658, 33.7643589], [-84.4449066, 33.7644282], [-84.4451729, 33.7644859], [-84.4453651, 33.7644628], [-84.4456337, 33.7643569], [-84.4464095, 33.7638372], [-84.4467545, 33.7637467], [-84.4470555, 33.7637005], [-84.4473679, 33.763689], [-84.4480964, 33.7637], [-84.4484227, 33.7637049], [-84.4485121, 33.7637062], [-84.4490655, 33.7637236], [-84.4492477, 33.763789], [-84.4494708, 33.7639238], [-84.4496861, 33.7641144], [-84.4498969, 33.7643858], [-84.4501168, 33.7646457], [-84.4501389, 33.7646574], [-84.4503137, 33.7647496], [-84.4504873, 33.7648132], [-84.4506605, 33.7648463], [-84.450749, 33.7648632], [-84.4510802, 33.7648478], [-84.4513527, 33.7647561], [-84.4514576, 33.7647208], [-84.4515498, 33.7646765], [-84.4517007, 33.7646054], [-84.4518026, 33.7645571], [-84.4518531, 33.7645363], [-84.451967, 33.7644493], [-84.4528563, 33.7640006], [-84.4532441, 33.7638193], [-84.4536482, 33.7637082], [-84.4537758, 33.7636966], [-84.4538613, 33.7636889], [-84.4544564, 33.7636831], [-84.4558823, 33.7636776], [-84.4559316, 33.7636774], [-84.4560403, 33.7636774], [-84.4561764, 33.7636887], [-84.4564446, 33.763711], [-84.4566192, 33.7637255], [-84.4568878, 33.7638198], [-84.4574853, 33.7644744], [-84.4575479, 33.7645489], [-84.4576844, 33.7646919]]}, "properties": {"surface": "concrete", "highway": "footway"}}, {"type": "Feature", "geometry": {"type": "LineString", "coordinates": [[-84.4413289, 33.7635234], [-84.4410957, 33.7635189], [-84.4410284, 33.7635176], [-84.440969, 33.7635173], [-84.4407672, 33.7635166], [-84.4403649, 33.7635152], [-84.4399569, 33.7635138], [-84.4394364, 33.7635117], [-84.439159, 33.7635082], [-84.4391429, 33.763508], [-84.4377816, 33.7635044], [-84.4376946, 33.7635042], [-84.4372332, 33.7635043], [-84.4364805, 33.7635036], [-84.433788, 33.7635038], [-84.4332354, 33.7634912], [-84.4329943, 33.7634857], [-84.4314155, 33.7634926], [-84.4310604, 33.7634824], [-84.4302292, 33.7634778], [-84.4293768, 33.7634801], [-84.4292973, 33.7634803], [-84.4292301, 33.7634797], [-84.4285502, 33.7634743]]}, "properties": {"surface": "", "highway": "footway"}}, {"type": "Feature", "geometry": {"type": "LineString", "coordinates": [[-84.4294343, 33.7636013], [-84.4294017, 33.7635285], [-84.4293768, 33.7634801]]}, "properties": {"surface": "", "highway": "footway"}}, {"type": "Feature", "geometry": {"type": "LineString", "coordinates": [[-84.4292301, 33.7634797], [-84.4291982, 33.7635276], [-84.4291649, 33.7636202]]}, "properties": {"surface": "", "highway": "footway"}}, {"type": "Feature", "geometry": {"type": "LineString", "coordinates": [[-84.4294343, 33.7636013], [-84.42941, 33.7636309], [-84.4294405, 33.7636654], [-84.4295337, 33.7637414], [-84.4306461, 33.7646481], [-84.4308789, 33.7648128], [-84.4312512, 33.7651052], [-84.4318275, 33.7655563], [-84.4321971, 33.7658524], [-84.4322206, 33.7658581], [-84.4322359, 33.7658167], [-84.4322342, 33.7657822], [-84.4322165, 33.7654196]]}, "properties": {"surface": "", "highway": "footway"}}, {"type": "Feature", "geometry": {"type": "LineString", "coordinates": [[-84.432348, 33.7657764], [-84.432286, 33.7657809], [-84.4322342, 33.7657822]]}, "properties": {"surface": "", "highway": "footway"}}, {"type": "Feature", "geometry": {"type": "LineString", "coordinates": [[-84.4268054, 33.771847], [-84.4267701, 33.7718569], [-84.4267443, 33.7718641], [-84.4265337, 33.7719387], [-84.4262714, 33.7720478], [-84.4259797, 33.7721841], [-84.4252082, 33.7725499], [-84.4251436, 33.7725819], [-84.4251184, 33.7725944], [-84.4250649, 33.7725915], [-84.4250183, 33.7725054], [-84.4249648, 33.7723634], [-84.4249545, 33.7722515], [-84.4249855, 33.7721152], [-84.4250183, 33.7720306], [-84.4251081, 33.7718971]]}, "properties": {"surface": "concrete", "highway": "footway"}}, {"type": "Feature", "geometry": {"type": "LineString", "coordinates": [[-84.4253048, 33.7729029], [-84.4253068, 33.7728757], [-84.4253083, 33.772857], [-84.4253359, 33.7728254], [-84.425353, 33.7728167], [-84.4254377, 33.7727737], [-84.4260884, 33.7724552], [-84.4263956, 33.7723204], [-84.4267374, 33.7721669], [-84.4269566, 33.7720808], [-84.4272034, 33.7720219], [-84.4274226, 33.7719861], [-84.4276384, 33.7719746], [-84.4279111, 33.7719746], [-84.4280025, 33.7719961], [-84.4280353, 33.7720406], [-84.4280612, 33.772108], [-84.4281346, 33.7728291], [-84.4281201, 33.772875], [-84.4281004, 33.7728895], [-84.4277254, 33.7729134], [-84.4268768, 33.7729766]]}, "properties": {"surface": "concrete", "highway": "footway"}}, {"type": "Feature", "geometry": {"type": "LineString", "coordinates": [[-84.4267701, 33.7718569], [-84.4268047, 33.7717881], [-84.4268116, 33.7712744]]}, "properties": {"surface": "", "highway": "footway"}}, {"type": "Feature", "geometry": {"type": "LineString", "coordinates": [[-84.4249327, 33.7726487], [-84.424894, 33.7726661], [-84.4248418, 33.7726857], [-84.4246238, 33.7727671], [-84.424496, 33.7728149], [-84.4242796, 33.7728957], [-84.4242193, 33.772915], [-84.4239309, 33.7729961], [-84.4238792, 33.773009]]}, "properties": {"surface": "", "highway": "footway"}}, {"type": "Feature", "geometry": {"type": "LineString", "coordinates": [[-84.4248418, 33.7726857], [-84.4248241, 33.7725868], [-84.4247438, 33.7723106], [-84.4247674, 33.77223], [-84.4248186, 33.7721196], [-84.4249072, 33.7719412], [-84.4249792, 33.7718468]]}, "properties": {"surface": "", "highway": "footway"}}, {"type": "Feature", "geometry": {"type": "LineString", "coordinates": [[-84.4247438, 33.7723106], [-84.424712, 33.7723958], [-84.4246164, 33.7726605], [-84.4246095, 33.7727226], [-84.4246238, 33.7727671]]}, "properties": {"surface": "", "highway": "footway"}}, {"type": "Feature", "geometry": {"type": "LineString", "coordinates": [[-84.4199045, 33.7613549], [-84.4201219, 33.7614893], [-84.4205194, 33.7616653], [-84.421734, 33.7620372], [-84.4217945, 33.7620557], [-84.423146, 33.7624529], [-84.4235992, 33.762595], [-84.4237497, 33.7626521], [-84.4238017, 33.7626768], [-84.4238389, 33.7627139], [-84.4238593, 33.7628328], [-84.4239838, 33.7633764], [-84.4239782, 33.763432]]}, "properties": {"surface": "", "highway": "footway"}}, {"type": "Feature", "geometry": {"type": "LineString", "coordinates": [[-84.4238792, 33.773009], [-84.4236105, 33.7730576]]}, "properties": {"surface": "", "highway": "footway"}}, {"type": "Feature", "geometry": {"type": "LineString", "coordinates": [[-84.4220839, 33.7634362], [-84.4220881, 33.7634973], [-84.4220936, 33.7635738], [-84.4220839, 33.7640955]]}, "properties": {"surface": "", "highway": "footway"}}, {"type": "Feature", "geometry": {"type": "LineString", "coordinates": [[-84.4338659, 33.7712218], [-84.4338685, 33.7713131], [-84.4338814, 33.7713868], [-84.4339616, 33.7713796], [-84.4340523, 33.7713667], [-84.4340404, 33.7712977], [-84.4340299, 33.771219]]}, "properties": {"surface": "asphalt", "highway": "footway"}}, {"type": "Feature", "geometry": {"type": "LineString", "coordinates": [[-84.4340299, 33.771219], [-84.4339641, 33.7712208], [-84.4338659, 33.7712218]]}, "properties": {"surface": "", "highway": "footway"}}, {"type": "Feature", "geometry": {"type": "LineString", "coordinates": [[-84.4174707, 33.7713591], [-84.4174708, 33.7709153], [-84.4174708, 33.7704751], [-84.4174742, 33.7701207], [-84.4174781, 33.7697239], [-84.4174854, 33.7689826]]}, "properties": {"surface": "", "highway": "footway"}}, {"type": "Feature", "geometry": {"type": "LineString", "coordinates": [[-84.4237993, 33.7730841], [-84.4235789, 33.7731247]]}, "properties": {"surface": "concrete", "highway": "primary"}}, {"type": "Feature", "geometry": {"type": "LineString", "coordinates": [[-84.4241228, 33.7730132], [-84.4238632, 33.7730723]]}, "properties": {"surface": "asphalt", "highway": "primary"}}, {"type": "Feature", "geometry": {"type": "LineString", "coordinates": [[-84.4388709, 33.7541889], [-84.4389041, 33.7542578], [-84.4389264, 33.7543838]]}, "properties": {"surface": "", "highway": "footway"}}, {"type": "Feature", "geometry": {"type": "LineString", "coordinates": [[-84.4388709, 33.7541889], [-84.4388398, 33.7540982], [-84.4388353, 33.7540062], [-84.4388804, 33.7539052]]}, "properties": {"surface": "", "highway": "footway"}}, {"type": "Feature", "geometry": {"type": "LineString", "coordinates": [[-84.4388592, 33.7538154], [-84.4388154, 33.7537608], [-84.4388075, 33.7537056], [-84.4389484, 33.753695]]}, "properties": {"surface": "", "highway": "footway"}}, {"type": "Feature", "geometry": {"type": "LineString", "coordinates": [[-84.4176682, 33.756577], [-84.4176592, 33.7565266], [-84.4176554, 33.7564402], [-84.4176531, 33.7562702], [-84.4176611, 33.7562212], [-84.4176227, 33.756154], [-84.4176381, 33.7556168]]}, "properties": {"surface": "", "highway": "footway"}}, {"type": "Feature", "geometry": {"type": "LineString", "coordinates": [[-84.4176381, 33.7555129], [-84.4176401, 33.7551643], [-84.4176424, 33.7547778]]}, "properties": {"surface": "", "highway": "footway"}}, {"type": "Feature", "geometry": {"type": "LineString", "coordinates": [[-84.4244887, 33.7635743], [-84.4249588, 33.7635899], [-84.425301, 33.7635813], [-84.425545, 33.7635901], [-84.4258596, 33.7635918], [-84.4260133, 33.7635926], [-84.4260733, 33.7635929], [-84.4265296, 33.7635948], [-84.4274559, 33.7636011], [-84.4279402, 33.7636044], [-84.428078, 33.7635775]]}, "properties": {"surface": "", "highway": "footway"}}, {"type": "Feature", "geometry": {"type": "LineString", "coordinates": [[-84.428078, 33.7635775], [-84.4282091, 33.7635757]]}, "properties": {"surface": "", "highway": "footway"}}, {"type": "Feature", "geometry": {"type": "LineString", "coordinates": [[-84.4338659, 33.7712218], [-84.4337256, 33.7712325], [-84.4335654, 33.7712544], [-84.4334026, 33.7712871], [-84.43264, 33.771437], [-84.4315546, 33.7716733], [-84.4313492, 33.7717063], [-84.4312629, 33.7717163], [-84.431218, 33.7717254], [-84.4311406, 33.7717198], [-84.4311036, 33.7717172], [-84.4309009, 33.7717408], [-84.4306619, 33.7717704], [-84.4305651, 33.7717887], [-84.4305127, 33.7717936], [-84.4304812, 33.7718184], [-84.4300496, 33.7718512], [-84.4299949, 33.7718533]]}, "properties": {"surface": "concrete", "highway": "footway"}}, {"type": "Feature", "geometry": {"type": "LineString", "coordinates": [[-84.4299949, 33.7718533], [-84.4298965, 33.771857]]}, "properties": {"surface": "", "highway": "footway"}}, {"type": "Feature", "geometry": {"type": "LineString", "coordinates": [[-84.4391937, 33.747549], [-84.4380694, 33.7475373]]}, "properties": {"surface": "", "highway": "footway"}}, {"type": "Feature", "geometry": {"type": "LineString", "coordinates": [[-84.4440743, 33.7517667], [-84.4440716, 33.7516343], [-84.4440495, 33.75161], [-84.4440495, 33.7516021], [-84.4440495, 33.7512635], [-84.4440495, 33.7512062], [-84.4440371, 33.7511833], [-84.4440035, 33.7511635], [-84.4439557, 33.7511694], [-84.4439142, 33.7511804], [-84.4436333, 33.7512547], [-84.4430213, 33.7514166], [-84.442655, 33.7515204], [-84.4425542, 33.751549], [-84.4422967, 33.7515975], [-84.4417817, 33.7516718], [-84.441336, 33.7517432], [-84.4412898, 33.7517506], [-84.4408987, 33.7518705], [-84.4404882, 33.7520213], [-84.4403977, 33.7520652], [-84.4403519, 33.7520875]]}, "properties": {"surface": "", "highway": "footway"}}, {"type": "Feature", "geometry": {"type": "LineString", "coordinates": [[-84.4402953, 33.7515894], [-84.4402847, 33.7519065], [-84.4402971, 33.7519271], [-84.4403404, 33.751919], [-84.4406386, 33.751791], [-84.4411597, 33.7516299]]}, "properties": {"surface": "", "highway": "footway"}}, {"type": "Feature", "geometry": {"type": "LineString", "coordinates": [[-84.4411597, 33.7516299], [-84.4411677, 33.7516093], [-84.4411783, 33.7511179]]}, "properties": {"surface": "", "highway": "footway"}}, {"type": "Feature", "geometry": {"type": "LineString", "coordinates": [[-84.4412739, 33.7515652], [-84.4412942, 33.7515997], [-84.4413712, 33.7515924], [-84.4420569, 33.7514923], [-84.4424073, 33.7514379], [-84.4426913, 33.7513629], [-84.4431603, 33.7512312]]}, "properties": {"surface": "", "highway": "footway"}}, {"type": "Feature", "geometry": {"type": "LineString", "coordinates": [[-84.4432726, 33.7511936], [-84.4433599, 33.7511591], [-84.4436758, 33.7510342], [-84.4437062, 33.7510222], [-84.4437558, 33.7509931]]}, "properties": {"surface": "", "highway": "footway"}}, {"type": "Feature", "geometry": {"type": "LineString", "coordinates": [[-84.4402192, 33.7521574], [-84.4397456, 33.7524601], [-84.4393749, 33.7527191]]}, "properties": {"surface": "", "highway": "footway"}}, {"type": "Feature", "geometry": {"type": "LineString", "coordinates": [[-84.4401396, 33.7520301], [-84.4401491, 33.7519687], [-84.4401429, 33.7518068], [-84.4382821, 33.7518164], [-84.4382777, 33.7519496]]}, "properties": {"surface": "", "highway": "footway"}}, {"type": "Feature", "geometry": {"type": "LineString", "coordinates": [[-84.4401396, 33.7520301], [-84.4392368, 33.7526278], [-84.4391652, 33.7526639], [-84.4390422, 33.7526948], [-84.4382768, 33.7527742]]}, "properties": {"surface": "", "highway": "footway"}}, {"type": "Feature", "geometry": {"type": "LineString", "coordinates": [[-84.439228, 33.7527956], [-84.4389334, 33.7528588], [-84.4385626, 33.7529008], [-84.4382857, 33.7529265]]}, "properties": {"surface": "", "highway": "footway"}}, {"type": "Feature", "geometry": {"type": "LineString", "coordinates": [[-84.4381857, 33.7529331], [-84.4374717, 33.7529729], [-84.4371823, 33.7530479]]}, "properties": {"surface": "", "highway": "footway"}}, {"type": "Feature", "geometry": {"type": "LineString", "coordinates": [[-84.4381193, 33.752789], [-84.4375938, 33.7528118], [-84.4373434, 33.752836], [-84.4369849, 33.7529614], [-84.4369647, 33.7529685], [-84.4363515, 33.7532524], [-84.4361914, 33.7533105], [-84.4361271, 33.7533296], [-84.4355782, 33.753493], [-84.4351163, 33.7535893], [-84.4349854, 33.7536114], [-84.4346978, 33.753646], [-84.4336546, 33.7537122], [-84.433327, 33.7537084], [-84.4330247, 33.7537048], [-84.4321374, 33.7536602]]}, "properties": {"surface": "", "highway": "footway"}}, {"type": "Feature", "geometry": {"type": "LineString", "coordinates": [[-84.4321293, 33.7538098], [-84.4329008, 33.7538527], [-84.4333034, 33.7538608], [-84.4333382, 33.75386], [-84.4336741, 33.753852], [-84.4343952, 33.7538181], [-84.4348712, 33.7537784], [-84.4353933, 33.7536909], [-84.4359171, 33.7535452], [-84.4364037, 33.7533797], [-84.4368399, 33.7531921], [-84.4370549, 33.7530979]]}, "properties": {"surface": "", "highway": "footway"}}, {"type": "Feature", "geometry": {"type": "LineString", "coordinates": [[-84.4319977, 33.7538157], [-84.431982, 33.7537978], [-84.4308874, 33.7537318], [-84.4304978, 33.7537099], [-84.4299015, 33.7536764], [-84.4298899, 33.7536756], [-84.4298282, 33.7536711], [-84.4293271, 33.7536347], [-84.4288665, 33.753607]]}, "properties": {"surface": "", "highway": "footway"}}, {"type": "Feature", "geometry": {"type": "LineString", "coordinates": [[-84.4288484, 33.7534503], [-84.4296213, 33.7535046], [-84.4297071, 33.7535105]]}, "properties": {"surface": "", "highway": "footway"}}, {"type": "Feature", "geometry": {"type": "LineString", "coordinates": [[-84.4298408, 33.7535279], [-84.4305162, 33.75356], [-84.4311711, 33.7536056], [-84.4316597, 33.7536298], [-84.4319878, 33.7536497]]}, "properties": {"surface": "", "highway": "footway"}}, {"type": "Feature", "geometry": {"type": "LineString", "coordinates": [[-84.4288484, 33.7534503], [-84.4286995, 33.753441], [-84.42818, 33.7534139]]}, "properties": {"surface": "", "highway": "footway"}}, {"type": "Feature", "geometry": {"type": "LineString", "coordinates": [[-84.4282378, 33.7535536], [-84.4286838, 33.7535862]]}, "properties": {"surface": "", "highway": "footway"}}, {"type": "Feature", "geometry": {"type": "LineString", "coordinates": [[-84.4280078, 33.7534105], [-84.4275682, 33.753394], [-84.4271076, 33.7533915], [-84.426605, 33.7534148]]}, "properties": {"surface": "", "highway": "footway"}}, {"type": "Feature", "geometry": {"type": "LineString", "coordinates": [[-84.4280773, 33.7535464], [-84.4274888, 33.7535381], [-84.4274693, 33.7535385], [-84.4265904, 33.7535561], [-84.426052, 33.753593], [-84.425784, 33.7536357], [-84.425584, 33.7536872], [-84.4255357, 33.753705]]}, "properties": {"surface": "", "highway": "footway"}}, {"type": "Feature", "geometry": {"type": "LineString", "coordinates": [[-84.4264544, 33.7534202], [-84.4260902, 33.7534564], [-84.4256899, 33.7535155], [-84.425419, 33.753584], [-84.4250556, 33.7537491], [-84.4244595, 33.7540501]]}, "properties": {"surface": "", "highway": "footway"}}, {"type": "Feature", "geometry": {"type": "LineString", "coordinates": [[-84.4255357, 33.753705], [-84.4245393, 33.7541745]]}, "properties": {"surface": "", "highway": "footway"}}, {"type": "Feature", "geometry": {"type": "LineString", "coordinates": [[-84.4245393, 33.7541745], [-84.4244212, 33.7542269], [-84.4240115, 33.7544449]]}, "properties": {"surface": "", "highway": "footway"}}, {"type": "Feature", "geometry": {"type": "LineString", "coordinates": [[-84.4203496, 33.7548111], [-84.4199701, 33.7548056], [-84.4192921, 33.7548041], [-84.4191735, 33.7548039], [-84.4190222, 33.7548023], [-84.4188127, 33.7548], [-84.4187921, 33.7548003], [-84.4187074, 33.7548014], [-84.4183822, 33.7548056], [-84.4182385, 33.7548019], [-84.4180993, 33.7547983], [-84.4176424, 33.7547778]]}, "properties": {"surface": "", "highway": "footway"}}, {"type": "Feature", "geometry": {"type": "LineString", "coordinates": [[-84.4204616, 33.7548139], [-84.4212502, 33.7548412], [-84.4212635, 33.7548461], [-84.4212714, 33.7548588], [-84.421271, 33.7548723], [-84.4212502, 33.7555733]]}, "properties": {"surface": "", "highway": "footway"}}, {"type": "Feature", "geometry": {"type": "LineString", "coordinates": [[-84.4213689, 33.7555437], [-84.4213716, 33.7548847], [-84.4213761, 33.7548754], [-84.421383, 33.7548613], [-84.4213915, 33.7548583], [-84.4214051, 33.7548535], [-84.4218678, 33.7548741], [-84.4222668, 33.7548686], [-84.4226664, 33.7548307], [-84.4230654, 33.7547615], [-84.4234429, 33.7546578], [-84.4238727, 33.7545056], [-84.4239036, 33.7545324], [-84.4241242, 33.7548507]]}, "properties": {"surface": "", "highway": "footway"}}, {"type": "Feature", "geometry": {"type": "LineString", "coordinates": [[-84.4240115, 33.7544449], [-84.4240169, 33.7544694], [-84.4242583, 33.7548033], [-84.4248739, 33.7548145]]}, "properties": {"surface": "", "highway": "footway"}}, {"type": "Feature", "geometry": {"type": "LineString", "coordinates": [[-84.423919, 33.7549299], [-84.4248772, 33.7549321]]}, "properties": {"surface": "", "highway": "footway"}}, {"type": "Feature", "geometry": {"type": "LineString", "coordinates": [[-84.4440743, 33.7517667], [-84.4440791, 33.7520147], [-84.4440831, 33.7522567], [-84.4441093, 33.7524827], [-84.4441149, 33.752531], [-84.4441193, 33.7525689], [-84.4442279, 33.7528722], [-84.4442829, 33.7530517], [-84.4443366, 33.7533528], [-84.4443553, 33.7535457], [-84.4443526, 33.7536174]]}, "properties": {"surface": "", "highway": "footway"}}, {"type": "Feature", "geometry": {"type": "LineString", "coordinates": [[-84.4443494, 33.7537029], [-84.4443473, 33.7537575], [-84.4443447, 33.7537847]]}, "properties": {"surface": "", "highway": "footway"}}, {"type": "Feature", "geometry": {"type": "LineString", "coordinates": [[-84.4443526, 33.7536174], [-84.4443494, 33.7537029]]}, "properties": {"surface": "", "highway": "footway"}}, {"type": "Feature", "geometry": {"type": "LineString", "coordinates": [[-84.4135501, 33.7800751], [-84.4138076, 33.7801059], [-84.4143334, 33.7801641], [-84.4145803, 33.7802143], [-84.4148381, 33.7802923], [-84.4150833, 33.7804035], [-84.4153022, 33.7805451], [-84.4154638, 33.780681], [-84.4156695, 33.7809095], [-84.4158887, 33.7811542], [-84.4160094, 33.7813021], [-84.4162348, 33.7815987], [-84.4165302, 33.7819644], [-84.4168257, 33.7823395], [-84.4171009, 33.7826695], [-84.4173842, 33.7830528], [-84.4175282, 33.7832372], [-84.4178317, 33.7836264], [-84.417946, 33.7837501], [-84.4180258, 33.7838316], [-84.41814, 33.7839221], [-84.4183167, 33.784054], [-84.4186776, 33.7842851], [-84.4189795, 33.7844679], [-84.4191358, 33.7845544], [-84.4193112, 33.7846461], [-84.4195876, 33.7847757], [-84.4196971, 33.7848151], [-84.4199693, 33.7849102], [-84.4200827, 33.7849457], [-84.42018, 33.7849752], [-84.4204083, 33.7850392], [-84.42065, 33.7850914], [-84.4210564, 33.7851611], [-84.4214834, 33.7852184], [-84.4218511, 33.7852636], [-84.4220954, 33.7853031]]}, "properties": {"surface": "concrete", "highway": "footway"}}, {"type": "Feature", "geometry": {"type": "LineString", "coordinates": [[-84.4173951, 33.7801495], [-84.4173801, 33.7801503]]}, "properties": {"surface": "", "highway": "footway"}}, {"type": "Feature", "geometry": {"type": "LineString", "coordinates": [[-84.4288959, 33.7835388], [-84.4289101, 33.7835484]]}, "properties": {"surface": "", "highway": "footway"}}, {"type": "Feature", "geometry": {"type": "LineString", "coordinates": [[-84.429, 33.7836069], [-84.4290108, 33.7836133], [-84.4290225, 33.7836196]]}, "properties": {"surface": "", "highway": "footway"}}, {"type": "Feature", "geometry": {"type": "LineString", "coordinates": [[-84.4380694, 33.7475373], [-84.4378212, 33.7475272], [-84.4376508, 33.7475149], [-84.4370178, 33.7475071], [-84.4364589, 33.7474957], [-84.4364598, 33.7474804]]}, "properties": {"surface": "concrete", "highway": "footway"}}, {"type": "Feature", "geometry": {"type": "LineString", "coordinates": [[-84.4204049, 33.7714], [-84.4204055, 33.7713618]]}, "properties": {"surface": "", "highway": "footway"}}, {"type": "Feature", "geometry": {"type": "LineString", "coordinates": [[-84.4204055, 33.7713618], [-84.4204072, 33.7712509], [-84.4204107, 33.7710312], [-84.4204176, 33.7705989], [-84.4204163, 33.7705192]]}, "properties": {"surface": "", "highway": "footway"}}, {"type": "Feature", "geometry": {"type": "LineString", "coordinates": [[-84.4204159, 33.7704483], [-84.4204211, 33.7701817], [-84.4204273, 33.7693662], [-84.4204362, 33.7690056]]}, "properties": {"surface": "", "highway": "footway"}}, {"type": "Feature", "geometry": {"type": "LineString", "coordinates": [[-84.4205188, 33.768924], [-84.4205176, 33.7689736]]}, "properties": {"surface": "", "highway": "footway"}}, {"type": "Feature", "geometry": {"type": "LineString", "coordinates": [[-84.4205176, 33.7689736], [-84.4205076, 33.769218], [-84.4204983, 33.7704484]]}, "properties": {"surface": "", "highway": "footway"}}, {"type": "Feature", "geometry": {"type": "LineString", "coordinates": [[-84.4204983, 33.7704484], [-84.4204971, 33.7705029]]}, "properties": {"surface": "", "highway": "footway"}}, {"type": "Feature", "geometry": {"type": "LineString", "coordinates": [[-84.4204971, 33.7705029], [-84.420497, 33.7705219], [-84.4204963, 33.7706199], [-84.4204909, 33.7710312], [-84.4204901, 33.7710896], [-84.4204851, 33.7713562]]}, "properties": {"surface": "", "highway": "footway"}}, {"type": "Feature", "geometry": {"type": "LineString", "coordinates": [[-84.4204909, 33.7710312], [-84.4204786, 33.7710312]]}, "properties": {"surface": "", "highway": "footway"}}, {"type": "Feature", "geometry": {"type": "LineString", "coordinates": [[-84.4204225, 33.7710314], [-84.4204107, 33.7710312]]}, "properties": {"surface": "", "highway": "footway"}}, {"type": "Feature", "geometry": {"type": "LineString", "coordinates": [[-84.4195183, 33.7713505], [-84.4195225, 33.7711968], [-84.4195277, 33.7705178]]}, "properties": {"surface": "", "highway": "footway"}}, {"type": "Feature", "geometry": {"type": "LineString", "coordinates": [[-84.4195288, 33.7704409], [-84.4195285, 33.7698007], [-84.4195232, 33.7689614]]}, "properties": {"surface": "", "highway": "footway"}}, {"type": "Feature", "geometry": {"type": "LineString", "coordinates": [[-84.4195231, 33.7688598], [-84.4195201, 33.7680769], [-84.4195212, 33.7680707], [-84.4195235, 33.7680663], [-84.4195282, 33.7680638]]}, "properties": {"surface": "", "highway": "footway"}}, {"type": "Feature", "geometry": {"type": "LineString", "coordinates": [[-84.4176753, 33.7566826], [-84.4177339, 33.7566809], [-84.4182994, 33.7566962], [-84.4185754, 33.7566994], [-84.4195926, 33.7566893], [-84.420316, 33.756697], [-84.4205319, 33.7566993], [-84.4212439, 33.7567193]]}, "properties": {"surface": "", "highway": "footway"}}, {"type": "Feature", "geometry": {"type": "LineString", "coordinates": [[-84.4195183, 33.7713505], [-84.4187634, 33.7713433], [-84.4187388, 33.7713448], [-84.4187264, 33.7713513], [-84.418718, 33.7713553]]}, "properties": {"surface": "", "highway": "footway"}}, {"type": "Feature", "geometry": {"type": "LineString", "coordinates": [[-84.4187113, 33.7714514], [-84.4195155, 33.771447], [-84.4197754, 33.7714481], [-84.4197825, 33.771446], [-84.4197917, 33.7714401]]}, "properties": {"surface": "", "highway": "footway"}}, {"type": "Feature", "geometry": {"type": "LineString", "coordinates": [[-84.4195155, 33.771447], [-84.4195157, 33.7714333]]}, "properties": {"surface": "", "highway": "footway"}}, {"type": "Feature", "geometry": {"type": "LineString", "coordinates": [[-84.4198323, 33.7713666], [-84.4198262, 33.7713586], [-84.419815, 33.7713561], [-84.4197891, 33.7713552], [-84.4196722, 33.7713582], [-84.419629, 33.7713578], [-84.4196102, 33.7713578], [-84.4196016, 33.7713544], [-84.4195945, 33.7713468], [-84.419593, 33.771332], [-84.4196048, 33.7705239]]}, "properties": {"surface": "", "highway": "footway"}}, {"type": "Feature", "geometry": {"type": "LineString", "coordinates": [[-84.4196052, 33.7704425], [-84.4196097, 33.7699596], [-84.4196093, 33.7689672]]}, "properties": {"surface": "", "highway": "footway"}}, {"type": "Feature", "geometry": {"type": "LineString", "coordinates": [[-84.4196084, 33.7688655], [-84.4196012, 33.7680821], [-84.4196006, 33.7680191]]}, "properties": {"surface": "", "highway": "footway"}}, {"type": "Feature", "geometry": {"type": "LineString", "coordinates": [[-84.4196012, 33.7680821], [-84.4195873, 33.7680793]]}, "properties": {"surface": "", "highway": "footway"}}, {"type": "Feature", "geometry": {"type": "LineString", "coordinates": [[-84.4176159, 33.7573982], [-84.4176299, 33.7566815]]}, "properties": {"surface": "", "highway": "footway"}}, {"type": "Feature", "geometry": {"type": "LineString", "coordinates": [[-84.4176051, 33.7578164], [-84.4176078, 33.7576854], [-84.4176139, 33.7574955]]}, "properties": {"surface": "", "highway": "footway"}}, {"type": "Feature", "geometry": {"type": "LineString", "coordinates": [[-84.418638, 33.7713585], [-84.4186297, 33.7713585], [-84.4182923, 33.7713577], [-84.4182078, 33.7713578], [-84.4174707, 33.7713591]]}, "properties": {"surface": "", "highway": "footway"}}, {"type": "Feature", "geometry": {"type": "LineString", "coordinates": [[-84.41747, 33.7714272], [-84.4181944, 33.7714231], [-84.4181998, 33.7714222], [-84.4182049, 33.7714188], [-84.4182073, 33.7714146]]}, "properties": {"surface": "", "highway": "footway"}}, {"type": "Feature", "geometry": {"type": "LineString", "coordinates": [[-84.4182081, 33.7713689], [-84.4182078, 33.7713578]]}, "properties": {"surface": "", "highway": "footway"}}, {"type": "Feature", "geometry": {"type": "LineString", "coordinates": [[-84.4203496, 33.7548111], [-84.4203494, 33.7549368], [-84.4203231, 33.756561]]}, "properties": {"surface": "", "highway": "footway"}}, {"type": "Feature", "geometry": {"type": "LineString", "coordinates": [[-84.4176381, 33.7555129], [-84.4198212, 33.7555288]]}, "properties": {"surface": "", "highway": "footway"}}, {"type": "Feature", "geometry": {"type": "LineString", "coordinates": [[-84.4176381, 33.7556168], [-84.4198428, 33.7556275]]}, "properties": {"surface": "", "highway": "footway"}}, {"type": "Feature", "geometry": {"type": "LineString", "coordinates": [[-84.4176051, 33.7578164], [-84.4178012, 33.758157], [-84.4181358, 33.7587197]]}, "properties": {"surface": "", "highway": "footway"}}, {"type": "Feature", "geometry": {"type": "LineString", "coordinates": [[-84.4187, 33.7596274], [-84.4194197, 33.760644], [-84.4194881, 33.7607499], [-84.4195577, 33.7608431], [-84.4196202, 33.7609226], [-84.4196606, 33.7609688]]}, "properties": {"surface": "", "highway": "footway"}}, {"type": "Feature", "geometry": {"type": "LineString", "coordinates": [[-84.4186231, 33.7595223], [-84.4184743, 33.7592964], [-84.4182472, 33.7589126], [-84.4182044, 33.7588508], [-84.4181809, 33.7588071]]}, "properties": {"surface": "", "highway": "footway"}}, {"type": "Feature", "geometry": {"type": "LineString", "coordinates": [[-84.4197298, 33.7610397], [-84.4199, 33.7612169], [-84.4199421, 33.7612563], [-84.4199693, 33.7612777], [-84.4199973, 33.7612984], [-84.4200261, 33.7613197], [-84.4200813, 33.7613527], [-84.4201498, 33.7613954], [-84.4202121, 33.7614277], [-84.420307, 33.7614704], [-84.4203662, 33.7614937], [-84.4204596, 33.7615274], [-84.4212038, 33.7617688], [-84.4213695, 33.7618189], [-84.4219992, 33.762009], [-84.4221593, 33.7620551]]}, "properties": {"surface": "", "highway": "footway"}}, {"type": "Feature", "geometry": {"type": "LineString", "coordinates": [[-84.4221593, 33.7620551], [-84.4222224, 33.7620753]]}, "properties": {"surface": "", "highway": "footway"}}, {"type": "Feature", "geometry": {"type": "LineString", "coordinates": [[-84.4175272, 33.7650353], [-84.4176572, 33.7650211], [-84.41779, 33.7650164], [-84.4194429, 33.7650225]]}, "properties": {"surface": "", "highway": "footway"}}, {"type": "Feature", "geometry": {"type": "LineString", "coordinates": [[-84.4194429, 33.7650225], [-84.4194429, 33.765008]]}, "properties": {"surface": "", "highway": "footway"}}, {"type": "Feature", "geometry": {"type": "LineString", "coordinates": [[-84.4194429, 33.765008], [-84.4194423, 33.7649823]]}, "properties": {"surface": "", "highway": "footway"}}, {"type": "Feature", "geometry": {"type": "LineString", "coordinates": [[-84.4194429, 33.7650225], [-84.4195583, 33.765023]]}, "properties": {"surface": "", "highway": "footway"}}, {"type": "Feature", "geometry": {"type": "LineString", "coordinates": [[-84.4175284, 33.7649401], [-84.4180656, 33.7649484], [-84.4195549, 33.7649525]]}, "properties": {"surface": "", "highway": "footway"}}, {"type": "Feature", "geometry": {"type": "LineString", "coordinates": [[-84.4195549, 33.7649525], [-84.4196013, 33.7649504]]}, "properties": {"surface": "", "highway": "footway"}}, {"type": "Feature", "geometry": {"type": "LineString", "coordinates": [[-84.4195549, 33.7649525], [-84.4195583, 33.7643351]]}, "properties": {"surface": "", "highway": "footway"}}, {"type": "Feature", "geometry": {"type": "LineString", "coordinates": [[-84.4195593, 33.7642668], [-84.4195593, 33.7641119], [-84.4195474, 33.7635494]]}, "properties": {"surface": "", "highway": "footway"}}, {"type": "Feature", "geometry": {"type": "LineString", "coordinates": [[-84.4195593, 33.7641119], [-84.419582, 33.764111]]}, "properties": {"surface": "", "highway": "footway"}}, {"type": "Feature", "geometry": {"type": "LineString", "coordinates": [[-84.4196086, 33.7641104], [-84.419582, 33.764111]]}, "properties": {"surface": "", "highway": "footway"}}, {"type": "Feature", "geometry": {"type": "LineString", "coordinates": [[-84.4175583, 33.7625669], [-84.4179767, 33.7625727], [-84.4180633, 33.7625711], [-84.4181126, 33.7625671], [-84.4181999, 33.762553], [-84.4183042, 33.7625198], [-84.4183999, 33.7624781], [-84.4184525, 33.7624473], [-84.4185033, 33.7624044], [-84.4185349, 33.7623705], [-84.4185727, 33.7623212], [-84.4185876, 33.762294], [-84.4186402, 33.7621687], [-84.4188529, 33.7616592]]}, "properties": {"surface": "", "highway": "footway"}}, {"type": "Feature", "geometry": {"type": "LineString", "coordinates": [[-84.4188529, 33.7616592], [-84.418889, 33.7615879], [-84.4189337, 33.76152], [-84.4189907, 33.7614566], [-84.4191052, 33.7613499], [-84.4192875, 33.7612264], [-84.419573, 33.7610239]]}, "properties": {"surface": "", "highway": "footway"}}, {"type": "Feature", "geometry": {"type": "LineString", "coordinates": [[-84.4175535, 33.7626639], [-84.4177829, 33.7626666], [-84.41796, 33.7626675], [-84.4180589, 33.7626638], [-84.4181277, 33.7626576], [-84.4181696, 33.7626524], [-84.4182369, 33.7626407], [-84.4182889, 33.7626277], [-84.4183608, 33.7626017], [-84.4184452, 33.7625617], [-84.4185168, 33.7625226], [-84.41859, 33.7624707], [-84.4186185, 33.7624419], [-84.4186462, 33.7623997], [-84.4187782, 33.7621312], [-84.4188114, 33.7620642], [-84.4188304, 33.762035], [-84.4188599, 33.7620064], [-84.4189022, 33.7619789], [-84.4189993, 33.7619315], [-84.419047, 33.7619161], [-84.4191441, 33.761895], [-84.4192134, 33.7618886]]}, "properties": {"surface": "", "highway": "footway"}}, {"type": "Feature", "geometry": {"type": "LineString", "coordinates": [[-84.4192134, 33.7618886], [-84.4193224, 33.7618909], [-84.4193879, 33.7619011], [-84.4194587, 33.7619242], [-84.4195358, 33.7619639], [-84.4195912, 33.7620094], [-84.4196159, 33.7620427], [-84.4196451, 33.7621105], [-84.4196567, 33.7621726], [-84.419669, 33.7622972], [-84.419687, 33.7624091], [-84.4197041, 33.762447], [-84.4197439, 33.7624998], [-84.4198118, 33.7625467], [-84.4198808, 33.7625742], [-84.4199599, 33.7625885], [-84.4201956, 33.7626244], [-84.4204127, 33.7626671], [-84.4204266, 33.7626671], [-84.4204358, 33.7626607]]}, "properties": {"surface": "", "highway": "footway"}}, {"type": "Feature", "geometry": {"type": "LineString", "coordinates": [[-84.4204358, 33.7626607], [-84.4204505, 33.7626172]]}, "properties": {"surface": "", "highway": "footway"}}, {"type": "Feature", "geometry": {"type": "LineString", "coordinates": [[-84.4214551, 33.7634397], [-84.4214471, 33.7632452], [-84.4214471, 33.7631814], [-84.421456, 33.7630668], [-84.4215049, 33.762835], [-84.421734, 33.7620372]]}, "properties": {"surface": "", "highway": "footway"}}, {"type": "Feature", "geometry": {"type": "LineString", "coordinates": [[-84.4176139, 33.7574955], [-84.4178603, 33.7574936], [-84.4187544, 33.7575017], [-84.4192624, 33.7575082], [-84.4193013, 33.7575082], [-84.4197462, 33.7575136], [-84.4204962, 33.7575292], [-84.4212467, 33.7575372]]}, "properties": {"surface": "", "highway": "footway"}}, {"type": "Feature", "geometry": {"type": "LineString", "coordinates": [[-84.4176159, 33.7573982], [-84.4177044, 33.7574018], [-84.4186017, 33.7574095], [-84.4212489, 33.7574309]]}, "properties": {"surface": "", "highway": "footway"}}, {"type": "Feature", "geometry": {"type": "LineString", "coordinates": [[-84.4212467, 33.7575372], [-84.4212916, 33.7575371]]}, "properties": {"surface": "", "highway": "footway"}}, {"type": "Feature", "geometry": {"type": "LineString", "coordinates": [[-84.4212489, 33.7574309], [-84.4212923, 33.7574308]]}, "properties": {"surface": "", "highway": "footway"}}, {"type": "Feature", "geometry": {"type": "LineString", "coordinates": [[-84.4212502, 33.7555733], [-84.4212463, 33.7565828]]}, "properties": {"surface": "", "highway": "footway"}}, {"type": "Feature", "geometry": {"type": "LineString", "coordinates": [[-84.4212439, 33.7567193], [-84.4212489, 33.7574309]]}, "properties": {"surface": "", "highway": "footway"}}, {"type": "Feature", "geometry": {"type": "LineString", "coordinates": [[-84.4213583, 33.7567212], [-84.4213499, 33.7587488]]}, "properties": {"surface": "", "highway": "footway"}}, {"type": "Feature", "geometry": {"type": "LineString", "coordinates": [[-84.4213689, 33.7555437], [-84.4213727, 33.7556973], [-84.4230368, 33.7557104], [-84.4245724, 33.7557206], [-84.4247259, 33.7557216], [-84.424757, 33.7557218], [-84.4250404, 33.7557247], [-84.4251489, 33.7557259], [-84.4251484, 33.7557677], [-84.4251479, 33.7558172], [-84.4250267, 33.7558168], [-84.4248496, 33.7558161], [-84.4247213, 33.7558156], [-84.4245078, 33.7558142], [-84.4235016, 33.7558078], [-84.42183, 33.7557909], [-84.4213666, 33.7557873], [-84.4213612, 33.7561861]]}, "properties": {"surface": "", "highway": "footway"}}, {"type": "Feature", "geometry": {"type": "LineString", "coordinates": [[-84.4213499, 33.7587488], [-84.4213498, 33.7587767]]}, "properties": {"surface": "", "highway": "footway"}}, {"type": "Feature", "geometry": {"type": "LineString", "coordinates": [[-84.4212381, 33.7587369], [-84.4212426, 33.7582343], [-84.4212467, 33.7575372]]}, "properties": {"surface": "", "highway": "footway"}}, {"type": "Feature", "geometry": {"type": "LineString", "coordinates": [[-84.4212377, 33.7587727], [-84.4212381, 33.7587369]]}, "properties": {"surface": "", "highway": "footway"}}, {"type": "Feature", "geometry": {"type": "LineString", "coordinates": [[-84.4213593, 33.7562916], [-84.4213583, 33.7565821]]}, "properties": {"surface": "", "highway": "footway"}}, {"type": "Feature", "geometry": {"type": "LineString", "coordinates": [[-84.4204428, 33.7689737], [-84.4204405, 33.7689741], [-84.4204387, 33.7689749], [-84.4204377, 33.7689767], [-84.420437, 33.7689789], [-84.4204364, 33.7689816], [-84.4204365, 33.7689879], [-84.4204362, 33.7690056]]}, "properties": {"surface": "", "highway": "footway"}}, {"type": "Feature", "geometry": {"type": "LineString", "coordinates": [[-84.4186607, 33.7730475], [-84.4186839, 33.772482], [-84.4186922, 33.7722805]]}, "properties": {"surface": "", "highway": "footway"}}, {"type": "Feature", "geometry": {"type": "LineString", "coordinates": [[-84.4186922, 33.7722805], [-84.4186943, 33.772228]]}, "properties": {"surface": "", "highway": "footway"}}, {"type": "Feature", "geometry": {"type": "LineString", "coordinates": [[-84.4186839, 33.772482], [-84.4186701, 33.772482]]}, "properties": {"surface": "", "highway": "footway"}}, {"type": "Feature", "geometry": {"type": "LineString", "coordinates": [[-84.4186102, 33.7724824], [-84.4186049, 33.7724828], [-84.4186021, 33.7724849], [-84.4185993, 33.7724909], [-84.4185973, 33.7725046], [-84.418599, 33.7730408]]}, "properties": {"surface": "", "highway": "footway"}}, {"type": "Feature", "geometry": {"type": "LineString", "coordinates": [[-84.4202337, 33.7731301], [-84.4202389, 33.772952], [-84.420241, 33.7728851], [-84.4202639, 33.7721281], [-84.4202818, 33.7714545]]}, "properties": {"surface": "", "highway": "footway"}}, {"type": "Feature", "geometry": {"type": "LineString", "coordinates": [[-84.4201718, 33.7714514], [-84.4201702, 33.7714683], [-84.4201361, 33.7727292], [-84.4201269, 33.7728826], [-84.4201283, 33.7728907], [-84.4201305, 33.7728957], [-84.420137, 33.7729011]]}, "properties": {"surface": "", "highway": "footway"}}, {"type": "Feature", "geometry": {"type": "LineString", "coordinates": [[-84.420241, 33.7728851], [-84.4202257, 33.7728889]]}, "properties": {"surface": "", "highway": "footway"}}, {"type": "Feature", "geometry": {"type": "LineString", "coordinates": [[-84.4211234, 33.7731452], [-84.4211224, 33.772878], [-84.4211201, 33.7721638], [-84.4211283, 33.7716758]]}, "properties": {"surface": "", "highway": "footway"}}, {"type": "Feature", "geometry": {"type": "LineString", "coordinates": [[-84.4211283, 33.7716758], [-84.4211493, 33.7716754], [-84.4211694, 33.7716754]]}, "properties": {"surface": "", "highway": "footway"}}, {"type": "Feature", "geometry": {"type": "LineString", "coordinates": [[-84.4211283, 33.7716758], [-84.4211301, 33.7715036]]}, "properties": {"surface": "", "highway": "footway"}}, {"type": "Feature", "geometry": {"type": "LineString", "coordinates": [[-84.4174427, 33.77417], [-84.4174297, 33.7746309], [-84.4174304, 33.7748814]]}, "properties": {"surface": "", "highway": "footway"}}, {"type": "Feature", "geometry": {"type": "LineString", "coordinates": [[-84.4174412, 33.7756684], [-84.4174375, 33.7759334], [-84.4174233, 33.7761964], [-84.4174238, 33.7763339]]}, "properties": {"surface": "", "highway": "footway"}}, {"type": "Feature", "geometry": {"type": "LineString", "coordinates": [[-84.4195583, 33.7643351], [-84.4189553, 33.7643345], [-84.4189435, 33.7643317], [-84.4189391, 33.7643213]]}, "properties": {"surface": "", "highway": "footway"}}, {"type": "Feature", "geometry": {"type": "LineString", "coordinates": [[-84.4189391, 33.7643213], [-84.4189391, 33.7642963]]}, "properties": {"surface": "", "highway": "footway"}}, {"type": "Feature", "geometry": {"type": "LineString", "coordinates": [[-84.4188615, 33.7642958], [-84.4188625, 33.764321]]}, "properties": {"surface": "", "highway": "footway"}}, {"type": "Feature", "geometry": {"type": "LineString", "coordinates": [[-84.4188625, 33.764321], [-84.4188544, 33.7643307], [-84.4188422, 33.7643319], [-84.417933, 33.764331], [-84.4175431, 33.7643288]]}, "properties": {"surface": "", "highway": "footway"}}, {"type": "Feature", "geometry": {"type": "LineString", "coordinates": [[-84.417545, 33.7635421], [-84.4177206, 33.7635391], [-84.4181287, 33.7635377], [-84.4195474, 33.7635494]]}, "properties": {"surface": "concrete", "highway": "footway"}}, {"type": "Feature", "geometry": {"type": "LineString", "coordinates": [[-84.4195474, 33.7635494], [-84.4196135, 33.7635499], [-84.4196785, 33.7635501]]}, "properties": {"surface": "concrete", "highway": "footway"}}, {"type": "Feature", "geometry": {"type": "LineString", "coordinates": [[-84.4184027, 33.7757031], [-84.4184439, 33.7757031], [-84.418628, 33.7757058], [-84.4187216, 33.7757027], [-84.4188001, 33.7756846], [-84.4188311, 33.7756782], [-84.4188613, 33.7756782], [-84.419628, 33.7756786], [-84.422023, 33.775685], [-84.4223349, 33.775685]]}, "properties": {"surface": "concrete", "highway": "footway"}}, {"type": "Feature", "geometry": {"type": "LineString", "coordinates": [[-84.4175583, 33.7625669], [-84.417558, 33.7624904], [-84.4175598, 33.7622829], [-84.4175677, 33.7615569], [-84.4175718, 33.7611023], [-84.4175794, 33.7603799], [-84.4175829, 33.7600444], [-84.4175864, 33.7597318], [-84.4175942, 33.7590352], [-84.4175968, 33.7588038], [-84.4175898, 33.7585934], [-84.4175991, 33.7581926], [-84.4176023, 33.7580553], [-84.4176244, 33.758053], [-84.4177103, 33.7581903], [-84.4179429, 33.7585745], [-84.4180408, 33.7587393], [-84.4185798, 33.7596185], [-84.4190593, 33.7603202], [-84.4194606, 33.7608931], [-84.419573, 33.7610239]]}, "properties": {"surface": "", "highway": "footway"}}, {"type": "Feature", "geometry": {"type": "LineString", "coordinates": [[-84.4196383, 33.761098], [-84.4196705, 33.7611372], [-84.4199045, 33.7613549]]}, "properties": {"surface": "", "highway": "footway"}}, {"type": "Feature", "geometry": {"type": "LineString", "coordinates": [[-84.4214551, 33.7634397], [-84.4210744, 33.7634306], [-84.4178634, 33.7634209], [-84.417555, 33.7634073]]}, "properties": {"surface": "", "highway": "footway"}}, {"type": "Feature", "geometry": {"type": "LineString", "coordinates": [[-84.4175436, 33.764253], [-84.4175387, 33.7638921], [-84.41754, 33.763664], [-84.417545, 33.7635421]]}, "properties": {"surface": "", "highway": "footway"}}, {"type": "Feature", "geometry": {"type": "LineString", "coordinates": [[-84.4202818, 33.7714545], [-84.4202802, 33.7714]]}, "properties": {"surface": "", "highway": "footway"}}, {"type": "Feature", "geometry": {"type": "LineString", "coordinates": [[-84.4201718, 33.7714514], [-84.420174, 33.7713999]]}, "properties": {"surface": "", "highway": "footway"}}, {"type": "Feature", "geometry": {"type": "LineString", "coordinates": [[-84.4196383, 33.761098], [-84.4193977, 33.7612518], [-84.419319, 33.7613068], [-84.4192242, 33.7613752], [-84.4191223, 33.7614555], [-84.4190472, 33.7615343], [-84.4189647, 33.7616584]]}, "properties": {"surface": "", "highway": "footway"}}, {"type": "Feature", "geometry": {"type": "LineString", "coordinates": [[-84.4189232, 33.7617228], [-84.4188311, 33.7619588]]}, "properties": {"surface": "", "highway": "footway"}}, {"type": "Feature", "geometry": {"type": "LineString", "coordinates": [[-84.4186406, 33.7714502], [-84.4186364, 33.7714352], [-84.4186349, 33.7714307], [-84.4186289, 33.771426], [-84.4186169, 33.7714243], [-84.4185741, 33.7714217], [-84.4182049, 33.7714188]]}, "properties": {"surface": "", "highway": "footway"}}, {"type": "Feature", "geometry": {"type": "LineString", "coordinates": [[-84.4186286, 33.771367], [-84.4186297, 33.7713585]]}, "properties": {"surface": "", "highway": "footway"}}, {"type": "Feature", "geometry": {"type": "LineString", "coordinates": [[-84.4186289, 33.771426], [-84.4186279, 33.7714157]]}, "properties": {"surface": "", "highway": "footway"}}, {"type": "Feature", "geometry": {"type": "LineString", "coordinates": [[-84.418599, 33.7730408], [-84.417936, 33.7729563], [-84.4178748, 33.772948], [-84.417792, 33.7729367], [-84.417591, 33.7729296], [-84.4174845, 33.7729313], [-84.4174666, 33.7729252], [-84.4174487, 33.7729093], [-84.4174361, 33.7728792], [-84.4174278, 33.7728262], [-84.4174288, 33.772796], [-84.4174406, 33.7724521], [-84.4174403, 33.7723158], [-84.4174453, 33.7722648], [-84.4174574, 33.7721398], [-84.41747, 33.7714272]]}, "properties": {"surface": "", "highway": "footway"}}, {"type": "Feature", "geometry": {"type": "LineString", "coordinates": [[-84.4195583, 33.765023], [-84.4196007, 33.765023]]}, "properties": {"surface": "", "highway": "footway"}}, {"type": "Feature", "geometry": {"type": "LineString", "coordinates": [[-84.417555, 33.7634073], [-84.4175558, 33.7633897], [-84.4175449, 33.7632125], [-84.4175469, 33.7627793], [-84.4175535, 33.7626639]]}, "properties": {"surface": "", "highway": "footway"}}, {"type": "Feature", "geometry": {"type": "LineString", "coordinates": [[-84.4210767, 33.763556], [-84.4210757, 33.7635389]]}, "properties": {"surface": "", "highway": "footway"}}, {"type": "Feature", "geometry": {"type": "LineString", "coordinates": [[-84.421074, 33.7634587], [-84.4210744, 33.7634306]]}, "properties": {"surface": "", "highway": "footway"}}, {"type": "Feature", "geometry": {"type": "LineString", "coordinates": [[-84.4215952, 33.763464], [-84.4215935, 33.7634419]]}, "properties": {"surface": "", "highway": "footway"}}, {"type": "Feature", "geometry": {"type": "LineString", "coordinates": [[-84.421598, 33.7635654], [-84.4215976, 33.7635476]]}, "properties": {"surface": "", "highway": "footway"}}, {"type": "Feature", "geometry": {"type": "LineString", "coordinates": [[-84.4175583, 33.7625669], [-84.417542, 33.7625669]]}, "properties": {"surface": "", "highway": "footway"}}, {"type": "Feature", "geometry": {"type": "LineString", "coordinates": [[-84.4175598, 33.7622829], [-84.4175416, 33.7622847]]}, "properties": {"surface": "", "highway": "footway"}}, {"type": "Feature", "geometry": {"type": "LineString", "coordinates": [[-84.4174337, 33.7729122], [-84.4174487, 33.7729093]]}, "properties": {"surface": "", "highway": "footway"}}, {"type": "Feature", "geometry": {"type": "LineString", "coordinates": [[-84.4174827, 33.7729457], [-84.4174845, 33.7729313]]}, "properties": {"surface": "", "highway": "footway"}}, {"type": "Feature", "geometry": {"type": "LineString", "coordinates": [[-84.4174601, 33.7731162], [-84.4174618, 33.7731046]]}, "properties": {"surface": "", "highway": "footway"}}, {"type": "Feature", "geometry": {"type": "LineString", "coordinates": [[-84.4174601, 33.7731162], [-84.4174315, 33.7731171]]}, "properties": {"surface": "", "highway": "footway"}}, {"type": "Feature", "geometry": {"type": "LineString", "coordinates": [[-84.4277156, 33.7861995], [-84.4276919, 33.7861979], [-84.4276961, 33.7862231]]}, "properties": {"surface": "", "highway": "footway"}}, {"type": "Feature", "geometry": {"type": "LineString", "coordinates": [[-84.4280353, 33.7862265], [-84.4279858, 33.7862226]]}, "properties": {"surface": "", "highway": "footway"}}, {"type": "Feature", "geometry": {"type": "LineString", "coordinates": [[-84.4219481, 33.7851199], [-84.4220516, 33.7849715], [-84.4221925, 33.7848318], [-84.422277, 33.784734], [-84.4223443, 33.7846561], [-84.4226116, 33.7843082]]}, "properties": {"surface": "", "highway": "footway"}}, {"type": "Feature", "geometry": {"type": "LineString", "coordinates": [[-84.4227392, 33.7841659], [-84.4227926, 33.7840871], [-84.4228004, 33.7840483], [-84.4228035, 33.7838827], [-84.4227895, 33.7838568], [-84.4227786, 33.7838336], [-84.4227801, 33.7837844], [-84.4227872, 33.7828549], [-84.4227895, 33.7828157], [-84.4228084, 33.7827882], [-84.4228202, 33.7827725], [-84.4228273, 33.782746], [-84.4228276, 33.7823776], [-84.422817, 33.7823432], [-84.4228064, 33.7823168], [-84.4227981, 33.7822668], [-84.4228005, 33.7822069], [-84.4228084, 33.7818176], [-84.4228096, 33.7813289], [-84.4228226, 33.7812783], [-84.4228366, 33.7812537], [-84.4228413, 33.7812149], [-84.4228266, 33.7807825]]}, "properties": {"surface": "", "highway": "footway"}}, {"type": "Feature", "geometry": {"type": "LineString", "coordinates": [[-84.4276919, 33.7861979], [-84.4276524, 33.7862231], [-84.4276158, 33.7862349], [-84.427584, 33.7862355], [-84.4273088, 33.7861946], [-84.4271849, 33.7861769]]}, "properties": {"surface": "", "highway": "footway"}}, {"type": "Feature", "geometry": {"type": "LineString", "coordinates": [[-84.4270807, 33.7861443], [-84.4270843, 33.7851346]]}, "properties": {"surface": "", "highway": "footway"}}, {"type": "Feature", "geometry": {"type": "LineString", "coordinates": [[-84.4270843, 33.7851346], [-84.4270896, 33.7844298], [-84.4270855, 33.7842603]]}, "properties": {"surface": "", "highway": "footway"}}, {"type": "Feature", "geometry": {"type": "LineString", "coordinates": [[-84.4238968, 33.7854206], [-84.4238956, 33.7843938]]}, "properties": {"surface": "", "highway": "footway"}}, {"type": "Feature", "geometry": {"type": "LineString", "coordinates": [[-84.4250685, 33.7756067], [-84.4250684, 33.7755461], [-84.4250683, 33.7753778], [-84.4250753, 33.7753539], [-84.4250788, 33.7753293], [-84.4250765, 33.7752943], [-84.4250711, 33.7752597], [-84.4250707, 33.775206], [-84.4250738, 33.7748557], [-84.425075, 33.774676], [-84.4250732, 33.7746522], [-84.4250508, 33.7746381], [-84.4250157, 33.7746366]]}, "properties": {"surface": "", "highway": "footway"}}, {"type": "Feature", "geometry": {"type": "LineString", "coordinates": [[-84.4249477, 33.7756079], [-84.4249487, 33.775546], [-84.4249513, 33.775376], [-84.4249588, 33.7747256], [-84.4249601, 33.7746341]]}, "properties": {"surface": "", "highway": "footway"}}, {"type": "Feature", "geometry": {"type": "LineString", "coordinates": [[-84.4298965, 33.771857], [-84.4297838, 33.7718613], [-84.4294714, 33.771834], [-84.4291289, 33.7718256], [-84.4282176, 33.7717664], [-84.4278282, 33.7717407], [-84.4274709, 33.771735], [-84.4272051, 33.7717637], [-84.426992, 33.7718052]]}, "properties": {"surface": "concrete", "highway": "footway"}}, {"type": "Feature", "geometry": {"type": "LineString", "coordinates": [[-84.4257307, 33.7735971], [-84.4256793, 33.7735467]]}, "properties": {"surface": "", "highway": "footway"}}, {"type": "Feature", "geometry": {"type": "LineString", "coordinates": [[-84.4255337, 33.773453], [-84.4254924, 33.7734872], [-84.4254518, 33.7735165], [-84.4253935, 33.7735402], [-84.4252905, 33.7735605], [-84.4251265, 33.7735695], [-84.4248677, 33.7735661], [-84.4247155, 33.7735675]]}, "properties": {"surface": "", "highway": "footway"}}, {"type": "Feature", "geometry": {"type": "LineString", "coordinates": [[-84.4247155, 33.7735675], [-84.424282, 33.7735609], [-84.4242519, 33.773574], [-84.4242311, 33.7736064]]}, "properties": {"surface": "", "highway": "footway"}}, {"type": "Feature", "geometry": {"type": "LineString", "coordinates": [[-84.426932, 33.7792023], [-84.4268965, 33.7791697], [-84.4268913, 33.7791649], [-84.4267991, 33.7791886], [-84.426619, 33.7792257], [-84.4262, 33.7793225]]}, "properties": {"surface": "", "highway": "footway"}}, {"type": "Feature", "geometry": {"type": "LineString", "coordinates": [[-84.4262, 33.7793225], [-84.4258939, 33.7793886], [-84.4255535, 33.7794599], [-84.4254642, 33.7794565], [-84.4254128, 33.7794514], [-84.4251634, 33.7793702]]}, "properties": {"surface": "", "highway": "footway"}}, {"type": "Feature", "geometry": {"type": "LineString", "coordinates": [[-84.4251634, 33.7793702], [-84.42504, 33.7793257], [-84.4250096, 33.7792922], [-84.4249973, 33.7792875], [-84.4249413, 33.779287]]}, "properties": {"surface": "", "highway": "footway"}}, {"type": "Feature", "geometry": {"type": "LineString", "coordinates": [[-84.4271642, 33.7818274], [-84.4271331, 33.7818299], [-84.4271281, 33.7818292], [-84.4271245, 33.7818267], [-84.4271271, 33.781766], [-84.4271225, 33.7814307], [-84.4271443, 33.7814218], [-84.4271686, 33.7814185]]}, "properties": {"surface": "", "highway": "footway"}}, {"type": "Feature", "geometry": {"type": "LineString", "coordinates": [[-84.4239834, 33.7811375], [-84.4240343, 33.7811242], [-84.4240429, 33.7811198], [-84.4240527, 33.7810991], [-84.4240545, 33.7807609]]}, "properties": {"surface": "", "highway": "footway"}}, {"type": "Feature", "geometry": {"type": "LineString", "coordinates": [[-84.4240545, 33.7807609], [-84.4240577, 33.7804672]]}, "properties": {"surface": "", "highway": "footway"}}, {"type": "Feature", "geometry": {"type": "LineString", "coordinates": [[-84.4240577, 33.7804672], [-84.4240556, 33.7804435], [-84.4240377, 33.7804272], [-84.4239926, 33.7804176]]}, "properties": {"surface": "", "highway": "footway"}}, {"type": "Feature", "geometry": {"type": "LineString", "coordinates": [[-84.4174601, 33.7731162], [-84.4174513, 33.773353], [-84.4174451, 33.7740402]]}, "properties": {"surface": "", "highway": "footway"}}, {"type": "Feature", "geometry": {"type": "LineString", "coordinates": [[-84.4220138, 33.7733836], [-84.4220221, 33.7733949], [-84.4220269, 33.7734073], [-84.42203, 33.7734211], [-84.4220308, 33.7734349], [-84.42203, 33.7735672], [-84.4220211, 33.7740484], [-84.4220151, 33.7744405]]}, "properties": {"surface": "", "highway": "footway"}}, {"type": "Feature", "geometry": {"type": "LineString", "coordinates": [[-84.423492, 33.7733282], [-84.4233364, 33.7733376], [-84.4231966, 33.7733297], [-84.4230282, 33.7733257], [-84.4227107, 33.773327], [-84.4223152, 33.7733128], [-84.4222572, 33.773312], [-84.4222186, 33.7733117], [-84.4222042, 33.7733148], [-84.4221925, 33.7733202], [-84.4221857, 33.7733273], [-84.4221782, 33.7733422], [-84.4221751, 33.7733479], [-84.4221709, 33.7733524], [-84.4221665, 33.7733543], [-84.4221587, 33.7733538]]}, "properties": {"surface": "concrete", "highway": "footway"}}, {"type": "Feature", "geometry": {"type": "LineString", "coordinates": [[-84.4220613, 33.7733589], [-84.4220426, 33.7733671], [-84.4220138, 33.7733836], [-84.4219926, 33.7733708], [-84.4219798, 33.773367], [-84.4219607, 33.7733639], [-84.4217192, 33.7733583], [-84.4216671, 33.7733565], [-84.4216237, 33.7733511], [-84.4215725, 33.7733423], [-84.4214924, 33.7733231], [-84.4214613, 33.7733192], [-84.4214238, 33.7733166], [-84.4209244, 33.7733009]]}, "properties": {"surface": "", "highway": "footway"}}, {"type": "Feature", "geometry": {"type": "LineString", "coordinates": [[-84.4236105, 33.7730576], [-84.423344, 33.7730978], [-84.422811, 33.7731358], [-84.422747, 33.7731381], [-84.4222134, 33.7731315]]}, "properties": {"surface": "", "highway": "footway"}}, {"type": "Feature", "geometry": {"type": "LineString", "coordinates": [[-84.4220233, 33.7731304], [-84.4218359, 33.7731312], [-84.4214057, 33.7731347], [-84.4212295, 33.7731412]]}, "properties": {"surface": "", "highway": "footway"}}, {"type": "Feature", "geometry": {"type": "LineString", "coordinates": [[-84.4211234, 33.7731452], [-84.4210678, 33.7731473], [-84.4202337, 33.7731301]]}, "properties": {"surface": "", "highway": "footway"}}, {"type": "Feature", "geometry": {"type": "LineString", "coordinates": [[-84.4201336, 33.773128], [-84.4193028, 33.7731103], [-84.4186607, 33.7730475]]}, "properties": {"surface": "", "highway": "footway"}}, {"type": "Feature", "geometry": {"type": "LineString", "coordinates": [[-84.4187, 33.7596274], [-84.4188444, 33.7596276], [-84.4193794, 33.7596237], [-84.4199278, 33.7596171]]}, "properties": {"surface": "", "highway": "footway"}}, {"type": "Feature", "geometry": {"type": "LineString", "coordinates": [[-84.4199278, 33.7596171], [-84.4199617, 33.7596167]]}, "properties": {"surface": "", "highway": "footway"}}, {"type": "Feature", "geometry": {"type": "LineString", "coordinates": [[-84.4187921, 33.7548003], [-84.4187884, 33.754783]]}, "properties": {"surface": "", "highway": "footway"}}, {"type": "Feature", "geometry": {"type": "LineString", "coordinates": [[-84.417518, 33.7663694], [-84.4175272, 33.7650353]]}, "properties": {"surface": "", "highway": "footway"}}, {"type": "Feature", "geometry": {"type": "LineString", "coordinates": [[-84.4175284, 33.7649401], [-84.4175431, 33.7643288]]}, "properties": {"surface": "", "highway": "footway"}}, {"type": "Feature", "geometry": {"type": "LineString", "coordinates": [[-84.4174868, 33.7688588], [-84.4175068, 33.7673304], [-84.4175179, 33.7670945], [-84.4175177, 33.7664358]]}, "properties": {"surface": "", "highway": "footway"}}, {"type": "Feature", "geometry": {"type": "LineString", "coordinates": [[-84.4223486, 33.785116], [-84.4224205, 33.7851793], [-84.4224535, 33.7851974], [-84.4225079, 33.7852151], [-84.4233084, 33.785335], [-84.4238968, 33.7854206], [-84.4239523, 33.7854314], [-84.424996, 33.7855707], [-84.4250512, 33.7855764], [-84.4251161, 33.7855915], [-84.4251995, 33.785611]]}, "properties": {"surface": "", "highway": "footway"}}, {"type": "Feature", "geometry": {"type": "LineString", "coordinates": [[-84.4221192, 33.7851329], [-84.422166, 33.7851494], [-84.4222047, 33.7851546], [-84.4222614, 33.7851524]]}, "properties": {"surface": "", "highway": "footway"}}, {"type": "Feature", "geometry": {"type": "LineString", "coordinates": [[-84.4223486, 33.785116], [-84.4223318, 33.7850827], [-84.4223221, 33.785054], [-84.422315, 33.785018], [-84.4223133, 33.7849871], [-84.4223212, 33.7849547], [-84.4223425, 33.7849092], [-84.4224221, 33.7848018], [-84.4228857, 33.7842833], [-84.4229273, 33.7842318]]}, "properties": {"surface": "", "highway": "footway"}}, {"type": "Feature", "geometry": {"type": "LineString", "coordinates": [[-84.4270857, 33.7841588], [-84.4270915, 33.7841518], [-84.427095, 33.7841459], [-84.4270974, 33.7841375]]}, "properties": {"surface": "", "highway": "footway"}}, {"type": "Feature", "geometry": {"type": "LineString", "coordinates": [[-84.4271364, 33.7844298], [-84.4271596, 33.7844269], [-84.4271782, 33.7844211], [-84.4271922, 33.7844056], [-84.4271946, 33.7843464], [-84.4271982, 33.7842034], [-84.427196, 33.7841392], [-84.4271957, 33.7841173], [-84.4272028, 33.7838578], [-84.4272035, 33.7837652]]}, "properties": {"surface": "", "highway": "footway"}}, {"type": "Feature", "geometry": {"type": "LineString", "coordinates": [[-84.4270974, 33.7841375], [-84.4271143, 33.7827112]]}, "properties": {"surface": "", "highway": "footway"}}, {"type": "Feature", "geometry": {"type": "LineString", "coordinates": [[-84.4271172, 33.7826234], [-84.4271276, 33.7822716]]}, "properties": {"surface": "", "highway": "footway"}}, {"type": "Feature", "geometry": {"type": "LineString", "coordinates": [[-84.4271316, 33.7806095], [-84.4271328, 33.7805785], [-84.4271345, 33.7804558], [-84.4271348, 33.7804457], [-84.427136, 33.7804419], [-84.427138, 33.7804384], [-84.4271414, 33.7804344], [-84.4271469, 33.780432], [-84.4271799, 33.7804303]]}, "properties": {"surface": "", "highway": "footway"}}, {"type": "Feature", "geometry": {"type": "LineString", "coordinates": [[-84.4277554, 33.7826425], [-84.4277558, 33.7826309], [-84.4277572, 33.7826243], [-84.4277632, 33.7826178], [-84.4277691, 33.7826142], [-84.42778, 33.7826124], [-84.4278134, 33.782608], [-84.42791, 33.7825996], [-84.4279679, 33.7825911], [-84.4280899, 33.7825556], [-84.4282616, 33.7824987]]}, "properties": {"surface": "", "highway": "footway"}}, {"type": "Feature", "geometry": {"type": "LineString", "coordinates": [[-84.4282616, 33.7824987], [-84.4283219, 33.7824804]]}, "properties": {"surface": "", "highway": "footway"}}, {"type": "Feature", "geometry": {"type": "LineString", "coordinates": [[-84.4282616, 33.7824987], [-84.4282785, 33.7819558], [-84.4282798, 33.7819379], [-84.4282822, 33.7819334], [-84.4282863, 33.7819298], [-84.4282969, 33.7819273], [-84.4283164, 33.781923]]}, "properties": {"surface": "", "highway": "footway"}}, {"type": "Feature", "geometry": {"type": "LineString", "coordinates": [[-84.4279509, 33.7875696], [-84.4277774, 33.7866646], [-84.4277687, 33.7866295], [-84.4277506, 33.7865638], [-84.4277238, 33.7865008]]}, "properties": {"surface": "", "highway": "footway"}}, {"type": "Feature", "geometry": {"type": "LineString", "coordinates": [[-84.4277238, 33.7865008], [-84.4277117, 33.7864785], [-84.4277006, 33.786462], [-84.4276871, 33.7864465], [-84.4276252, 33.7864072], [-84.4276004, 33.7863944], [-84.4275742, 33.7863843]]}, "properties": {"surface": "", "highway": "footway"}}, {"type": "Feature", "geometry": {"type": "LineString", "coordinates": [[-84.4288959, 33.7835388], [-84.4288958, 33.783535], [-84.4288976, 33.783531], [-84.4290923, 33.7833491], [-84.4291216, 33.7833218]]}, "properties": {"surface": "", "highway": "footway"}}, {"type": "Feature", "geometry": {"type": "LineString", "coordinates": [[-84.4208062, 33.7732967], [-84.4204992, 33.7732844], [-84.4203003, 33.7732684], [-84.4197983, 33.773271]]}, "properties": {"surface": "concrete", "highway": "footway"}}, {"type": "Feature", "geometry": {"type": "LineString", "coordinates": [[-84.4174238, 33.7763339], [-84.4174089, 33.7780603], [-84.4174081, 33.7787337]]}, "properties": {"surface": "", "highway": "footway"}}, {"type": "Feature", "geometry": {"type": "LineString", "coordinates": [[-84.4271849, 33.7861769], [-84.4271997, 33.7861643], [-84.4272045, 33.7861525], [-84.4271993, 33.7860094], [-84.4271977, 33.7859667], [-84.4271927, 33.7857273], [-84.4271963, 33.785564], [-84.4271847, 33.785557], [-84.4271288, 33.7855468]]}, "properties": {"surface": "", "highway": "footway"}}, {"type": "Feature", "geometry": {"type": "LineString", "coordinates": [[-84.4244835, 33.7842211], [-84.4244835, 33.7842593], [-84.4244808, 33.7842835], [-84.4244693, 33.7842886], [-84.42443, 33.7842847], [-84.4241922, 33.7842903], [-84.4240248, 33.7842898], [-84.4240104, 33.7842949], [-84.4240078, 33.7843218], [-84.4240122, 33.7845865], [-84.4240168, 33.7847678]]}, "properties": {"surface": "", "highway": "footway"}}, {"type": "Feature", "geometry": {"type": "LineString", "coordinates": [[-84.4185101, 33.7834608], [-84.41853, 33.7834581], [-84.4184358, 33.7829638], [-84.4184641, 33.7829586], [-84.4184505, 33.7828919], [-84.4184143, 33.7828943], [-84.4183996, 33.7828383], [-84.418278, 33.7828567]]}, "properties": {"surface": "concrete", "highway": "footway"}}, {"type": "Feature", "geometry": {"type": "LineString", "coordinates": [[-84.429154, 33.7473856], [-84.4302285, 33.7474023]]}, "properties": {"surface": "", "highway": "footway"}}, {"type": "Feature", "geometry": {"type": "LineString", "coordinates": [[-84.4302285, 33.7474023], [-84.4309104, 33.7474139], [-84.4309311, 33.747423], [-84.4309457, 33.7474404], [-84.430948, 33.7474572]]}, "properties": {"surface": "", "highway": "footway"}}, {"type": "Feature", "geometry": {"type": "LineString", "coordinates": [[-84.4321261, 33.7474369], [-84.432106, 33.7474367], [-84.4311423, 33.7474238], [-84.4311233, 33.7474238], [-84.4311153, 33.7474255], [-84.4311078, 33.7474285], [-84.4311013, 33.7474336], [-84.4310966, 33.7474404], [-84.4310947, 33.7474505]]}, "properties": {"surface": "", "highway": "footway"}}, {"type": "Feature", "geometry": {"type": "LineString", "coordinates": [[-84.4311013, 33.7474336], [-84.4310936, 33.7474268]]}, "properties": {"surface": "", "highway": "footway"}}, {"type": "Feature", "geometry": {"type": "LineString", "coordinates": [[-84.4311132, 33.7474138], [-84.4311153, 33.7474255]]}, "properties": {"surface": "", "highway": "footway"}}, {"type": "Feature", "geometry": {"type": "LineString", "coordinates": [[-84.432106, 33.7474183], [-84.432106, 33.7474367]]}, "properties": {"surface": "", "highway": "footway"}}, {"type": "Feature", "geometry": {"type": "LineString", "coordinates": [[-84.4322323, 33.7474383], [-84.4346526, 33.747469], [-84.4346677, 33.7474692]]}, "properties": {"surface": "", "highway": "footway"}}, {"type": "Feature", "geometry": {"type": "LineString", "coordinates": [[-84.4347907, 33.747471], [-84.4353059, 33.7474779]]}, "properties": {"surface": "", "highway": "footway"}}, {"type": "Feature", "geometry": {"type": "LineString", "coordinates": [[-84.4354216, 33.7474799], [-84.4354366, 33.7474801], [-84.4363283, 33.7474927]]}, "properties": {"surface": "", "highway": "footway"}}, {"type": "Feature", "geometry": {"type": "LineString", "coordinates": [[-84.4354366, 33.7474801], [-84.4354168, 33.7479451], [-84.4353587, 33.749572]]}, "properties": {"surface": "", "highway": "footway"}}, {"type": "Feature", "geometry": {"type": "LineString", "coordinates": [[-84.4346543, 33.7473457], [-84.4346548, 33.7473243]]}, "properties": {"surface": "", "highway": "footway"}}, {"type": "Feature", "geometry": {"type": "LineString", "coordinates": [[-84.4240492, 33.7635732], [-84.4243281, 33.7635743]]}, "properties": {"surface": "concrete", "highway": "footway"}}, {"type": "Feature", "geometry": {"type": "LineString", "coordinates": [[-84.4239443, 33.7634416], [-84.4239132, 33.7634505], [-84.4237962, 33.763449], [-84.4220839, 33.7634362], [-84.4215935, 33.7634419]]}, "properties": {"surface": "", "highway": "footway"}}, {"type": "Feature", "geometry": {"type": "LineString", "coordinates": [[-84.443585, 33.7525275], [-84.4432321, 33.7525247], [-84.4432002, 33.7525244], [-84.4425767, 33.7525195], [-84.4423297, 33.7525175], [-84.4421286, 33.7525162]]}, "properties": {"surface": "", "highway": "footway"}}]}