{"type": "FeatureCollection", "features": [{"type": "Feature", "geometry": {"type": "Polygon", "coordinates": [[[-84.43897855132042, 33.779652395144566], [-84.438921808729, 33.77963013765819], [-84.4384535163741, 33.779491381439], [-84.43768178004541, 33.779188657249584], [-84.43728796635742, 33.77899272076773], [-84.43745301455016, 33.77922130354118], [-84.43781959219395, 33.77986414367566], [-84.43810895395332, 33.780533891698404], [-84.43815514416973, 33.7806861718006], [-84.43850837755069, 33.780861911302495], [-84.43919457873525, 33.78128453863263], [-84.43948191764112, 33.78150085206577], [-84.44001795555695, 33.78165967242236], [-84.44043602879175, 33.78182365375759], [-84.44043980881746, 33.781834450771626], [-84.44061157526272, 33.7824120629606], [-84.44075162914244, 33.78298205317161], [-84.44089874687734, 33.78383598064378], [-84.44094911632136, 33.78433917016615], [-84.44133687121786, 33.78667352105974], [-84.44141190341806, 33.78737168214094], [-84.44140589673351, 33.788072630565296], [-84.4413189052584, 33.78876982344429], [-84.4411517390658, 33.78945675278881], [-84.44090595671821, 33.79012700626278], [-84.44058385078739, 33.79077432704939], [-84.44018842651595, 33.79139267227115], [-84.43972337381759, 33.791976269417106], [-84.43919303287565, 33.792519670250506], [-84.43860235365923, 33.79301780169215], [-84.43795684973384, 33.79346601320387], [-84.43726254679706, 33.79386012022848], [-84.43652592641989, 33.794196443279674], [-84.43575386551883, 33.79447184231593], [-84.43495357212518, 33.794683746076394], [-84.43413251805221, 33.79483017610407], [-84.43329836909099, 33.79490976523115], [-84.4324589133882, 33.794921770353334], [-84.43162198867745, 33.794866079373406], [-84.43079540904557, 33.79474321224897], [-84.42998689192069, 33.79455431613454], [-84.42945345689378, 33.79440613978968], [-84.42935583274965, 33.794386855964746], [-84.42931609505452, 33.79438174684069], [-84.4281173574286, 33.79430288147716], [-84.42791885338909, 33.794287906405536], [-84.42744881431162, 33.79424790328118], [-84.42734523655042, 33.794238563860574], [-84.42671518436914, 33.79417855914933], [-84.42646824939072, 33.794152043705736], [-84.42559312867766, 33.79404741016876], [-84.42301793261086, 33.79376236983832], [-84.42188222038715, 33.793571608306706], [-84.41994207364569, 33.79313157366937], [-84.41958017597648, 33.79304240195725], [-84.41634994189496, 33.79218233488204], [-84.41559564568182, 33.791948851383204], [-84.41487044726371, 33.791658123214944], [-84.41418056299625, 33.7913126425959], [-84.4135319063102, 33.79091537107076], [-84.41293003700241, 33.790469714107104], [-84.41289209843114, 33.790438887426276], [-84.41254780756418, 33.79020581834525], [-84.41203310942765, 33.789828361730116], [-84.41155562678588, 33.789418223118126], [-84.41084563588802, 33.78875818639787], [-84.4102749978667, 33.78816839818637], [-84.40978119919042, 33.78753210458286], [-84.40936963153497, 33.786856255374815], [-84.40904478809422, 33.78614823222348], [-84.4088102145744, 33.78541576801367], [-84.40866847055278, 33.78466686237407], [-84.40862110161895, 33.78390969429204], [-84.40862119149833, 33.7830196938925], [-84.40862124804958, 33.78245969397491], [-84.4086213793233, 33.78115969381948], [-84.40862176860755, 33.781091624002826], [-84.40863147263126, 33.78023565848082], [-84.40863149544747, 33.780009694072106], [-84.40863153179663, 33.77964969405318], [-84.40863160017564, 33.77962151472643], [-84.4086418172513, 33.77747151445539], [-84.40864237578973, 33.77741314653817], [-84.40865182391481, 33.776756419051345], [-84.40865188011884, 33.77619969403757], [-84.40865762772862, 33.77593644027634], [-84.40866191663306, 33.77583802401369], [-84.4086619406935, 33.77559969409743], [-84.40866198712938, 33.77513969408196], [-84.40866203760197, 33.7746396940785], [-84.40866209009215, 33.77411969407985], [-84.4086621112897, 33.77390969415369], [-84.40866250942396, 33.77384084467392], [-84.4086725982463, 33.77296084497291], [-84.40868272150949, 33.77211756602706], [-84.40868361227199, 33.772063481283446], [-84.4086923397289, 33.77164658321172], [-84.40869235963689, 33.77144933424251], [-84.40867404099703, 33.770648959832585], [-84.40868907554935, 33.77006171818127], [-84.40870910265986, 33.7697917194462], [-84.4087151234657, 33.76972261617935], [-84.40872286191582, 33.76886559489016], [-84.40872305157573, 33.76884756221792], [-84.40873270335655, 33.76804362760837], [-84.40873279860888, 33.767099694054465], [-84.4087349121076, 33.76694027225602], [-84.40874284500099, 33.7666399738637], [-84.40874286218333, 33.76646969422983], [-84.4087428682375, 33.76640969427435], [-84.4087497594195, 33.76612137290243], [-84.40875741842797, 33.765960873694894], [-84.40877678909915, 33.76534300832508], [-84.40876301354143, 33.7649696944383], [-84.40876307206008, 33.764389694177716], [-84.40876308315825, 33.76427969428721], [-84.40876355247106, 33.764204886862885], [-84.40877363418785, 33.76339488719292], [-84.4087742969476, 33.763353175292885], [-84.40878434939722, 33.76283317575317], [-84.40878585516641, 33.76277151874736], [-84.40879326064267, 33.7625205933253], [-84.40879328898149, 33.76223969425077], [-84.4087956429274, 33.76207141045177], [-84.40880405562832, 33.761769649141755], [-84.40881344594618, 33.760683797739574], [-84.4088134725875, 33.760419694290114], [-84.40881419906611, 33.76032647131239], [-84.40882421308443, 33.75967980004932], [-84.40883361313595, 33.759026410055334], [-84.40883363600409, 33.75879969431325], [-84.40883440904028, 33.75870351053657], [-84.40884447257616, 33.75807351094728], [-84.40884570670212, 33.75801434163489], [-84.40885374672715, 33.75770200933577], [-84.40885377419329, 33.75742969431055], [-84.40885385588662, 33.756619694213825], [-84.4088538921937, 33.756259694321656], [-84.40885390933848, 33.756089694367446], [-84.40885504149767, 33.75597316511599], [-84.40886396765951, 33.755511426295115], [-84.40886404750462, 33.754719694226395], [-84.4089059442776, 33.75400854707957], [-84.40903108626385, 33.753304254404796], [-84.40923826629498, 33.75261359870627], [-84.40952548728232, 33.75194323100158], [-84.40988998152014, 33.75129960678382], [-84.41032823740181, 33.750688923871756], [-84.4108360332892, 33.75011706274656], [-84.4114084782072, 33.749589529947876], [-84.41204005896998, 33.74911140507396], [-84.41272469328426, 33.74868729189461], [-84.41345578831789, 33.74832127404682], [-84.41422630416999, 33.74801687573835], [-84.41502882163216, 33.74777702783651], [-84.41585561358973, 33.747604039667735], [-84.41669871937728, 33.74749957679833], [-84.41755002137464, 33.74746464500996], [-84.41800998263341, 33.747464645187264], [-84.41818622377914, 33.74746613871885], [-84.41870590920031, 33.74747494730526], [-84.41884476905098, 33.74747611442673], [-84.4189632001995, 33.747478105428804], [-84.41902007220611, 33.747373358596775], [-84.41933918663504, 33.74684418453664], [-84.41970892262898, 33.74633852686398], [-84.419937299608, 33.74605308558057], [-84.42030576958743, 33.745587699112065], [-84.42052710178207, 33.745321285495066], [-84.4207971138795, 33.745011300583684], [-84.42153071015733, 33.74427634553524], [-84.4220794538445, 33.74379502232046], [-84.42450837342106, 33.74163391989777], [-84.42513746334747, 33.74112777123491], [-84.42582421726819, 33.74067696606974], [-84.42656168992788, 33.74028606291493], [-84.42734242352772, 33.73995901449873], [-84.4281585231151, 33.73969912782089], [-84.42900173637945, 33.739509030735796], [-84.42986353704867, 33.73939064539944], [-84.4307352110462, 33.73934516884783], [-84.43160794453952, 33.739373060902416], [-84.43247291299383, 33.7394740395246], [-84.43332137033326, 33.73964708366584], [-84.43342778393642, 33.73967853637841], [-84.43351134615567, 33.73969104227356], [-84.43358940354996, 33.739692702957875], [-84.43447839580749, 33.73967710640039], [-84.43479916448798, 33.739668437035235], [-84.435324549278, 33.73966751980536], [-84.43589480096003, 33.73968093838942], [-84.4359451694013, 33.73967941203505], [-84.43682744358131, 33.739690146589275], [-84.43770386129692, 33.739775613845325], [-84.4383763456256, 33.73987033022561], [-84.43923876047323, 33.73998531898799], [-84.44035990264456, 33.74019921247855], [-84.44087986430677, 33.74032920232873], [-84.44155179020687, 33.74052253546472], [-84.44220254878446, 33.74076111525318], [-84.44234638608418, 33.74081982372346], [-84.44273658856389, 33.74094468665145], [-84.44338065135733, 33.74117609765504], [-84.44343064840888, 33.741196096172054], [-84.44384911374195, 33.741375269758066], [-84.44419909546055, 33.7415352581957], [-84.44431376403182, 33.74158862134148], [-84.44450375449438, 33.741678614888876], [-84.44454947771116, 33.7417004259966], [-84.4455694273609, 33.74219039098015], [-84.44639455136526, 33.742640644185634], [-84.44715330894796, 33.743166092297386], [-84.44807146704316, 33.74387909333703], [-84.4483668531694, 33.74410533552472], [-84.44883846014433, 33.74443339532114], [-84.44956832838564, 33.7449230334674], [-84.4501828525426, 33.745376774394806], [-84.45074340901418, 33.74587691450367], [-84.45124499882482, 33.746418994458644], [-84.45168314850214, 33.746998180897066], [-84.45205394998594, 33.747609309505144], [-84.4523540955068, 33.748246931047184], [-84.45258090712211, 33.74890535993822], [-84.45273236064463, 33.749578724927616], [-84.45280710374895, 33.75026102144243], [-84.45281712283946, 33.750451020650615], [-84.45282553707396, 33.750769694534185], [-84.45282556328857, 33.751029694398625], [-84.45282560484134, 33.751441939771254], [-84.45284583604274, 33.7515201854477], [-84.45293587735438, 33.751950179083146], [-84.45298913636464, 33.75223857300655], [-84.45302916086331, 33.75248857012901], [-84.45309685802057, 33.75312103874277], [-84.45309809251249, 33.75375602940038], [-84.4530328534168, 33.75438867817485], [-84.45298288492165, 33.75470868145187], [-84.45282486085468, 33.75543234722429], [-84.4525799195451, 33.75613892736825], [-84.4522505769505, 33.75682115805622], [-84.45184021691917, 33.75747202561163], [-84.4513530564734, 33.75808483863251], [-84.45079410251365, 33.75865329680784], [-84.45016910038672, 33.759171555717145], [-84.44948447484475, 33.75963428694626], [-84.44874726400163, 33.76003673289966], [-84.44796504696524, 33.760374755744145], [-84.4471458658907, 33.76064487997951], [-84.44646425681323, 33.76083688927916], [-84.44642466651382, 33.76236705790262], [-84.4464240923124, 33.762387868359156], [-84.44638422943389, 33.7637478704418], [-84.44632319483806, 33.76444689409943], [-84.44618168649205, 33.765137737260766], [-84.44596102308367, 33.7658139527406], [-84.44566326213128, 33.7664692297159], [-84.4452911808468, 33.76709745263316], [-84.44484825027394, 33.76769275829832], [-84.44433860294164, 33.76824959061569], [-84.44376699433238, 33.768762752464205], [-84.44313875852386, 33.76922745422585], [-84.44265689545558, 33.76951976935024], [-84.44265743459786, 33.76952969431634], [-84.44265746083683, 33.76978969418567], [-84.44265746891044, 33.769869694228866], [-84.44265545911381, 33.77002636127242], [-84.44262557613347, 33.77118636277165], [-84.44262345580881, 33.77125400091239], [-84.44261348303019, 33.77152400147065], [-84.44254711544372, 33.772222716314744], [-84.44240032371029, 33.77291282228978], [-84.44217447594878, 33.77358787851926], [-84.44187167825326, 33.77424158444049], [-84.44149475510041, 33.77486783862177], [-84.44104722304384, 33.77546079572572], [-84.4405332579393, 33.77601492108652], [-84.43995765600434, 33.77652504239099], [-84.43932578907518, 33.77698639797973], [-84.43864355447742, 33.77739468131692], [-84.43826510372033, 33.777577801512834], [-84.43844954831982, 33.77780613493528], [-84.43867956584756, 33.77812612115747], [-84.43876117643742, 33.77824207431306], [-84.43907120252207, 33.778692055528374], [-84.43945456039238, 33.77931651400027], [-84.43971761566934, 33.779871376814356], [-84.43897855132042, 33.779652395144566]]]}, "properties": {"kind": "walkshed", "buffer_mi": 0.5}}, {"type": "Feature", "geometry": {"type": "Point", "coordinates": [-84.41679, 33.756282]}, "properties": {"kind": "stop", "name": "Ashby", "mode": "rail"}}, {"type": "Feature", "geometry": {"type": "Point", "coordinates": [-84.428936, 33.772147]}, "properties": {"kind": "stop", "name": "Bankhead", "mode": "rail"}}, {"type": "Feature", "geometry": {"type": "Point", "coordinates": [-84.445385, 33.753249]}, "properties": {"kind": "stop", "name": "West Lake", "mode": "rail"}}, {"type": "Feature", "geometry": {"type": "Point", "coordinates": [-84.445329, 33.753328]}, "properties": {"kind": "stop", "name": "WEST LAKE STATION", "mode": "bus"}}, {"type": "Feature", "geometry": {"type": "Point", "coordinates": [-84.445568, 33.753247]}, "properties": {"kind": "stop", "name": "WEST LAKE STATION", "mode": "bus"}}, {"type": "Feature", "geometry": {"type": "Point", "coordinates": [-84.428873, 33.772159]}, "properties": {"kind": "stop", "name": "BANKHEAD STATION", "mode": "bus"}}, {"type": "Feature", "geometry": {"type": "Point", "coordinates": [-84.428906, 33.772436]}, "properties": {"kind": "stop", "name": "BANKHEAD STATION", "mode": "bus"}}, {"type": "Feature", "geometry": {"type": "Point", "coordinates": [-84.41723, 33.756478]}, "properties": {"kind": "stop", "name": "ASHBY STATION", "mode": "bus"}}, {"type": "Feature", "geometry": {"type": "Point", "coordinates": [-84.417328, 33.756477]}, "properties": {"kind": "stop", "name": "ASHBY STATION", "mode": "bus"}}, {"type": "Feature", "geometry": {"type": "Point", "coordinates": [-84.421186, 33.754809]}, "properties": {"kind": "stop", "name": "MARTIN L KING JR DR NW @ OLLIE ST NW", "mode": "bus"}}, {"type": "Feature", "geometry": {"type": "Point", "coordinates": [-84.42887, 33.786346]}, "properties": {"kind": "stop", "name": "MARIETTA ST NW @ MARIETTA BLVD NW", "mode": "bus"}}, {"type": "Feature", "geometry": {"type": "Point", "coordinates": [-84.437008, 33.788638]}, "properties": {"kind": "stop", "name": "PERRY BLVD NW @ JOHNSON RD NW", "mode": "bus"}}, {"type": "Feature", "geometry": {"type": "Point", "coordinates": [-84.428076, 33.786266]}, "properties": {"kind": "stop", "name": "MARIETTA ST NW@MARIETTA BLVD NW", "mode": "bus"}}, {"type": "Feature", "geometry": {"type": "Point", "coordinates": [-84.4337, 33.786905]}, "properties": {"kind": "stop", "name": "MARIETTA ST NW@ROCKDALE ST NW", "mode": "bus"}}, {"type": "Feature", "geometry": {"type": "Point", "coordinates": [-84.436714, 33.78837]}, "properties": {"kind": "stop", "name": "PERRY BLVD NW @ JOHNSON RD NW", "mode": "bus"}}, {"type": "Feature", "geometry": {"type": "Point", "coordinates": [-84.426788, 33.785946]}, "properties": {"kind": "stop", "name": "W MARIETTA ST NW @ RICE ST NW", "mode": "bus"}}, {"type": "Feature", "geometry": {"type": "Point", "coordinates": [-84.424187, 33.785328]}, "properties": {"kind": "stop", "name": "W MARIETTA ST NW @ LONGLEY AVE NW", "mode": "bus"}}, {"type": "Feature", "geometry": {"type": "Point", "coordinates": [-84.421493, 33.785076]}, "properties": {"kind": "stop", "name": "W MARIETTA ST NW @ HERNDON ST NW", "mode": "bus"}}, {"type": "Feature", "geometry": {"type": "Point", "coordinates": [-84.419086, 33.789554]}, "properties": {"kind": "stop", "name": "HUFF RD NW@BOYD AVE NW", "mode": "bus"}}, {"type": "Feature", "geometry": {"type": "Point", "coordinates": [-84.420521, 33.789629]}, "properties": {"kind": "stop", "name": "HUFF RD NW@ENGLISH ST NW", "mode": "bus"}}, {"type": "Feature", "geometry": {"type": "Point", "coordinates": [-84.422022, 33.789627]}, "properties": {"kind": "stop", "name": "HUFF RD NW@FAIRMONT AVE NW", "mode": "bus"}}, {"type": "Feature", "geometry": {"type": "Point", "coordinates": [-84.423925, 33.789259]}, "properties": {"kind": "stop", "name": "HUFF RD NW@MENLO DR NW", "mode": "bus"}}, {"type": "Feature", "geometry": {"type": "Point", "coordinates": [-84.426328, 33.788908]}, "properties": {"kind": "stop", "name": "HUFF RD NW@ELLSWORTH IND BLVD", "mode": "bus"}}, {"type": "Feature", "geometry": {"type": "Point", "coordinates": [-84.427208, 33.791051]}, "properties": {"kind": "stop", "name": "ELLSWORTH INDUSTRIAL BLVD @ 1320", "mode": "bus"}}, {"type": "Feature", "geometry": {"type": "Point", "coordinates": [-84.426788, 33.792651]}, "properties": {"kind": "stop", "name": "ELLSWORTH INDUSTRIAL BLVD @ ELAINE AVE NW", "mode": "bus"}}, {"type": "Feature", "geometry": {"type": "Point", "coordinates": [-84.426757, 33.793823]}, "properties": {"kind": "stop", "name": "ELLSWORTH INDUSTRIAL BLVD @ 1425", "mode": "bus"}}, {"type": "Feature", "geometry": {"type": "Point", "coordinates": [-84.419208, 33.789292]}, "properties": {"kind": "stop", "name": "HUFF RD NW@BOYD AVE NW", "mode": "bus"}}, {"type": "Feature", "geometry": {"type": "Point", "coordinates": [-84.420391, 33.789557]}, "properties": {"kind": "stop", "name": "HUFF RD NW@ENGLISH ST NW", "mode": "bus"}}, {"type": "Feature", "geometry": {"type": "Point", "coordinates": [-84.425991, 33.788863]}, "properties": {"kind": "stop", "name": "HUFF RD NW @ ELLSWORTH INDUSTRIAL BLVD NW", "mode": "bus"}}, {"type": "Feature", "geometry": {"type": "Point", "coordinates": [-84.422297, 33.789456]}, "properties": {"kind": "stop", "name": "HUFF RD NW@FAIRMONT AVE NW", "mode": "bus"}}, {"type": "Feature", "geometry": {"type": "Point", "coordinates": [-84.426963, 33.792049]}, "properties": {"kind": "stop", "name": "ELLSWORTH INDUSTRIAL BLVD @ ELAINE AVE NW", "mode": "bus"}}, {"type": "Feature", "geometry": {"type": "Point", "coordinates": [-84.423791, 33.785523]}, "properties": {"kind": "stop", "name": "W MARIETTA ST NW @ LONGLEY AVE NW", "mode": "bus"}}, {"type": "Feature", "geometry": {"type": "Point", "coordinates": [-84.421812, 33.785249]}, "properties": {"kind": "stop", "name": "W MARIETTA ST NW @ HERNDON ST", "mode": "bus"}}, {"type": "Feature", "geometry": {"type": "Point", "coordinates": [-84.440459, 33.790342]}, "properties": {"kind": "stop", "name": "PERRY BLVD@1600", "mode": "bus"}}, {"type": "Feature", "geometry": {"type": "Point", "coordinates": [-84.440622, 33.790317]}, "properties": {"kind": "stop", "name": "PERRY BLVD@1600", "mode": "bus"}}, {"type": "Feature", "geometry": {"type": "Point", "coordinates": [-84.427901, 33.78558]}, "properties": {"kind": "stop", "name": "MARIETTA BLVD NW @ W MARIETTA ST NW", "mode": "bus"}}, {"type": "Feature", "geometry": {"type": "Point", "coordinates": [-84.416702, 33.788352]}, "properties": {"kind": "stop", "name": "HUFF RD@BOOTH ST", "mode": "bus"}}, {"type": "Feature", "geometry": {"type": "Point", "coordinates": [-84.416485, 33.7882]}, "properties": {"kind": "stop", "name": "HUFF RD @ N ASHBY ST", "mode": "bus"}}, {"type": "Feature", "geometry": {"type": "Point", "coordinates": [-84.413418, 33.78761]}, "properties": {"kind": "stop", "name": "HUFF RD@FOSTER ST", "mode": "bus"}}, {"type": "Feature", "geometry": {"type": "Point", "coordinates": [-84.423675, 33.789129]}, "properties": {"kind": "stop", "name": "HUFF RD@1088", "mode": "bus"}}, {"type": "Feature", "geometry": {"type": "Point", "coordinates": [-84.412134, 33.787729]}, "properties": {"kind": "stop", "name": "HUFF RD NW @ HOWELL MILL RD NW", "mode": "bus"}}, {"type": "Feature", "geometry": {"type": "Point", "coordinates": [-84.411858, 33.788155]}, "properties": {"kind": "stop", "name": "HOWELL MILL RD NW @ HUFF RD NW", "mode": "bus"}}, {"type": "Feature", "geometry": {"type": "Point", "coordinates": [-84.411605, 33.786304]}, "properties": {"kind": "stop", "name": "HOWELL MILL RD NW@14TH ST NW", "mode": "bus"}}, {"type": "Feature", "geometry": {"type": "Point", "coordinates": [-84.411742, 33.787646]}, "properties": {"kind": "stop", "name": "HOWELL MILL RD NW@HUFF RD NW", "mode": "bus"}}, {"type": "Feature", "geometry": {"type": "Point", "coordinates": [-84.411749, 33.785957]}, "properties": {"kind": "stop", "name": "HOWELL MILL RD NW @ 14TH ST NW", "mode": "bus"}}, {"type": "Feature", "geometry": {"type": "Point", "coordinates": [-84.41333, 33.787799]}, "properties": {"kind": "stop", "name": "HUFF RD NW@FOSTER ST NW", "mode": "bus"}}, {"type": "Feature", "geometry": {"type": "Point", "coordinates": [-84.41673, 33.75658]}, "properties": {"kind": "stop", "name": "LENA ST @ MAYSON TURNER RD", "mode": "bus"}}, {"type": "Feature", "geometry": {"type": "Point", "coordinates": [-84.414, 33.7564]}, "properties": {"kind": "stop", "name": "CARTER ST @ LEACH ST", "mode": "bus"}}, {"type": "Feature", "geometry": {"type": "Point", "coordinates": [-84.427103, 33.771792]}, "properties": {"kind": "stop", "name": "DONALD L HOLLOWELL PKWY @ STIFF ST", "mode": "bus"}}, {"type": "Feature", "geometry": {"type": "Point", "coordinates": [-84.426017, 33.775518]}, "properties": {"kind": "stop", "name": "MARIETTA BLVD NW @ JEFFERSON ST NW", "mode": "bus"}}, {"type": "Feature", "geometry": {"type": "Point", "coordinates": [-84.412784, 33.756257]}, "properties": {"kind": "stop", "name": "JAMES P BRAWLEY DR @ CARTER ST", "mode": "bus"}}, {"type": "Feature", "geometry": {"type": "Point", "coordinates": [-84.4265, 33.7778]}, "properties": {"kind": "stop", "name": "MARIETTA BLVD NW @ RICE ST NW", "mode": "bus"}}, {"type": "Feature", "geometry": {"type": "Point", "coordinates": [-84.428299, 33.779687]}, "properties": {"kind": "stop", "name": "MARIETTA BLVD NW @ 860", "mode": "bus"}}, {"type": "Feature", "geometry": {"type": "Point", "coordinates": [-84.419599, 33.773259]}, "properties": {"kind": "stop", "name": "DONALD L HOLLOWELL PKWY @ ADDIE ST", "mode": "bus"}}, {"type": "Feature", "geometry": {"type": "Point", "coordinates": [-84.426094, 33.775625]}, "properties": {"kind": "stop", "name": "MARIETTA BLVD NW @ JEFFERSON ST NW", "mode": "bus"}}, {"type": "Feature", "geometry": {"type": "Point", "coordinates": [-84.426491, 33.777424]}, "properties": {"kind": "stop", "name": "MARIETTA BLVD NW @ RICE ST", "mode": "bus"}}, {"type": "Feature", "geometry": {"type": "Point", "coordinates": [-84.428366, 33.779552]}, "properties": {"kind": "stop", "name": "MARIETTA BLVD NW @ 860", "mode": "bus"}}, {"type": "Feature", "geometry": {"type": "Point", "coordinates": [-84.429801, 33.782658]}, "properties": {"kind": "stop", "name": "MARIETTA BLVD NW @ 930", "mode": "bus"}}, {"type": "Feature", "geometry": {"type": "Point", "coordinates": [-84.417371, 33.756066]}, "properties": {"kind": "stop", "name": "ASHBY STATION - NORTHBOUND", "mode": "bus"}}, {"type": "Feature", "geometry": {"type": "Point", "coordinates": [-84.417408, 33.774334]}, "properties": {"kind": "stop", "name": "JOSEPH E LOWERY BLVD @ WHEELER ST", "mode": "bus"}}, {"type": "Feature", "geometry": {"type": "Point", "coordinates": [-84.417481, 33.766449]}, "properties": {"kind": "stop", "name": "JOSEPH E LOWERY BLVD NW @ NEAL ST NW", "mode": "bus"}}, {"type": "Feature", "geometry": {"type": "Point", "coordinates": [-84.417529, 33.760434]}, "properties": {"kind": "stop", "name": "JOSEPH E LOWERY BLVD NW @ THURMOND ST NW", "mode": "bus"}}, {"type": "Feature", "geometry": {"type": "Point", "coordinates": [-84.421501, 33.763572]}, "properties": {"kind": "stop", "name": "JOSEPH E BOONE BLVD @ FLOWERS PL", "mode": "bus"}}, {"type": "Feature", "geometry": {"type": "Point", "coordinates": [-84.42432, 33.76357]}, "properties": {"kind": "stop", "name": "JOSEPH E BOONE BLVD @ ARCHER WAY NW", "mode": "bus"}}, {"type": "Feature", "geometry": {"type": "Point", "coordinates": [-84.427091, 33.76366]}, "properties": {"kind": "stop", "name": "JOSEPH E BOONE BLVD @ TROY ST NW", "mode": "bus"}}, {"type": "Feature", "geometry": {"type": "Point", "coordinates": [-84.429775, 33.763601]}, "properties": {"kind": "stop", "name": "JOSEPH E BOONE BLVD @ MAYSON TURNER RD NW", "mode": "bus"}}, {"type": "Feature", "geometry": {"type": "Point", "coordinates": [-84.432652, 33.763718]}, "properties": {"kind": "stop", "name": "JOSEPH E BOONE BLVD @ CHAPPELL RD NW", "mode": "bus"}}, {"type": "Feature", "geometry": {"type": "Point", "coordinates": [-84.435135, 33.763605]}, "properties": {"kind": "stop", "name": "JOSEPH E BOONE BLVD NW @ WOODLAWN AVE NW", "mode": "bus"}}, {"type": "Feature", "geometry": {"type": "Point", "coordinates": [-84.437777, 33.763316]}, "properties": {"kind": "stop", "name": "HOLLY RD NW @ JOSEPH E BOONE BLVD", "mode": "bus"}}, {"type": "Feature", "geometry": {"type": "Point", "coordinates": [-84.438019, 33.761169]}, "properties": {"kind": "stop", "name": "HOLLY RD NW@236", "mode": "bus"}}, {"type": "Feature", "geometry": {"type": "Point", "coordinates": [-84.438011, 33.760178]}, "properties": {"kind": "stop", "name": "HOLLY RD NW@ANDREWS ST NW", "mode": "bus"}}, {"type": "Feature", "geometry": {"type": "Point", "coordinates": [-84.437996, 33.758984]}, "properties": {"kind": "stop", "name": "HOLLY RD NW@WILLIS ST NW", "mode": "bus"}}, {"type": "Feature", "geometry": {"type": "Point", "coordinates": [-84.437891, 33.756709]}, "properties": {"kind": "stop", "name": "HOLLY RD NW @ EZRA CHURCH DR NW", "mode": "bus"}}, {"type": "Feature", "geometry": {"type": "Point", "coordinates": [-84.444159, 33.755961]}, "properties": {"kind": "stop", "name": "W LAKE AVE NW @ PORTER DR NW", "mode": "bus"}}, {"type": "Feature", "geometry": {"type": "Point", "coordinates": [-84.444194, 33.758019]}, "properties": {"kind": "stop", "name": "W LAKE AVE NW @ CALLOWAY DR NW", "mode": "bus"}}, {"type": "Feature", "geometry": {"type": "Point", "coordinates": [-84.420229, 33.773151]}, "properties": {"kind": "stop", "name": "DONALD L HOLLOWELL PKWY @ SIMMONS ST", "mode": "bus"}}, {"type": "Feature", "geometry": {"type": "Point", "coordinates": [-84.414227, 33.772985]}, "properties": {"kind": "stop", "name": "DONALD L HOLLOWELL PKWY @ PAINES AVE", "mode": "bus"}}, {"type": "Feature", "geometry": {"type": "Point", "coordinates": [-84.425452, 33.77332]}, "properties": {"kind": "stop", "name": "MARIETTA BLVD @ DONALD L HOLLOWELL PKWY", "mode": "bus"}}, {"type": "Feature", "geometry": {"type": "Point", "coordinates": [-84.433787, 33.771349]}, "properties": {"kind": "stop", "name": "DONALD L HOLLOWELL PKY @ CHAPPELL RD NW", "mode": "bus"}}, {"type": "Feature", "geometry": {"type": "Point", "coordinates": [-84.431178, 33.771852]}, "properties": {"kind": "stop", "name": "DONALD L HOLLOWELL PKY @ PIERCE AVE NW", "mode": "bus"}}, {"type": "Feature", "geometry": {"type": "Point", "coordinates": [-84.416662, 33.763566]}, "properties": {"kind": "stop", "name": "JOSEPH E BOONE BLVD @ JOSEPH E LOWERY BLVD", "mode": "bus"}}, {"type": "Feature", "geometry": {"type": "Point", "coordinates": [-84.4179, 33.763527]}, "properties": {"kind": "stop", "name": "JOSEPH E BOONE BLVD @ JOSEPH E LOWERY BLVD", "mode": "bus"}}, {"type": "Feature", "geometry": {"type": "Point", "coordinates": [-84.419542, 33.763545]}, "properties": {"kind": "stop", "name": "JOSEPH E BOONE BLVD @ CAIRO ST NW", "mode": "bus"}}, {"type": "Feature", "geometry": {"type": "Point", "coordinates": [-84.449269, 33.75617]}, "properties": {"kind": "stop", "name": "ANDERSON AVE NW @ 83", "mode": "bus"}}, {"type": "Feature", "geometry": {"type": "Point", "coordinates": [-84.45012, 33.758201]}, "properties": {"kind": "stop", "name": "ANDERSON AVE NW @ CALLOWAY DR NW", "mode": "bus"}}, {"type": "Feature", "geometry": {"type": "Point", "coordinates": [-84.444249, 33.7581]}, "properties": {"kind": "stop", "name": "W LAKE AVE NW @ CALLOWAY DR NW", "mode": "bus"}}, {"type": "Feature", "geometry": {"type": "Point", "coordinates": [-84.444235, 33.755907]}, "properties": {"kind": "stop", "name": "W LAKE AVE NW @ PORTER DR NW", "mode": "bus"}}, {"type": "Feature", "geometry": {"type": "Point", "coordinates": [-84.437605, 33.757507]}, "properties": {"kind": "stop", "name": "EASON ST NW@HOLLY RD NW", "mode": "bus"}}, {"type": "Feature", "geometry": {"type": "Point", "coordinates": [-84.437737, 33.758375]}, "properties": {"kind": "stop", "name": "HOLLY RD NW@AKRIDGE ST NW", "mode": "bus"}}, {"type": "Feature", "geometry": {"type": "Point", "coordinates": [-84.43774, 33.760246]}, "properties": {"kind": "stop", "name": "HOLLY RD NW@ANDREWS ST NW", "mode": "bus"}}, {"type": "Feature", "geometry": {"type": "Point", "coordinates": [-84.435287, 33.763488]}, "properties": {"kind": "stop", "name": "JOSEPH E BOONE BLVD @ WOODLAWN AVE", "mode": "bus"}}, {"type": "Feature", "geometry": {"type": "Point", "coordinates": [-84.433143, 33.763479]}, "properties": {"kind": "stop", "name": "JOSEPH E BOONE BLVD @ CHAPPELL RD", "mode": "bus"}}, {"type": "Feature", "geometry": {"type": "Point", "coordinates": [-84.429862, 33.763484]}, "properties": {"kind": "stop", "name": "JOSEPH E BOONE BLVD @ BURBANK DR NW", "mode": "bus"}}, {"type": "Feature", "geometry": {"type": "Point", "coordinates": [-84.42689, 33.76348]}, "properties": {"kind": "stop", "name": "JOSEPH E BOONE BLVD NW @ TROY ST NW", "mode": "bus"}}, {"type": "Feature", "geometry": {"type": "Point", "coordinates": [-84.425488, 33.763402]}, "properties": {"kind": "stop", "name": "JOSEPH E BOONE BLVD @ MAYSON TURNER", "mode": "bus"}}, {"type": "Feature", "geometry": {"type": "Point", "coordinates": [-84.423479, 33.763481]}, "properties": {"kind": "stop", "name": "JOSEPH E BOONE BLVD @ ARCHER WAY NW", "mode": "bus"}}, {"type": "Feature", "geometry": {"type": "Point", "coordinates": [-84.422177, 33.763437]}, "properties": {"kind": "stop", "name": "JOSEPH E BOONE BLVD NW @ TEMPLE ST NW", "mode": "bus"}}, {"type": "Feature", "geometry": {"type": "Point", "coordinates": [-84.419947, 33.763441]}, "properties": {"kind": "stop", "name": "JOSEPH E BOONE BLVD @ CAIRO ST NW", "mode": "bus"}}, {"type": "Feature", "geometry": {"type": "Point", "coordinates": [-84.417669, 33.763426]}, "properties": {"kind": "stop", "name": "JOSEPH E BOONE BLVD @ JOSEPH E LOWERY BLVD", "mode": "bus"}}, {"type": "Feature", "geometry": {"type": "Point", "coordinates": [-84.442282, 33.772942]}, "properties": {"kind": "stop", "name": "DONALD L HOLLOWELL PKY @ W LAKE AVE NW", "mode": "bus"}}, {"type": "Feature", "geometry": {"type": "Point", "coordinates": [-84.440559, 33.77198]}, "properties": {"kind": "stop", "name": "DONALD L HOLLOWELL PKY @ HORTENSE PL", "mode": "bus"}}, {"type": "Feature", "geometry": {"type": "Point", "coordinates": [-84.438904, 33.77142]}, "properties": {"kind": "stop", "name": "DONALD L HOLLOWELL PKY @ ELMWOOD RD NW", "mode": "bus"}}, {"type": "Feature", "geometry": {"type": "Point", "coordinates": [-84.437791, 33.77142]}, "properties": {"kind": "stop", "name": "DONALD L HOLLOWELL PKY @ HOLLY ST NW", "mode": "bus"}}, {"type": "Feature", "geometry": {"type": "Point", "coordinates": [-84.434227, 33.771137]}, "properties": {"kind": "stop", "name": "DONALD L HOLLOWELL PKY @ CHAPPELL RD NW", "mode": "bus"}}, {"type": "Feature", "geometry": {"type": "Point", "coordinates": [-84.441887, 33.770616]}, "properties": {"kind": "stop", "name": "LAKE AVE NW@MADRONA ST NW", "mode": "bus"}}, {"type": "Feature", "geometry": {"type": "Point", "coordinates": [-84.441035, 33.768074]}, "properties": {"kind": "stop", "name": "LAKE AVE NW@NORTH AVE NW", "mode": "bus"}}, {"type": "Feature", "geometry": {"type": "Point", "coordinates": [-84.441011, 33.76683]}, "properties": {"kind": "stop", "name": "W LAKE AVE NW @ NEKOMA ST NW", "mode": "bus"}}, {"type": "Feature", "geometry": {"type": "Point", "coordinates": [-84.441031, 33.76581]}, "properties": {"kind": "stop", "name": "W LAKE AVE NW @ CARLISLE ST", "mode": "bus"}}, {"type": "Feature", "geometry": {"type": "Point", "coordinates": [-84.441073, 33.764494]}, "properties": {"kind": "stop", "name": "W LAKE AVE NW @ JOSEPH E BOONE BLVD", "mode": "bus"}}, {"type": "Feature", "geometry": {"type": "Point", "coordinates": [-84.443696, 33.7593]}, "properties": {"kind": "stop", "name": "W LAKE AVE NW @ LAKE CT NW", "mode": "bus"}}, {"type": "Feature", "geometry": {"type": "Point", "coordinates": [-84.443686, 33.759586]}, "properties": {"kind": "stop", "name": "W LAKE AVE NW @ TIGER FLOWERS DR NW", "mode": "bus"}}, {"type": "Feature", "geometry": {"type": "Point", "coordinates": [-84.443078, 33.760571]}, "properties": {"kind": "stop", "name": "W LAKE AVE NW @ SPRINGVIEW RD NW", "mode": "bus"}}, {"type": "Feature", "geometry": {"type": "Point", "coordinates": [-84.441732, 33.761522]}, "properties": {"kind": "stop", "name": "W LAKE AVE NW @ EZRA CHURCH DR NW", "mode": "bus"}}, {"type": "Feature", "geometry": {"type": "Point", "coordinates": [-84.441688, 33.761665]}, "properties": {"kind": "stop", "name": "W LAKE AVE NW @ EZRA CHURCH DR NW", "mode": "bus"}}, {"type": "Feature", "geometry": {"type": "Point", "coordinates": [-84.440973, 33.763366]}, "properties": {"kind": "stop", "name": "W LAKE AVE NW @ JOSEPH E BOONE BLVD NW", "mode": "bus"}}, {"type": "Feature", "geometry": {"type": "Point", "coordinates": [-84.440474, 33.763608]}, "properties": {"kind": "stop", "name": "JOSEPH E BOONE BLVD @ W LAKE AVE NW", "mode": "bus"}}, {"type": "Feature", "geometry": {"type": "Point", "coordinates": [-84.440926, 33.76461]}, "properties": {"kind": "stop", "name": "W LAKE AVE NW @ 359", "mode": "bus"}}, {"type": "Feature", "geometry": {"type": "Point", "coordinates": [-84.440944, 33.76581]}, "properties": {"kind": "stop", "name": "W LAKE AVE NW @ CARLISLE ST NW", "mode": "bus"}}, {"type": "Feature", "geometry": {"type": "Point", "coordinates": [-84.440903, 33.766594]}, "properties": {"kind": "stop", "name": "W LAKE AVE NW @ NEKOMA ST NW", "mode": "bus"}}, {"type": "Feature", "geometry": {"type": "Point", "coordinates": [-84.440918, 33.767765]}, "properties": {"kind": "stop", "name": "W LAKE AVE NW @ NORTH AVE NW", "mode": "bus"}}, {"type": "Feature", "geometry": {"type": "Point", "coordinates": [-84.441789, 33.770607]}, "properties": {"kind": "stop", "name": "LAKE AVE NW@MADRONA ST NW", "mode": "bus"}}, {"type": "Feature", "geometry": {"type": "Point", "coordinates": [-84.442568, 33.768028]}, "properties": {"kind": "stop", "name": "NORTH AVE NW@1676", "mode": "bus"}}, {"type": "Feature", "geometry": {"type": "Point", "coordinates": [-84.441013, 33.768012]}, "properties": {"kind": "stop", "name": "NORTH AVE NW @ W LAKE AVE NW", "mode": "bus"}}, {"type": "Feature", "geometry": {"type": "Point", "coordinates": [-84.438936, 33.768005]}, "properties": {"kind": "stop", "name": "NORTH AVE NW @ ELMWOOD RD", "mode": "bus"}}, {"type": "Feature", "geometry": {"type": "Point", "coordinates": [-84.442307, 33.7681]}, "properties": {"kind": "stop", "name": "NORTH AVE NW @ 1667", "mode": "bus"}}, {"type": "Feature", "geometry": {"type": "Point", "coordinates": [-84.440904, 33.768083]}, "properties": {"kind": "stop", "name": "NORTH AVE NW @ WLAKE AVE NW", "mode": "bus"}}, {"type": "Feature", "geometry": {"type": "Point", "coordinates": [-84.436109, 33.768017]}, "properties": {"kind": "stop", "name": "NORTH AVE NW@WOODLAWN AVE NW", "mode": "bus"}}, {"type": "Feature", "geometry": {"type": "Point", "coordinates": [-84.43313, 33.767939]}, "properties": {"kind": "stop", "name": "NORTH AVE NW@CHAPPELL RD NW", "mode": "bus"}}, {"type": "Feature", "geometry": {"type": "Point", "coordinates": [-84.43314, 33.767867]}, "properties": {"kind": "stop", "name": "NORTH AVE NW@ CHAPPELL RD", "mode": "bus"}}, {"type": "Feature", "geometry": {"type": "Point", "coordinates": [-84.437528, 33.771542]}, "properties": {"kind": "stop", "name": "DONALD L HOLLOWELL PKY @ HOLLY ST NW", "mode": "bus"}}, {"type": "Feature", "geometry": {"type": "Point", "coordinates": [-84.439061, 33.77171]}, "properties": {"kind": "stop", "name": "DONALD L HOLLOWELL PKY @ ELMWOOD RD NW", "mode": "bus"}}, {"type": "Feature", "geometry": {"type": "Point", "coordinates": [-84.441757, 33.772781]}, "properties": {"kind": "stop", "name": "DONALD L HOLLOWELL PKY @ FLORENCE PL NW", "mode": "bus"}}, {"type": "Feature", "geometry": {"type": "Point", "coordinates": [-84.431232, 33.771772]}, "properties": {"kind": "stop", "name": "DONALD L HOLLOWELL PKY @ PIERCE AVE NW", "mode": "bus"}}, {"type": "Feature", "geometry": {"type": "Point", "coordinates": [-84.417423, 33.771989]}, "properties": {"kind": "stop", "name": "JOSEPH E LOWERY BLVD NW @ FOX ST NW", "mode": "bus"}}, {"type": "Feature", "geometry": {"type": "Point", "coordinates": [-84.417431, 33.770083]}, "properties": {"kind": "stop", "name": "JOSEPH E LOWERY BLVD NW @ NORTH AVE NW", "mode": "bus"}}, {"type": "Feature", "geometry": {"type": "Point", "coordinates": [-84.41751, 33.763164]}, "properties": {"kind": "stop", "name": "JOSEPH E LOWERY BLVD NW @ JOSEPH E BOONE BLVD", "mode": "bus"}}, {"type": "Feature", "geometry": {"type": "Point", "coordinates": [-84.417441, 33.760255]}, "properties": {"kind": "stop", "name": "JOSEPH E LOWERY BLVD NW @ THURMOND ST NW", "mode": "bus"}}, {"type": "Feature", "geometry": {"type": "Point", "coordinates": [-84.417569, 33.75808]}, "properties": {"kind": "stop", "name": "JOSEPH E LOWERY BLVD NW @ MAYSON TURNER RD NW", "mode": "bus"}}, {"type": "Feature", "geometry": {"type": "Point", "coordinates": [-84.417483, 33.75842]}, "properties": {"kind": "stop", "name": "JOSEPH E LOWERY BLVD NW @ MAGNOLIA ST NW", "mode": "bus"}}, {"type": "Feature", "geometry": {"type": "Point", "coordinates": [-84.417391, 33.763459]}, "properties": {"kind": "stop", "name": "JOSEPH E LOWERY BLVD NW @ JOSEPH E BOONE BLVD", "mode": "bus"}}, {"type": "Feature", "geometry": {"type": "Point", "coordinates": [-84.417405, 33.766332]}, "properties": {"kind": "stop", "name": "JOSEPH E LOWERY BLVD NW @ NEAL ST NW", "mode": "bus"}}, {"type": "Feature", "geometry": {"type": "Point", "coordinates": [-84.417355, 33.76994]}, "properties": {"kind": "stop", "name": "JOSEPH E LOWERY BLVD NW @ NORTH AVE NW", "mode": "bus"}}, {"type": "Feature", "geometry": {"type": "Point", "coordinates": [-84.417336, 33.772124]}, "properties": {"kind": "stop", "name": "JOSEPH E LOWERY BLVD NW @ FOX ST NW", "mode": "bus"}}, {"type": "Feature", "geometry": {"type": "Point", "coordinates": [-84.417724, 33.756281]}, "properties": {"kind": "stop", "name": "ASHBY STATION - SOUTHBOUND", "mode": "bus"}}, {"type": "Feature", "geometry": {"type": "Point", "coordinates": [-84.441944, 33.772352]}, "properties": {"kind": "stop", "name": "W LAKE AVE@DONALD L HOLLOWELL PKWY", "mode": "bus"}}, {"type": "Feature", "geometry": {"type": "Point", "coordinates": [-84.425327, 33.77299]}, "properties": {"kind": "stop", "name": "MARIETTA BLVD @ DONALD L HOLLOWELL PKY", "mode": "bus"}}, {"type": "Feature", "geometry": {"type": "Point", "coordinates": [-84.417305, 33.774039]}, "properties": {"kind": "stop", "name": "JOSEPH E LOWERY BLVD NW @ WHEELER ST NW", "mode": "bus"}}, {"type": "Feature", "geometry": {"type": "Point", "coordinates": [-84.429201, 33.783307]}, "properties": {"kind": "stop", "name": "MARIETTA BLVD NW @ 1079", "mode": "bus"}}, {"type": "Feature", "geometry": {"type": "Point", "coordinates": [-84.428966, 33.772621]}, "properties": {"kind": "stop", "name": "BANKHEAD STATION", "mode": "bus"}}, {"type": "Feature", "geometry": {"type": "Point", "coordinates": [-84.409557, 33.778529]}, "properties": {"kind": "stop", "name": "MARIETTA ST@HOWELL MILL RD", "mode": "bus"}}, {"type": "Feature", "geometry": {"type": "Point", "coordinates": [-84.410063, 33.773196]}, "properties": {"kind": "stop", "name": "DONALD L HOLLOWELL PKWY @ ECHO ST NW", "mode": "bus"}}, {"type": "Feature", "geometry": {"type": "Point", "coordinates": [-84.412786, 33.773131]}, "properties": {"kind": "stop", "name": "DONALD L HOLLOWELL PKWY @ JAMES P BRAWLEY DR", "mode": "bus"}}, {"type": "Feature", "geometry": {"type": "Point", "coordinates": [-84.414368, 33.773057]}, "properties": {"kind": "stop", "name": "DONALD L HOLLOWELL PKWY @ PAINES AVE", "mode": "bus"}}, {"type": "Feature", "geometry": {"type": "Point", "coordinates": [-84.415401, 33.773065]}, "properties": {"kind": "stop", "name": "DONALD L HOLLOWELL PKWY @ OLIVER ST", "mode": "bus"}}, {"type": "Feature", "geometry": {"type": "Point", "coordinates": [-84.417304, 33.773081]}, "properties": {"kind": "stop", "name": "DONALD L HOLLOWELL PKWY @ JOSEPH E LOWERY BLVD", "mode": "bus"}}, {"type": "Feature", "geometry": {"type": "Point", "coordinates": [-84.416565, 33.77301]}, "properties": {"kind": "stop", "name": "DONALD L HOLLOWELL PKWY @ LINDSAY ST", "mode": "bus"}}, {"type": "Feature", "geometry": {"type": "Point", "coordinates": [-84.415488, 33.772993]}, "properties": {"kind": "stop", "name": "DONALD L HOLLOWELL PKWY @ OLIVER ST", "mode": "bus"}}, {"type": "Feature", "geometry": {"type": "Point", "coordinates": [-84.411816, 33.773017]}, "properties": {"kind": "stop", "name": "DONALD L HOLLOWELL PKWY @ JAMES P BRAWLEY DR", "mode": "bus"}}, {"type": "Feature", "geometry": {"type": "Point", "coordinates": [-84.413398, 33.771223]}, "properties": {"kind": "stop", "name": "ENGLISH AVE NW @ PELHAM ST NW", "mode": "bus"}}, {"type": "Feature", "geometry": {"type": "Point", "coordinates": [-84.412597, 33.783683]}, "properties": {"kind": "stop", "name": "BRADY AVE@HOWELL MILL RD", "mode": "bus"}}, {"type": "Feature", "geometry": {"type": "Point", "coordinates": [-84.40937, 33.778554]}, "properties": {"kind": "stop", "name": "MARIETTA ST @ HOWELL MILL RD", "mode": "bus"}}, {"type": "Feature", "geometry": {"type": "Point", "coordinates": [-84.41254, 33.78367]}, "properties": {"kind": "stop", "name": "BRADY AVE @ HOWELL MILL RD", "mode": "bus"}}, {"type": "Feature", "geometry": {"type": "Point", "coordinates": [-84.410169, 33.781581]}, "properties": {"kind": "stop", "name": "10TH ST @ IMAGE AVE", "mode": "bus"}}, {"type": "Feature", "geometry": {"type": "Point", "coordinates": [-84.410336, 33.781514]}, "properties": {"kind": "stop", "name": "10TH ST NW @ IMAGE AVE", "mode": "bus"}}, {"type": "Feature", "geometry": {"type": "Point", "coordinates": [-84.413197, 33.781625]}, "properties": {"kind": "stop", "name": "10TH ST@BRADY AVE", "mode": "bus"}}, {"type": "Feature", "geometry": {"type": "Point", "coordinates": [-84.412936, 33.781531]}, "properties": {"kind": "stop", "name": "10TH ST@BRADY AVE", "mode": "bus"}}, {"type": "Feature", "geometry": {"type": "Point", "coordinates": [-84.415014, 33.763531]}, "properties": {"kind": "stop", "name": "JOSEPH E BOONE BLVD @ SCIPLE TER NW", "mode": "bus"}}, {"type": "Feature", "geometry": {"type": "Point", "coordinates": [-84.413829, 33.763525]}, "properties": {"kind": "stop", "name": "JOSEPH E BOONE BLVD @ ANDREW J HAIRSTON BLVD", "mode": "bus"}}, {"type": "Feature", "geometry": {"type": "Point", "coordinates": [-84.412512, 33.763515]}, "properties": {"kind": "stop", "name": "JOSEPH E BOONE BLVD @ JAMES P BRAWLEY DR NW", "mode": "bus"}}, {"type": "Feature", "geometry": {"type": "Point", "coordinates": [-84.411114, 33.763515]}, "properties": {"kind": "stop", "name": "JOSEPH E BOONE BLVD @ GRIFFIN ST NW", "mode": "bus"}}, {"type": "Feature", "geometry": {"type": "Point", "coordinates": [-84.409024, 33.763503]}, "properties": {"kind": "stop", "name": "JOSEPH E BOONE BLVD @ ELM ST NW", "mode": "bus"}}, {"type": "Feature", "geometry": {"type": "Point", "coordinates": [-84.414907, 33.763417]}, "properties": {"kind": "stop", "name": "JOSEPH E BOONE BLVD @ SCIPLE TER NW", "mode": "bus"}}, {"type": "Feature", "geometry": {"type": "Point", "coordinates": [-84.412774, 33.763285]}, "properties": {"kind": "stop", "name": "JOSEPH E BOONE BLVD @ JAMES P BRAWLEY", "mode": "bus"}}, {"type": "Feature", "geometry": {"type": "Point", "coordinates": [-84.411346, 33.763241]}, "properties": {"kind": "stop", "name": "JOSEPH E BOONE BLVD @ GRIFFIN ST NW", "mode": "bus"}}, {"type": "Feature", "geometry": {"type": "Point", "coordinates": [-84.40976, 33.76338]}, "properties": {"kind": "stop", "name": "JOSEPH E BOONE BLVD @ SUNSET AVE NW", "mode": "bus"}}, {"type": "Feature", "geometry": {"type": "Point", "coordinates": [-84.410002, 33.768164]}, "properties": {"kind": "stop", "name": "CAMERON M ALEXANDER BLVD @ SUNSET AVE NW", "mode": "bus"}}, {"type": "Feature", "geometry": {"type": "Point", "coordinates": [-84.41009, 33.768236]}, "properties": {"kind": "stop", "name": "CAMERON M ALEXANDER BLVD @ SUNSET AVE NW", "mode": "bus"}}, {"type": "Feature", "geometry": {"type": "Point", "coordinates": [-84.411155, 33.768235]}, "properties": {"kind": "stop", "name": "CAMERON M ALEXANDER BLVD @ GRIFFIN ST NW", "mode": "bus"}}, {"type": "Feature", "geometry": {"type": "Point", "coordinates": [-84.411242, 33.768163]}, "properties": {"kind": "stop", "name": "CAMERON M ALEXANDER BLVD @ GRIFFIN ST NW", "mode": "bus"}}, {"type": "Feature", "geometry": {"type": "Point", "coordinates": [-84.412688, 33.76818]}, "properties": {"kind": "stop", "name": "CAMERON M ALEXANDER BLVD @ JAMES P BRAWLEY DR", "mode": "bus"}}, {"type": "Feature", "geometry": {"type": "Point", "coordinates": [-84.412482, 33.768261]}, "properties": {"kind": "stop", "name": "CAMERON M ALEXANDER BLVD @ J P BRAWLEY DR", "mode": "bus"}}, {"type": "Feature", "geometry": {"type": "Point", "coordinates": [-84.413372, 33.768569]}, "properties": {"kind": "stop", "name": "ENGLISH AVE @ CAMERON M ALEXANDER BLVD NW", "mode": "bus"}}, {"type": "Feature", "geometry": {"type": "Point", "coordinates": [-84.413408, 33.769979]}, "properties": {"kind": "stop", "name": "ENGLISH AVE NW @ NORTH AVE NW", "mode": "bus"}}, {"type": "Feature", "geometry": {"type": "Point", "coordinates": [-84.434686, 33.753768]}, "properties": {"kind": "stop", "name": "MARTIN L KING JR DR NW @ 1457", "mode": "bus"}}, {"type": "Feature", "geometry": {"type": "Point", "coordinates": [-84.436012, 33.753471]}, "properties": {"kind": "stop", "name": "MARTIN L KING JR DR NW @ MATHEWSON PL SW", "mode": "bus"}}, {"type": "Feature", "geometry": {"type": "Point", "coordinates": [-84.437096, 33.753025]}, "properties": {"kind": "stop", "name": "MARTIN L KING JR DR NW @ WELLINGTON ST SW", "mode": "bus"}}, {"type": "Feature", "geometry": {"type": "Point", "coordinates": [-84.438178, 33.752901]}, "properties": {"kind": "stop", "name": "MARTIN L KING JR DR NW @ WELLINGTON ST SW", "mode": "bus"}}, {"type": "Feature", "geometry": {"type": "Point", "coordinates": [-84.440413, 33.751999]}, "properties": {"kind": "stop", "name": "MARTIN L KING JR DR NW @ BROWNING ST SW", "mode": "bus"}}, {"type": "Feature", "geometry": {"type": "Point", "coordinates": [-84.444008, 33.749695]}, "properties": {"kind": "stop", "name": "RALPH D ABERNATHY BLVD @ W LAKE AVE SW", "mode": "bus"}}, {"type": "Feature", "geometry": {"type": "Point", "coordinates": [-84.445982, 33.75373]}, "properties": {"kind": "stop", "name": "ANDERSON AVE SW @ PENELOPE RD NW", "mode": "bus"}}, {"type": "Feature", "geometry": {"type": "Point", "coordinates": [-84.445918, 33.754777]}, "properties": {"kind": "stop", "name": "ANDERSON AVE SW @ 25", "mode": "bus"}}, {"type": "Feature", "geometry": {"type": "Point", "coordinates": [-84.447451, 33.755152]}, "properties": {"kind": "stop", "name": "WATERBURY DR NW @ 56", "mode": "bus"}}, {"type": "Feature", "geometry": {"type": "Point", "coordinates": [-84.448734, 33.75515]}, "properties": {"kind": "stop", "name": "WATERBURY DR @ ANDERSON AVE SW", "mode": "bus"}}, {"type": "Feature", "geometry": {"type": "Point", "coordinates": [-84.446177, 33.753783]}, "properties": {"kind": "stop", "name": "PENELOPE RD NW@ANDERSON AVE SW", "mode": "bus"}}, {"type": "Feature", "geometry": {"type": "Point", "coordinates": [-84.447536, 33.753818]}, "properties": {"kind": "stop", "name": "PENELOPE RD NW@HELENA AVE NW", "mode": "bus"}}, {"type": "Feature", "geometry": {"type": "Point", "coordinates": [-84.449515, 33.753789]}, "properties": {"kind": "stop", "name": "PENELOPE RD NW@PENELOPE DR NW", "mode": "bus"}}, {"type": "Feature", "geometry": {"type": "Point", "coordinates": [-84.451514, 33.752838]}, "properties": {"kind": "stop", "name": "PENELOPE ST NW@AARON ST NW", "mode": "bus"}}, {"type": "Feature", "geometry": {"type": "Point", "coordinates": [-84.433436, 33.753751]}, "properties": {"kind": "stop", "name": "MARTIN LUTHER KING J DR@CHAPPELL RD", "mode": "bus"}}, {"type": "Feature", "geometry": {"type": "Point", "coordinates": [-84.436186, 33.753328]}, "properties": {"kind": "stop", "name": "MARTIN L KING JR DR NW @ MATHEWSON PL SW", "mode": "bus"}}, {"type": "Feature", "geometry": {"type": "Point", "coordinates": [-84.43799, 33.752834]}, "properties": {"kind": "stop", "name": "MARTIN L KING JR DR NW @ WELLINGTON ST SW", "mode": "bus"}}, {"type": "Feature", "geometry": {"type": "Point", "coordinates": [-84.440217, 33.752026]}, "properties": {"kind": "stop", "name": "MARTIN L KING JR DR @ LAUREL AVE SW", "mode": "bus"}}, {"type": "Feature", "geometry": {"type": "Point", "coordinates": [-84.441282, 33.75164]}, "properties": {"kind": "stop", "name": "MARTIN L KING JR DR NW @ RACINE ST SW", "mode": "bus"}}, {"type": "Feature", "geometry": {"type": "Point", "coordinates": [-84.443075, 33.751289]}, "properties": {"kind": "stop", "name": "MARTIN L KING JR DR NW @ GORDON TER", "mode": "bus"}}, {"type": "Feature", "geometry": {"type": "Point", "coordinates": [-84.434947, 33.753651]}, "properties": {"kind": "stop", "name": "MARTIN L KING JR DR NW @ 1444", "mode": "bus"}}, {"type": "Feature", "geometry": {"type": "Point", "coordinates": [-84.450509, 33.750163]}, "properties": {"kind": "stop", "name": "MARTIN L KING JR DR SW @ 2001", "mode": "bus"}}, {"type": "Feature", "geometry": {"type": "Point", "coordinates": [-84.447651, 33.750515]}, "properties": {"kind": "stop", "name": "MARTIN L KING JR DR SW @ ANDERSON AVE NW", "mode": "bus"}}, {"type": "Feature", "geometry": {"type": "Point", "coordinates": [-84.451042, 33.750207]}, "properties": {"kind": "stop", "name": "MARTIN L KING JR DR SW @ 2001", "mode": "bus"}}, {"type": "Feature", "geometry": {"type": "Point", "coordinates": [-84.434525, 33.74735]}, "properties": {"kind": "stop", "name": "WESTVIEW DR SW @ WESTVIEW PL SW", "mode": "bus"}}, {"type": "Feature", "geometry": {"type": "Point", "coordinates": [-84.436544, 33.749551]}, "properties": {"kind": "stop", "name": "MIMS ST SW @ MATHEWSON PL SW", "mode": "bus"}}, {"type": "Feature", "geometry": {"type": "Point", "coordinates": [-84.43804, 33.749576]}, "properties": {"kind": "stop", "name": "MIMS ST SW @ WELLINGTON ST SW", "mode": "bus"}}, {"type": "Feature", "geometry": {"type": "Point", "coordinates": [-84.437966, 33.749833]}, "properties": {"kind": "stop", "name": "MIMS ST SW @ WELLINGTON ST SW", "mode": "bus"}}, {"type": "Feature", "geometry": {"type": "Point", "coordinates": [-84.438281, 33.750927]}, "properties": {"kind": "stop", "name": "WELLINGTON ST SW @ ARCHER ST SW", "mode": "bus"}}, {"type": "Feature", "geometry": {"type": "Point", "coordinates": [-84.438326, 33.751941]}, "properties": {"kind": "stop", "name": "WELLINGTON ST SW @ MOZLEY PL SW", "mode": "bus"}}, {"type": "Feature", "geometry": {"type": "Point", "coordinates": [-84.43835, 33.752451]}, "properties": {"kind": "stop", "name": "WELLINGTON ST @ MARTIN L KING JR DR", "mode": "bus"}}, {"type": "Feature", "geometry": {"type": "Point", "coordinates": [-84.440032, 33.750663]}, "properties": {"kind": "stop", "name": "LAUREL AVE SW@ARCHER ST SW", "mode": "bus"}}, {"type": "Feature", "geometry": {"type": "Point", "coordinates": [-84.439784, 33.749829]}, "properties": {"kind": "stop", "name": "MIMS ST SW@LAUREL AVE SW", "mode": "bus"}}, {"type": "Feature", "geometry": {"type": "Point", "coordinates": [-84.44244, 33.751611]}, "properties": {"kind": "stop", "name": "MARTIN L KING JR DR NW @ FEDERAL DR SW", "mode": "bus"}}, {"type": "Feature", "geometry": {"type": "Point", "coordinates": [-84.44352, 33.751304]}, "properties": {"kind": "stop", "name": "MARTIN L KING JR DR NW @ W LAKE AVE SW", "mode": "bus"}}, {"type": "Feature", "geometry": {"type": "Point", "coordinates": [-84.432442, 33.74225]}, "properties": {"kind": "stop", "name": "LUCILE AVE SW @ LANGHORN ST SW", "mode": "bus"}}, {"type": "Feature", "geometry": {"type": "Point", "coordinates": [-84.433716, 33.742374]}, "properties": {"kind": "stop", "name": "LUCILE AVE SW @ MUSE ST SW", "mode": "bus"}}, {"type": "Feature", "geometry": {"type": "Point", "coordinates": [-84.433583, 33.742258]}, "properties": {"kind": "stop", "name": "LUCILE AVE SW @ MUSE ST SW", "mode": "bus"}}, {"type": "Feature", "geometry": {"type": "Point", "coordinates": [-84.43499, 33.742546]}, "properties": {"kind": "stop", "name": "LUCILE AVE SW @ ALTOONA PL SW", "mode": "bus"}}, {"type": "Feature", "geometry": {"type": "Point", "coordinates": [-84.435062, 33.742498]}, "properties": {"kind": "stop", "name": "LUCILE AVE SW @ ALTOONA PL SW", "mode": "bus"}}, {"type": "Feature", "geometry": {"type": "Point", "coordinates": [-84.43615, 33.742775]}, "properties": {"kind": "stop", "name": "LUCILE AVE SW @ MATHEWSON PL SW", "mode": "bus"}}, {"type": "Feature", "geometry": {"type": "Point", "coordinates": [-84.43866, 33.744278]}, "properties": {"kind": "stop", "name": "RALPH D ABERNATHY BLVD @ WELLINGTON ST SW", "mode": "bus"}}, {"type": "Feature", "geometry": {"type": "Point", "coordinates": [-84.438804, 33.744294]}, "properties": {"kind": "stop", "name": "RALPH D ABERNATHY BLVD @ WELLINGTON ST", "mode": "bus"}}, {"type": "Feature", "geometry": {"type": "Point", "coordinates": [-84.445906, 33.75232]}, "properties": {"kind": "stop", "name": "ANDERSON AVE @ 93", "mode": "bus"}}, {"type": "Feature", "geometry": {"type": "Point", "coordinates": [-84.44256, 33.748112]}, "properties": {"kind": "stop", "name": "RALPH D ABERNATHY BLVD @ 1701", "mode": "bus"}}, {"type": "Feature", "geometry": {"type": "Point", "coordinates": [-84.441721, 33.747236]}, "properties": {"kind": "stop", "name": "RALPH D ABERNATHY BLVD SW @ WESTVIEW DR SW", "mode": "bus"}}, {"type": "Feature", "geometry": {"type": "Point", "coordinates": [-84.440437, 33.745948]}, "properties": {"kind": "stop", "name": "RALPH D ABERNATHY BLVD @ LAUREL AVE", "mode": "bus"}}, {"type": "Feature", "geometry": {"type": "Point", "coordinates": [-84.442527, 33.748166]}, "properties": {"kind": "stop", "name": "RALPH D ABERNATHY BLVD @ 1701", "mode": "bus"}}, {"type": "Feature", "geometry": {"type": "Point", "coordinates": [-84.441345, 33.747078]}, "properties": {"kind": "stop", "name": "RALPH D ABERNATH BLVD @ WESTVIEW DR SW", "mode": "bus"}}, {"type": "Feature", "geometry": {"type": "Point", "coordinates": [-84.440475, 33.746109]}, "properties": {"kind": "stop", "name": "RALPH D ABERNATHY BLVD @ LAUREL AVE SW", "mode": "bus"}}, {"type": "Feature", "geometry": {"type": "Point", "coordinates": [-84.439392, 33.745063]}, "properties": {"kind": "stop", "name": "RALPH D ABERNATHY BLVD @ W ONTARIO AVE SW", "mode": "bus"}}, {"type": "Feature", "geometry": {"type": "Point", "coordinates": [-84.451602, 33.753724]}, "properties": {"kind": "stop", "name": "AARON ST@PENELOPE RD", "mode": "bus"}}, {"type": "Feature", "geometry": {"type": "Point", "coordinates": [-84.446151, 33.750812]}, "properties": {"kind": "stop", "name": "ANDERSON AVE @ MARTIN LUTHER KING J D", "mode": "bus"}}, {"type": "Feature", "geometry": {"type": "Point", "coordinates": [-84.439664, 33.74517]}, "properties": {"kind": "stop", "name": "RALPH D ABERNATHY BLVD @ W ONTARIO AVE", "mode": "bus"}}, {"type": "Feature", "geometry": {"type": "Point", "coordinates": [-84.437095, 33.742944]}, "properties": {"kind": "stop", "name": "LUCILE AVE @ RALPH D ABERNATHY BLVD", "mode": "bus"}}, {"type": "Feature", "geometry": {"type": "Point", "coordinates": [-84.444998, 33.750419]}, "properties": {"kind": "stop", "name": "RALPH D ABERNATHY BLVD @ MARTIN L KING JR DR", "mode": "bus"}}, {"type": "Feature", "geometry": {"type": "Point", "coordinates": [-84.445389, 33.752833]}, "properties": {"kind": "stop", "name": "WEST LAKE STATION - WEST LOOP", "mode": "bus"}}, {"type": "Feature", "geometry": {"type": "Point", "coordinates": [-84.444717, 33.753061]}, "properties": {"kind": "stop", "name": "WEST LAKE STATION - EAST LOOP", "mode": "bus"}}, {"type": "Feature", "geometry": {"type": "Point", "coordinates": [-84.446462, 33.750561]}, "properties": {"kind": "stop", "name": "MARTIN LUTHER KING J DR @ 1981", "mode": "bus"}}, {"type": "Feature", "geometry": {"type": "Point", "coordinates": [-84.435365, 33.749596]}, "properties": {"kind": "stop", "name": "MIMS ST SW @ ALTOONA PL", "mode": "bus"}}, {"type": "Feature", "geometry": {"type": "Point", "coordinates": [-84.45083, 33.753805]}, "properties": {"kind": "stop", "name": "PENELOPE RD@ABBEY ST", "mode": "bus"}}, {"type": "Feature", "geometry": {"type": "Point", "coordinates": [-84.4176, 33.752569]}, "properties": {"kind": "stop", "name": "JOSEPH E LOWERY BLVD @ BECKWITH ST SW", "mode": "bus"}}, {"type": "Feature", "geometry": {"type": "Point", "coordinates": [-84.417762, 33.751251]}, "properties": {"kind": "stop", "name": "JOSEPH E LOWERY BLVD@PARSONS ST SW", "mode": "bus"}}, {"type": "Feature", "geometry": {"type": "Point", "coordinates": [-84.417604, 33.750004]}, "properties": {"kind": "stop", "name": "JOSEPH E LOWERY BLVD @ ASHBY GRV SW", "mode": "bus"}}, {"type": "Feature", "geometry": {"type": "Point", "coordinates": [-84.417594, 33.749212]}, "properties": {"kind": "stop", "name": "JOSEPH E LOWERY BLVD @ FAIR ST SW", "mode": "bus"}}, {"type": "Feature", "geometry": {"type": "Point", "coordinates": [-84.417337, 33.749024]}, "properties": {"kind": "stop", "name": "JOSEPH E LOWERY BLVD @ ATLANTA STUDENT MOVEMENT BLVD", "mode": "bus"}}, {"type": "Feature", "geometry": {"type": "Point", "coordinates": [-84.417277, 33.75063]}, "properties": {"kind": "stop", "name": "JOSEPH E LOWERY BLVD@PARSONS ST SW", "mode": "bus"}}, {"type": "Feature", "geometry": {"type": "Point", "coordinates": [-84.417322, 33.752027]}, "properties": {"kind": "stop", "name": "JOSEPH E LOWERY BLVD@BECKWITH ST SW", "mode": "bus"}}, {"type": "Feature", "geometry": {"type": "Point", "coordinates": [-84.416015, 33.749264]}, "properties": {"kind": "stop", "name": "ATLANTA STUDENT MOVEMENT BLVD @ EUHRLEE ST SW", "mode": "bus"}}, {"type": "Feature", "geometry": {"type": "Point", "coordinates": [-84.416809, 33.749236]}, "properties": {"kind": "stop", "name": "ATLANTA STUDENT MOVEMENT BLVD @ OGDEN ST SW", "mode": "bus"}}, {"type": "Feature", "geometry": {"type": "Point", "coordinates": [-84.418059, 33.748985]}, "properties": {"kind": "stop", "name": "FAIR ST SW @ JOSEPH E LOWERY BLVD", "mode": "bus"}}, {"type": "Feature", "geometry": {"type": "Point", "coordinates": [-84.419167, 33.748959]}, "properties": {"kind": "stop", "name": "FAIR ST SW @ ABBOTT ST SW", "mode": "bus"}}, {"type": "Feature", "geometry": {"type": "Point", "coordinates": [-84.420273, 33.748981]}, "properties": {"kind": "stop", "name": "FAIR ST SW @ AGNES JONES PL SW", "mode": "bus"}}, {"type": "Feature", "geometry": {"type": "Point", "coordinates": [-84.421694, 33.74892]}, "properties": {"kind": "stop", "name": "FAIR ST SW @ JOSE ST SW", "mode": "bus"}}, {"type": "Feature", "geometry": {"type": "Point", "coordinates": [-84.423135, 33.749088]}, "properties": {"kind": "stop", "name": "FAIR ST SW@LAWTON ST SW", "mode": "bus"}}, {"type": "Feature", "geometry": {"type": "Point", "coordinates": [-84.421726, 33.749272]}, "properties": {"kind": "stop", "name": "FAIR ST SW@SAINT JOSE ST SW", "mode": "bus"}}, {"type": "Feature", "geometry": {"type": "Point", "coordinates": [-84.416048, 33.749192]}, "properties": {"kind": "stop", "name": "ATLANTA STUDENT MOVEMENT BLVD @ EUHARLEE ST SW", "mode": "bus"}}, {"type": "Feature", "geometry": {"type": "Point", "coordinates": [-84.420461, 33.749162]}, "properties": {"kind": "stop", "name": "FAIR ST SW@AGNES JONES PL SW", "mode": "bus"}}, {"type": "Feature", "geometry": {"type": "Point", "coordinates": [-84.417466, 33.753318]}, "properties": {"kind": "stop", "name": "JOSEPH E LOWERY BLVD@MITCHELL ST SW", "mode": "bus"}}, {"type": "Feature", "geometry": {"type": "Point", "coordinates": [-84.417346, 33.754524]}, "properties": {"kind": "stop", "name": "JOSEPH E LOWERY BLVD @ MARTIN L KING JR DR", "mode": "bus"}}, {"type": "Feature", "geometry": {"type": "Point", "coordinates": [-84.432088, 33.75369]}, "properties": {"kind": "stop", "name": "MARTIN LUTHER KING J@CHICAMAUGA AVE", "mode": "bus"}}, {"type": "Feature", "geometry": {"type": "Point", "coordinates": [-84.429794, 33.753549]}, "properties": {"kind": "stop", "name": "MARTIN LUTHER KING J DR SW@CERRO ST", "mode": "bus"}}, {"type": "Feature", "geometry": {"type": "Point", "coordinates": [-84.428174, 33.753443]}, "properties": {"kind": "stop", "name": "MARTIN LUTHER KING J DR SW@BURBANK", "mode": "bus"}}, {"type": "Feature", "geometry": {"type": "Point", "coordinates": [-84.426351, 33.748933]}, "properties": {"kind": "stop", "name": "HOLDERNESS ST SW @ FAIR ST SW", "mode": "bus"}}, {"type": "Feature", "geometry": {"type": "Point", "coordinates": [-84.426353, 33.749076]}, "properties": {"kind": "stop", "name": "FAIR ST SW@HOLDERNESS ST SW", "mode": "bus"}}, {"type": "Feature", "geometry": {"type": "Point", "coordinates": [-84.426611, 33.747532]}, "properties": {"kind": "stop", "name": "HOLDERNESS ST SW@WESTVIEW DR SW", "mode": "bus"}}, {"type": "Feature", "geometry": {"type": "Point", "coordinates": [-84.426987, 33.747425]}, "properties": {"kind": "stop", "name": "HOLDERNESS ST SW@WESTVIEW DR SW", "mode": "bus"}}, {"type": "Feature", "geometry": {"type": "Point", "coordinates": [-84.427994, 33.747154]}, "properties": {"kind": "stop", "name": "WESTVIEW DR SW@LANGHORN ST SW", "mode": "bus"}}, {"type": "Feature", "geometry": {"type": "Point", "coordinates": [-84.429146, 33.747192]}, "properties": {"kind": "stop", "name": "WESTVIEW DR SW@ATWOOD ST SW", "mode": "bus"}}, {"type": "Feature", "geometry": {"type": "Point", "coordinates": [-84.430916, 33.747363]}, "properties": {"kind": "stop", "name": "WESTVIEW DR SW@HOPKINS ST SW", "mode": "bus"}}, {"type": "Feature", "geometry": {"type": "Point", "coordinates": [-84.432101, 33.747379]}, "properties": {"kind": "stop", "name": "WESTVIEW DR SW@CHICAMAUGA AVE SW", "mode": "bus"}}, {"type": "Feature", "geometry": {"type": "Point", "coordinates": [-84.432645, 33.74728]}, "properties": {"kind": "stop", "name": "WESTVIEW DR SW @ CHICAMAUGA AVE SW", "mode": "bus"}}, {"type": "Feature", "geometry": {"type": "Point", "coordinates": [-84.423912, 33.742364]}, "properties": {"kind": "stop", "name": "LUCILE AVE SW @ LAWTON ST SW", "mode": "bus"}}, {"type": "Feature", "geometry": {"type": "Point", "coordinates": [-84.425133, 33.742378]}, "properties": {"kind": "stop", "name": "LUCILE AVE SW @ DARGAN PL SW", "mode": "bus"}}, {"type": "Feature", "geometry": {"type": "Point", "coordinates": [-84.43048, 33.74237]}, "properties": {"kind": "stop", "name": "LUCILE AVE SW @ HOPKINS ST SW", "mode": "bus"}}, {"type": "Feature", "geometry": {"type": "Point", "coordinates": [-84.432297, 33.742336]}, "properties": {"kind": "stop", "name": "LUCILE AVE SW @ LANGHORN ST SW", "mode": "bus"}}, {"type": "Feature", "geometry": {"type": "Point", "coordinates": [-84.430404, 33.742174]}, "properties": {"kind": "stop", "name": "LUCILE AVE SW @ HOPKINS ST SW", "mode": "bus"}}, {"type": "Feature", "geometry": {"type": "Point", "coordinates": [-84.428855, 33.742262]}, "properties": {"kind": "stop", "name": "LUCILE AVE SW @ ATWOOD ST SW", "mode": "bus"}}, {"type": "Feature", "geometry": {"type": "Point", "coordinates": [-84.427138, 33.742246]}, "properties": {"kind": "stop", "name": "LUCILE AVE SW @ HOLDERNESS ST SW", "mode": "bus"}}, {"type": "Feature", "geometry": {"type": "Point", "coordinates": [-84.424801, 33.742257]}, "properties": {"kind": "stop", "name": "LUCILE AVE SW @ DARGAN PL SW", "mode": "bus"}}, {"type": "Feature", "geometry": {"type": "Point", "coordinates": [-84.428771, 33.742346]}, "properties": {"kind": "stop", "name": "LUCILE AVE SW @ ATWOOD ST SW", "mode": "bus"}}, {"type": "Feature", "geometry": {"type": "Point", "coordinates": [-84.42959, 33.753645]}, "properties": {"kind": "stop", "name": "MARTIN L KING JR DR NW @ CERRO ST SW", "mode": "bus"}}, {"type": "Feature", "geometry": {"type": "Point", "coordinates": [-84.428, 33.753515]}, "properties": {"kind": "stop", "name": "MARTIN L KING JR DR NW @ BURBANK DR NW", "mode": "bus"}}, {"type": "Feature", "geometry": {"type": "Point", "coordinates": [-84.426522, 33.753444]}, "properties": {"kind": "stop", "name": "MARTIN LUTHER KING J@STAFFORD ST", "mode": "bus"}}, {"type": "Feature", "geometry": {"type": "Point", "coordinates": [-84.426489, 33.753516]}, "properties": {"kind": "stop", "name": "MARTIN L KING JR DR NW @ STAFFORD ST SW", "mode": "bus"}}, {"type": "Feature", "geometry": {"type": "Point", "coordinates": [-84.424968, 33.75384]}, "properties": {"kind": "stop", "name": "MARTIN L KING JR DR @ MORRIS BROWN", "mode": "bus"}}, {"type": "Feature", "geometry": {"type": "Point", "coordinates": [-84.425011, 33.753893]}, "properties": {"kind": "stop", "name": "MARTIN L KING JR DR NW @ MORRIS BROWN DR SW", "mode": "bus"}}, {"type": "Feature", "geometry": {"type": "Point", "coordinates": [-84.423827, 33.754395]}, "properties": {"kind": "stop", "name": "MARTIN LUTHER KING J@HUNTER PL N", "mode": "bus"}}, {"type": "Feature", "geometry": {"type": "Point", "coordinates": [-84.41994, 33.754709]}, "properties": {"kind": "stop", "name": "MARTIN LUTHER KING J DR @ WHITEHOUSE DR", "mode": "bus"}}, {"type": "Feature", "geometry": {"type": "Point", "coordinates": [-84.423892, 33.754431]}, "properties": {"kind": "stop", "name": "MARTIN L KING JR DR NW @ HUNTER PL NW", "mode": "bus"}}, {"type": "Feature", "geometry": {"type": "Point", "coordinates": [-84.420311, 33.754772]}, "properties": {"kind": "stop", "name": "MARTIN L KING JR DR NW @ BOOKER ST NW", "mode": "bus"}}, {"type": "Feature", "geometry": {"type": "Point", "coordinates": [-84.431838, 33.753823]}, "properties": {"kind": "stop", "name": "MARTIN L KING JR DR NW @ CHICAMAUGA AVE NW", "mode": "bus"}}, {"type": "Feature", "geometry": {"type": "Point", "coordinates": [-84.433255, 33.753851]}, "properties": {"kind": "stop", "name": "MARTIN L KING JR DR NW @ CHAPPELL RD", "mode": "bus"}}, {"type": "Feature", "geometry": {"type": "Point", "coordinates": [-84.425545, 33.748905]}, "properties": {"kind": "stop", "name": "FAIR ST SW @ 1ST ST SW", "mode": "bus"}}, {"type": "Feature", "geometry": {"type": "Point", "coordinates": [-84.425298, 33.749077]}, "properties": {"kind": "stop", "name": "FAIR ST@FIRST ST", "mode": "bus"}}, {"type": "Feature", "geometry": {"type": "Point", "coordinates": [-84.423424, 33.748913]}, "properties": {"kind": "stop", "name": "FAIR ST SW @ LAWTON ST SW", "mode": "bus"}}, {"type": "Feature", "geometry": {"type": "Point", "coordinates": [-84.419426, 33.749191]}, "properties": {"kind": "stop", "name": "FAIR ST@ABBOTT ST", "mode": "bus"}}, {"type": "Feature", "geometry": {"type": "Point", "coordinates": [-84.421316, 33.754747]}, "properties": {"kind": "stop", "name": "MARTIN LUTHER KING J DR@OLLIE ST", "mode": "bus"}}, {"type": "Feature", "geometry": {"type": "Point", "coordinates": [-84.426658, 33.742389]}, "properties": {"kind": "stop", "name": "LUCILE AVE @ HOLDERNESS ST", "mode": "bus"}}, {"type": "Feature", "geometry": {"type": "Point", "coordinates": [-84.418167, 33.749074]}, "properties": {"kind": "stop", "name": "FAIR ST SW @ JOSEPH E LOWERY BLVD", "mode": "bus"}}, {"type": "Feature", "geometry": {"type": "Point", "coordinates": [-84.434656, 33.74744]}, "properties": {"kind": "stop", "name": "WESTVIEW DR SW @ WESTVIEW PL", "mode": "bus"}}, {"type": "Feature", "geometry": {"type": "Point", "coordinates": [-84.412599, 33.749556]}, "properties": {"kind": "stop", "name": "ATLANTA STUDENT MOVEMENT BLVD @ JAMES P BRAWLEY DR SW", "mode": "bus"}}, {"type": "Feature", "geometry": {"type": "Point", "coordinates": [-84.414271, 33.749457]}, "properties": {"kind": "stop", "name": "ATLANTA STUDENT MOVEMENT BLVD @ MILTON ST SW", "mode": "bus"}}, {"type": "Feature", "geometry": {"type": "Point", "coordinates": [-84.413086, 33.749168]}, "properties": {"kind": "stop", "name": "ATLANTA STUDENT MOVEMENT BLVD @ JAMES P BRAWLEY DR SW", "mode": "bus"}}, {"type": "Feature", "geometry": {"type": "Point", "coordinates": [-84.414597, 33.749146]}, "properties": {"kind": "stop", "name": "ATLANTA STUDENT MOVEMENT BLVD @ MILTON ST SW", "mode": "bus"}}, {"type": "Feature", "geometry": {"type": "Point", "coordinates": [-84.417739, 33.754678]}, "properties": {"kind": "stop", "name": "MARTIN L KING JR DR @ JOSEPH E LOWERY BLVD", "mode": "bus"}}, {"type": "Feature", "geometry": {"type": "Point", "coordinates": [-84.414293, 33.754779]}, "properties": {"kind": "stop", "name": "MARTIN L KING JR DR NW @ PASCHAL BLVD SW", "mode": "bus"}}, {"type": "Feature", "geometry": {"type": "Point", "coordinates": [-84.414402, 33.754609]}, "properties": {"kind": "stop", "name": "MARTIN L KING JR DR @ PASCHAL BLVD SW", "mode": "bus"}}, {"type": "Feature", "geometry": {"type": "Point", "coordinates": [-84.410251, 33.754506]}, "properties": {"kind": "stop", "name": "MARTIN L KING JR DR @ SUNSET AVE", "mode": "bus"}}, {"type": "Feature", "geometry": {"type": "Point", "coordinates": [-84.412825, 33.754673]}, "properties": {"kind": "stop", "name": "MARTIN L KING JR DR @ JAMES P BRAWLEY  DR SW", "mode": "bus"}}, {"type": "Feature", "geometry": {"type": "Point", "coordinates": [-84.411523, 33.754536]}, "properties": {"kind": "stop", "name": "MARTIN L KING JR DR @ GRIFFIN ST", "mode": "bus"}}, {"type": "Feature", "geometry": {"type": "Point", "coordinates": [-84.409923, 33.754738]}, "properties": {"kind": "stop", "name": "MARTIN L KING JR DR NW @ SUNSET AVE NW", "mode": "bus"}}, {"type": "Feature", "geometry": {"type": "Point", "coordinates": [-84.41263, 33.754736]}, "properties": {"kind": "stop", "name": "MARTIN L KING JR DR NW @ JAMES P BRAWLEY DR NW", "mode": "bus"}}, {"type": "Feature", "geometry": {"type": "Point", "coordinates": [-84.417391, 33.754759]}, "properties": {"kind": "stop", "name": "MARTIN L KING JR DR NW @ JOSEPH E LOWERY BLVD NW", "mode": "bus"}}, {"type": "Feature", "geometry": {"type": "Point", "coordinates": [-84.425263, 33.772544]}, "properties": {"kind": "stop", "name": "DONALD L HOLLOWELL PKWY @ MARIETTA BLVD", "mode": "bus"}}, {"type": "Feature", "geometry": {"type": "Point", "coordinates": [-84.437643, 33.761338]}, "properties": {"kind": "stop", "name": "HOLLY RD @ 231", "mode": "bus"}}, {"type": "Feature", "geometry": {"type": "Point", "coordinates": [-84.429714, 33.791205]}, "properties": {"kind": "stop", "name": "MARIETTA BLVD NW @ ELAINE AVE NW", "mode": "bus"}}, {"type": "Feature", "geometry": {"type": "Point", "coordinates": [-84.431938, 33.794828]}, "properties": {"kind": "stop", "name": "MARIETTA BLVD @ TACOMA DR", "mode": "bus"}}, {"type": "Feature", "geometry": {"type": "Point", "coordinates": [-84.430271, 33.791786]}, "properties": {"kind": "stop", "name": "MARIETTA BLVD @ ELAINE AVE", "mode": "bus"}}, {"type": "Feature", "geometry": {"type": "Point", "coordinates": [-84.422165, 33.773122]}, "properties": {"kind": "stop", "name": "DONALD L HOLLOWELL PKWY @ FINLEY AVE", "mode": "bus"}}, {"type": "Feature", "geometry": {"type": "Point", "coordinates": [-84.42198, 33.773248]}, "properties": {"kind": "stop", "name": "DONALD L HOLLOWELL PKWY @ FINLEY AVE", "mode": "bus"}}, {"type": "Feature", "geometry": {"type": "Point", "coordinates": [-84.441338, 33.763533]}, "properties": {"kind": "stop", "name": "JOSEPH E BOONE BLVD @ W LAKE AVE NW", "mode": "bus"}}, {"type": "Feature", "geometry": {"type": "Point", "coordinates": [-84.437353, 33.763495]}, "properties": {"kind": "stop", "name": "JOSEPH E BOONE BLVD NW @ HOLLY RD NW", "mode": "bus"}}, {"type": "Feature", "geometry": {"type": "Point", "coordinates": [-84.438016, 33.763647]}, "properties": {"kind": "stop", "name": "JOSEPH E BOONE BLVD @ HOLLY RD/ST", "mode": "bus"}}, {"type": "Feature", "geometry": {"type": "Point", "coordinates": [-84.413507, 33.771393]}, "properties": {"kind": "stop", "name": "ENGLISH AVE NW @ PELHAM ST NW", "mode": "bus"}}, {"type": "Feature", "geometry": {"type": "Point", "coordinates": [-84.413506, 33.77014]}, "properties": {"kind": "stop", "name": "ENGLISH AVE NW @ NORTH AVE NW", "mode": "bus"}}, {"type": "Feature", "geometry": {"type": "Point", "coordinates": [-84.413504, 33.768323]}, "properties": {"kind": "stop", "name": "ENGLISH AVE NW @ CAMERON M ALEXANDER BLVD", "mode": "bus"}}, {"type": "Feature", "geometry": {"type": "Point", "coordinates": [-84.439636, 33.763493]}, "properties": {"kind": "stop", "name": "JOSEPH E BOONE BLVD NW @ W LAKE DR NW", "mode": "bus"}}, {"type": "Feature", "geometry": {"type": "Point", "coordinates": [-84.437084, 33.742854]}, "properties": {"kind": "stop", "name": "LUCILE AVE SW @ RALPH D ABERNATHY BLVD", "mode": "bus"}}, {"type": "Feature", "geometry": {"type": "Point", "coordinates": [-84.417833, 33.783371]}, "properties": {"kind": "stop", "name": "W MARIETTA ST NW @ JOSEPH E LOWERY BLVD NW", "mode": "bus"}}, {"type": "Feature", "geometry": {"type": "Point", "coordinates": [-84.434614, 33.748872]}, "properties": {"kind": "stop", "name": "WESTVIEW PL SW @ MIMS ST SW", "mode": "bus"}}, {"type": "Feature", "geometry": {"type": "Point", "coordinates": [-84.436366, 33.749667]}, "properties": {"kind": "stop", "name": "MIMS ST SW @ MATHEWSON PL SW", "mode": "bus"}}, {"type": "Feature", "geometry": {"type": "Point", "coordinates": [-84.434691, 33.749176]}, "properties": {"kind": "stop", "name": "WESTVIEW PL SW @ MIMS ST SW", "mode": "bus"}}, {"type": "Feature", "geometry": {"type": "Point", "coordinates": [-84.411349, 33.78585]}, "properties": {"kind": "stop", "name": "14TH ST NW @ HOWELL MILL RD NW", "mode": "bus"}}, {"type": "Feature", "geometry": {"type": "Point", "coordinates": [-84.409045, 33.786069]}, "properties": {"kind": "stop", "name": "14TH ST NW @ HOWELL MILL RD NW", "mode": "bus"}}, {"type": "Feature", "geometry": {"type": "Point", "coordinates": [-84.417253, 33.782343]}, "properties": {"kind": "stop", "name": "JOSEPH E LOWERY BLVD NW @ W MARIETTA ST NW", "mode": "bus"}}, {"type": "Feature", "geometry": {"type": "Point", "coordinates": [-84.417278, 33.779969]}, "properties": {"kind": "stop", "name": "JOSEPH E LOWERY BLVD @ 841", "mode": "bus"}}, {"type": "Feature", "geometry": {"type": "Point", "coordinates": [-84.417391, 33.779559]}, "properties": {"kind": "stop", "name": "JOSEPH E LOWERY BLVD @ 841", "mode": "bus"}}, {"type": "Feature", "geometry": {"type": "Point", "coordinates": [-84.417281, 33.772213]}, "properties": {"kind": "stop", "name": "FOX ST @ JOSEPH E LOWERY BLVD", "mode": "bus"}}, {"type": "Feature", "geometry": {"type": "Point", "coordinates": [-84.414033, 33.772231]}, "properties": {"kind": "stop", "name": "FOX ST @ PAINES AVE", "mode": "bus"}}, {"type": "Feature", "geometry": {"type": "Point", "coordinates": [-84.40895, 33.772842]}, "properties": {"kind": "stop", "name": "NORTHSIDE DR @ TRAVIS ST", "mode": "bus"}}, {"type": "Feature", "geometry": {"type": "Point", "coordinates": [-84.414644, 33.780107]}, "properties": {"kind": "stop", "name": "W MARIETTA ST @ 800", "mode": "bus"}}, {"type": "Feature", "geometry": {"type": "Point", "coordinates": [-84.411766, 33.779754]}, "properties": {"kind": "stop", "name": "W MARIETTA ST @ 8TH ST", "mode": "bus"}}, {"type": "Feature", "geometry": {"type": "Point", "coordinates": [-84.412298, 33.779786]}, "properties": {"kind": "stop", "name": "W MARIETTA ST @ BRADY AVE", "mode": "bus"}}, {"type": "Feature", "geometry": {"type": "Point", "coordinates": [-84.416724, 33.782203]}, "properties": {"kind": "stop", "name": "W MARIETTA ST @ 887", "mode": "bus"}}, {"type": "Feature", "geometry": {"type": "Point", "coordinates": [-84.416523, 33.781715]}, "properties": {"kind": "stop", "name": "W MARIETTA ST @ 887", "mode": "bus"}}, {"type": "Feature", "geometry": {"type": "Point", "coordinates": [-84.428482, 33.789237]}, "properties": {"kind": "stop", "name": "MARIETTA BLVD @ HUFF RD", "mode": "bus"}}, {"type": "Feature", "geometry": {"type": "Point", "coordinates": [-84.432657, 33.763876]}, "properties": {"kind": "stop", "name": "CHAPPELL RD @ JOSEPH E BOONE BLVD", "mode": "bus"}}, {"type": "Feature", "geometry": {"type": "Point", "coordinates": [-84.432928, 33.763652]}, "properties": {"kind": "stop", "name": "CHAPPELL RD @ JOSEPH E BOONE BLVD", "mode": "bus"}}, {"type": "Feature", "geometry": {"type": "Point", "coordinates": [-84.432246, 33.765899]}, "properties": {"kind": "stop", "name": "CHAPPELL RD @ MAYSON TURNER RD", "mode": "bus"}}, {"type": "Feature", "geometry": {"type": "Point", "coordinates": [-84.432355, 33.766078]}, "properties": {"kind": "stop", "name": "CHAPPELL RD @ WEST AVE", "mode": "bus"}}, {"type": "Feature", "geometry": {"type": "Point", "coordinates": [-84.43625, 33.767954]}, "properties": {"kind": "stop", "name": "NORTH AVE @ WOODLAWN AVE", "mode": "bus"}}, {"type": "Feature", "geometry": {"type": "Point", "coordinates": [-84.438436, 33.768068]}, "properties": {"kind": "stop", "name": "NORTH AVE @ ELMWOOD RD", "mode": "bus"}}, {"type": "Feature", "geometry": {"type": "Point", "coordinates": [-84.44106, 33.763116]}, "properties": {"kind": "stop", "name": "W LAKE AVE @ JOSEPH E BOONE BLVD", "mode": "bus"}}, {"type": "Feature", "geometry": {"type": "Point", "coordinates": [-84.433484, 33.75718]}, "properties": {"kind": "stop", "name": "CHAPPEL RD @ EASON ST", "mode": "bus"}}, {"type": "Feature", "geometry": {"type": "Point", "coordinates": [-84.445329, 33.753328]}, "properties": {"kind": "stop", "name": "WEST LAKE STATION", "mode": "bus"}}, {"type": "Feature", "geometry": {"type": "Point", "coordinates": [-84.445568, 33.753247]}, "properties": {"kind": "stop", "name": "WEST LAKE STATION", "mode": "bus"}}, {"type": "Feature", "geometry": {"type": "Point", "coordinates": [-84.428873, 33.772159]}, "properties": {"kind": "stop", "name": "BANKHEAD STATION", "mode": "bus"}}, {"type": "Feature", "geometry": {"type": "Point", "coordinates": [-84.428906, 33.772436]}, "properties": {"kind": "stop", "name": "BANKHEAD STATION", "mode": "bus"}}, {"type": "Feature", "geometry": {"type": "Point", "coordinates": [-84.41723, 33.756478]}, "properties": {"kind": "stop", "name": "ASHBY STATION", "mode": "bus"}}, {"type": "Feature", "geometry": {"type": "Point", "coordinates": [-84.417328, 33.756477]}, "properties": {"kind": "stop", "name": "ASHBY STATION", "mode": "bus"}}], "properties": {"coverage_pct": 100.0, "rail_coverage_pct": 35.1, "stop_count": 364, "rail_stop_count": 3, "bus_stop_count": 361, "transit_index": 57, "weights": {"rail": 2.0, "bus": 1.0}}}