{"type": "FeatureCollection", "features": [{"type": "Feature", "geometry": {"type": "Polygon", "coordinates": [[[-84.44829526190759, 33.809278553198396], [-84.448620277654, 33.809478621824674], [-84.44912630200413, 33.809628457094654], [-84.44989835207521, 33.809931106608566], [-84.44991454755164, 33.809939159262775], [-84.45012823773577, 33.810002430986145], [-84.45040728805984, 33.81011181839123], [-84.45075269589186, 33.81028736151405], [-84.45104268422509, 33.810447350461864], [-84.45115990159921, 33.810513168626514], [-84.4512016771885, 33.81053703969], [-84.45136164295401, 33.81062317260741], [-84.45149242148051, 33.81069498979752], [-84.4517424116977, 33.81083498016905], [-84.45190689074255, 33.81092938917816], [-84.45207688473529, 33.811029382403945], [-84.4520758707267, 33.81103058359305], [-84.4521447205399, 33.81107157391405], [-84.45214584970577, 33.81107015763869], [-84.45220050233853, 33.81110051934028], [-84.45267123496154, 33.81135652472831], [-84.45293847629459, 33.811557583354094], [-84.45329404510443, 33.81173436179473], [-84.45398056585644, 33.81215690313032], [-84.45461417164297, 33.812633576280575], [-84.45481282141402, 33.81281550303291], [-84.45512010229804, 33.81293593842972], [-84.45585295120594, 33.81330026403541], [-84.45620005079743, 33.81351388356278], [-84.45635026175935, 33.81337475917099], [-84.45670135384098, 33.81357294988012], [-84.45727276432558, 33.813886294871615], [-84.45745394999194, 33.81398839643204], [-84.45764394303707, 33.81409838894284], [-84.45773537537255, 33.814151321858645], [-84.45774494327662, 33.81415654056082], [-84.45790478314136, 33.8142508024398], [-84.45862723794198, 33.81462772455201], [-84.45866355942722, 33.81464677835283], [-84.4595735198953, 33.815126744775384], [-84.46032500241793, 33.81557129753898], [-84.46088498820187, 33.81594127345791], [-84.46144502573084, 33.81631128356445], [-84.46173459821497, 33.81652193334672], [-84.4617356276956, 33.81652090866735], [-84.46183562570715, 33.81659090421179], [-84.46195935933896, 33.81668543485256], [-84.46206473677582, 33.81676209085428], [-84.46216473620541, 33.81684208604808], [-84.46216458150884, 33.816842220777076], [-84.46239154202374, 33.81701561332041], [-84.46251154190945, 33.81711560742822], [-84.4626315526424, 33.81721561057491], [-84.46262739306856, 33.817219088324755], [-84.46288161993475, 33.81744318525355], [-84.46288760228269, 33.817438322476875], [-84.46295760245364, 33.81749831899032], [-84.46302760892102, 33.81755832090033], [-84.46315485345816, 33.81768403434264], [-84.46325335166624, 33.81777085777178], [-84.46333335348464, 33.817850853493304], [-84.46332769538388, 33.817854795706616], [-84.46353327861326, 33.818057903044064], [-84.46354338017629, 33.81805086494804], [-84.4635733808582, 33.81808086334361], [-84.46380413313463, 33.818325493585675], [-84.46381970156895, 33.818340874340436], [-84.46383330595172, 33.81835642079092], [-84.46388096971936, 33.818406950887855], [-84.46396097293719, 33.818496946405055], [-84.46427091376754, 33.81886937789116], [-84.46434091812259, 33.818959373786946], [-84.464410928024, 33.819049376812956], [-84.46462540733019, 33.819339837642495], [-84.46469541301828, 33.81943983341102], [-84.4648668782211, 33.81969655240331], [-84.46490467171581, 33.81975593395223], [-84.46508822972939, 33.82003107710612], [-84.4653620822104, 33.82052558672291], [-84.46544209446795, 33.82068558152531], [-84.46552211161485, 33.820845586104376], [-84.46575005910422, 33.82130139657419], [-84.46598778797767, 33.82176726050597], [-84.46627981174495, 33.82242636383795], [-84.46649407166002, 33.823105954656825], [-84.46662855594265, 33.82379965788036], [-84.46668200105879, 33.824500965888504], [-84.46665390364487, 33.825203299563626], [-84.46661838541927, 33.82542956176352], [-84.46648102126733, 33.82553407926565], [-84.46579728603605, 33.82595987703236], [-84.46506683008211, 33.82632768737744], [-84.46429668905014, 33.82663396732632], [-84.46420443893776, 33.8266617664975], [-84.46415394621344, 33.826700183038376], [-84.4634701901096, 33.82712596793481], [-84.46273971420675, 33.82749376453343], [-84.46196955434185, 33.82780002999208], [-84.46116712887085, 33.82804181413742], [-84.46034016717604, 33.82821678790244], [-84.45949663516693, 33.828323265777954], [-84.45864465849431, 33.82836022206097], [-84.45850605448018, 33.82835486814514], [-84.45795797546478, 33.8284708218505], [-84.45711443788643, 33.82857728345542], [-84.45626245754548, 33.82861422329738], [-84.45541024153896, 33.82858128552632], [-84.45456599923826, 33.82847878741896], [-84.45373786314917, 33.82830771632081], [-84.45293381051466, 33.82806972012846], [-84.45267644411611, 33.82796886098067], [-84.45213710858069, 33.827992226660115], [-84.45128490011695, 33.82795926033626], [-84.45044066864885, 33.827856733919056], [-84.44983038478036, 33.82773064333982], [-84.44954526586271, 33.827790943623555], [-84.44941276213885, 33.82780765800043], [-84.44913023808553, 33.827983535981886], [-84.44839969288076, 33.82835124794296], [-84.44762947355292, 33.82865742410513], [-84.44682699903161, 33.8288991151555], [-84.44599999917239, 33.829073992924165], [-84.44515644025293, 33.82918037282714], [-84.44430444818367, 33.82921723010568], [-84.44345223017473, 33.82918420970546], [-84.44260799561681, 33.829081629699616], [-84.44177987694084, 33.828910478223015], [-84.4409758512217, 33.828672403946925], [-84.4403299270552, 33.82841919705917], [-84.43961146054926, 33.8285710852284], [-84.43876789834007, 33.82867742145341], [-84.43791590820275, 33.82871423458548], [-84.43706369732887, 33.828681169995725], [-84.43621947504028, 33.82857854618322], [-84.43539137364955, 33.828407351705046], [-84.43458737006479, 33.82816923564686], [-84.43381520889695, 33.827866491726446], [-84.43308232781278, 33.82750203618345], [-84.43239578585491, 33.827079379669485], [-84.4322455740337, 33.82696634381089], [-84.43184320535897, 33.826847164326935], [-84.4310710656613, 33.82654440305528], [-84.43033820742683, 33.826179931015844], [-84.42965168947785, 33.82575725901909], [-84.42901812398057, 33.82528045843952], [-84.42844361274233, 33.82475412197479], [-84.42793368843934, 33.82418331938295], [-84.42759457507461, 33.82371381827683], [-84.4273211388512, 33.823577816197755], [-84.42663465651478, 33.823155127058435], [-84.42600112694643, 33.822678310608225], [-84.42579537836923, 33.82248979887297], [-84.42577212777579, 33.82247229939179], [-84.42519765521844, 33.821945947383725], [-84.42508036194985, 33.82181463865766], [-84.42481314958013, 33.82244291580987], [-84.42469862882122, 33.82264632587591], [-84.4249274001233, 33.823175773433995], [-84.42513675823636, 33.823865997462484], [-84.42526405130813, 33.82457002458444], [-84.42530805146009, 33.82528107489475], [-84.42526833288655, 33.82599230068771], [-84.42514527603434, 33.82669685240055], [-84.42494006401844, 33.82738794458092], [-84.424721647659, 33.827901456516415], [-84.42474455527297, 33.82792244415931], [-84.42525448083799, 33.82849325958692], [-84.42569491755943, 33.82910303780941], [-84.42606162283349, 33.82974590708784], [-84.42635106379024, 33.830415676907755], [-84.42656045136691, 33.83110589757153], [-84.42668776722908, 33.83180992229132], [-84.42672299458415, 33.83237899689991], [-84.42688683137796, 33.832412878186915], [-84.42769085376459, 33.832651044200695], [-84.42846303673994, 33.83295382613287], [-84.42919594509225, 33.83331830867814], [-84.4293504358063, 33.83341341775406], [-84.42946365178848, 33.833436827880114], [-84.4302676908128, 33.833674976972844], [-84.43103989199473, 33.83397774263072], [-84.43177281994738, 33.834342209705106], [-84.43245941717126, 33.83476486892422], [-84.43309307198335, 33.835241650660684], [-84.43366768216742, 33.835767964093115], [-84.4341777137329, 33.836338741385696], [-84.43461825421714, 33.8369484864615], [-84.43471266717856, 33.837113949888135], [-84.43508729605708, 33.83763245751285], [-84.43545410831699, 33.83827529745459], [-84.43574365159016, 33.838945043807556], [-84.4359531358283, 33.83963524710072], [-84.43604673086514, 33.84015243123116], [-84.43606184333133, 33.840202222444034], [-84.43610748890086, 33.840265394695294], [-84.43647432016542, 33.840908231235034], [-84.4367638804043, 33.84157797482371], [-84.4369733794057, 33.842268176016994], [-84.4371007977615, 33.842972188215214], [-84.43714490638521, 33.843683231657764], [-84.43712242730263, 33.844086678756554], [-84.43740063147577, 33.84457417110928], [-84.43769021149359, 33.84524391202786], [-84.43789972708677, 33.84593411115596], [-84.4379935933245, 33.84645268731155], [-84.43796103179915, 33.846540720767486], [-84.43762665352347, 33.84720340190418], [-84.43721529915473, 33.84783521140202], [-84.4367310076368, 33.84842994321129], [-84.4357073684684, 33.84956195332792], [-84.43564106075176, 33.84964202042194], [-84.43513365979176, 33.85014903232599], [-84.43438493063898, 33.850831465198496], [-84.43426555709543, 33.85094338575225], [-84.43365248941592, 33.85146305238876], [-84.43297999196636, 33.85192874724181], [-84.43225485800444, 33.85233576544995], [-84.43148441289652, 33.85267999489109], [-84.43067644009115, 33.85295795775331], [-84.42983910244949, 33.85316684569503], [-84.42898085972934, 33.85330454823826], [-84.4281103830588, 33.853369674107185], [-84.42723646726625, 33.8533615652954], [-84.42636794195616, 33.85328030371944], [-84.42551358223156, 33.8531267103909], [-84.42468201996967, 33.85290233711573], [-84.42388165654957, 33.85260945080463], [-84.42312057791717, 33.8522510105538], [-84.42240647284838, 33.85183063772833], [-84.42214646602052, 33.85166062660538], [-84.4220376485658, 33.8515882937298], [-84.4216707350774, 33.85134036895373], [-84.42162954298476, 33.85131258724166], [-84.42156436835785, 33.85095215544599], [-84.42103617743373, 33.85074505497148], [-84.42030315411674, 33.85038052548214], [-84.41974358135579, 33.850036040344634], [-84.41951068880715, 33.84987818477374], [-84.41898280126809, 33.84948095023813], [-84.4184081883038, 33.84895456954609], [-84.41789818563504, 33.84838372804927], [-84.41785145799088, 33.84831903862161], [-84.41772228545904, 33.84828077141515], [-84.41695000169614, 33.847977923428296], [-84.41621701928626, 33.84761336929275], [-84.41553039824758, 33.84719062061066], [-84.41537863504622, 33.84707640710444], [-84.41462216100062, 33.846919919756765], [-84.41381804041455, 33.84668166951709], [-84.41365257734164, 33.84661677678459], [-84.41363353905939, 33.846624336742615], [-84.41283079976716, 33.84686580705691], [-84.4120035563241, 33.84704045741741], [-84.41115977735676, 33.84714660543148], [-84.41030759089733, 33.84718322857522], [-84.4094552060302, 33.8471499740509], [-84.40861083375455, 33.84704716218831], [-84.40778260782855, 33.846875783357156], [-84.40697850636023, 33.846637488420136], [-84.4062062749032, 33.846334572819224], [-84.40547335180054, 33.845969954448904], [-84.40478679649833, 33.84554714553013], [-84.40415322152109, 33.845070218757016], [-84.40357872876555, 33.844543768043295], [-84.40306885072768, 33.84397286424785], [-84.40262849722862, 33.84336300630679], [-84.40226190815302, 33.842720068244205], [-84.40197261265345, 33.8420502425729], [-84.40176339521294, 33.84135998063157], [-84.40163626888986, 33.84065593043348], [-84.40160773984748, 33.84019292201547], [-84.40122141230455, 33.839902076378465], [-84.40064697222259, 33.839375611338355], [-84.40013714451075, 33.83880469472659], [-84.39969683850548, 33.83819482560252], [-84.39933029363401, 33.8375518780977], [-84.3990410386234, 33.83688204481564], [-84.3988318575669, 33.83619177716807], [-84.3987047631729, 33.835487723223046], [-84.39866097745127, 33.834776663664634], [-84.39870092002086, 33.83406544648121], [-84.39882420414759, 33.83336092101193], [-84.39883392948795, 33.833328207071965], [-84.39874503052596, 33.83283572520517], [-84.39870124595583, 33.83212466535068], [-84.3987411870911, 33.831413447854665], [-84.39886446721174, 33.83070892205928], [-84.3990382070214, 33.83012447620225], [-84.3989664848351, 33.829887785223576], [-84.39883939897983, 33.82918373066227], [-84.39879561567314, 33.82847267041525], [-84.39883555451127, 33.82776145247754], [-84.39893539438737, 33.8271908573468], [-84.39884764855387, 33.82670473045367], [-84.39880386656658, 33.82599366991846], [-84.39884380430787, 33.82528245169705], [-84.39896707509105, 33.82457792513864], [-84.39917248976225, 33.823886874983636], [-84.39945806822907, 33.823215956031945], [-84.39980547371519, 33.82259929327875], [-84.39998065260095, 33.82200992819429], [-84.40026621859506, 33.821339007219976], [-84.40062919504659, 33.82069467774117], [-84.40106608496423, 33.82008314435201], [-84.40157267986514, 33.81951029570748], [-84.40214410034314, 33.8189816478411], [-84.40277484308379, 33.81850229107379], [-84.40345883387292, 33.818076841023746], [-84.40418948608749, 33.81770939418813], [-84.40495976410602, 33.817403488523105], [-84.40576225102862, 33.81716206940046], [-84.40658922005592, 33.816987461267615], [-84.40686137392956, 33.81695322332499], [-84.40684073530626, 33.816618500330335], [-84.40683473791714, 33.816585286980796], [-84.40682734469658, 33.8164653807917], [-84.40675151554134, 33.816332360781594], [-84.40672352911697, 33.816267550743596], [-84.40648509096006, 33.81593724958605], [-84.40611859140017, 33.81529431974491], [-84.40584228753956, 33.81465443946267], [-84.40548745332858, 33.81425701379494], [-84.4050472363402, 33.81364716096615], [-84.40468075738377, 33.8130042265248], [-84.40439154455345, 33.81233440294813], [-84.40418238153852, 33.81164414155413], [-84.404055280876, 33.8109400903505], [-84.40401146463871, 33.81022902999494], [-84.40405135274189, 33.80951780848374], [-84.40411408036768, 33.80915911298427], [-84.40398752984532, 33.808458084791816], [-84.40394371556054, 33.80774702411799], [-84.4039836031997, 33.80703580234482], [-84.40405044935403, 33.80665354671835], [-84.40397397526094, 33.80662353272702], [-84.40324140134481, 33.8062588972401], [-84.40255517547222, 33.805836071760986], [-84.40252378616802, 33.805812431284544], [-84.4025813988685, 33.80613162011931], [-84.4026252009816, 33.8068426815153], [-84.40258530218036, 33.807553902919366], [-84.40255051026296, 33.807752836945], [-84.40256331405672, 33.8079606854071], [-84.40252341428122, 33.80867190666655], [-84.40240019469628, 33.80937643837637], [-84.4021948399863, 33.81006749527587], [-84.40190932599339, 33.810738421718824], [-84.40154640075961, 33.81138275578593], [-84.4013727099245, 33.81162590671337], [-84.40133342348855, 33.811850510621106], [-84.40116301688617, 33.812423919627236], [-84.40113882492845, 33.81285500160482], [-84.40113043684138, 33.812902955680364], [-84.40115710730514, 33.813050717844476], [-84.40120090151511, 33.813761778983185], [-84.40116098806362, 33.81447299919202], [-84.4010377492757, 33.81517752896074], [-84.40083237002014, 33.815868583047155], [-84.40054682637499, 33.816539505832004], [-84.40018386666748, 33.81718383543105], [-84.40017486485564, 33.81719643593397], [-84.39993392154778, 33.817762544834345], [-84.39957095212299, 33.81840687254316], [-84.3991340599827, 33.81901840081136], [-84.3986274516427, 33.81959123954138], [-84.39812101105827, 33.82005973640814], [-84.39762347943218, 33.82062229345651], [-84.3972692084061, 33.820950012047746], [-84.39719330484155, 33.82138379112978], [-84.39698788009389, 33.82207483831059], [-84.39670228604118, 33.822745751731446], [-84.39654297613124, 33.82302851368289], [-84.39640782826565, 33.823483130360934], [-84.39639388420925, 33.82373132891499], [-84.39637350659238, 33.823847774181864], [-84.3964132578189, 33.824068047089916], [-84.3964570189457, 33.82477910878289], [-84.39641706164753, 33.82549032637108], [-84.39635534384172, 33.825842997338434], [-84.39636113618869, 33.825937115069515], [-84.39632117761518, 33.826648332498515], [-84.39619788224593, 33.82735285627849], [-84.3961450713315, 33.82753049325323], [-84.39618162873386, 33.8277330622647], [-84.39622538999235, 33.82844412361711], [-84.39618542925241, 33.82915534072228], [-84.39614619002641, 33.82937955090684], [-84.3961675197847, 33.829726127174624], [-84.3961275580324, 33.83043734411751], [-84.39600425582032, 33.83114186729988], [-84.39579879862656, 33.83183291154257], [-84.39551316327855, 33.83250382132065], [-84.39515009898567, 33.8331481348746], [-84.39471310092493, 33.83375964646106], [-84.3942063766318, 33.83433246614261], [-84.39363480551752, 33.83486107653968], [-84.39300389190164, 33.83534038599731], [-84.39288598106852, 33.83541369811376], [-84.39277516390871, 33.83556875880191], [-84.39236156445911, 33.83603627917032], [-84.3921182017283, 33.83637679669433], [-84.39161144472077, 33.836949605602925], [-84.3910398402348, 33.83747820388321], [-84.39040889291151, 33.83795749999679], [-84.38972467930262, 33.83838287720966], [-84.38899378934288, 33.8387502380866], [-84.38822326286294, 33.83905604398323], [-84.38779431553341, 33.83918498700734], [-84.38784096223385, 33.83895462138548], [-84.38810782239128, 33.838177061756575], [-84.3881102872162, 33.83817114754306], [-84.38809323935175, 33.8380995166391], [-84.38792201558502, 33.83791213930183], [-84.38787201812704, 33.837852136437306], [-84.38749233203127, 33.8373544448718], [-84.38716236437176, 33.83683265410492], [-84.3871223692849, 33.836762651574716], [-84.38695578495064, 33.83642841346449], [-84.38665908517399, 33.8361625735925], [-84.38613178011597, 33.83558319929172], [-84.38567666530328, 33.83496266624446], [-84.38529831610445, 33.83430721497895], [-84.38500053560486, 33.83362343704312], [-84.38478631642022, 33.832918208695006], [-84.38465781067238, 33.83219862173549], [-84.38463782761801, 33.83202862028395], [-84.38463336660939, 33.831989583663294], [-84.38461338458076, 33.831809582206965], [-84.3845763159305, 33.83113969357771], [-84.38457633212668, 33.83097969351297], [-84.38459423775748, 33.83051489213789], [-84.38460425084348, 33.83038489277934], [-84.38464756522765, 33.82999079776918], [-84.38465757217136, 33.82992079843174], [-84.38483359385013, 33.82909691938607], [-84.3848536003661, 33.82902692071246], [-84.38518179441071, 33.82813643583942], [-84.38523180336041, 33.82802643905345], [-84.38543406831353, 33.827631430185434], [-84.3850224279913, 33.827062972621036], [-84.38495243499949, 33.82695296829568], [-84.38471135097409, 33.82652531991632], [-84.38470160079294, 33.82652196391858], [-84.3839413716701, 33.826183262339406], [-84.38322506535081, 33.825783400959736], [-84.38255972181881, 33.825326310035976], [-84.38195187984071, 33.82481648227243], [-84.381407512693, 33.82425892863751], [-84.38093196946258, 33.82365912908642], [-84.3805299224977, 33.82302297867562], [-84.38020532152512, 33.8223567296001], [-84.37996135488315, 33.821666929724394], [-84.3798004182495, 33.820960358212126], [-84.379724091169, 33.820243958888184], [-84.37973312160925, 33.81952477198855], [-84.3798274186927, 33.81880986496945], [-84.3798774440333, 33.81854986830134], [-84.37995089501753, 33.81821770509975], [-84.37996089881403, 33.8181777057652], [-84.38002431156589, 33.81794358467343], [-84.38009433381167, 33.81770358931312], [-84.3801172879322, 33.817626742601206], [-84.38019788903823, 33.81736304209601], [-84.3803016728058, 33.816979979666115], [-84.38037484227137, 33.81673052006622], [-84.38042116212787, 33.816583886033946], [-84.38043811706423, 33.81652738803715], [-84.38059480161472, 33.816112621830094], [-84.38066503026337, 33.81585857595677], [-84.38096399985054, 33.81513537253841], [-84.3813525359945, 33.81444246627691], [-84.38149268101346, 33.814248745603635], [-84.38171042274003, 33.8139079256355], [-84.38211103815794, 33.81339159934373], [-84.38218981915125, 33.813298924943915], [-84.3822631812665, 33.813200528572665], [-84.38247935480946, 33.81293987536742], [-84.38250972781324, 33.81289914664904], [-84.38271974120482, 33.81262915883577], [-84.38301147042607, 33.81227728849166], [-84.38331148328844, 33.81193730522612], [-84.38353602828754, 33.81170355884302], [-84.38354926666972, 33.811386223915726], [-84.38355927872527, 33.811266224560896], [-84.38366958100973, 33.810513941902066], [-84.38370959938072, 33.81032394456627], [-84.3838939377753, 33.80964280681073], [-84.3841558629869, 33.80897961649492], [-84.38449294708413, 33.80834051663834], [-84.3849020661482, 33.80773142698162], [-84.38537942926055, 33.807157989170605], [-84.38592061365804, 33.80662551451985], [-84.38652060572893, 33.8061389348388], [-84.38717384746863, 33.8057027567751], [-84.38787428796488, 33.80532102009667], [-84.38861543943494, 33.804997260298265], [-84.38939043729683, 33.80473447587751], [-84.39019210371863, 33.80453510058284], [-84.39101301405933, 33.80440098088916], [-84.39138661239382, 33.80437063697798], [-84.39206706370005, 33.8038464401767], [-84.39715462462189, 33.79773830265328], [-84.39765792857868, 33.79719139810278], [-84.39819430849244, 33.79671090801999], [-84.39864123685382, 33.79698634302074], [-84.39913258695567, 33.797356461968306], [-84.39912078215691, 33.79716467969742], [-84.39913086401693, 33.79698507486309], [-84.39910265530392, 33.79682873882867], [-84.39905888792, 33.7961176748816], [-84.39906018200034, 33.796094621372], [-84.3995065072643, 33.795822697567964], [-84.40021702371267, 33.7954708790235], [-84.40096433684735, 33.795176972009976], [-84.40174169486146, 33.79494363177769], [-84.4025420747053, 33.794772966376], [-84.4033582454971, 33.794666517622154], [-84.40418283380475, 33.79462524718264], [-84.40500839021018, 33.79464952789183], [-84.40582745655794, 33.79473914038664], [-84.40663263328213, 33.794893275087055], [-84.40847249506236, 33.7953232412379], [-84.40956166875372, 33.79564431451602], [-84.41115758652553, 33.79621696135149], [-84.41132246615634, 33.7962719205751], [-84.41155487965112, 33.796352668042104], [-84.41249482020066, 33.796692642347715], [-84.41293355577953, 33.79686360041501], [-84.41391350002279, 33.79727357016429], [-84.41406091394052, 33.79733671620956], [-84.41536084306728, 33.7979066745374], [-84.41550838955689, 33.7979728878579], [-84.41746828762305, 33.79887282269914], [-84.41815165130907, 33.79922177020878], [-84.41879363163795, 33.79962176386558], [-84.41969057560834, 33.80023631215885], [-84.41998962042587, 33.80041939395439], [-84.42018919632895, 33.800545305113396], [-84.4205891856141, 33.80080528809061], [-84.42071147392096, 33.800886254701005], [-84.42114146386567, 33.801176235974474], [-84.42196761713232, 33.80181631634586], [-84.42204615984934, 33.80187303879721], [-84.4226684400453, 33.80236948650018], [-84.42284979668668, 33.802545985774216], [-84.42310349143303, 33.80275489817512], [-84.42313587927947, 33.80278260658378], [-84.42322013701936, 33.80278638093354], [-84.42413959347304, 33.80291090945074], [-84.42424958481034, 33.802930907864734], [-84.42463574998938, 33.80300887774643], [-84.42472574314762, 33.80302887616988], [-84.42533797019067, 33.803186667131804], [-84.42551855618441, 33.803229863213375], [-84.42623090611656, 33.80345839040593], [-84.42634089917864, 33.80349838738636], [-84.4266946052906, 33.80363496135898], [-84.42691459252963, 33.80372495469271], [-84.42755586982555, 33.80401577325441], [-84.42760039511987, 33.80403803543351], [-84.42838169720426, 33.804135140174004], [-84.42921189658355, 33.80430939522337], [-84.43001753786787, 33.80455098151782], [-84.43079080650254, 33.80485755577385], [-84.43152420171585, 33.80522614432819], [-84.43221060923854, 33.805653171962], [-84.4328433702867, 33.80613449655781], [-84.43341634614048, 33.806665449253586], [-84.43392397769263, 33.80724087970614], [-84.43436133938988, 33.8078552060254], [-84.43472418704327, 33.80850246889708], [-84.43482771654013, 33.808747441099996], [-84.43533979864274, 33.80865678164662], [-84.43619517961862, 33.808577962613256], [-84.43705570454748, 33.80857013822982], [-84.43791293901333, 33.80863338517664], [-84.43875848082978, 33.80876708352716], [-84.43958404233264, 33.80896992281995], [-84.44038153155414, 33.809239914894334], [-84.44114313148609, 33.809574413364025], [-84.44139788561081, 33.80971477424162], [-84.4415206913365, 33.80965545593548], [-84.44231790879678, 33.80935515177373], [-84.4431472409663, 33.80912324595909], [-84.44400029135413, 33.808962086332635], [-84.44486842352102, 33.80887330447799], [-84.44574284845548, 33.80885779921543], [-84.44661471348877, 33.80891572750927], [-84.44747519185168, 33.80904650288054], [-84.44816021999041, 33.809211405117395], [-84.44829526190759, 33.809278553198396]]]}, "properties": {"kind": "walkshed", "buffer_mi": 0.5}}, {"type": "Feature", "geometry": {"type": "Point", "coordinates": [-84.414774, 33.81354]}, "properties": {"kind": "stop", "name": "HOWELL MILL RD @ KIPLING DR", "mode": "bus"}}, {"type": "Feature", "geometry": {"type": "Point", "coordinates": [-84.429273, 33.847548]}, "properties": {"kind": "stop", "name": "NORTHSIDE PKY NW @ 3419", "mode": "bus"}}, {"type": "Feature", "geometry": {"type": "Point", "coordinates": [-84.427569, 33.841736]}, "properties": {"kind": "stop", "name": "HOWELL MILL RD @ 3193", "mode": "bus"}}, {"type": "Feature", "geometry": {"type": "Point", "coordinates": [-84.430477, 33.850193]}, "properties": {"kind": "stop", "name": "NORTHSIDE PKY NW @ 3487", "mode": "bus"}}, {"type": "Feature", "geometry": {"type": "Point", "coordinates": [-84.430214, 33.850212]}, "properties": {"kind": "stop", "name": "NORTHSIDE PKY NW @ 3487", "mode": "bus"}}, {"type": "Feature", "geometry": {"type": "Point", "coordinates": [-84.429376, 33.847368]}, "properties": {"kind": "stop", "name": "NORTHSIDE PKY NW @ 3330", "mode": "bus"}}, {"type": "Feature", "geometry": {"type": "Point", "coordinates": [-84.448485, 33.817778]}, "properties": {"kind": "stop", "name": "MARIETTA BLVD @ CORONET WAY", "mode": "bus"}}, {"type": "Feature", "geometry": {"type": "Point", "coordinates": [-84.451044, 33.819344]}, "properties": {"kind": "stop", "name": "MARIETTA BLVD NW @ MOORES MILL RD NW", "mode": "bus"}}, {"type": "Feature", "geometry": {"type": "Point", "coordinates": [-84.452113, 33.820737]}, "properties": {"kind": "stop", "name": "BOLTON RD NW @ MOORES MILL RD", "mode": "bus"}}, {"type": "Feature", "geometry": {"type": "Point", "coordinates": [-84.449893, 33.820318]}, "properties": {"kind": "stop", "name": "BOLTON RD NW @ CORONET WAY NW", "mode": "bus"}}, {"type": "Feature", "geometry": {"type": "Point", "coordinates": [-84.456238, 33.821359]}, "properties": {"kind": "stop", "name": "BOLTON RD NW@MARIETTA BLVD NW", "mode": "bus"}}, {"type": "Feature", "geometry": {"type": "Point", "coordinates": [-84.460947, 33.819939]}, "properties": {"kind": "stop", "name": "BOLTON RD NW@2356", "mode": "bus"}}, {"type": "Feature", "geometry": {"type": "Point", "coordinates": [-84.426961, 33.840385]}, "properties": {"kind": "stop", "name": "HOWELL MILL RD NW @ DOWNWOOD CIR NW", "mode": "bus"}}, {"type": "Feature", "geometry": {"type": "Point", "coordinates": [-84.42438, 33.839407]}, "properties": {"kind": "stop", "name": "HOWELL MILL RD NW @ WESTMINSTER CIR N", "mode": "bus"}}, {"type": "Feature", "geometry": {"type": "Point", "coordinates": [-84.446824, 33.816713]}, "properties": {"kind": "stop", "name": "MARIETTA BLVD NW @ CORONET WAY NW", "mode": "bus"}}, {"type": "Feature", "geometry": {"type": "Point", "coordinates": [-84.460182, 33.820168]}, "properties": {"kind": "stop", "name": "BOLTON RD NW@2353", "mode": "bus"}}, {"type": "Feature", "geometry": {"type": "Point", "coordinates": [-84.458544, 33.821052]}, "properties": {"kind": "stop", "name": "BOLTON RD@BARNETT DR", "mode": "bus"}}, {"type": "Feature", "geometry": {"type": "Point", "coordinates": [-84.45862, 33.821105]}, "properties": {"kind": "stop", "name": "BOLTON RD NW@BARNETT DR NW", "mode": "bus"}}, {"type": "Feature", "geometry": {"type": "Point", "coordinates": [-84.46274, 33.818648]}, "properties": {"kind": "stop", "name": "BOLTON RD NW @ MARIETTA RD NW", "mode": "bus"}}, {"type": "Feature", "geometry": {"type": "Point", "coordinates": [-84.416615, 33.825299]}, "properties": {"kind": "stop", "name": "HOWELL MILL RD @ PEACHTREE BATTLE AV", "mode": "bus"}}, {"type": "Feature", "geometry": {"type": "Point", "coordinates": [-84.420108, 33.837253]}, "properties": {"kind": "stop", "name": "HOWELL MILL RD NW@MOORES MILL RD NW", "mode": "bus"}}, {"type": "Feature", "geometry": {"type": "Point", "coordinates": [-84.447804, 33.820571]}, "properties": {"kind": "stop", "name": "DEFOORS FERRY RD@PINE GROVE", "mode": "bus"}}, {"type": "Feature", "geometry": {"type": "Point", "coordinates": [-84.455792, 33.821198]}, "properties": {"kind": "stop", "name": "BOLTON RD NW @ MARIETTA BLVD NW", "mode": "bus"}}, {"type": "Feature", "geometry": {"type": "Point", "coordinates": [-84.462604, 33.818407]}, "properties": {"kind": "stop", "name": "BOLTON RD@MARIETTA RD", "mode": "bus"}}, {"type": "Feature", "geometry": {"type": "Point", "coordinates": [-84.42981, 33.814512]}, "properties": {"kind": "stop", "name": "DEFOORS FERRY RD@HILLS AVE", "mode": "bus"}}, {"type": "Feature", "geometry": {"type": "Point", "coordinates": [-84.437893, 33.821459]}, "properties": {"kind": "stop", "name": "DEFOORS FERRY RD @ WESTOVER PLANTATION RD", "mode": "bus"}}, {"type": "Feature", "geometry": {"type": "Point", "coordinates": [-84.437911, 33.821371]}, "properties": {"kind": "stop", "name": "DEFOORS FERRY RD @ WESTOVER PLANTATION RD", "mode": "bus"}}, {"type": "Feature", "geometry": {"type": "Point", "coordinates": [-84.4298, 33.814476]}, "properties": {"kind": "stop", "name": "DEFOORS FERRY RD@HILLS AVE", "mode": "bus"}}, {"type": "Feature", "geometry": {"type": "Point", "coordinates": [-84.427416, 33.814057]}, "properties": {"kind": "stop", "name": "DEFOORS FERRY RD@BOHLER RD", "mode": "bus"}}, {"type": "Feature", "geometry": {"type": "Point", "coordinates": [-84.384879, 33.832359]}, "properties": {"kind": "stop", "name": "PEACHTREE RD NW@2820", "mode": "bus"}}, {"type": "Feature", "geometry": {"type": "Point", "coordinates": [-84.385536, 33.831551]}, "properties": {"kind": "stop", "name": "PEACHTREE RD NW@RUMSON RD", "mode": "bus"}}, {"type": "Feature", "geometry": {"type": "Point", "coordinates": [-84.387474, 33.829742]}, "properties": {"kind": "stop", "name": "PEACHTREE RD NW@ANDREWS DR NW", "mode": "bus"}}, {"type": "Feature", "geometry": {"type": "Point", "coordinates": [-84.387532, 33.82846]}, "properties": {"kind": "stop", "name": "PEACHTREE RD NW@WESLEY RD NW", "mode": "bus"}}, {"type": "Feature", "geometry": {"type": "Point", "coordinates": [-84.387764, 33.824795]}, "properties": {"kind": "stop", "name": "PEACHTREE RD NW@MUSCOGEE AVE NW", "mode": "bus"}}, {"type": "Feature", "geometry": {"type": "Point", "coordinates": [-84.387741, 33.823036]}, "properties": {"kind": "stop", "name": "PEACHTREE RD@LINDBERGH DR", "mode": "bus"}}, {"type": "Feature", "geometry": {"type": "Point", "coordinates": [-84.38805, 33.821506]}, "properties": {"kind": "stop", "name": "PEACHTREE RD NW @ TERRACE DR NE", "mode": "bus"}}, {"type": "Feature", "geometry": {"type": "Point", "coordinates": [-84.388664, 33.819984]}, "properties": {"kind": "stop", "name": "PEACHTREE RD@PEACHTREE BATTLE AVE", "mode": "bus"}}, {"type": "Feature", "geometry": {"type": "Point", "coordinates": [-84.38902, 33.818177]}, "properties": {"kind": "stop", "name": "PEACHTREE RD NW @ PEACHTREE HILLS AVE", "mode": "bus"}}, {"type": "Feature", "geometry": {"type": "Point", "coordinates": [-84.390526, 33.816357]}, "properties": {"kind": "stop", "name": "PEACHTREE RD @ PEACHTREE MEMORIAL DR", "mode": "bus"}}, {"type": "Feature", "geometry": {"type": "Point", "coordinates": [-84.390892, 33.816032]}, "properties": {"kind": "stop", "name": "PEACHTREE RD @ PEACHTREE MEMORIAL DR", "mode": "bus"}}, {"type": "Feature", "geometry": {"type": "Point", "coordinates": [-84.391896, 33.815001]}, "properties": {"kind": "stop", "name": "PEACHTREE RD NW @ BISCAYNE DR NW", "mode": "bus"}}, {"type": "Feature", "geometry": {"type": "Point", "coordinates": [-84.392509, 33.813778]}, "properties": {"kind": "stop", "name": "PEACHTREE RD NW @ COLONIAL HOMES DR NW", "mode": "bus"}}, {"type": "Feature", "geometry": {"type": "Point", "coordinates": [-84.391815, 33.814449]}, "properties": {"kind": "stop", "name": "PEACHTREE RD NW@BISCAYNE DR NW", "mode": "bus"}}, {"type": "Feature", "geometry": {"type": "Point", "coordinates": [-84.389916, 33.816537]}, "properties": {"kind": "stop", "name": "PEACHTREE RD @ PEACHTREE MEMORIAL DR", "mode": "bus"}}, {"type": "Feature", "geometry": {"type": "Point", "coordinates": [-84.388868, 33.817801]}, "properties": {"kind": "stop", "name": "PEACHTREE RD NW @ PEACHTREE HILLS AVE", "mode": "bus"}}, {"type": "Feature", "geometry": {"type": "Point", "coordinates": [-84.388374, 33.819576]}, "properties": {"kind": "stop", "name": "PEACHTREE RD NE @ PEACHTREE BATTLE AVE", "mode": "bus"}}, {"type": "Feature", "geometry": {"type": "Point", "coordinates": [-84.387527, 33.822285]}, "properties": {"kind": "stop", "name": "PEACHTREE RD NW@LINDBERGH DR NE", "mode": "bus"}}, {"type": "Feature", "geometry": {"type": "Point", "coordinates": [-84.387399, 33.825489]}, "properties": {"kind": "stop", "name": "PEACHTREE RD NW@LAKEVIEW AVE NE", "mode": "bus"}}, {"type": "Feature", "geometry": {"type": "Point", "coordinates": [-84.387375, 33.828384]}, "properties": {"kind": "stop", "name": "PEACHTREE RD NW@E WESLEY RD NE", "mode": "bus"}}, {"type": "Feature", "geometry": {"type": "Point", "coordinates": [-84.386565, 33.830227]}, "properties": {"kind": "stop", "name": "PEACHTREE RD NW@2765", "mode": "bus"}}, {"type": "Feature", "geometry": {"type": "Point", "coordinates": [-84.385811, 33.830853]}, "properties": {"kind": "stop", "name": "PEACHTREE RD NW@RUMSON RD NE", "mode": "bus"}}, {"type": "Feature", "geometry": {"type": "Point", "coordinates": [-84.387668, 33.825953]}, "properties": {"kind": "stop", "name": "PEACHTREE RD@2626", "mode": "bus"}}, {"type": "Feature", "geometry": {"type": "Point", "coordinates": [-84.387985, 33.821087]}, "properties": {"kind": "stop", "name": "PEACHTREE RD NW@TERRACE DR NE", "mode": "bus"}}, {"type": "Feature", "geometry": {"type": "Point", "coordinates": [-84.415863, 33.828861]}, "properties": {"kind": "stop", "name": "HOWELL MILL RD NW@WESLEY RD NW", "mode": "bus"}}, {"type": "Feature", "geometry": {"type": "Point", "coordinates": [-84.415514, 33.816295]}, "properties": {"kind": "stop", "name": "HOWELL MILL RD NW @ LONGWOOD DR NW", "mode": "bus"}}, {"type": "Feature", "geometry": {"type": "Point", "coordinates": [-84.416256, 33.818196]}, "properties": {"kind": "stop", "name": "HOWELL MILL RD NW @ WOODLEY DR NW", "mode": "bus"}}, {"type": "Feature", "geometry": {"type": "Point", "coordinates": [-84.416774, 33.819683]}, "properties": {"kind": "stop", "name": "HOWELL MILL RD NW@WELLESLEY DR NW", "mode": "bus"}}, {"type": "Feature", "geometry": {"type": "Point", "coordinates": [-84.4158, 33.8225]}, "properties": {"kind": "stop", "name": "HOWELL MILL RD NW @ WESLEY DR NW", "mode": "bus"}}, {"type": "Feature", "geometry": {"type": "Point", "coordinates": [-84.416441, 33.82495]}, "properties": {"kind": "stop", "name": "HOWELL MILL RD @ PEACHTREE BATTLE", "mode": "bus"}}, {"type": "Feature", "geometry": {"type": "Point", "coordinates": [-84.41581, 33.828542]}, "properties": {"kind": "stop", "name": "HOWELL MILL RD NW @ WESLEY RD NW", "mode": "bus"}}, {"type": "Feature", "geometry": {"type": "Point", "coordinates": [-84.425532, 33.812752]}, "properties": {"kind": "stop", "name": "DEFOORS FERRY RD NW @ GLENN AVE NW", "mode": "bus"}}, {"type": "Feature", "geometry": {"type": "Point", "coordinates": [-84.426369, 33.8116]}, "properties": {"kind": "stop", "name": "DEFOOR AVE NW @ COLLIER RD NW", "mode": "bus"}}, {"type": "Feature", "geometry": {"type": "Point", "coordinates": [-84.426911, 33.810012]}, "properties": {"kind": "stop", "name": "DEFOOR AVE NW@1990", "mode": "bus"}}, {"type": "Feature", "geometry": {"type": "Point", "coordinates": [-84.425015, 33.807678]}, "properties": {"kind": "stop", "name": "DEFOOR AVE NW@RHOMBOID ST NW", "mode": "bus"}}, {"type": "Feature", "geometry": {"type": "Point", "coordinates": [-84.424697, 33.805852]}, "properties": {"kind": "stop", "name": "DEFOOR AVE NW@MANTISSA ST NW", "mode": "bus"}}, {"type": "Feature", "geometry": {"type": "Point", "coordinates": [-84.422433, 33.804727]}, "properties": {"kind": "stop", "name": "DEFOOR AVE NW@CLAREMONT ST NW", "mode": "bus"}}, {"type": "Feature", "geometry": {"type": "Point", "coordinates": [-84.420025, 33.801936]}, "properties": {"kind": "stop", "name": "DEFOOR AVE NW@TAYLOR ST NW", "mode": "bus"}}, {"type": "Feature", "geometry": {"type": "Point", "coordinates": [-84.418936, 33.801194]}, "properties": {"kind": "stop", "name": "DEFOOR AVE NW@MARVIN ST NW", "mode": "bus"}}, {"type": "Feature", "geometry": {"type": "Point", "coordinates": [-84.41332, 33.80037]}, "properties": {"kind": "stop", "name": "BELLEMEADE AVE NW@BUCHANAN ST NW", "mode": "bus"}}, {"type": "Feature", "geometry": {"type": "Point", "coordinates": [-84.417163, 33.800488]}, "properties": {"kind": "stop", "name": "DEFOOR AVE NW@SPRINGER ST NW", "mode": "bus"}}, {"type": "Feature", "geometry": {"type": "Point", "coordinates": [-84.419013, 33.801328]}, "properties": {"kind": "stop", "name": "DEFOOR AVE NW@MARVIN ST NW", "mode": "bus"}}, {"type": "Feature", "geometry": {"type": "Point", "coordinates": [-84.420036, 33.802026]}, "properties": {"kind": "stop", "name": "DEFOOR AVE NW@TAYLOR ST NW", "mode": "bus"}}, {"type": "Feature", "geometry": {"type": "Point", "coordinates": [-84.421649, 33.80462]}, "properties": {"kind": "stop", "name": "DEFOOR AVE NW@HARPER ST NW", "mode": "bus"}}, {"type": "Feature", "geometry": {"type": "Point", "coordinates": [-84.42473, 33.806255]}, "properties": {"kind": "stop", "name": "DEFOOR AVE NW@MANTISSA ST NW", "mode": "bus"}}, {"type": "Feature", "geometry": {"type": "Point", "coordinates": [-84.426497, 33.809726]}, "properties": {"kind": "stop", "name": "DEFOOR AVE NW@1981", "mode": "bus"}}, {"type": "Feature", "geometry": {"type": "Point", "coordinates": [-84.426689, 33.810989]}, "properties": {"kind": "stop", "name": "DEFOOR AVE NW @ COLLIER RD NW", "mode": "bus"}}, {"type": "Feature", "geometry": {"type": "Point", "coordinates": [-84.425424, 33.812797]}, "properties": {"kind": "stop", "name": "DEFOORS FERRY RD @ GLENN AVE", "mode": "bus"}}, {"type": "Feature", "geometry": {"type": "Point", "coordinates": [-84.43706, 33.809388]}, "properties": {"kind": "stop", "name": "CHATTAHOOCHEE AVE@1495", "mode": "bus"}}, {"type": "Feature", "geometry": {"type": "Point", "coordinates": [-84.438541, 33.810288]}, "properties": {"kind": "stop", "name": "CHATTAHOOCHEE AVE NW@MARIETTA BLVD", "mode": "bus"}}, {"type": "Feature", "geometry": {"type": "Point", "coordinates": [-84.439287, 33.812825]}, "properties": {"kind": "stop", "name": "MARIETTA BLVD@2095", "mode": "bus"}}, {"type": "Feature", "geometry": {"type": "Point", "coordinates": [-84.440842, 33.814527]}, "properties": {"kind": "stop", "name": "MARIETTA BLVD @ BOLTON PL", "mode": "bus"}}, {"type": "Feature", "geometry": {"type": "Point", "coordinates": [-84.43792, 33.809796]}, "properties": {"kind": "stop", "name": "CHATTAHOOCHEE AVE NW@MARIETTA BLVD", "mode": "bus"}}, {"type": "Feature", "geometry": {"type": "Point", "coordinates": [-84.439754, 33.813256]}, "properties": {"kind": "stop", "name": "MARIETTA BLVD NW @ 2130", "mode": "bus"}}, {"type": "Feature", "geometry": {"type": "Point", "coordinates": [-84.416249, 33.800328]}, "properties": {"kind": "stop", "name": "DEFOOR AVE@HOWELL MILL RD", "mode": "bus"}}, {"type": "Feature", "geometry": {"type": "Point", "coordinates": [-84.424917, 33.807624]}, "properties": {"kind": "stop", "name": "DEFOOR AVE@RHOMBOID ST", "mode": "bus"}}, {"type": "Feature", "geometry": {"type": "Point", "coordinates": [-84.425816, 33.813674]}, "properties": {"kind": "stop", "name": "DEFOORS FERRY RD @ NOBLE CREEK DR", "mode": "bus"}}, {"type": "Feature", "geometry": {"type": "Point", "coordinates": [-84.392487, 33.81216]}, "properties": {"kind": "stop", "name": "PEACHTREE RD NW @ BENNETT ST NW", "mode": "bus"}}, {"type": "Feature", "geometry": {"type": "Point", "coordinates": [-84.392805, 33.810451]}, "properties": {"kind": "stop", "name": "PEACHTREE RD NW @ PEACHTREE VALLEY RD", "mode": "bus"}}, {"type": "Feature", "geometry": {"type": "Point", "coordinates": [-84.393872, 33.807977]}, "properties": {"kind": "stop", "name": "PEACHTREE RD NW @ BRIGHTON RD", "mode": "bus"}}, {"type": "Feature", "geometry": {"type": "Point", "coordinates": [-84.393934, 33.806859]}, "properties": {"kind": "stop", "name": "PEACHTREE RD NW @ COLLIER RD NW", "mode": "bus"}}, {"type": "Feature", "geometry": {"type": "Point", "coordinates": [-84.393725, 33.804908]}, "properties": {"kind": "stop", "name": "PEACHTREE RD NW @ PALISADES RD NE", "mode": "bus"}}, {"type": "Feature", "geometry": {"type": "Point", "coordinates": [-84.393143, 33.802605]}, "properties": {"kind": "stop", "name": "PEACHTREE ST NE @ 26TH ST NW", "mode": "bus"}}, {"type": "Feature", "geometry": {"type": "Point", "coordinates": [-84.393291, 33.804575]}, "properties": {"kind": "stop", "name": "PEACHTREE RD @ PALISADES RD", "mode": "bus"}}, {"type": "Feature", "geometry": {"type": "Point", "coordinates": [-84.393818, 33.806571]}, "properties": {"kind": "stop", "name": "PEACHTREE RD NW@COLLIER RD NW", "mode": "bus"}}, {"type": "Feature", "geometry": {"type": "Point", "coordinates": [-84.393374, 33.808643]}, "properties": {"kind": "stop", "name": "PEACHTREE RD NW @ BRIGHTON RD NE", "mode": "bus"}}, {"type": "Feature", "geometry": {"type": "Point", "coordinates": [-84.392823, 33.809901]}, "properties": {"kind": "stop", "name": "PEACHTREE RD NW @ BROOKWOOD VALLEY CIR NE", "mode": "bus"}}, {"type": "Feature", "geometry": {"type": "Point", "coordinates": [-84.392485, 33.810714]}, "properties": {"kind": "stop", "name": "PEACHTREE RD NW @ PEACHTREE VALLEY RD", "mode": "bus"}}, {"type": "Feature", "geometry": {"type": "Point", "coordinates": [-84.392128, 33.81205]}, "properties": {"kind": "stop", "name": "PEACHTREE RD NW@PEACHTREE PARK DR N", "mode": "bus"}}, {"type": "Feature", "geometry": {"type": "Point", "coordinates": [-84.411267, 33.800296]}, "properties": {"kind": "stop", "name": "BELLEMEADE AVE NW@TALLULAH ST NW", "mode": "bus"}}, {"type": "Feature", "geometry": {"type": "Point", "coordinates": [-84.4131, 33.80045]}, "properties": {"kind": "stop", "name": "BELLEMEADE AVE NW@BUCHANAN ST NW", "mode": "bus"}}, {"type": "Feature", "geometry": {"type": "Point", "coordinates": [-84.415734, 33.801059]}, "properties": {"kind": "stop", "name": "HOWELL MILL RD NW @ BELLEMEADE AVE NW", "mode": "bus"}}, {"type": "Feature", "geometry": {"type": "Point", "coordinates": [-84.415643, 33.801454]}, "properties": {"kind": "stop", "name": "HOWELL MILL RD NW @ WHITE ST NW", "mode": "bus"}}, {"type": "Feature", "geometry": {"type": "Point", "coordinates": [-84.41613, 33.798867]}, "properties": {"kind": "stop", "name": "HOWELL MILL RD NW @ VERNER ST NW", "mode": "bus"}}, {"type": "Feature", "geometry": {"type": "Point", "coordinates": [-84.414422, 33.803003]}, "properties": {"kind": "stop", "name": "HOWELL MILL RD NW @ 1775", "mode": "bus"}}, {"type": "Feature", "geometry": {"type": "Point", "coordinates": [-84.412635, 33.80773]}, "properties": {"kind": "stop", "name": "HOWELL MILL RD NW@ CHANNING DR", "mode": "bus"}}, {"type": "Feature", "geometry": {"type": "Point", "coordinates": [-84.412703, 33.810212]}, "properties": {"kind": "stop", "name": "HOWELL MILL RD NW @ COLLIER RD NW", "mode": "bus"}}, {"type": "Feature", "geometry": {"type": "Point", "coordinates": [-84.414141, 33.812502]}, "properties": {"kind": "stop", "name": "HOWELL MILL RD NW@SPRING LAKE PL NW", "mode": "bus"}}, {"type": "Feature", "geometry": {"type": "Point", "coordinates": [-84.407811, 33.797148]}, "properties": {"kind": "stop", "name": "NORTHSIDE DR NW@NORTHSIDE CIR NW", "mode": "bus"}}, {"type": "Feature", "geometry": {"type": "Point", "coordinates": [-84.40851, 33.80035]}, "properties": {"kind": "stop", "name": "BELLEMEADE AVE @ NORTHSIDE DR NW", "mode": "bus"}}, {"type": "Feature", "geometry": {"type": "Point", "coordinates": [-84.41111, 33.800419]}, "properties": {"kind": "stop", "name": "BELLEMEADE AVE NW@COMMERCE DR NW", "mode": "bus"}}, {"type": "Feature", "geometry": {"type": "Point", "coordinates": [-84.415857, 33.800498]}, "properties": {"kind": "stop", "name": "BELLEMEADE AVE NW@HOWELL MILL RD NW", "mode": "bus"}}, {"type": "Feature", "geometry": {"type": "Point", "coordinates": [-84.412922, 33.809113]}, "properties": {"kind": "stop", "name": "HOWELL MILL RD NW @ COLLIER RD NW", "mode": "bus"}}, {"type": "Feature", "geometry": {"type": "Point", "coordinates": [-84.412767, 33.807095]}, "properties": {"kind": "stop", "name": "HOWELL MILL RD NW@BECK ST NW", "mode": "bus"}}, {"type": "Feature", "geometry": {"type": "Point", "coordinates": [-84.414102, 33.803863]}, "properties": {"kind": "stop", "name": "HOWELL MILL RD NW @ SPRING GROVE AVE", "mode": "bus"}}, {"type": "Feature", "geometry": {"type": "Point", "coordinates": [-84.415081, 33.802241]}, "properties": {"kind": "stop", "name": "HOWELL MILL RD NW @ RIDGEWAY AVE NW", "mode": "bus"}}, {"type": "Feature", "geometry": {"type": "Point", "coordinates": [-84.408053, 33.800217]}, "properties": {"kind": "stop", "name": "BELLEMEADE AVE @ NORTHSIDE DR", "mode": "bus"}}, {"type": "Feature", "geometry": {"type": "Point", "coordinates": [-84.418038, 33.832539]}, "properties": {"kind": "stop", "name": "HOWELL MILL RD@NAWENCH DR", "mode": "bus"}}, {"type": "Feature", "geometry": {"type": "Point", "coordinates": [-84.42743, 33.841069]}, "properties": {"kind": "stop", "name": "HOWELL MILL RD @ DOWNWOOD CIR NW", "mode": "bus"}}, {"type": "Feature", "geometry": {"type": "Point", "coordinates": [-84.420355, 33.837435]}, "properties": {"kind": "stop", "name": "HOWELL MILL RD @ MOORES MILL RD", "mode": "bus"}}, {"type": "Feature", "geometry": {"type": "Point", "coordinates": [-84.407945, 33.79628]}, "properties": {"kind": "stop", "name": "NORTHSIDE DR NW @ DEERING RD NW", "mode": "bus"}}, {"type": "Feature", "geometry": {"type": "Point", "coordinates": [-84.407749, 33.796101]}, "properties": {"kind": "stop", "name": "NORTHSIDE DR@DEERING RD", "mode": "bus"}}, {"type": "Feature", "geometry": {"type": "Point", "coordinates": [-84.447826, 33.820679]}, "properties": {"kind": "stop", "name": "DEFOORS FERRY RD @ 2788", "mode": "bus"}}, {"type": "Feature", "geometry": {"type": "Point", "coordinates": [-84.438824, 33.810494]}, "properties": {"kind": "stop", "name": "MARIETTA BLVD @ CHATTAHOOCHEE AVE", "mode": "bus"}}, {"type": "Feature", "geometry": {"type": "Point", "coordinates": [-84.438693, 33.810288]}, "properties": {"kind": "stop", "name": "MARIETTA BLVD @ CHATTAHOOCHEE AVE", "mode": "bus"}}, {"type": "Feature", "geometry": {"type": "Point", "coordinates": [-84.417916, 33.832451]}, "properties": {"kind": "stop", "name": "HOWELL MILL RD NW @ NAWENCH DR NW", "mode": "bus"}}, {"type": "Feature", "geometry": {"type": "Point", "coordinates": [-84.407489, 33.828456]}, "properties": {"kind": "stop", "name": "NORTHSIDE DR NW @ W WESLEY RD NW", "mode": "bus"}}, {"type": "Feature", "geometry": {"type": "Point", "coordinates": [-84.407355, 33.83476]}, "properties": {"kind": "stop", "name": "NORTHSIDE DR NW @ ARDEN RD NW", "mode": "bus"}}, {"type": "Feature", "geometry": {"type": "Point", "coordinates": [-84.407395, 33.832108]}, "properties": {"kind": "stop", "name": "NORTHSIDE DR NW @ KINGSWOOD LN NW", "mode": "bus"}}, {"type": "Feature", "geometry": {"type": "Point", "coordinates": [-84.416902, 33.818731]}, "properties": {"kind": "stop", "name": "HOWELL MILL RD NW @ NORTHCLIFFE DR", "mode": "bus"}}, {"type": "Feature", "geometry": {"type": "Point", "coordinates": [-84.415483, 33.815857]}, "properties": {"kind": "stop", "name": "HOWELL MILL RD NW @ GLENBROOK DR NW", "mode": "bus"}}, {"type": "Feature", "geometry": {"type": "Point", "coordinates": [-84.431903, 33.817329]}, "properties": {"kind": "stop", "name": "DEFOORS FERRY RD @ GLENDEVEN CT", "mode": "bus"}}, {"type": "Feature", "geometry": {"type": "Point", "coordinates": [-84.432132, 33.817535]}, "properties": {"kind": "stop", "name": "DEFOORS FERRY RD @ GLENDEVEN CT", "mode": "bus"}}, {"type": "Feature", "geometry": {"type": "Point", "coordinates": [-84.42845, 33.843702]}, "properties": {"kind": "stop", "name": "HOWELL MILL RD NW @ 3280", "mode": "bus"}}, {"type": "Feature", "geometry": {"type": "Point", "coordinates": [-84.428304, 33.843735]}, "properties": {"kind": "stop", "name": "HOWELL MILL RD NW @ 3280", "mode": "bus"}}, {"type": "Feature", "geometry": {"type": "Point", "coordinates": [-84.444107, 33.821757]}, "properties": {"kind": "stop", "name": "DEFOORS FERRY RD @ WARREN CT", "mode": "bus"}}, {"type": "Feature", "geometry": {"type": "Point", "coordinates": [-84.444281, 33.821962]}, "properties": {"kind": "stop", "name": "DEFOORS FERRY RD @ WARREN CT", "mode": "bus"}}, {"type": "Feature", "geometry": {"type": "Point", "coordinates": [-84.415883, 33.822955]}, "properties": {"kind": "stop", "name": "HOWELL MILL RD NW @ WESLEY DR NW", "mode": "bus"}}, {"type": "Feature", "geometry": {"type": "Point", "coordinates": [-84.436064, 33.820395]}, "properties": {"kind": "stop", "name": "DEFOORS FERRY RD @ HYDE MANOR DR", "mode": "bus"}}, {"type": "Feature", "geometry": {"type": "Point", "coordinates": [-84.435149, 33.820137]}, "properties": {"kind": "stop", "name": "DEFOORS FERRY RD @ HYDE MANOR DR", "mode": "bus"}}, {"type": "Feature", "geometry": {"type": "Point", "coordinates": [-84.425116, 33.844338]}, "properties": {"kind": "stop", "name": "NORTHSIDE PKWY @ 3295", "mode": "bus"}}, {"type": "Feature", "geometry": {"type": "Point", "coordinates": [-84.42103, 33.841571]}, "properties": {"kind": "stop", "name": "NORTHSIDE PKWY @ 3160", "mode": "bus"}}, {"type": "Feature", "geometry": {"type": "Point", "coordinates": [-84.412046, 33.824259]}, "properties": {"kind": "stop", "name": "PEACHTREE BATTLE AVE @ WOODWARD WAY", "mode": "bus"}}, {"type": "Feature", "geometry": {"type": "Point", "coordinates": [-84.408305, 33.8241]}, "properties": {"kind": "stop", "name": "PEACHTREE BATTLE AVE @ NORTHSIDE DR", "mode": "bus"}}, {"type": "Feature", "geometry": {"type": "Point", "coordinates": [-84.407497, 33.825977]}, "properties": {"kind": "stop", "name": "NORTHSIDE DR @ WESTOVER DR", "mode": "bus"}}, {"type": "Feature", "geometry": {"type": "Point", "coordinates": [-84.417126, 33.839972]}, "properties": {"kind": "stop", "name": "NORTHSIDE PKWY @ MOORES MILL RD", "mode": "bus"}}, {"type": "Feature", "geometry": {"type": "Point", "coordinates": [-84.449011, 33.820248]}, "properties": {"kind": "stop", "name": "DEFOORS FERRY RD @ CORONET WAY", "mode": "bus"}}, {"type": "Feature", "geometry": {"type": "Point", "coordinates": [-84.385611, 33.80698]}, "properties": {"kind": "stop", "name": "CLAYTON DR NE @ ARMOUR DR NE", "mode": "bus"}}, {"type": "Feature", "geometry": {"type": "Point", "coordinates": [-84.443486, 33.815322]}, "properties": {"kind": "stop", "name": "MARIETTA BLVD @ 2210", "mode": "bus"}}, {"type": "Feature", "geometry": {"type": "Point", "coordinates": [-84.410287, 33.839928]}, "properties": {"kind": "stop", "name": "NORTHSIDE PKWY @ 2334", "mode": "bus"}}, {"type": "Feature", "geometry": {"type": "Point", "coordinates": [-84.445822, 33.816339]}, "properties": {"kind": "stop", "name": "MARIETTA BLVD @ BOLTON DR", "mode": "bus"}}, {"type": "Feature", "geometry": {"type": "Point", "coordinates": [-84.424384, 33.839361]}, "properties": {"kind": "stop", "name": "HOWELL MILL RD @ HOWELL MILL PLANTATION", "mode": "bus"}}, {"type": "Feature", "geometry": {"type": "Point", "coordinates": [-84.44766, 33.818389]}, "properties": {"kind": "stop", "name": "CORONET WAY @ PINE GROVE DR", "mode": "bus"}}, {"type": "Feature", "geometry": {"type": "Point", "coordinates": [-84.419276, 33.84046]}, "properties": {"kind": "stop", "name": "NORTHSIDE PKY@RILMAN RD", "mode": "bus"}}], "properties": {"coverage_pct": 87.5, "rail_coverage_pct": 0.0, "stop_count": 153, "rail_stop_count": 0, "bus_stop_count": 153, "transit_index": 29, "weights": {"rail": 2.0, "bus": 1.0}}}